{"type":"FeatureCollection","features":[{"type":"Feature","geometry":{"type":"Polygon","coordinates":[[[-0.94525,54.58271],[-0.94951,54.57564],[-0.95171,54.565],[-0.94959,54.54708],[-0.94946,54.51142],[-0.94448,54.50875],[-0.9395,54.50768],[-0.92955,54.50593],[-0.91435,54.49826],[-0.90847,54.49701],[-0.90254,54.49665],[-0.89695,54.49789],[-0.8868,54.50075],[-0.87041,54.50299],[-0.86554,54.50266],[-0.86067,54.50312],[-0.85093,54.50564],[-0.81436,54.50653],[-0.81992,54.51492],[-0.81689,54.52489],[-0.81016,54.54643],[-0.80262,54.54842],[-0.793438,54.550793],[-0.790061,54.549091],[-0.787694,54.548635],[-0.787044,54.550714],[-0.779623,54.550485],[-0.777999,54.550845],[-0.77428,54.55072],[-0.77329,54.55202],[-0.77554,54.55484],[-0.77488,54.55706],[-0.78323,54.5598],[-0.78951,54.56115],[-0.79304,54.56055],[-0.79687,54.55906],[-0.80069,54.55995],[-0.80844,54.55916],[-0.81241,54.55966],[-0.81638,54.56106],[-0.82035,54.56171],[-0.82432,54.56116],[-0.82844,54.56516],[-0.83393,54.56835],[-0.84732,54.57156],[-0.85882,54.57282],[-0.86964,54.57169],[-0.88577,54.57404],[-0.89521,54.57231],[-0.89757,54.57305],[-0.89925,54.57558],[-0.90483,54.57556],[-0.9089,54.57818],[-0.90886,54.58141],[-0.91504,54.58512],[-0.92362,54.58749],[-0.93289,54.58926],[-0.93886,54.58855],[-0.94081,54.58722],[-0.94525,54.58271]]]},"properties":{"code":"A81053","name":"WOODSIDE SURGERY","icb":"QHM"}}]}