{"type":"FeatureCollection","features":[{"type":"Feature","geometry":{"type":"Polygon","coordinates":[[[-1.318202,54.551374],[-1.316801,54.552013],[-1.311711,54.554334],[-1.31132,54.55425],[-1.310098,54.554516],[-1.30875,54.55464],[-1.306293,54.555354],[-1.30317,54.55604],[-1.30296,54.556243],[-1.30082,54.55629],[-1.29579,54.55629],[-1.294823,54.556492],[-1.29381,54.55659],[-1.29218,54.55708],[-1.291219,54.557485],[-1.29021,54.55773],[-1.289539,54.55807],[-1.28883,54.55828],[-1.287675,54.558772],[-1.28695,54.55882],[-1.286176,54.559219],[-1.28418,54.559731],[-1.28351,54.55982],[-1.279843,54.560665],[-1.27725,54.56087],[-1.275034,54.5618],[-1.27424,54.56196],[-1.27338,54.56231],[-1.272848,54.562643],[-1.270755,54.56291],[-1.26858,54.56291],[-1.26617,54.5635],[-1.26617,54.56529],[-1.2672,54.56748],[-1.26763,54.567417],[-1.267937,54.567665],[-1.26781,54.56778],[-1.26789,54.56809],[-1.269167,54.57102],[-1.26969,54.57246],[-1.27085,54.57488],[-1.27112,54.575004],[-1.27244,54.57634],[-1.27527,54.57739],[-1.279331,54.578385],[-1.27957,54.578335],[-1.289311,54.580522],[-1.290878,54.58093],[-1.295846,54.583242],[-1.299939,54.586536],[-1.300054,54.586568],[-1.301944,54.591988],[-1.30197,54.59231],[-1.302221,54.593057],[-1.30231,54.59375],[-1.303081,54.595393],[-1.30351,54.59648],[-1.303814,54.596556],[-1.3042,54.59718],[-1.30583,54.59897],[-1.307032,54.599912],[-1.308337,54.60101],[-1.308342,54.601066],[-1.308422,54.600776],[-1.31038,54.60061],[-1.311223,54.600273],[-1.315227,54.599539],[-1.31553,54.59952],[-1.315696,54.599452],[-1.342248,54.594576],[-1.3425,54.594632],[-1.342735,54.594487],[-1.343101,54.59442],[-1.343282,54.594437],[-1.34372,54.59462],[-1.341985,54.593164],[-1.342131,54.592943],[-1.34488,54.59256],[-1.346487,54.591947],[-1.355335,54.590044],[-1.35587,54.59002],[-1.35947,54.58922],[-1.36145,54.58718],[-1.362219,54.584805],[-1.363378,54.582358],[-1.363344,54.582316],[-1.369055,54.573621],[-1.37029,54.57321],[-1.37372,54.57132],[-1.37381,54.56957],[-1.373686,54.569186],[-1.37389,54.56903],[-1.37355,54.567576],[-1.37329,54.56515],[-1.371113,54.561752],[-1.370979,54.561713],[-1.369256,54.558981],[-1.36891,54.55823],[-1.368479,54.557749],[-1.365967,54.553766],[-1.36591,54.5528],[-1.364635,54.552751],[-1.349367,54.549356],[-1.34924,54.549272],[-1.348715,54.549221],[-1.347449,54.548914],[-1.347386,54.54884],[-1.34274,54.54797],[-1.33638,54.54713],[-1.33183,54.54688],[-1.32789,54.54733],[-1.327806,54.547372],[-1.327489,54.54736],[-1.32729,54.54723],[-1.318202,54.551374]]]},"properties":{"code":"A81006","name":"TENNANT STREET MEDICAL PRACTICE","icb":"QHM"}}]}