{"type":"FeatureCollection","features":[{"type":"Feature","geometry":{"type":"Polygon","coordinates":[[[-1.359113,54.592834],[-1.367994,54.593718],[-1.37466,54.57122],[-1.36986,54.56002],[-1.36402,54.5543],[-1.33598,54.54666],[-1.330633,54.547183],[-1.32566,54.548729],[-1.31767,54.55315],[-1.31166,54.55902],[-1.31218,54.56609],[-1.305448,54.566597],[-1.299599,54.565624],[-1.29728,54.565238],[-1.295287,54.56504],[-1.290959,54.564996],[-1.283279,54.565899],[-1.27888,54.57644],[-1.29604,54.58161],[-1.30909,54.60031],[-1.317186,54.601115],[-1.334768,54.598417],[-1.341895,54.598182],[-1.359113,54.592834]]]},"properties":{"code":"A81002","name":"QUEENS PARK MEDICAL CENTRE","icb":"QHM"}}]}