{"type":"FeatureCollection","features":[{"type":"Feature","geometry":{"type":"Polygon","coordinates":[[[-1.2436,54.57773],[-1.25375,54.57457],[-1.25604,54.56695],[-1.26657,54.56207],[-1.2699,54.5556],[-1.25785,54.56415],[-1.27038,54.5533],[-1.27654,54.54209],[-1.26691,54.52742],[-1.25831,54.51314],[-1.17346,54.51801],[-1.16397,54.52377],[-1.16169,54.53193],[-1.20407,54.57487],[-1.22083,54.57136],[-1.22485,54.57518],[-1.23176,54.57761],[-1.23768,54.57814],[-1.2436,54.57773]]]},"properties":{"code":"A81016","name":"PARK SURGERY","icb":"QHM"}}]}