{"type":"FeatureCollection","features":[{"type":"Feature","geometry":{"type":"Polygon","coordinates":[[[-1.29626,54.62981],[-1.19205,54.6351],[-1.18534,54.63283],[-1.16369,54.63187],[-1.16733,54.642],[-1.16538,54.64627],[-1.16509,54.64811],[-1.1696,54.65074],[-1.1794,54.65625],[-1.18749,54.66494],[-1.19885,54.68072],[-1.19995,54.69005],[-1.18806,54.69363],[-1.19092,54.69502],[-1.19356,54.69663],[-1.1961,54.69885],[-1.19122,54.69992],[-1.18763,54.6959],[-1.18142,54.69314],[-1.17812,54.69416],[-1.17427,54.69699],[-1.21802,54.71305],[-1.24263,54.72415],[-1.26897,54.72395],[-1.32901,54.71889],[-1.32195,54.71418],[-1.31636,54.70231],[-1.30733,54.69162],[-1.29967,54.67351],[-1.30437,54.65936],[-1.30038,54.64575],[-1.30098,54.64178],[-1.29986,54.63423],[-1.29888,54.63137],[-1.29801,54.63115],[-1.298212,54.631073],[-1.297511,54.630185],[-1.29639,54.63001],[-1.29626,54.62981]]]},"properties":{"code":"A81007","name":"BANKHOUSE SURGERY","icb":"QHM"}}]}