{"type":"FeatureCollection","features":[{"type":"Feature","geometry":{"type":"Polygon","coordinates":[[[-0.93761,54.59027],[-0.94384,54.59076],[-0.95143,54.59007],[-0.96491,54.585],[-1.01666,54.59743],[-1.03134,54.59435],[-1.0175,54.56714],[-1.02981,54.56189],[-1.02975,54.55106],[-1.0007,54.53005],[-0.93744,54.50554],[-0.93086,54.52265],[-0.938,54.54056],[-0.92292,54.56149],[-0.91537,54.56174],[-0.90954,54.55861],[-0.90388,54.56101],[-0.93761,54.59027]]]},"properties":{"code":"A81022","name":"HILLSIDE PRACTICE","icb":"QHM"}}]}