{"type":"FeatureCollection","features":[{"type":"Feature","geometry":{"type":"Polygon","coordinates":[[[-1.17451,54.5167],[-1.16077,54.52367],[-1.160436,54.531902],[-1.160193,54.532031],[-1.14979,54.53164],[-1.141857,54.550381],[-1.112398,54.569452],[-1.087829,54.575706],[-1.08627,54.57564],[-1.0873,54.58082],[-1.09486,54.58102],[-1.107386,54.577411],[-1.129101,54.579106],[-1.13159,54.58042],[-1.14258,54.5844],[-1.1515,54.5844],[-1.156557,54.581292],[-1.156732,54.581256],[-1.16386,54.58181],[-1.164801,54.581343],[-1.164963,54.581316],[-1.17519,54.58221],[-1.175489,54.582141],[-1.17622,54.58221],[-1.176128,54.581899],[-1.1824,54.57982],[-1.18275,54.57385],[-1.181614,54.573192],[-1.181627,54.572995],[-1.186058,54.570814],[-1.187366,54.570651],[-1.19339,54.57087],[-1.20266,54.56928],[-1.21056,54.56748],[-1.208383,54.567733],[-1.208181,54.567341],[-1.225336,54.563298],[-1.26343,54.55853],[-1.2648,54.54977],[-1.25004,54.53642],[-1.24864,54.537383],[-1.248245,54.537364],[-1.23837,54.52786],[-1.230256,54.531188],[-1.230006,54.531187],[-1.21811,54.52606],[-1.203473,54.530414],[-1.203244,54.530399],[-1.17451,54.5167]]]},"properties":{"code":"A81021","name":"NORMANBY MEDICAL CENTRE","icb":"QHM"}}]}