{"type":"FeatureCollection","features":[{"type":"Feature","geometry":{"type":"Polygon","coordinates":[[[-1.267868,54.522464],[-1.265013,54.519888],[-1.255605,54.518416],[-1.245927,54.517781],[-1.244217,54.517669],[-1.24217,54.517798],[-1.238621,54.519256],[-1.235047,54.520398],[-1.231006,54.521314],[-1.229035,54.515666],[-1.226351,54.516524],[-1.224925,54.51698],[-1.222581,54.517128],[-1.216843,54.510585],[-1.210624,54.512423],[-1.206359,54.513786],[-1.207392,54.516749],[-1.205609,54.517481],[-1.204494,54.517838],[-1.205335,54.518897],[-1.205191,54.519567],[-1.205037,54.520279],[-1.205462,54.521499],[-1.200529,54.521175],[-1.196308,54.519797],[-1.195361,54.518606],[-1.191977,54.518384],[-1.187805,54.51808],[-1.185375,54.517568],[-1.184294,54.51679],[-1.183387,54.515648],[-1.181975,54.515119],[-1.176574,54.515755],[-1.175801,54.515119],[-1.175531,54.514696],[-1.175124,54.514118],[-1.17379,54.513886],[-1.173633,54.513436],[-1.172924,54.51314],[-1.171532,54.513049],[-1.16779,54.515788],[-1.170604,54.518107],[-1.17134,54.51905],[-1.167073,54.52124],[-1.161307,54.526153],[-1.161611,54.530749],[-1.162159,54.532319],[-1.163037,54.533692],[-1.164057,54.534426],[-1.165787,54.53592],[-1.17004,54.53861],[-1.17416,54.54379],[-1.176324,54.544496],[-1.178686,54.547739],[-1.180346,54.550927],[-1.182001,54.552603],[-1.182827,54.553347],[-1.183973,54.554112],[-1.187652,54.556759],[-1.189466,54.559333],[-1.191128,54.56351],[-1.192022,54.564528],[-1.193231,54.565031],[-1.19614,54.56609],[-1.198622,54.568603],[-1.200307,54.570121],[-1.201935,54.571818],[-1.203081,54.573609],[-1.203791,54.574501],[-1.205084,54.574261],[-1.208816,54.574412],[-1.212093,54.573805],[-1.215301,54.573211],[-1.22086,54.57286],[-1.22841,54.57763],[-1.222718,54.581046],[-1.227722,54.582676],[-1.228583,54.583779],[-1.226344,54.585942],[-1.227343,54.588194],[-1.231508,54.589426],[-1.236075,54.591884],[-1.242001,54.595418],[-1.242265,54.594399],[-1.238493,54.591146],[-1.2353,54.589649],[-1.233777,54.588936],[-1.231632,54.588135],[-1.229349,54.587281],[-1.228331,54.585328],[-1.236922,54.585674],[-1.248335,54.588602],[-1.255095,54.589044],[-1.257287,54.582635],[-1.259781,54.570283],[-1.260223,54.569627],[-1.260684,54.568278],[-1.262735,54.567226],[-1.26236,54.56524],[-1.261212,54.563258],[-1.262754,54.562909],[-1.265472,54.561975],[-1.267483,54.560767],[-1.268603,54.559814],[-1.268966,54.558411],[-1.270564,54.554862],[-1.27716,54.54021],[-1.279172,54.530914],[-1.274782,54.529271],[-1.271348,54.528673],[-1.26892,54.52825],[-1.26041,54.527393],[-1.260678,54.526154],[-1.267868,54.522464]]]},"properties":{"code":"A81064","name":"THE DISCOVERY PRACTICE","icb":"QHM"}}]}