{"type":"FeatureCollection","features":[{"type":"Feature","geometry":{"type":"Polygon","coordinates":[[[-1.27072,54.65636],[-1.242981,54.636409],[-1.215721,54.638285],[-1.18845,54.64089],[-1.184432,54.654812],[-1.189778,54.696239],[-1.18968,54.69613],[-1.18159,54.69297],[-1.17848,54.69395],[-1.17627,54.69505],[-1.17528,54.69684],[-1.17751,54.69914],[-1.17897,54.70004],[-1.18052,54.70114],[-1.19279,54.70385],[-1.196903,54.704532],[-1.19777,54.70551],[-1.25163,54.71934],[-1.27342,54.7112],[-1.288402,54.713674],[-1.289757,54.703642],[-1.303395,54.684801],[-1.291483,54.671361],[-1.29844,54.66859],[-1.28617,54.66488],[-1.27926,54.66025],[-1.27072,54.65636]]]},"properties":{"code":"A81011","name":"CHADWICK PRACTICE","icb":"QHM"}}]}