{"type":"FeatureCollection","features":[{"type":"Feature","geometry":{"type":"Polygon","coordinates":[[[-1.280412,54.52285],[-1.28207,54.51832],[-1.2612,54.51451],[-1.16009,54.50633],[-1.15906,54.51909],[-1.159991,54.53195],[-1.15794,54.53094],[-1.160314,54.536409],[-1.16084,54.54367],[-1.17429,54.56903],[-1.20257,54.58112],[-1.204593,54.581461],[-1.20369,54.58161],[-1.205648,54.581639],[-1.229191,54.585602],[-1.24832,54.59176],[-1.25587,54.59017],[-1.25896,54.58539],[-1.26137,54.57206],[-1.260623,54.572184],[-1.26102,54.57206],[-1.27853,54.5418],[-1.28059,54.52806],[-1.280412,54.52285]]]},"properties":{"code":"A81023","name":"THE ENDEAVOUR PRACTICE","icb":"QHM"}}]}