{"type":"FeatureCollection","features":[{"type":"Feature","geometry":{"type":"MultiPolygon","coordinates":[[[[-1.283342,54.507131],[-1.252781,54.53941],[-1.25587,54.56629],[-1.261695,54.563108],[-1.26686,54.56131],[-1.271317,54.552555],[-1.27613,54.54558],[-1.27853,54.5408],[-1.278192,54.534265],[-1.28077,54.53184],[-1.28128,54.52945],[-1.283342,54.507131]]],[[[-1.24866,54.5171],[-1.23837,54.51789],[-1.234215,54.520489],[-1.225973,54.522681],[-1.219441,54.522861],[-1.21159,54.52108],[-1.19751,54.52287],[-1.192169,54.526557],[-1.191846,54.526572],[-1.17554,54.51829],[-1.17004,54.51869],[-1.16249,54.52407],[-1.16077,54.53005],[-1.16146,54.53383],[-1.174297,54.54226],[-1.174219,54.54248],[-1.160779,54.546178],[-1.15116,54.54817],[-1.14155,54.55255],[-1.134317,54.558741],[-1.12198,54.5645],[-1.12198,54.56669],[-1.13468,54.57425],[-1.135018,54.574319],[-1.1412,54.58042],[-1.14464,54.58082],[-1.15185,54.57923],[-1.158102,54.577248],[-1.163132,54.577824],[-1.16695,54.57962],[-1.17176,54.58082],[-1.17588,54.58082],[-1.18069,54.58002],[-1.18483,54.579028],[-1.190258,54.578435],[-1.19305,54.57883],[-1.19888,54.57763],[-1.203419,54.574844],[-1.20815,54.57445],[-1.22051,54.57306],[-1.220148,54.572505],[-1.220647,54.572305],[-1.22781,54.57599],[-1.23545,54.57833],[-1.24317,54.57833],[-1.247475,54.576636],[-1.25433,54.57485],[-1.25605,54.57196],[-1.25656,54.56689],[-1.238537,54.560716],[-1.220291,54.572062],[-1.220082,54.572074],[-1.219816,54.571995],[-1.235969,54.560417],[-1.203925,54.5476],[-1.238203,54.559521],[-1.258385,54.526377],[-1.258707,54.526418],[-1.25896,54.52666],[-1.258919,54.52617],[-1.258782,54.526223],[-1.25846,54.526181],[-1.25313,54.52108],[-1.24866,54.5171]]]]},"properties":{"code":"A81049","name":"KINGS MEDICAL CENTRE","icb":"QHM"}}]}