{"type":"FeatureCollection","features":[{"type":"Feature","geometry":{"type":"Polygon","coordinates":[[[-1.19661,54.50691],[-1.18594,54.5148],[-1.186219,54.517879],[-1.185581,54.520475],[-1.185509,54.520549],[-1.18286,54.5218],[-1.182857,54.521839],[-1.182438,54.521954],[-1.1721,54.51749],[-1.16043,54.52626],[-1.16283,54.53343],[-1.17416,54.54339],[-1.1882,54.53951],[-1.202308,54.533599],[-1.202631,54.533633],[-1.21064,54.5406],[-1.216104,54.538256],[-1.21924,54.5379],[-1.2217,54.53734],[-1.227946,54.53382],[-1.233155,54.533127],[-1.23341,54.533208],[-1.23554,54.53661],[-1.24491,54.53564],[-1.245084,54.53567],[-1.247609,54.537032],[-1.247673,54.537113],[-1.24811,54.54365],[-1.2498,54.55176],[-1.26071,54.54996],[-1.259233,54.546914],[-1.259548,54.546728],[-1.27013,54.54836],[-1.275522,54.532467],[-1.278002,54.519475],[-1.286338,54.515551],[-1.29081,54.51358],[-1.29501,54.51092],[-1.248,54.516518],[-1.24377,54.5165],[-1.239921,54.515291],[-1.221608,54.511586],[-1.219275,54.511374],[-1.21873,54.51115],[-1.211499,54.510053],[-1.20351,54.50754],[-1.19661,54.50691]]]},"properties":{"code":"A81058","name":"COULBY MEDICAL PRACTICE","icb":"QHM"}}]}