{"type":"FeatureCollection","features":[{"type":"Feature","geometry":{"type":"Polygon","coordinates":[[[-1.339733,54.481455],[-1.330426,54.482499],[-1.3267,54.482917],[-1.306345,54.485199],[-1.293552,54.506424],[-1.281612,54.518183],[-1.283247,54.53524],[-1.271819,54.556473],[-1.268875,54.566349],[-1.272966,54.575581],[-1.284628,54.578482],[-1.294535,54.580683],[-1.301634,54.585132],[-1.303275,54.591204],[-1.312788,54.602649],[-1.344312,54.599123],[-1.380333,54.588911],[-1.374727,54.565801],[-1.366089,54.552958],[-1.35592,54.551562],[-1.363308,54.541199],[-1.36535,54.51789],[-1.390661,54.502779],[-1.375881,54.492074],[-1.369475,54.488059],[-1.359402,54.479245],[-1.339733,54.481455]]]},"properties":{"code":"A81629","name":"RIVERSIDE MEDICAL PRACTICE","icb":"QHM"}}]}