{"type":"FeatureCollection","features":[{"type":"Feature","geometry":{"type":"Polygon","coordinates":[[[-1.042801,54.55331],[-1.023781,54.561804],[-0.999734,54.567965],[-0.990073,54.56702],[-0.981859,54.569122],[-0.973967,54.570324],[-0.964928,54.575563],[-0.966028,54.578292],[-0.964751,54.585387],[-0.9716,54.58687],[-0.9771,54.58846],[-0.98946,54.59084],[-1.02242,54.60079],[-1.02782,54.60246],[-1.03271,54.60437],[-1.0437,54.61073],[-1.05022,54.61511],[-1.061051,54.619079],[-1.059126,54.588377],[-1.051852,54.573187],[-1.050673,54.572754],[-1.042801,54.55331]]]},"properties":{"code":"A81618","name":"HUNTCLIFF SURGERY","icb":"QHM"}}]}