{"type":"FeatureCollection","features":[{"type":"Feature","geometry":{"type":"Polygon","coordinates":[[[-1.352005,54.52935],[-1.281796,54.52935],[-1.269816,54.561583],[-1.267634,54.564435],[-1.267204,54.564598],[-1.267361,54.564791],[-1.267204,54.564996],[-1.267483,54.565143],[-1.267376,54.565394],[-1.277783,54.577658],[-1.277689,54.57783],[-1.275787,54.57843],[-1.25021,54.597031],[-1.281881,54.598578],[-1.28201,54.598895],[-1.271539,54.602599],[-1.28334,54.607546],[-1.290745,54.602111],[-1.290909,54.602066],[-1.301236,54.602164],[-1.297511,54.598832],[-1.297649,54.598619],[-1.305688,54.597309],[-1.305949,54.59738],[-1.308532,54.600735],[-1.333766,54.595589],[-1.334132,54.594364],[-1.334264,54.594272],[-1.349203,54.591075],[-1.349505,54.591164],[-1.349602,54.591362],[-1.350669,54.590471],[-1.351211,54.590298],[-1.35973,54.589223],[-1.362948,54.583379],[-1.364257,54.579119],[-1.371746,54.572858],[-1.371735,54.572676],[-1.372004,54.57246],[-1.372066,54.572215],[-1.381896,54.56987],[-1.401658,54.568031],[-1.409855,54.565693],[-1.402218,54.555368],[-1.399598,54.551334],[-1.395907,54.548198],[-1.388037,54.550216],[-1.366982,54.553101],[-1.361563,54.554117],[-1.350071,54.551619],[-1.333266,54.547512],[-1.333122,54.547376],[-1.332836,54.547407],[-1.332367,54.547292],[-1.332304,54.547041],[-1.332436,54.546978],[-1.352005,54.52935]]]},"properties":{"code":"A81634","name":"","icb":""}}]}