{"type":"FeatureCollection","features":[{"type":"Feature","geometry":{"type":"Polygon","coordinates":[[[-2.335975,54.395657],[-2.305772,54.422925],[-2.302154,54.444192],[-2.27727,54.449981],[-2.270745,54.457466],[-2.253401,54.461258],[-2.232807,54.466945],[-2.215811,54.472332],[-2.208603,54.48081],[-2.199496,54.488987],[-2.184397,54.487591],[-2.184391,54.494571],[-2.186794,54.497462],[-2.191257,54.500353],[-2.214861,54.516398],[-2.235203,54.532388],[-2.248442,54.550696],[-2.278113,54.560318],[-2.328915,54.573643],[-2.409289,54.540864],[-2.552257,54.509822],[-2.585598,54.476304],[-2.615428,54.436505],[-2.605819,54.430714],[-2.592773,54.427319],[-2.575088,54.421627],[-2.557755,54.414635],[-2.542474,54.405244],[-2.50866,54.400248],[-2.384748,54.402935],[-2.335975,54.395657]]]},"properties":{"code":"A82013","name":"UPPER EDEN MEDICAL PRACTICE","icb":"QHM"}}]}