{"type":"FeatureCollection","features":[{"type":"Feature","geometry":{"type":"Polygon","coordinates":[[[-3.261283,54.893996],[-3.265343,54.892208],[-3.270321,54.891912],[-3.273239,54.891912],[-3.277359,54.892011],[-3.280621,54.892307],[-3.288174,54.89211],[-3.288517,54.889246],[-3.285942,54.886284],[-3.284569,54.88352],[-3.281651,54.880557],[-3.280277,54.879076],[-3.279934,54.875619],[-3.281822,54.871471],[-3.283882,54.869791],[-3.285427,54.867717],[-3.285255,54.865247],[-3.283024,54.86337],[-3.281994,54.861987],[-3.280792,54.859912],[-3.280449,54.858726],[-3.279591,54.856849],[-3.279247,54.853588],[-3.275471,54.850426],[-3.271523,54.850525],[-3.268948,54.851513],[-3.264484,54.851513],[-3.260365,54.851711],[-3.257961,54.851414],[-3.255644,54.851612],[-3.253069,54.851068],[-3.251181,54.850376],[-3.249121,54.849734],[-3.246632,54.849536],[-3.244658,54.849141],[-3.242941,54.848993],[-3.24131,54.848993],[-3.239765,54.848103],[-3.235645,54.847955],[-3.231783,54.84835],[-3.228951,54.848449],[-3.227921,54.848202],[-3.225174,54.847411],[-3.223801,54.846868],[-3.219681,54.8441],[-3.217192,54.842964],[-3.215132,54.841086],[-3.214016,54.839949],[-3.213758,54.83896],[-3.212385,54.838367],[-3.211956,54.837378],[-3.212729,54.836291],[-3.211956,54.835154],[-3.211784,54.833869],[-3.212471,54.831842],[-3.212042,54.830557],[-3.209467,54.83026],[-3.207064,54.829518],[-3.205004,54.829222],[-3.200541,54.82764],[-3.197622,54.826898],[-3.193331,54.825959],[-3.190413,54.824772],[-3.185005,54.82314],[-3.183117,54.822745],[-3.181486,54.822497],[-3.175392,54.825563],[-3.174276,54.826255],[-3.17256,54.826898],[-3.171616,54.827689],[-3.169985,54.827887],[-3.168182,54.828381],[-3.166552,54.828975],[-3.16432,54.829469],[-3.161831,54.83021],[-3.159771,54.830952],[-3.157539,54.831249],[-3.149729,54.832534],[-3.147326,54.833276],[-3.145609,54.833671],[-3.142519,54.834511],[-3.139172,54.834709],[-3.135223,54.835055],[-3.132992,54.835302],[-3.129559,54.836588],[-3.12664,54.837477],[-3.124752,54.838565],[-3.12295,54.839504],[-3.122005,54.839899],[-3.120031,54.841234],[-3.117285,54.842469],[-3.115654,54.84331],[-3.115482,54.8441],[-3.114796,54.845089],[-3.112822,54.845929],[-3.111706,54.846275],[-3.109217,54.847461],[-3.106899,54.848301],[-3.104496,54.848894],[-3.100891,54.848943],[-3.099089,54.849042],[-3.09411,54.848696],[-3.090506,54.848301],[-3.087244,54.84835],[-3.084412,54.848103],[-3.081408,54.848894],[-3.079691,54.849141],[-3.077116,54.848795],[-3.067932,54.8484],[-3.066044,54.848103],[-3.064156,54.84751],[-3.062525,54.847066],[-3.060894,54.846423],[-3.057547,54.845929],[-3.055229,54.845879],[-3.052139,54.846127],[-3.050079,54.846769],[-3.048534,54.847313],[-3.047247,54.847313],[-3.045874,54.847906],[-3.044071,54.848054],[-3.043127,54.849092],[-3.041925,54.849635],[-3.041668,54.850426],[-3.040638,54.851315],[-3.03875,54.852205],[-3.038578,54.854107],[-3.037977,54.854576],[-3.037419,54.855565],[-3.037419,54.856034],[-3.035746,54.856602],[-3.033772,54.85759],[-3.033171,54.858529],[-3.031368,54.859863],[-3.031797,54.8609],[-3.032913,54.862135],[-3.033943,54.864358],[-3.034973,54.866927],[-3.039093,54.868507],[-3.04287,54.87068],[-3.045959,54.873249],[-3.048363,54.875619],[-3.047161,54.876804],[-3.048534,54.879273],[-3.048706,54.880557],[-3.050423,54.883223],[-3.049393,54.884211],[-3.043728,54.887074],[-3.042355,54.88895],[-3.040638,54.891616],[-3.038578,54.893689],[-3.03772,54.895491],[-3.037076,54.896577],[-3.037119,54.898008],[-3.03772,54.898724],[-3.037977,54.899341],[-3.038321,54.899686],[-3.038363,54.900377],[-3.036947,54.900525],[-3.036304,54.900525],[-3.034673,54.900698],[-3.034115,54.900969],[-3.032656,54.901117],[-3.031497,54.901389],[-3.028278,54.901142],[-3.027506,54.901216],[-3.026133,54.901241],[-3.024287,54.901142],[-3.021154,54.901068],[-3.020039,54.90087],[-3.015189,54.90087],[-3.013301,54.900624],[-3.011627,54.900624],[-3.010898,54.901586],[-3.010726,54.902154],[-3.010683,54.902573],[-3.009825,54.903091],[-3.009396,54.904202],[-3.00931,54.906299],[-3.009052,54.90694],[-3.008451,54.907755],[-3.007421,54.908445],[-3.006692,54.909013],[-3.006349,54.90958],[-3.005447,54.910444],[-3.005576,54.911455],[-3.004632,54.912245],[-3.004289,54.913453],[-3.004332,54.913774],[-3.00549,54.91444],[-3.006735,54.91481],[-3.00961,54.915575],[-3.011112,54.915698],[-3.01712,54.917474],[-3.021412,54.917375],[-3.023558,54.917967],[-3.025789,54.91851],[-3.029222,54.918905],[-3.031712,54.919102],[-3.033943,54.919447],[-3.037291,54.920089],[-3.039179,54.920532],[-3.04038,54.921124],[-3.044415,54.921815],[-3.045444,54.921914],[-3.047247,54.922555],[-3.050251,54.922555],[-3.052998,54.922407],[-3.055573,54.921864],[-3.058062,54.92147],[-3.062525,54.921371],[-3.066988,54.921174],[-3.06879,54.921272],[-3.073254,54.921914],[-3.075142,54.921914],[-3.080292,54.92221],[-3.088017,54.923591],[-3.09454,54.923196],[-3.100033,54.923985],[-3.107929,54.924281],[-3.115826,54.924676],[-3.121319,54.925465],[-3.126125,54.926057],[-3.131447,54.926155],[-3.137455,54.926649],[-3.142948,54.926747],[-3.149986,54.928424],[-3.153248,54.928917],[-3.157883,54.931087],[-3.159771,54.932863],[-3.162003,54.938188],[-3.171616,54.941343],[-3.176079,54.942527],[-3.184319,54.947654],[-3.193932,54.951006],[-3.207321,54.953766],[-3.221741,54.951991],[-3.233414,54.950414],[-3.240623,54.94509],[-3.252983,54.942527],[-3.268776,54.939569],[-3.284225,54.937005],[-3.292122,54.930101],[-3.299675,54.924774],[-3.300362,54.919447],[-3.300765,54.913735],[-3.295615,54.910578],[-3.291838,54.905643],[-3.276389,54.904064],[-3.268492,54.905643],[-3.264372,54.909986],[-3.259566,54.91413],[-3.2527,54.914525],[-3.233817,54.909591],[-3.24034,54.91038],[-3.249953,54.911762],[-3.254416,54.908604],[-3.253386,54.903077],[-3.256819,54.897747],[-3.261283,54.893996]]]},"properties":{"code":"A82029","name":"THE CROFT SURGERY","icb":"QHM"}}]}