{"type":"FeatureCollection","features":[{"type":"Feature","geometry":{"type":"Polygon","coordinates":[[[-3.495206,54.541322],[-3.439064,54.532438],[-3.433571,54.548571],[-3.411598,54.575843],[-3.417389,54.587636],[-3.39031,54.62457],[-3.42842,54.66311],[-3.467408,54.65081],[-3.482666,54.65457],[-3.524208,54.649008],[-3.540001,54.643446],[-3.542122,54.642438],[-3.54412,54.64225],[-3.55682,54.63808],[-3.560864,54.632936],[-3.601456,54.59892],[-3.572445,54.53682],[-3.540344,54.53204],[-3.498379,54.540843],[-3.49571,54.541],[-3.495206,54.541322]]]},"properties":{"code":"A82023","name":"DISTINGTON SURGERY","icb":"QHM"}}]}