{"type":"FeatureCollection","features":[{"type":"Feature","geometry":{"type":"Polygon","coordinates":[[[-3.35152,54.67979],[-3.330655,54.685963],[-3.28011,54.69288],[-3.278591,54.701295],[-3.27848,54.70139],[-3.26225,54.70618],[-3.206457,54.728116],[-3.1778,54.73671],[-3.183335,54.736817],[-3.183492,54.737131],[-3.18329,54.73721],[-3.16784,54.77332],[-3.168156,54.773413],[-3.168269,54.773556],[-3.16818,54.77376],[-3.169505,54.774134],[-3.169622,54.774275],[-3.15857,54.80227],[-3.18741,54.81968],[-3.21762,54.83313],[-3.238905,54.827991],[-3.255854,54.824475],[-3.256146,54.824555],[-3.27255,54.85132],[-3.303987,54.843448],[-3.304244,54.843486],[-3.32474,54.85843],[-3.41675,54.83866],[-3.43906,54.80247],[-3.429804,54.774203],[-3.429828,54.774123],[-3.46893,54.73533],[-3.42739,54.69864],[-3.426491,54.698417],[-3.426368,54.698253],[-3.42773,54.69606],[-3.423154,54.697539],[-3.422973,54.697544],[-3.35152,54.67979]]]},"properties":{"code":"A82055","name":"ASPATRIA MEDICAL GROUP","icb":"QHM"}}]}