{"type":"FeatureCollection","features":[{"type":"Feature","geometry":{"type":"Polygon","coordinates":[[[-2.668544,54.09182],[-2.66762,54.09096],[-2.61724,54.09868],[-2.56651,54.10417],[-2.532559,54.128327],[-2.529,54.13081],[-2.528873,54.130947],[-2.52531,54.13348],[-2.525479,54.133482],[-2.524415,54.136139],[-2.52278,54.13873],[-2.523718,54.137878],[-2.50694,54.17972],[-2.50694,54.1994],[-2.51244,54.22791],[-2.52411,54.25841],[-2.548937,54.284751],[-2.54797,54.28427],[-2.5496,54.28883],[-2.55561,54.29404],[-2.559761,54.295127],[-2.56016,54.29659],[-2.575157,54.29624],[-2.5811,54.29639],[-2.58694,54.29639],[-2.589835,54.295895],[-2.60908,54.29544],[-2.61263,54.294588],[-2.62571,54.292801],[-2.63869,54.29258],[-2.64504,54.29148],[-2.6641,54.27986],[-2.661568,54.28053],[-2.699522,54.242022],[-2.70538,54.23855],[-2.71053,54.23514],[-2.71053,54.23213],[-2.70744,54.2257],[-2.70733,54.225876],[-2.70247,54.20899],[-2.700695,54.205951],[-2.69722,54.196801],[-2.69749,54.19699],[-2.706497,54.167037],[-2.70701,54.16632],[-2.707566,54.164589],[-2.71568,54.15319],[-2.716013,54.136173],[-2.71637,54.1365],[-2.71774,54.12925],[-2.71809,54.12261],[-2.72186,54.11436],[-2.72255,54.10571],[-2.71671,54.10027],[-2.70641,54.09705],[-2.69577,54.09444],[-2.6841,54.09343],[-2.67586,54.09182],[-2.668544,54.09182]]]},"properties":{"code":"A82030","name":"LUNESDALE SURGERY","icb":"QE1"}}]}