{"type":"FeatureCollection","features":[{"type":"Feature","geometry":{"type":"Polygon","coordinates":[[[-2.903298,54.272897],[-2.92133,54.27986],[-2.921872,54.27974],[-2.967,54.2985],[-2.96906,54.3029],[-2.98759,54.30531],[-3.01163,54.30491],[-3.035258,54.30436],[-3.04115,54.30451],[-3.07274,54.30451],[-3.07961,54.3037],[-3.085959,54.302354],[-3.10707,54.3013],[-3.12492,54.3001],[-3.14758,54.29769],[-3.15582,54.28246],[-3.1723,54.26081],[-3.17574,54.256],[-3.1826,54.24798],[-3.18398,54.23795],[-3.18672,54.22831],[-3.18535,54.22269],[-3.17368,54.20262],[-3.15651,54.18735],[-3.1517,54.17851],[-3.13591,54.17007],[-3.12355,54.16083],[-3.10776,54.15962],[-3.08578,54.15681],[-3.07137,54.156],[-3.06244,54.16686],[-3.05832,54.18173],[-3.06519,54.1978],[-3.06381,54.20222],[-3.03154,54.19298],[-3.00476,54.17851],[-2.97592,54.17007],[-2.92786,54.18293],[-2.9052,54.19699],[-2.87636,54.20382],[-2.88803,54.23393],[-2.891618,54.23251],[-2.892206,54.233941],[-2.88734,54.23634],[-2.90108,54.27204],[-2.903298,54.272897]]]},"properties":{"code":"A82650","name":"HAVERTHWAITE SURGERY","icb":"QE1"}}]}