{"type":"FeatureCollection","features":[{"type":"Feature","geometry":{"type":"Polygon","coordinates":[[[-1.556337,54.817497],[-1.55354,54.817958],[-1.549535,54.82033],[-1.547975,54.82072],[-1.546091,54.820809],[-1.545042,54.820774],[-1.543751,54.820556],[-1.542859,54.820345],[-1.542654,54.820178],[-1.542129,54.820007],[-1.541415,54.819865],[-1.541183,54.819732],[-1.540711,54.819702],[-1.539531,54.81977],[-1.538354,54.81974],[-1.536902,54.819589],[-1.535481,54.819787],[-1.532936,54.820767],[-1.529074,54.820717],[-1.524525,54.820767],[-1.522429,54.820865],[-1.522712,54.825357],[-1.523259,54.827655],[-1.523734,54.835183],[-1.520872,54.83528],[-1.519829,54.83598],[-1.520973,54.838909],[-1.520086,54.841906],[-1.518757,54.843772],[-1.516446,54.844348],[-1.515749,54.845619],[-1.514119,54.84361],[-1.513624,54.841456],[-1.510779,54.841963],[-1.510082,54.843062],[-1.509774,54.843105],[-1.506361,54.845686],[-1.506148,54.845535],[-1.50624,54.846011],[-1.506498,54.846137],[-1.506685,54.846499],[-1.507116,54.846975],[-1.50753,54.848344],[-1.508732,54.853576],[-1.508904,54.854669],[-1.509227,54.855738],[-1.511142,54.85754],[-1.51176,54.859852],[-1.514168,54.859456],[-1.514257,54.859627],[-1.514147,54.859828],[-1.514527,54.860365],[-1.515057,54.860846],[-1.516618,54.86277],[-1.516764,54.863417],[-1.518241,54.86443],[-1.521138,54.864676],[-1.522888,54.865381],[-1.52382,54.865914],[-1.524989,54.865827],[-1.525104,54.86591],[-1.525767,54.866911],[-1.526216,54.86731],[-1.526854,54.867731],[-1.527794,54.868228],[-1.529105,54.868339],[-1.534302,54.866043],[-1.538965,54.865392],[-1.541122,54.865168],[-1.543062,54.865581],[-1.546381,54.866818],[-1.551592,54.867295],[-1.553296,54.867657],[-1.554453,54.867816],[-1.55542,54.868158],[-1.557185,54.869023],[-1.558572,54.870005],[-1.559269,54.870286],[-1.560108,54.870484],[-1.561145,54.869029],[-1.561418,54.868108],[-1.561145,54.867206],[-1.563492,54.86534],[-1.57478,54.867776],[-1.575671,54.867605],[-1.58292,54.868647],[-1.588284,54.865049],[-1.590086,54.864525],[-1.590584,54.86426],[-1.590343,54.863865],[-1.590317,54.863454],[-1.593003,54.863364],[-1.594286,54.863152],[-1.595221,54.862808],[-1.597007,54.862017],[-1.596093,54.861333],[-1.596694,54.859597],[-1.59645,54.858045],[-1.597841,54.857698],[-1.598497,54.857456],[-1.598529,54.856745],[-1.599478,54.856395],[-1.599588,54.855918],[-1.599805,54.855524],[-1.59971,54.855126],[-1.5994,54.854722],[-1.599678,54.853922],[-1.600435,54.853776],[-1.600339,54.853167],[-1.602064,54.851198],[-1.602638,54.849893],[-1.602199,54.848568],[-1.601187,54.846612],[-1.600838,54.845556],[-1.600019,54.844652],[-1.599751,54.843682],[-1.598693,54.841947],[-1.597058,54.839992],[-1.595666,54.83814],[-1.594992,54.837527],[-1.594311,54.836504],[-1.593086,54.835622],[-1.59225,54.835265],[-1.590991,54.834503],[-1.590991,54.834025],[-1.592149,54.832589],[-1.592793,54.831076],[-1.593806,54.827954],[-1.593951,54.827111],[-1.594005,54.82625],[-1.593768,54.825085],[-1.593581,54.824511],[-1.592492,54.82204],[-1.592144,54.822052],[-1.592156,54.822024],[-1.59108,54.822105],[-1.589418,54.821995],[-1.587927,54.82215],[-1.587026,54.822458],[-1.58397,54.823038],[-1.582502,54.822703],[-1.580015,54.822805],[-1.577398,54.822745],[-1.576901,54.822626],[-1.576208,54.822135],[-1.571045,54.821261],[-1.566535,54.819445],[-1.565197,54.819194],[-1.563375,54.818713],[-1.561816,54.818847],[-1.560854,54.818016],[-1.560322,54.817652],[-1.558881,54.817519],[-1.556337,54.817497]]]},"properties":{"code":"A83029","name":"GREAT LUMLEY SURGERY","icb":"QHM"}}]}