{"type":"FeatureCollection","features":[{"type":"Feature","geometry":{"type":"Polygon","coordinates":[[[-1.74854,54.63053],[-1.72622,54.62636],[-1.71163,54.62556],[-1.69635,54.63013],[-1.6488,54.64066],[-1.606126,54.655309],[-1.602351,54.656437],[-1.600981,54.666079],[-1.610378,54.67485],[-1.622775,54.686417],[-1.636221,54.690463],[-1.657851,54.694498],[-1.68074,54.69294],[-1.70924,54.691],[-1.73189,54.68018],[-1.78185,54.68157],[-1.78837,54.67671],[-1.79215,54.67125],[-1.74854,54.63053]]]},"properties":{"code":"A83015","name":"STATION VIEW MEDICAL CENTRE","icb":"QHM"}}]}