{"type":"FeatureCollection","features":[{"type":"Feature","geometry":{"type":"Polygon","coordinates":[[[-1.496399,54.541409],[-1.503074,54.584598],[-1.56134,54.583702],[-1.587009,54.563553],[-1.601249,54.549019],[-1.612145,54.534679],[-1.622269,54.517744],[-1.619882,54.507629],[-1.625714,54.500403],[-1.60615,54.504539],[-1.596099,54.509373],[-1.589412,54.510619],[-1.58495,54.509124],[-1.58289,54.506632],[-1.57877,54.50733],[-1.571088,54.508003],[-1.563835,54.507579],[-1.558256,54.50733],[-1.552763,54.506283],[-1.548557,54.505137],[-1.543579,54.505137],[-1.523495,54.508974],[-1.513109,54.510469],[-1.503839,54.511316],[-1.496201,54.52407],[-1.496399,54.541409]]]},"properties":{"code":"A83047","name":"DENMARK STREET SURGERY","icb":"QHM"}}]}