{"type":"FeatureCollection","features":[{"type":"Feature","geometry":{"type":"Polygon","coordinates":[[[-1.37947,54.52766],[-1.392607,54.55135],[-1.390713,54.557061],[-1.490998,54.555792],[-1.49451,54.552123],[-1.496731,54.550922],[-1.497914,54.550282],[-1.499054,54.549665],[-1.506551,54.542902],[-1.496676,54.540989],[-1.497728,54.53151],[-1.49757,54.520353],[-1.49792,54.52068],[-1.50238,54.51271],[-1.50856,54.51092],[-1.53294,54.50713],[-1.5041,54.4834],[-1.49826,54.4856],[-1.49311,54.48639],[-1.49105,54.4842],[-1.49448,54.48061],[-1.49929,54.47762],[-1.49826,54.47503],[-1.49105,54.47403],[-1.48487,54.47283],[-1.47972,54.47562],[-1.47457,54.47363],[-1.47423,54.46744],[-1.46839,54.46325],[-1.4677,54.46006],[-1.4732,54.45587],[-1.46049,54.45108],[-1.45466,54.45427],[-1.46255,54.46026],[-1.46187,54.46285],[-1.45329,54.46665],[-1.45912,54.46844],[-1.45844,54.47024],[-1.46358,54.47343],[-1.46152,54.47782],[-1.45809,54.48221],[-1.46187,54.485],[-1.46049,54.48919],[-1.45844,54.49238],[-1.46084,54.49577],[-1.46702,54.49656],[-1.47354,54.49577],[-1.476017,54.500222],[-1.475941,54.500241],[-1.4756,54.49995],[-1.461287,54.504083],[-1.45878,54.50474],[-1.451741,54.498646],[-1.444088,54.493897],[-1.440067,54.490414],[-1.435301,54.488951],[-1.42651,54.484],[-1.43234,54.48081],[-1.41312,54.47702],[-1.409875,54.479943],[-1.40945,54.482622],[-1.409922,54.483815],[-1.41003,54.49278],[-1.40419,54.49417],[-1.39801,54.49278],[-1.39835,54.48978],[-1.39629,54.486],[-1.39011,54.48699],[-1.38256,54.48719],[-1.3829,54.49317],[-1.37672,54.49637],[-1.37913,54.50175],[-1.37947,54.52766]]]},"properties":{"code":"A83070","name":"MIDDLETON AND DINSDALE MEDICAL PRACTICE","icb":"QHM"}}]}