{"type":"FeatureCollection","features":[{"type":"Feature","geometry":{"type":"Polygon","coordinates":[[[-1.51062,54.70826],[-1.49054,54.70776],[-1.49686,54.717434],[-1.496855,54.717524],[-1.493298,54.722018],[-1.45826,54.73979],[-1.46972,54.74151],[-1.487344,54.729261],[-1.499661,54.72407],[-1.499983,54.724101],[-1.50375,54.72725],[-1.518979,54.728556],[-1.519157,54.728655],[-1.520077,54.731436],[-1.51712,54.73576],[-1.516095,54.738992],[-1.51594,54.73909],[-1.52667,54.74537],[-1.53319,54.74424],[-1.53135,54.7378],[-1.519255,54.728821],[-1.519265,54.728657],[-1.51937,54.72859],[-1.51062,54.70826]]]},"properties":{"code":"A83027","name":"COXHOE MEDICAL PRACTICE","icb":"QHM"}}]}