{"type":"FeatureCollection","features":[{"type":"Feature","geometry":{"type":"Polygon","coordinates":[[[-1.78648,54.90099],[-1.78429,54.86619],[-1.76562,54.86189],[-1.7597,54.85566],[-1.75464,54.85359],[-1.73309,54.8523],[-1.65447,54.84959],[-1.63422,54.87167],[-1.68983,54.89606],[-1.6888,54.90509],[-1.71661,54.90741],[-1.73326,54.91964],[-1.73866,54.92331],[-1.73908,54.92762],[-1.74037,54.92605],[-1.74106,54.92463],[-1.73931,54.92266],[-1.74393,54.92155],[-1.74914,54.92206],[-1.75736,54.9236],[-1.76897,54.92226],[-1.75966,54.9099],[-1.76688,54.9093],[-1.77376,54.90673],[-1.78648,54.90099]]]},"properties":{"code":"A83038","name":"CEDARS MEDICAL GROUP","icb":"QHM"}}]}