{"type":"FeatureCollection","features":[{"type":"Feature","geometry":{"type":"Polygon","coordinates":[[[-1.58512,54.50902],[-1.54461,54.50499],[-1.50547,54.51132],[-1.45723,54.51799],[-1.4711,54.52357],[-1.47054,54.52995],[-1.47033,54.53362],[-1.47219,54.53789],[-1.47247,54.54643],[-1.51843,54.5634],[-1.56126,54.5835],[-1.61499,54.57743],[-1.63902,54.54777],[-1.61096,54.53553],[-1.61791,54.52606],[-1.62254,54.51849],[-1.61928,54.50977],[-1.61108,54.51068],[-1.60357,54.508],[-1.59469,54.50453],[-1.58512,54.50902]]]},"properties":{"code":"A83040","name":"CLIFTON COURT MEDICAL PRACTICE","icb":"QHM"}}]}