{"type":"FeatureCollection","features":[{"type":"Feature","geometry":{"type":"Polygon","coordinates":[[[-1.285154,54.755536],[-1.291448,54.759612],[-1.305295,54.772793],[-1.308198,54.778399],[-1.311206,54.786212],[-1.347006,54.779838],[-1.404811,54.770679],[-1.422255,54.770379],[-1.439691,54.770076],[-1.444244,54.767222],[-1.452093,54.764727],[-1.457387,54.762443],[-1.469484,54.737104],[-1.47138,54.730768],[-1.48378,54.71882],[-1.432723,54.696447],[-1.371218,54.713846],[-1.34687,54.716687],[-1.338046,54.718477],[-1.324916,54.724128],[-1.323366,54.725112],[-1.313319,54.728294],[-1.31083,54.729311],[-1.307802,54.730613],[-1.305968,54.731194],[-1.304089,54.732415],[-1.30172,54.733956],[-1.301694,54.735443],[-1.29187,54.739453],[-1.290306,54.744599],[-1.29027,54.746676],[-1.289536,54.749091],[-1.288324,54.751604],[-1.285154,54.755536]]]},"properties":{"code":"A83057","name":"EAST DURHAM MEDICAL GROUP","icb":"QHM"}}]}