{"type":"FeatureCollection","features":[{"type":"Feature","geometry":{"type":"Polygon","coordinates":[[[-1.74305,54.86149],[-1.75429,54.84677],[-1.76176,54.83105],[-1.75713,54.82284],[-1.7403,54.81414],[-1.72288,54.81122],[-1.70048,54.80395],[-1.6879,54.79534],[-1.66469,54.79524],[-1.631,54.80242],[-1.62668,54.81164],[-1.64675,54.81651],[-1.65001,54.83975],[-1.6519,54.84736],[-1.65567,54.85393],[-1.67267,54.86169],[-1.69704,54.87325],[-1.74305,54.86149]]]},"properties":{"code":"A83622","name":"THE HAVEN SURGERY","icb":"QHM"}}]}