{"type":"FeatureCollection","features":[{"type":"Feature","geometry":{"type":"Polygon","coordinates":[[[-1.70975,55.30101],[-1.78253,55.28088],[-1.81515,55.25907],[-1.84673,55.24136],[-1.84879,55.21551],[-1.84965,55.19229],[-1.85025,55.18009],[-1.85205,55.16789],[-1.81274,55.12767],[-1.78305,55.11147],[-1.75266,55.09527],[-1.69327,55.07365],[-1.64417,55.07876],[-1.59885,55.1314],[-1.60469,55.15926],[-1.62701,55.22961],[-1.6658,55.27569],[-1.70975,55.30101]]]},"properties":{"code":"A84031","name":"GREYSTOKE SURGERY","icb":"QHM"}}]}