{"type":"FeatureCollection","features":[{"type":"Feature","geometry":{"type":"Polygon","coordinates":[[[-1.998137,55.646986],[-1.98681,55.62393],[-1.915913,55.547378],[-1.911622,55.537374],[-1.912136,55.527756],[-1.910245,55.527367],[-1.91013,55.527464],[-1.911244,55.528048],[-1.908897,55.527545],[-1.908187,55.527465],[-1.908022,55.527358],[-1.907158,55.527173],[-1.906916,55.527144],[-1.906471,55.52727],[-1.906273,55.527068],[-1.772575,55.511138],[-1.764765,55.508756],[-1.751804,55.504479],[-1.740732,55.498913],[-1.733019,55.500517],[-1.740088,55.510093],[-1.741161,55.512329],[-1.733609,55.512304],[-1.728845,55.515245],[-1.727042,55.518087],[-1.725454,55.519885],[-1.72245,55.521489],[-1.718845,55.521926],[-1.71524,55.520906],[-1.712236,55.522606],[-1.70743,55.523529],[-1.704933,55.536985],[-1.700649,55.539171],[-1.69344,55.540385],[-1.685371,55.544901],[-1.676016,55.548058],[-1.661597,55.550243],[-1.648557,55.553835],[-1.634645,55.55602],[-1.632497,55.551942],[-1.61817,55.55209],[-1.633533,55.569028],[-1.63491,55.579509],[-1.576586,55.646599],[-1.768089,55.685327],[-1.774278,55.686101],[-1.79242,55.68896],[-1.82566,55.69229],[-1.88991,55.69703],[-1.940203,55.715702],[-1.955824,55.712317],[-1.976423,55.712994],[-1.972046,55.706224],[-1.963806,55.698099],[-1.937027,55.68494],[-1.926384,55.67681],[-1.888618,55.653767],[-1.937714,55.662095],[-1.997452,55.651442],[-1.998137,55.646986]]]},"properties":{"code":"A84008","name":"BELFORD MEDICAL PRACTICE","icb":"QHM"}}]}