{"type":"FeatureCollection","features":[{"type":"Feature","geometry":{"type":"Polygon","coordinates":[[[-1.871004,54.90293],[-1.86497,54.90026],[-1.85972,54.89846],[-1.85753,54.89627],[-1.85442,54.89567],[-1.8491,54.89485],[-1.83472,54.9303],[-1.83178,54.93061],[-1.82472,54.93092],[-1.81678,54.93548],[-1.81429,54.93829],[-1.80582,54.94131],[-1.80472,54.94186],[-1.80288,54.94356],[-1.80331,54.94617],[-1.80297,54.94924],[-1.80598,54.95186],[-1.80796,54.95556],[-1.80558,54.95913],[-1.79841,54.96193],[-1.79713,54.9634],[-1.79489,54.96495],[-1.79317,54.96628],[-1.79334,54.96826],[-1.79933,54.97228],[-1.80342,54.97522],[-1.80921,54.97835],[-1.81391,54.98144],[-1.81781,54.98467],[-1.82116,54.98838],[-1.82167,54.99205],[-1.82098,54.99584],[-1.89686,54.98254],[-1.96003,54.96599],[-1.95188,54.95174],[-1.9564,54.94816],[-1.95827,54.94731],[-1.96194,54.94637],[-1.96416,54.94568],[-1.9669,54.94334],[-1.96728,54.9422],[-1.96612,54.94185],[-1.96513,54.9413],[-1.96349,54.94021],[-1.96168,54.93941],[-1.95896,54.93871],[-1.95642,54.9378],[-1.95236,54.93698],[-1.9487,54.93573],[-1.94564,54.93519],[-1.94276,54.93524],[-1.93973,54.93555],[-1.93917,54.93281],[-1.93716,54.9303],[-1.93487,54.9284],[-1.93344,54.92769],[-1.92725,54.92493],[-1.92193,54.92288],[-1.92004,54.92171],[-1.91867,54.92057],[-1.91661,54.91946],[-1.914593,54.918292],[-1.91311,54.9176],[-1.912577,54.917124],[-1.910843,54.916119],[-1.9052,54.91421],[-1.90547,54.91416],[-1.90331,54.91323],[-1.899078,54.912233],[-1.89853,54.91228],[-1.898175,54.912014],[-1.897611,54.911811],[-1.89092,54.91015],[-1.87769,54.90556],[-1.87544,54.90458],[-1.871004,54.90293]]]},"properties":{"code":"A84016","name":"PRUDHOE MEDICAL GROUP","icb":"QHM"}}]}