{"type":"FeatureCollection","features":[{"type":"Feature","geometry":{"type":"Polygon","coordinates":[[[-1.96243,55.16583],[-1.940944,55.172473],[-1.914729,55.174409],[-1.899521,55.17381],[-1.88639,55.17321],[-1.87025,55.174364],[-1.870091,55.174336],[-1.85738,55.16808],[-1.796958,55.199146],[-1.76434,55.21272],[-1.74683,55.23216],[-1.71661,55.26679],[-1.724783,55.271808],[-1.728798,55.280698],[-1.72726,55.29456],[-1.72485,55.31508],[-1.725164,55.320748],[-1.724479,55.32081],[-1.724381,55.32062],[-1.724479,55.321456],[-1.724316,55.321612],[-1.72108,55.32211],[-1.724971,55.322667],[-1.725123,55.322751],[-1.725295,55.323107],[-1.72537,55.324462],[-1.7252,55.33383],[-1.7276,55.34672],[-1.800383,55.383792],[-1.87965,55.428208],[-1.879106,55.428529],[-1.83094,55.40251],[-1.83266,55.41382],[-1.84193,55.42629],[-1.85291,55.43291],[-1.870801,55.437019],[-1.88347,55.44498],[-1.8948,55.44304],[-1.901365,55.440493],[-1.901647,55.440507],[-1.90269,55.44109],[-1.99471,55.41196],[-2.08672,55.37775],[-2.12285,55.36026],[-2.13701,55.34218],[-2.14405,55.30424],[-2.15675,55.22726],[-2.15366,55.22579],[-2.145533,55.224304],[-2.140132,55.222421],[-2.13401,55.21779],[-2.12654,55.21747],[-2.116107,55.217101],[-2.110389,55.215613],[-2.110285,55.215421],[-2.11178,55.21399],[-2.1032,55.20856],[-2.094585,55.20544],[-2.08878,55.19847],[-2.06852,55.19122],[-2.05251,55.190303],[-2.040736,55.183974],[-2.03419,55.17632],[-2.023347,55.172263],[-2.01942,55.16593],[-1.96243,55.16583]]]},"properties":{"code":"A84002","name":"THE ROTHBURY PRACTICE","icb":"QHM"}}]}