{"type":"FeatureCollection","features":[{"type":"Feature","geometry":{"type":"Polygon","coordinates":[[[-2.02835,55.02625],[-2.118689,55.042883],[-2.198509,55.034215],[-2.287597,54.97055],[-2.283148,54.942719],[-2.177622,54.893959],[-2.050012,54.831954],[-1.998655,54.87884],[-1.95556,54.918081],[-1.968962,54.937316],[-1.965904,54.944705],[-1.955786,54.949527],[-1.951129,54.953759],[-1.956769,54.95926],[-1.965625,54.96558],[-1.97857,55.0109],[-2.02835,55.02625]]]},"properties":{"code":"A84033","name":"THE SELE MEDICAL PRACTICE","icb":"QHM"}}]}