{"type":"FeatureCollection","features":[{"type":"Feature","geometry":{"type":"Polygon","coordinates":[[[-2.260095,55.187885],[-2.334939,55.188571],[-2.340602,55.182102],[-2.348671,55.174947],[-2.358801,55.171417],[-2.360729,55.166956],[-2.356996,55.167189],[-2.354314,55.16638],[-2.35161,55.166209],[-2.349164,55.166245],[-2.346954,55.165559],[-2.345795,55.164995],[-2.344122,55.163451],[-2.34262,55.160705],[-2.34277,55.159479],[-2.342212,55.158817],[-2.343307,55.157984],[-2.343521,55.156905],[-2.341054,55.156304],[-2.336997,55.155777],[-2.331891,55.152663],[-2.341482,55.136502],[-2.345583,55.118981],[-2.323948,55.115299],[-2.321029,55.099097],[-2.330043,55.099244],[-2.340775,55.096543],[-2.340517,55.090796],[-2.343008,55.090207],[-2.337083,55.085246],[-2.341973,55.08333],[-2.350472,55.07994],[-2.357769,55.079792],[-2.36515,55.075517],[-2.325662,55.065492],[-2.319152,55.042535],[-2.315971,55.016706],[-2.313141,55.002629],[-2.264562,54.969535],[-2.252377,54.966086],[-2.227481,54.973082],[-2.216491,54.977417],[-2.210142,54.983622],[-2.194862,54.988449],[-2.186452,54.990123],[-2.170143,54.987956],[-2.155212,54.98313],[-2.153495,54.968845],[-2.132551,54.968451],[-2.126718,54.965987],[-2.124659,54.960567],[-2.11762,54.956822],[-2.109894,54.960863],[-2.097358,54.959926],[-2.087143,54.964238],[-2.07504,54.968549],[-2.069721,54.979904],[-2.063799,54.980397],[-2.057619,54.980421],[-2.045088,54.979978],[-2.021139,54.981554],[-2.02217,54.990123],[-2.016678,55.017198],[-2.024062,55.029892],[-2.031788,55.038352],[-2.025433,55.048286],[-2.020711,55.061216],[-2.020797,55.074977],[-2.02509,55.087653],[-2.020109,55.09998],[-2.008954,55.104105],[-1.993676,55.09998],[-1.964149,55.103222],[-1.936855,55.106757],[-1.945771,55.118735],[-1.96689,55.113728],[-1.977018,55.132084],[-2.004318,55.125508],[-2.016849,55.121288],[-2.031266,55.119521],[-2.045505,55.131004],[-2.084652,55.117263],[-2.116928,55.11255],[-2.125166,55.112943],[-2.142332,55.130612],[-2.149201,55.137874],[-2.147827,55.140915],[-2.147656,55.143172],[-2.147999,55.14533],[-2.147999,55.149107],[-2.146368,55.151706],[-2.144394,55.154968],[-2.143149,55.156807],[-2.142549,55.157763],[-2.142334,55.15867],[-2.145338,55.160239],[-2.148428,55.161661],[-2.151432,55.16323],[-2.154264,55.164554],[-2.157097,55.16578],[-2.161818,55.167692],[-2.163448,55.169211],[-2.164735,55.170216],[-2.166023,55.171221],[-2.168082,55.17328],[-2.168769,55.17426],[-2.17186,55.176123],[-2.175293,55.178672],[-2.175292,55.184356],[-2.179069,55.193568],[-2.184905,55.202582],[-2.200014,55.220602],[-2.214434,55.208655],[-2.218551,55.201798],[-2.227482,55.196116],[-2.23229,55.194744],[-2.246362,55.19102],[-2.260095,55.187885]]]},"properties":{"code":"A84040","name":"HUMSHAUGH & WARK MED GRP","icb":"QHM"}}]}