{"type":"FeatureCollection","features":[{"type":"Feature","geometry":{"type":"Polygon","coordinates":[[[-2.23239,55.647809],[-2.230276,55.64304],[-2.236391,55.639657],[-2.240195,55.639105],[-2.243822,55.638578],[-2.253259,55.642156],[-2.262763,55.642135],[-2.263182,55.640399],[-2.270724,55.638461],[-2.272096,55.612487],[-2.265233,55.60279],[-2.269024,55.603342],[-2.267307,55.590763],[-2.256277,55.566982],[-2.255585,55.564916],[-2.252792,55.564432],[-2.241298,55.560065],[-2.236964,55.557506],[-2.226154,55.550907],[-2.210097,55.541663],[-2.204292,55.534019],[-2.197353,55.52413],[-2.191515,55.519611],[-2.188324,55.517345],[-2.186709,55.509946],[-2.186525,55.505768],[-2.188644,55.501104],[-2.190372,55.495834],[-2.155148,55.486112],[-2.134371,55.464018],[-2.120606,55.44447],[-2.121619,55.43575],[-2.107659,55.430891],[-2.072703,55.430156],[-2.043835,55.429541],[-1.981671,55.413673],[-1.975378,55.40693],[-1.95038,55.38514],[-1.94464,55.380826],[-1.931398,55.379173],[-1.918132,55.378427],[-1.917118,55.366625],[-1.902602,55.378911],[-1.899907,55.379061],[-1.897212,55.379211],[-1.871795,55.360381],[-1.766036,55.373649],[-1.759168,55.410308],[-1.794889,55.470681],[-1.801742,55.493249],[-1.818218,55.556991],[-1.829194,55.600851],[-1.889628,55.645049],[-1.952798,55.681456],[-1.981651,55.703129],[-2.052383,55.706224],[-2.129973,55.701581],[-2.191772,55.670615],[-2.203468,55.665249],[-2.210944,55.660294],[-2.215948,55.652646],[-2.23239,55.647809]]]},"properties":{"code":"A84604","name":"WOOLER HEALTH","icb":"QHM"}}]}