{"type":"FeatureCollection","features":[{"type":"Feature","geometry":{"type":"Polygon","coordinates":[[[-1.64089,54.95821],[-1.65876,54.9619],[-1.66838,54.96315],[-1.67264,54.96383],[-1.67707,54.96402],[-1.67897,54.96356],[-1.68045,54.96253],[-1.6832,54.96229],[-1.68523,54.96197],[-1.686723,54.961023],[-1.6886,54.96026],[-1.68915,54.9598],[-1.688526,54.958996],[-1.688848,54.958164],[-1.690736,54.956932],[-1.6933,54.955891],[-1.69088,54.95382],[-1.689792,54.953359],[-1.68805,54.95342],[-1.686337,54.951973],[-1.687871,54.951153],[-1.687989,54.950901],[-1.68673,54.95001],[-1.688848,54.947148],[-1.690028,54.946236],[-1.691068,54.945066],[-1.694191,54.942989],[-1.70054,54.94022],[-1.70319,54.93702],[-1.701754,54.93518],[-1.700574,54.934182],[-1.69875,54.93344],[-1.6969,54.93254],[-1.67803,54.93189],[-1.6667,54.93755],[-1.660051,54.936068],[-1.648335,54.931506],[-1.64325,54.93052],[-1.62871,54.93472],[-1.62838,54.934761],[-1.627393,54.934983],[-1.626449,54.935156],[-1.625462,54.935205],[-1.625183,54.935223],[-1.625054,54.935322],[-1.624904,54.935328],[-1.6247,54.935205],[-1.624603,54.935267],[-1.62456,54.935254],[-1.623831,54.93555],[-1.623402,54.935427],[-1.622372,54.93555],[-1.620097,54.936019],[-1.618595,54.935772],[-1.616449,54.936216],[-1.614089,54.936758],[-1.611385,54.93661],[-1.60718,54.937005],[-1.606579,54.939051],[-1.606557,54.940752],[-1.607244,54.943291],[-1.607287,54.944425],[-1.607652,54.945756],[-1.606407,54.947309],[-1.599026,54.947481],[-1.598897,54.95002],[-1.596622,54.950315],[-1.59452,54.950488],[-1.579285,54.949169],[-1.57833,54.950679],[-1.577729,54.952269],[-1.576935,54.95456],[-1.581184,54.955657],[-1.582375,54.957961],[-1.582857,54.959156],[-1.582149,54.960271],[-1.581076,54.961349],[-1.580658,54.961854],[-1.580218,54.962285],[-1.579456,54.963185],[-1.58246,54.965162],[-1.584241,54.966418],[-1.58452,54.966806],[-1.585293,54.967083],[-1.586269,54.96821],[-1.589499,54.969732],[-1.592234,54.970009],[-1.594949,54.969929],[-1.601558,54.968845],[-1.606311,54.967182],[-1.610527,54.965371],[-1.61499,54.962489],[-1.62864,54.95807],[-1.63329,54.95678],[-1.635804,54.957123],[-1.63736,54.957832],[-1.64089,54.95821]]]},"properties":{"code":"A85006","name":"GLENPARK & TEAMS MEDICAL SERVICES","icb":"QHM"}}]}