{"type":"FeatureCollection","features":[{"type":"Feature","geometry":{"type":"Polygon","coordinates":[[[-1.559158,54.894384],[-1.55834,54.90395],[-1.557239,54.905052],[-1.55208,54.90228],[-1.54641,54.9005],[-1.54058,54.90139],[-1.53757,54.90124],[-1.53654,54.90262],[-1.53834,54.90292],[-1.54092,54.90795],[-1.54006,54.90874],[-1.53809,54.90889],[-1.53646,54.91032],[-1.53525,54.91239],[-1.5344,54.91284],[-1.5283,54.91284],[-1.5253,54.91264],[-1.52564,54.91471],[-1.52495,54.91664],[-1.52478,54.92162],[-1.5253,54.92418],[-1.52925,54.92251],[-1.53337,54.92196],[-1.53714,54.92216],[-1.5398,54.92206],[-1.541042,54.921004],[-1.5392,54.92364],[-1.53585,54.9303],[-1.52658,54.93612],[-1.52332,54.93986],[-1.5168,54.9444],[-1.51663,54.94608],[-1.52246,54.94677],[-1.52744,54.94677],[-1.53465,54.94647],[-1.54272,54.94746],[-1.54753,54.94815],[-1.55182,54.94913],[-1.55388,54.94992],[-1.55766,54.95081],[-1.56315,54.9511],[-1.57053,54.95239],[-1.57534,54.95386],[-1.57963,54.95446],[-1.58512,54.95475],[-1.58941,54.95682],[-1.59542,54.9585],[-1.59765,54.95722],[-1.59868,54.95653],[-1.6004,54.95554],[-1.59885,54.95012],[-1.6004,54.95071],[-1.60297,54.95377],[-1.60692,54.95248],[-1.61533,54.94913],[-1.61259,54.94578],[-1.60744,54.94332],[-1.60658,54.93967],[-1.60812,54.93641],[-1.606342,54.932685],[-1.60898,54.93395],[-1.60933,54.93434],[-1.60864,54.92833],[-1.60297,54.91886],[-1.59885,54.91313],[-1.598351,54.913071],[-1.58272,54.89122],[-1.582359,54.89062],[-1.57959,54.87774],[-1.57731,54.87814],[-1.57568,54.87824],[-1.575595,54.878989],[-1.57539,54.879011],[-1.57521,54.87871],[-1.574811,54.879072],[-1.57104,54.87947],[-1.56881,54.88026],[-1.56564,54.88085],[-1.56341,54.88061],[-1.56092,54.88243],[-1.5592,54.88263],[-1.55869,54.89482],[-1.559158,54.894384]]]},"properties":{"code":"A85016","name":"WREKENTON MEDICAL GROUP","icb":"QHM"}}]}