{"type":"FeatureCollection","features":[{"type":"Feature","geometry":{"type":"Polygon","coordinates":[[[-1.66941,55.00489],[-1.68803,54.98919],[-1.696701,54.981456],[-1.697989,54.978894],[-1.698246,54.976284],[-1.699104,54.97456],[-1.697731,54.972983],[-1.697817,54.971013],[-1.69035,54.967761],[-1.685028,54.966184],[-1.679878,54.965248],[-1.670437,54.964903],[-1.660995,54.963967],[-1.639538,54.960074],[-1.631126,54.959828],[-1.625547,54.96032],[-1.619711,54.962834],[-1.62147,54.964386],[-1.623144,54.965691],[-1.623445,54.967933],[-1.623058,54.970274],[-1.62249,54.972404],[-1.621449,54.973525],[-1.6222,54.974092],[-1.61808,54.975397],[-1.617265,54.974732],[-1.615162,54.976801],[-1.612909,54.979387],[-1.614518,54.980766],[-1.615033,54.981123],[-1.615827,54.981431],[-1.628895,54.985691],[-1.636276,54.98835],[-1.639709,54.989286],[-1.643143,54.989729],[-1.648121,54.98968],[-1.650352,54.99101],[-1.652241,54.993472],[-1.655159,54.997509],[-1.657734,55.00253],[-1.667089,55.001644],[-1.66941,55.00489]]]},"properties":{"code":"A86031","name":"FENHAM HALL SURGERY","icb":"QHM"}}]}