{"type":"FeatureCollection","features":[{"type":"Feature","geometry":{"type":"Polygon","coordinates":[[[-1.649163,55.019597],[-1.650868,55.019573],[-1.652412,55.019117],[-1.661854,55.011046],[-1.669493,55.005139],[-1.68005,54.99613],[-1.684942,54.991354],[-1.688719,54.989434],[-1.689577,54.98776],[-1.693869,54.984608],[-1.696304,54.981447],[-1.697012,54.980065],[-1.697595,54.978493],[-1.692373,54.971988],[-1.691621,54.970472],[-1.687689,54.969315],[-1.684113,54.968943],[-1.679797,54.968328],[-1.674825,54.967257],[-1.670414,54.965959],[-1.663036,54.965428],[-1.654622,54.964359],[-1.65308,54.966358],[-1.653478,54.967257],[-1.653383,54.968144],[-1.652467,54.969481],[-1.654341,54.969719],[-1.653843,54.971016],[-1.652961,54.972734],[-1.651928,54.975427],[-1.658574,54.976319],[-1.653601,54.980379],[-1.653663,54.983863],[-1.653957,54.985589],[-1.654841,54.987584],[-1.656629,54.990497],[-1.656462,54.991261],[-1.656698,54.991971],[-1.657441,54.992628],[-1.658171,54.993245],[-1.660922,54.994892],[-1.658782,54.995979],[-1.657558,54.996741],[-1.655424,54.996557],[-1.650095,54.998567],[-1.642962,54.996869],[-1.63685,54.995622],[-1.628789,54.995147],[-1.622542,54.99686],[-1.620409,54.997578],[-1.618342,54.999777],[-1.619787,55.001799],[-1.620123,55.002813],[-1.620141,55.003889],[-1.619735,55.007631],[-1.621927,55.017481],[-1.629041,55.01626],[-1.634302,55.015791],[-1.63629,55.016058],[-1.638173,55.016255],[-1.640761,55.017223],[-1.6423,55.018174],[-1.643225,55.018745],[-1.644491,55.019018],[-1.645923,55.01926],[-1.649163,55.019597]]]},"properties":{"code":"A86030","name":"BETTS AVENUE MEDICAL GROUP","icb":"QHM"}}]}