{"type":"FeatureCollection","features":[{"type":"Feature","geometry":{"type":"Polygon","coordinates":[[[-1.63855,55.00232],[-1.636495,55.003017],[-1.63626,55.00301],[-1.635978,55.003182],[-1.63494,55.00352],[-1.629543,55.005199],[-1.625462,55.006222],[-1.623638,55.006814],[-1.620389,55.007337],[-1.620238,55.007328],[-1.61963,55.00714],[-1.615387,55.007498],[-1.61463,55.007323],[-1.61319,55.00649],[-1.61207,55.00591],[-1.61117,55.00568],[-1.609585,55.006079],[-1.60692,55.00664],[-1.606146,55.006841],[-1.604933,55.00687],[-1.6032,55.00683],[-1.60194,55.00702],[-1.60024,55.0077],[-1.59986,55.00835],[-1.59978,55.00907],[-1.60108,55.011827],[-1.599931,55.014957],[-1.598853,55.017244],[-1.597652,55.018966],[-1.59491,55.02218],[-1.594734,55.022548],[-1.594449,55.022919],[-1.59305,55.024016],[-1.589344,55.025016],[-1.58779,55.02527],[-1.58693,55.02591],[-1.590793,55.031867],[-1.591501,55.033676],[-1.59218,55.037479],[-1.59238,55.03911],[-1.59457,55.03953],[-1.600821,55.039761],[-1.609129,55.040608],[-1.61533,55.04209],[-1.621128,55.041521],[-1.621387,55.04162],[-1.623755,55.047639],[-1.623926,55.047736],[-1.62392,55.04789],[-1.62786,55.04824],[-1.62958,55.04829],[-1.634682,55.047702],[-1.6452,55.04843],[-1.651324,55.047647],[-1.65765,55.04892],[-1.663287,55.048203],[-1.66855,55.04937],[-1.67078,55.04848],[-1.67027,55.04288],[-1.667679,55.040988],[-1.664783,55.035136],[-1.6658,55.03206],[-1.664098,55.027652],[-1.664866,55.02506],[-1.66649,55.02251],[-1.65205,55.01982],[-1.647371,55.019479],[-1.645639,55.019264],[-1.64511,55.0191],[-1.643699,55.018891],[-1.643226,55.018746],[-1.641945,55.017987],[-1.64041,55.01696],[-1.63824,55.01629],[-1.635326,55.01588],[-1.635161,55.015708],[-1.6355,55.01511],[-1.635329,55.014534],[-1.635241,55.013707],[-1.635334,55.013117],[-1.635761,55.012709],[-1.64014,55.01036],[-1.64091,55.00977],[-1.64123,55.00631],[-1.64007,55.00438],[-1.63855,55.00232]]]},"properties":{"code":"A86033","name":"BRUNTON PARK","icb":"QHM"}}]}