{"type":"FeatureCollection","features":[{"type":"Feature","geometry":{"type":"Polygon","coordinates":[[[-1.61877,54.96207],[-1.60606,54.96816],[-1.59851,54.97042],[-1.59199,54.97032],[-1.58529,54.96953],[-1.57997,54.9652],[-1.56933,54.9648],[-1.56169,54.96264],[-1.55336,54.95929],[-1.53671,54.96303],[-1.53156,54.98274],[-1.51731,54.98741],[-1.48521,54.98727],[-1.48418,54.99588],[-1.48676,55.00039],[-1.49277,55.00411],[-1.50135,55.01134],[-1.51337,55.01976],[-1.52744,55.03265],[-1.54169,55.0383],[-1.55182,55.04593],[-1.57165,55.04081],[-1.59216,55.03924],[-1.60993,55.04042],[-1.61454,55.04219],[-1.62053,55.0412],[-1.62342,55.03609],[-1.62323,55.03393],[-1.62194,55.02556],[-1.62186,55.01661],[-1.61971,55.0074],[-1.62107,55.00724],[-1.62991,55.00523],[-1.63522,55.00344],[-1.63559,55.00317],[-1.63282,55.00064],[-1.63161,54.99993],[-1.62885,54.99527],[-1.63643,54.99036],[-1.63961,54.98768],[-1.64112,54.98629],[-1.64143,54.9849],[-1.63336,54.97978],[-1.62134,54.97357],[-1.62314,54.97067],[-1.62392,54.96638],[-1.62096,54.96399],[-1.61952,54.9626],[-1.61877,54.96207]]]},"properties":{"code":"A86029","name":"THORNFIELD MEDICAL GROUP","icb":"QHM"}}]}