{"type":"FeatureCollection","features":[{"type":"Feature","geometry":{"type":"Polygon","coordinates":[[[-1.60761,54.98165],[-1.605785,54.98003],[-1.60491,54.97852],[-1.60649,54.9749],[-1.6044,54.97456],[-1.60042,54.97441],[-1.59435,54.97589],[-1.58426,54.97904],[-1.57551,54.98192],[-1.5692,54.98538],[-1.56529,54.98943],[-1.56261,54.99251],[-1.55911,54.99761],[-1.5595,54.99768],[-1.57025,55.00048],[-1.57151,55.00261],[-1.57242,55.00534],[-1.57328,55.01016],[-1.57791,55.00967],[-1.57928,55.00923],[-1.57937,55.01007],[-1.57997,55.0108],[-1.58156,55.01348],[-1.58487,55.01725],[-1.58469,55.02077],[-1.58537,55.02307],[-1.58708,55.02498],[-1.59068,55.02457],[-1.59428,55.02297],[-1.59832,55.02322],[-1.59854,55.023349],[-1.60151,55.02389],[-1.60418,55.02452],[-1.60881,55.02649],[-1.62087,55.0293],[-1.62299,55.02893],[-1.62461,55.03172],[-1.626274,55.033576],[-1.62742,55.03421],[-1.62824,55.034067],[-1.631749,55.031643],[-1.634287,55.03025],[-1.636105,55.030679],[-1.638639,55.030773],[-1.639322,55.030884],[-1.640861,55.031316],[-1.647526,55.031956],[-1.653849,55.032518],[-1.657568,55.032657],[-1.657774,55.032499],[-1.658062,55.031924],[-1.658537,55.031912],[-1.661606,55.031753],[-1.662701,55.031696],[-1.66323,55.031567],[-1.665421,55.031374],[-1.664761,55.03024],[-1.66456,55.02913],[-1.664562,55.028162],[-1.663988,55.027176],[-1.664183,55.02638],[-1.664291,55.025939],[-1.664721,55.025311],[-1.66514,55.024242],[-1.666306,55.022899],[-1.66634,55.022203],[-1.666739,55.021286],[-1.666708,55.020468],[-1.67018,55.018263],[-1.673189,55.016923],[-1.674154,55.016552],[-1.675508,55.016207],[-1.67609,55.015887],[-1.676435,55.014672],[-1.6766,55.014546],[-1.676647,55.014452],[-1.67696,55.014259],[-1.676859,55.014087],[-1.677474,55.013749],[-1.677538,55.013602],[-1.677317,55.013311],[-1.678033,55.013028],[-1.678019,55.012903],[-1.678893,55.012717],[-1.67922,55.012453],[-1.679685,55.012441],[-1.680037,55.012034],[-1.68068,55.011542],[-1.680903,55.011331],[-1.681609,55.01079],[-1.674655,55.008112],[-1.670311,55.006139],[-1.669505,55.004786],[-1.673216,55.001783],[-1.671312,55.001833],[-1.669541,55.001881],[-1.667862,55.001576],[-1.666702,55.00125],[-1.665873,55.000326],[-1.663861,54.997666],[-1.662196,54.995809],[-1.660756,54.994534],[-1.658173,54.993252],[-1.657188,54.992487],[-1.656455,54.99167],[-1.656492,54.990917],[-1.656638,54.990625],[-1.656713,54.990317],[-1.65592,54.989614],[-1.654388,54.989365],[-1.648438,54.989784],[-1.645206,54.989869],[-1.642838,54.989643],[-1.63853,54.98884],[-1.63777,54.98835],[-1.63643,54.98786],[-1.63353,54.98692],[-1.631758,54.986316],[-1.62913,54.98542],[-1.62298,54.98369],[-1.619981,54.98291],[-1.616901,54.98272],[-1.6136,54.98301],[-1.611899,54.982847],[-1.610555,54.982442],[-1.60761,54.98165]]]},"properties":{"code":"A86020","name":"JESMOND HEALTH PARTNERSHIP","icb":"QHM"}}]}