{"type":"FeatureCollection","features":[{"type":"Feature","geometry":{"type":"Polygon","coordinates":[[[-1.54847,55.01469],[-1.55448,55.01395],[-1.55628,55.01277],[-1.56289,55.01129],[-1.56898,55.0111],[-1.58126,55.00858],[-1.5901,55.0078],[-1.59679,55.0076],[-1.601958,55.006962],[-1.600961,55.005464],[-1.599925,55.004099],[-1.597485,55.002488],[-1.59585,55.001087],[-1.59435,54.998729],[-1.59306,54.996251],[-1.591817,54.994164],[-1.591922,54.992266],[-1.590359,54.990711],[-1.588111,54.989682],[-1.586005,54.988208],[-1.583661,54.987882],[-1.58331,54.986897],[-1.582526,54.985911],[-1.582041,54.984084],[-1.583554,54.983744],[-1.58409,54.983274],[-1.584334,54.981954],[-1.586181,54.981739],[-1.588042,54.981496],[-1.589199,54.980933],[-1.590805,54.980408],[-1.593893,54.979446],[-1.592421,54.978473],[-1.590392,54.979106],[-1.589093,54.977813],[-1.590086,54.977444],[-1.589199,54.975955],[-1.591002,54.975764],[-1.590847,54.975331],[-1.590943,54.975046],[-1.591704,54.974718],[-1.591757,54.974157],[-1.591074,54.973529],[-1.590347,54.973312],[-1.589694,54.972292],[-1.588577,54.972072],[-1.588314,54.970832],[-1.58744,54.97047],[-1.58237,54.96692],[-1.57997,54.96584],[-1.57817,54.96535],[-1.57602,54.96505],[-1.57302,54.9654],[-1.56984,54.96545],[-1.5659,54.96476],[-1.55482,54.96017],[-1.55259,54.95973],[-1.54469,54.96219],[-1.54366,54.96195],[-1.541,54.96278],[-1.53791,54.96411],[-1.53697,54.965],[-1.53663,54.96682],[-1.5356,54.97471],[-1.53431,54.97953],[-1.53182,54.98323],[-1.52787,54.98544],[-1.53096,54.98865],[-1.53354,54.99096],[-1.53766,54.99529],[-1.53963,54.99588],[-1.54435,54.99958],[-1.54564,55.0014],[-1.5465,55.00465],[-1.54881,55.01114],[-1.54847,55.01469]]]},"properties":{"code":"A86023","name":"BENFIELD PARK MEDICAL GROUP","icb":"QHM"}}]}