{"type":"FeatureCollection","features":[{"type":"Feature","geometry":{"type":"Polygon","coordinates":[[[-1.542709,55.039027],[-1.548146,55.04218],[-1.55253,55.04564],[-1.56109,55.043249],[-1.568622,55.041532],[-1.57531,55.040112],[-1.583212,55.039293],[-1.59272,55.03946],[-1.592532,55.042962],[-1.586842,55.048253],[-1.590017,55.050539],[-1.59242,55.053454],[-1.626159,55.054683],[-1.649713,55.053203],[-1.649144,55.04794],[-1.667679,55.041062],[-1.673812,55.039933],[-1.673815,55.030575],[-1.673817,55.025058],[-1.673649,55.019722],[-1.682073,55.017368],[-1.681528,55.016621],[-1.676251,55.01442],[-1.673999,55.011864],[-1.671708,55.009421],[-1.669956,55.007551],[-1.670139,55.005572],[-1.66795,55.004659],[-1.66702,55.001717],[-1.659229,55.002527],[-1.657824,55.000599],[-1.656338,54.997184],[-1.65403,54.996788],[-1.653418,54.993472],[-1.656733,54.989982],[-1.659572,54.988864],[-1.663622,54.985092],[-1.662916,54.98347],[-1.660399,54.981654],[-1.654121,54.980378],[-1.650981,54.980263],[-1.648729,54.980678],[-1.646017,54.980631],[-1.640473,54.979678],[-1.62873,54.977352],[-1.626913,54.975799],[-1.623686,54.975012],[-1.621567,54.973484],[-1.622668,54.97152],[-1.623818,54.966372],[-1.61547,54.965487],[-1.611547,54.967238],[-1.6068,54.9687],[-1.6079,54.970037],[-1.608298,54.971059],[-1.607251,54.972034],[-1.606701,54.972546],[-1.606605,54.974354],[-1.606321,54.974618],[-1.604213,54.974581],[-1.600769,54.97452],[-1.598292,54.974613],[-1.595891,54.975123],[-1.59167,54.976021],[-1.588459,54.976223],[-1.585435,54.975486],[-1.582191,54.97569],[-1.578608,54.976336],[-1.575133,54.976976],[-1.57413,54.97791],[-1.573926,54.978823],[-1.574567,54.980295],[-1.574896,54.981339],[-1.569229,54.9851],[-1.564267,54.989369],[-1.560531,54.995341],[-1.557669,55.006171],[-1.558586,55.011142],[-1.559022,55.012142],[-1.559966,55.016058],[-1.55462,55.017703],[-1.548962,55.019804],[-1.54401,55.02251],[-1.525594,55.030716],[-1.527799,55.032341],[-1.542709,55.039027]]]},"properties":{"code":"A86006","name":"ROSEWORTH SURGERY","icb":"QHM"}}]}