{"type":"FeatureCollection","features":[{"type":"Feature","geometry":{"type":"Polygon","coordinates":[[[-1.588332,54.971081],[-1.58813,54.97074],[-1.58242,54.96692],[-1.5774,54.9652],[-1.56838,54.9654],[-1.55354,54.95968],[-1.54212,54.96254],[-1.53706,54.965],[-1.53603,54.97594],[-1.53379,54.98131],[-1.52963,54.98503],[-1.52272,54.98712],[-1.515125,54.988469],[-1.51998,54.99288],[-1.52352,54.99437],[-1.52708,54.9972],[-1.537905,55.005996],[-1.541837,55.009312],[-1.54157,55.012139],[-1.54087,55.013464],[-1.540465,55.014576],[-1.541172,55.015218],[-1.54873,55.01479],[-1.5538,55.01389],[-1.56317,55.01113],[-1.56962,55.01097],[-1.58203,55.00839],[-1.59544,55.00763],[-1.60216,55.00688],[-1.60449,55.00048],[-1.59844,54.99826],[-1.59473,54.99489],[-1.5936,54.99102],[-1.59163,54.98927],[-1.58981,54.98932],[-1.58791,54.98817],[-1.58838,54.98737],[-1.5873,54.98696],[-1.58869,54.98433],[-1.59008,54.98363],[-1.59491,54.98021],[-1.59217,54.97804],[-1.58797,54.97064],[-1.588332,54.971081]]]},"properties":{"code":"A86011","name":"WALKER MEDICAL GROUP","icb":"QHM"}}]}