{"type":"FeatureCollection","features":[{"type":"Feature","geometry":{"type":"Polygon","coordinates":[[[-1.56036,54.962513],[-1.555552,54.960388],[-1.55079,54.95968],[-1.537565,54.963685],[-1.536154,54.972835],[-1.535467,54.976161],[-1.533064,54.981185],[-1.531303,54.983352],[-1.530929,54.984237],[-1.533799,54.985864],[-1.534866,54.986845],[-1.532274,54.988253],[-1.531013,54.988719],[-1.532077,54.989532],[-1.533587,54.991123],[-1.537318,54.990387],[-1.540564,54.989909],[-1.544554,54.989276],[-1.545644,54.989119],[-1.546654,54.988822],[-1.548185,54.987956],[-1.549567,54.989828],[-1.551626,54.989422],[-1.553509,54.988868],[-1.554008,54.989422],[-1.554798,54.989308],[-1.555129,54.988968],[-1.556574,54.989251],[-1.557482,54.988828],[-1.557715,54.98876],[-1.558076,54.988669],[-1.557022,54.986848],[-1.55795,54.986416],[-1.558535,54.986073],[-1.558929,54.984917],[-1.560705,54.98426],[-1.564485,54.983145],[-1.569298,54.981939],[-1.574433,54.980543],[-1.574732,54.980507],[-1.574778,54.980449],[-1.574996,54.981587],[-1.574984,54.981648],[-1.576003,54.981477],[-1.577023,54.981137],[-1.578692,54.980683],[-1.580602,54.980047],[-1.584898,54.978557],[-1.585382,54.978455],[-1.585408,54.978469],[-1.590007,54.977317],[-1.589429,54.976675],[-1.589067,54.97605],[-1.591545,54.975746],[-1.594323,54.975347],[-1.597108,54.974712],[-1.59847,54.974443],[-1.59988,54.97446],[-1.606403,54.97436],[-1.60778,54.97032],[-1.605377,54.968623],[-1.599369,54.970397],[-1.593189,54.971308],[-1.584993,54.968968],[-1.580572,54.965987],[-1.575643,54.964884],[-1.569929,54.965347],[-1.56036,54.962513]]]},"properties":{"code":"A86040","name":"ST. ANTHONY'S HEALTH CENTRE","icb":"QHM"}}]}