{"type":"FeatureCollection","features":[{"type":"Feature","geometry":{"type":"Polygon","coordinates":[[[-1.600949,55.007291],[-1.594684,55.007728],[-1.584385,55.008445],[-1.578353,55.008866],[-1.576465,55.010041],[-1.568444,55.011059],[-1.562772,55.010999],[-1.558147,55.012367],[-1.558399,55.004644],[-1.558648,54.996975],[-1.559037,54.985001],[-1.538233,54.984778],[-1.528914,54.987148],[-1.523216,54.988066],[-1.516257,54.989188],[-1.506485,54.990429],[-1.503014,54.99087],[-1.500743,54.990846],[-1.499132,54.990182],[-1.497684,54.990167],[-1.495894,54.989584],[-1.487454,54.989494],[-1.4847,54.989844],[-1.483301,54.990126],[-1.482752,54.990592],[-1.48418,54.992192],[-1.48351,54.992845],[-1.480488,54.995414],[-1.473547,54.995339],[-1.467314,54.997184],[-1.455352,55.001194],[-1.452603,55.002236],[-1.44992,55.004852],[-1.446096,55.007627],[-1.443458,55.008627],[-1.435903,55.011158],[-1.43355,55.011632],[-1.426968,55.015732],[-1.422636,55.018429],[-1.435291,55.025109],[-1.452066,55.022979],[-1.456466,55.027904],[-1.46092,55.031066],[-1.46515,55.027475],[-1.478586,55.024344],[-1.486781,55.023304],[-1.497977,55.026224],[-1.508224,55.02871],[-1.518592,55.029645],[-1.521976,55.033431],[-1.524747,55.036533],[-1.528844,55.04343],[-1.536731,55.04414],[-1.549348,55.045277],[-1.555807,55.046615],[-1.560737,55.047636],[-1.568508,55.049004],[-1.57598,55.050319],[-1.5817,55.051326],[-1.586251,55.05243],[-1.591449,55.05412],[-1.594496,55.055727],[-1.594235,55.049471],[-1.593974,55.043214],[-1.591917,55.039752],[-1.59209,55.034449],[-1.58693,55.02576],[-1.593421,55.024247],[-1.599675,55.016993],[-1.600834,55.010812],[-1.600949,55.007291]]]},"properties":{"code":"A87007","name":"STEPHENSON PARK HEALTH GROUP","icb":"QHM"}}]}