{"type":"FeatureCollection","features":[{"type":"Feature","geometry":{"type":"Polygon","coordinates":[[[-1.416792,55.017165],[-1.41778,55.02484],[-1.4264,55.03908],[-1.44291,55.04692],[-1.45376,55.05977],[-1.46309,55.05925],[-1.4711,55.05979],[-1.47697,55.05928],[-1.47459,55.05399],[-1.47689,55.05348],[-1.47919,55.05273],[-1.48102,55.0516],[-1.48191,55.05038],[-1.48171,55.04948],[-1.48126,55.04858],[-1.48049,55.048],[-1.47928,55.04753],[-1.47915,55.0463],[-1.47895,55.04582],[-1.4785,55.04554],[-1.47376,55.04722],[-1.47116,55.04449],[-1.46931,55.04273],[-1.47224,55.04169],[-1.47397,55.04121],[-1.4769,55.04015],[-1.47954,55.03905],[-1.48006,55.03793],[-1.47672,55.0352],[-1.47934,55.03342],[-1.48338,55.02908],[-1.48113,55.02384],[-1.48768,55.02369],[-1.49347,55.02437],[-1.49329,55.02277],[-1.49063,55.0212],[-1.48737,55.01853],[-1.48427,55.01564],[-1.48204,55.0124],[-1.46913,55.01533],[-1.46662,55.01418],[-1.4648,55.01284],[-1.46334,55.01078],[-1.46004,55.00767],[-1.45673,55.00834],[-1.45471,55.00867],[-1.45324,55.0091],[-1.44831,55.0108],[-1.44482,55.0117],[-1.44247,55.01194],[-1.44056,55.0124],[-1.43703,55.01335],[-1.43317,55.01407],[-1.4288,55.01525],[-1.42724,55.01582],[-1.42585,55.01641],[-1.42502,55.01641],[-1.4228,55.01524],[-1.41891,55.01679],[-1.41779,55.01688],[-1.416792,55.017165]]]},"properties":{"code":"A87005","name":"WHITLEY BAY HEALTH CENTRE","icb":"QHM"}}]}