{"type":"FeatureCollection","features":[{"type":"Feature","geometry":{"type":"Polygon","coordinates":[[[-1.48659,54.99948],[-1.489223,55.001969],[-1.492664,55.00448],[-1.495941,55.006872],[-1.498738,55.00948],[-1.5009,55.011022],[-1.504478,55.013296],[-1.511115,55.018028],[-1.516063,55.021769],[-1.520677,55.025746],[-1.522381,55.027355],[-1.523263,55.028066],[-1.524466,55.027758],[-1.524993,55.027048],[-1.525103,55.02586],[-1.524756,55.025513],[-1.524264,55.025364],[-1.525096,55.024818],[-1.525535,55.023921],[-1.526508,55.023025],[-1.529043,55.02205],[-1.531756,55.022138],[-1.533709,55.022728],[-1.534946,55.023029],[-1.54402,55.017695],[-1.548432,55.0148],[-1.554411,55.013885],[-1.556468,55.012706],[-1.559065,55.01217],[-1.562404,55.011332],[-1.565469,55.011205],[-1.568662,55.01111],[-1.571233,55.010789],[-1.571567,55.010705],[-1.571713,55.010667],[-1.571749,55.010658],[-1.571787,55.010646],[-1.571859,55.010626],[-1.571924,55.01061],[-1.571947,55.010605],[-1.571991,55.010594],[-1.572035,55.010582],[-1.572078,55.010572],[-1.572167,55.01055],[-1.572256,55.01053],[-1.572432,55.010489],[-1.572519,55.010469],[-1.572564,55.010458],[-1.572581,55.010453],[-1.572599,55.010449],[-1.572888,55.010394],[-1.573033,55.010364],[-1.573177,55.010335],[-1.573318,55.010306],[-1.573392,55.010291],[-1.573465,55.010277],[-1.573612,55.010247],[-1.573748,55.010219],[-1.578485,55.009316],[-1.579188,55.009014],[-1.580573,55.008694],[-1.583222,55.008413],[-1.59106,55.007743],[-1.590775,55.006536],[-1.588566,55.002713],[-1.588534,55.001743],[-1.588869,54.998142],[-1.588149,54.996897],[-1.587204,54.99564],[-1.586041,54.994209],[-1.585355,54.993249],[-1.583596,54.991039],[-1.582594,54.989707],[-1.582152,54.989054],[-1.581793,54.988603],[-1.581751,54.988502],[-1.581616,54.988178],[-1.581635,54.987278],[-1.581649,54.986612],[-1.581914,54.98618],[-1.582078,54.986029],[-1.582173,54.985874],[-1.582265,54.985259],[-1.581974,54.984477],[-1.581885,54.983966],[-1.581597,54.982058],[-1.580574,54.980287],[-1.579806,54.978827],[-1.579413,54.978079],[-1.579014,54.977362],[-1.578338,54.97615],[-1.576011,54.976507],[-1.575126,54.976771],[-1.574556,54.977098],[-1.573906,54.977625],[-1.572739,54.97701],[-1.57152,54.976367],[-1.570893,54.975775],[-1.570497,54.973495],[-1.559337,54.974134],[-1.554175,54.975065],[-1.549193,54.975964],[-1.545023,54.976603],[-1.540021,54.977369],[-1.539071,54.97746],[-1.538447,54.977486],[-1.537895,54.977509],[-1.535211,54.977498],[-1.533038,54.981945],[-1.531703,54.983466],[-1.52994,54.984623],[-1.525734,54.986243],[-1.521888,54.987209],[-1.519974,54.987604],[-1.518344,54.987854],[-1.507901,54.988285],[-1.49594,54.988641],[-1.484249,54.988363],[-1.484986,54.99434],[-1.48503,54.995678],[-1.485462,54.99798],[-1.48659,54.99948]]]},"properties":{"code":"A87029","name":"HADRIAN HEALTH CENTRE","icb":"QHM"}}]}