{"type":"FeatureCollection","features":[{"type":"Feature","geometry":{"type":"Polygon","coordinates":[[[-1.546353,55.041248],[-1.545972,55.041042],[-1.545306,55.040676],[-1.544437,55.040172],[-1.54388,55.039861],[-1.536017,55.025542],[-1.540779,55.023963],[-1.537153,55.02353],[-1.534535,55.023416],[-1.534084,55.023207],[-1.533709,55.022782],[-1.532614,55.022364],[-1.531971,55.022198],[-1.531262,55.022103],[-1.530426,55.022035],[-1.52976,55.022044],[-1.52946,55.022051],[-1.528183,55.02213],[-1.5277,55.021883],[-1.5274,55.021843],[-1.526869,55.021877],[-1.526241,55.021875],[-1.525453,55.021881],[-1.524868,55.021884],[-1.523151,55.021872],[-1.522143,55.021897],[-1.521172,55.021943],[-1.52011,55.021983],[-1.519058,55.022201],[-1.517379,55.022306],[-1.517165,55.02277],[-1.514756,55.025033],[-1.514338,55.026008],[-1.514091,55.02598],[-1.513463,55.025642],[-1.51364,55.026405],[-1.513844,55.027177],[-1.513002,55.027555],[-1.511618,55.028124],[-1.510459,55.028468],[-1.509638,55.02816],[-1.508399,55.028034],[-1.507407,55.027859],[-1.506473,55.027635],[-1.505395,55.027453],[-1.50422,55.027253],[-1.501554,55.026728],[-1.50017,55.026466],[-1.498824,55.026159],[-1.496281,55.025381],[-1.495063,55.025015],[-1.494162,55.02467],[-1.493486,55.024351],[-1.492921,55.025093],[-1.492735,55.025141],[-1.492547,55.025138],[-1.49096,55.025073],[-1.49001,55.025058],[-1.489431,55.025006],[-1.488894,55.025027],[-1.487938,55.025028],[-1.486775,55.02491],[-1.485922,55.024784],[-1.484088,55.024538],[-1.482553,55.024375],[-1.481819,55.024301],[-1.480858,55.02404],[-1.480327,55.023299],[-1.479818,55.02269],[-1.479383,55.022084],[-1.478916,55.021549],[-1.47853,55.021223],[-1.47809,55.020928],[-1.477774,55.020682],[-1.477522,55.020408],[-1.477253,55.019907],[-1.476915,55.019415],[-1.476604,55.018849],[-1.476245,55.0184],[-1.475966,55.018129],[-1.475784,55.018046],[-1.475231,55.017819],[-1.472098,55.01681],[-1.470457,55.016269],[-1.470097,55.016078],[-1.469786,55.015853],[-1.469319,55.015491],[-1.469055,55.015379],[-1.468686,55.015521],[-1.468574,55.015669],[-1.467769,55.016533],[-1.466723,55.017696],[-1.465886,55.018535],[-1.465012,55.0192],[-1.464019,55.019815],[-1.462898,55.020356],[-1.461718,55.020845],[-1.460447,55.021236],[-1.458328,55.021691],[-1.454278,55.022518],[-1.45363,55.02271],[-1.45336,55.022413],[-1.452979,55.022158],[-1.452271,55.021608],[-1.451713,55.021039],[-1.451252,55.020433],[-1.451134,55.020224],[-1.451005,55.020027],[-1.450694,55.019375],[-1.450512,55.018695],[-1.450367,55.01733],[-1.450356,55.016862],[-1.450206,55.016204],[-1.450013,55.015275],[-1.449884,55.014783],[-1.449769,55.0147],[-1.449525,55.014599],[-1.449122,55.014537],[-1.444563,55.014906],[-1.443066,55.015023],[-1.442381,55.015102],[-1.442154,55.015171],[-1.441446,55.015537],[-1.440539,55.01598],[-1.438807,55.016881],[-1.438131,55.016998],[-1.437181,55.017225],[-1.436666,55.017425],[-1.436205,55.017662],[-1.435454,55.017914],[-1.433737,55.018394],[-1.432096,55.01888],[-1.431634,55.019031],[-1.431184,55.019224],[-1.430437,55.019675],[-1.431007,55.020095],[-1.432214,55.020654],[-1.433265,55.021149],[-1.433828,55.021509],[-1.434252,55.021906],[-1.434472,55.022367],[-1.434499,55.022782],[-1.434381,55.023142],[-1.434209,55.023517],[-1.43415,55.023899],[-1.434263,55.024424],[-1.434617,55.024886],[-1.434381,55.02515],[-1.433882,55.025224],[-1.432788,55.025476],[-1.432058,55.025664],[-1.431382,55.025876],[-1.43076,55.026113],[-1.430379,55.026285],[-1.429735,55.026494],[-1.417517,55.029166],[-1.44745,55.07463],[-1.45695,55.076777],[-1.467222,55.075223],[-1.467801,55.075238],[-1.468965,55.075069],[-1.469877,55.07486],[-1.471331,55.074384],[-1.472409,55.073536],[-1.472892,55.073079],[-1.473632,55.071297],[-1.473842,55.070984],[-1.474185,55.070775],[-1.475639,55.07045],[-1.476234,55.070232],[-1.477275,55.069135],[-1.478283,55.068042],[-1.478525,55.067231],[-1.479179,55.066721],[-1.479651,55.066291],[-1.480118,55.065944],[-1.480665,55.065627],[-1.481169,55.065449],[-1.48177,55.065292],[-1.48146,55.064536],[-1.481127,55.063784],[-1.480408,55.062614],[-1.480992,55.062208],[-1.482119,55.061572],[-1.483471,55.06069],[-1.483787,55.060073],[-1.485767,55.059001],[-1.487204,55.058303],[-1.488036,55.057895],[-1.488159,55.057661],[-1.487666,55.056598],[-1.487199,55.055464],[-1.487229,55.055095],[-1.487478,55.054644],[-1.48751,55.054472],[-1.493007,55.054393],[-1.497959,55.051546],[-1.50742,55.048314],[-1.506672,55.044794],[-1.508024,55.044813],[-1.508405,55.044736],[-1.508587,55.044731],[-1.508979,55.04473],[-1.509212,55.044718],[-1.510883,55.044443],[-1.51124,55.04439],[-1.511658,55.04437],[-1.512629,55.044407],[-1.513072,55.044389],[-1.513399,55.044272],[-1.513675,55.044101],[-1.514236,55.043875],[-1.514598,55.04376],[-1.515016,55.043682],[-1.515137,55.043637],[-1.515478,55.043425],[-1.515824,55.043245],[-1.516258,55.042964],[-1.516435,55.042861],[-1.516591,55.042797],[-1.51665,55.0428],[-1.51747,55.04343],[-1.51842,55.044109],[-1.518887,55.04436],[-1.51916,55.04445],[-1.519459,55.044527],[-1.520461,55.044825],[-1.521231,55.045269],[-1.524374,55.045409],[-1.525651,55.046878],[-1.527078,55.048273],[-1.528677,55.047899],[-1.528902,55.047969],[-1.529487,55.04831],[-1.529943,55.048519],[-1.530334,55.048648],[-1.530865,55.048808],[-1.531456,55.048937],[-1.531761,55.048986],[-1.532035,55.049005],[-1.532818,55.049054],[-1.533574,55.049011],[-1.534154,55.048962],[-1.534384,55.048999],[-1.549931,55.046134],[-1.55081,55.04595],[-1.550918,55.045692],[-1.550124,55.044438],[-1.548793,55.042938],[-1.548128,55.042483],[-1.547699,55.042077],[-1.547034,55.041647],[-1.546653,55.041435],[-1.546353,55.041248]]]},"properties":{"code":"A87020","name":"BRIDGE AND MONKSEATON MEDICAL PRACTICE","icb":"QHM"}}]}