{"type":"FeatureCollection","features":[{"type":"Feature","geometry":{"type":"Polygon","coordinates":[[[-1.42616,55.02714],[-1.4308,55.04071],[-1.44882,55.05274],[-1.45324,55.06446],[-1.45822,55.06398],[-1.46444,55.06311],[-1.47371,55.05689],[-1.49204,55.04979],[-1.49599,55.04708],[-1.49955,55.04695],[-1.50191,55.04658],[-1.50298,55.0457],[-1.50343,55.04391],[-1.50212,55.04189],[-1.49004,55.03025],[-1.48097,55.02411],[-1.47564,55.01806],[-1.46899,55.01577],[-1.46593,55.01881],[-1.46236,55.02072],[-1.45604,55.02238],[-1.4523,55.02315],[-1.44473,55.02407],[-1.43511,55.02509],[-1.42982,55.02661],[-1.42616,55.02714]]]},"properties":{"code":"A87600","name":"","icb":""}}]}