{"type":"FeatureCollection","features":[{"type":"Feature","geometry":{"type":"Polygon","coordinates":[[[-1.554054,55.06215],[-1.57512,55.05591],[-1.57619,55.05478],[-1.58031,55.05183],[-1.58426,55.04956],[-1.58941,55.04642],[-1.59182,55.04332],[-1.59267,55.03968],[-1.59182,55.03452],[-1.59053,55.03142],[-1.58873,55.02797],[-1.58504,55.02369],[-1.58469,55.02128],[-1.58504,55.01808],[-1.58298,55.01439],[-1.57894,55.00927],[-1.57285,55.01041],[-1.56838,55.01119],[-1.56487,55.0111],[-1.56126,55.01169],[-1.55834,55.01237],[-1.55233,55.01444],[-1.55045,55.01444],[-1.54787,55.01533],[-1.54075,55.0199],[-1.53517,55.023],[-1.53414,55.0233],[-1.53354,55.02286],[-1.53139,55.02212],[-1.5289,55.02231],[-1.52641,55.0232],[-1.52521,55.02497],[-1.52521,55.02689],[-1.52392,55.02797],[-1.52452,55.02866],[-1.52358,55.0291],[-1.521737,55.032523],[-1.525986,55.037393],[-1.523389,55.044278],[-1.535429,55.045729],[-1.54032,55.046614],[-1.547014,55.049171],[-1.549418,55.052514],[-1.554054,55.06215]]]},"properties":{"code":"A87615","name":"MALLARD MEDICAL PRACTICE","icb":"QHM"}}]}