{"type":"FeatureCollection","features":[{"type":"Feature","geometry":{"type":"Polygon","coordinates":[[[-1.431675,54.951678],[-1.43176,54.95179],[-1.43162,54.95166],[-1.431675,54.951678],[-1.43148,54.95142],[-1.42462,54.95036],[-1.41964,54.95078],[-1.41191,54.9516],[-1.40667,54.95282],[-1.40195,54.95359],[-1.39945,54.95776],[-1.39677,54.96382],[-1.38677,54.97308],[-1.37612,54.9755],[-1.432,55.00617],[-1.43612,54.99987],[-1.45226,54.98313],[-1.48556,54.9853],[-1.47457,54.96559],[-1.47388,54.96342],[-1.47152,54.96015],[-1.4641,54.9596],[-1.45782,54.95951],[-1.45126,54.95905],[-1.44701,54.95796],[-1.4417,54.95492],[-1.431675,54.951678]]]},"properties":{"code":"A88008","name":"TRINITY MEDICAL CENTRE","icb":"QHM"}}]}