{"type":"FeatureCollection","features":[{"type":"Feature","geometry":{"type":"Polygon","coordinates":[[[-1.435603,55.006369],[-1.437148,55.005779],[-1.439208,55.004204],[-1.442641,54.998888],[-1.445559,54.993767],[-1.447104,54.990517],[-1.448993,54.98904],[-1.452084,54.986183],[-1.452084,54.978599],[-1.465559,54.97818],[-1.481016,54.977564],[-1.481266,54.977712],[-1.478869,54.976234],[-1.478096,54.975151],[-1.476378,54.973821],[-1.475862,54.972146],[-1.475089,54.969682],[-1.473629,54.96712],[-1.488654,54.960567],[-1.495428,54.956255],[-1.501913,54.95416],[-1.491226,54.950217],[-1.49148,54.94925],[-1.473023,54.942329],[-1.472682,54.941097],[-1.472769,54.93947],[-1.4708,54.939766],[-1.467023,54.940161],[-1.468567,54.939766],[-1.467537,54.939668],[-1.466678,54.939668],[-1.464102,54.93947],[-1.462211,54.939371],[-1.461009,54.93878],[-1.459635,54.939569],[-1.458434,54.94016],[-1.457061,54.940062],[-1.454829,54.939273],[-1.452425,54.939371],[-1.446759,54.939371],[-1.44487,54.941738],[-1.439038,54.945929],[-1.425474,54.944499],[-1.4114,54.9444],[-1.351662,54.948122],[-1.351652,54.972293],[-1.363664,54.980963],[-1.378774,54.988448],[-1.401096,55.00381],[-1.410368,55.004597],[-1.411398,55.004401],[-1.413458,55.006763],[-1.414145,55.006566],[-1.417579,55.005976],[-1.420326,55.006566],[-1.423759,55.008141],[-1.426849,55.008339],[-1.429939,55.008339],[-1.430625,55.007551],[-1.433372,55.006566],[-1.433715,55.006369],[-1.434229,55.006173],[-1.433886,55.005976],[-1.435088,55.005976],[-1.435603,55.006369]]]},"properties":{"code":"A88002","name":"FARNHAM MEDICAL CTR.","icb":"QHM"}}]}