{"type":"FeatureCollection","features":[{"type":"Feature","geometry":{"type":"Polygon","coordinates":[[[-1.487821,54.962097],[-1.487729,54.962124],[-1.48736,54.96172],[-1.48393,54.96291],[-1.47895,54.96377],[-1.47466,54.96542],[-1.475287,54.965841],[-1.4747,54.96557],[-1.4744,54.96579],[-1.47616,54.97247],[-1.476538,54.972422],[-1.47637,54.97353],[-1.48109,54.97732],[-1.48212,54.9788],[-1.49219,54.979193],[-1.49015,54.97931],[-1.49122,54.98254],[-1.49401,54.98247],[-1.496914,54.982679],[-1.49689,54.98293],[-1.499513,54.98324],[-1.50071,54.98394],[-1.50208,54.98402],[-1.505223,54.98399],[-1.5056,54.98604],[-1.51294,54.98606],[-1.51697,54.98574],[-1.51865,54.98517],[-1.51916,54.9854],[-1.52178,54.9849],[-1.521705,54.984896],[-1.52504,54.98394],[-1.52783,54.98244],[-1.52972,54.98072],[-1.53113,54.97921],[-1.53173,54.97766],[-1.53186,54.97764],[-1.53264,54.97232],[-1.532368,54.972302],[-1.53427,54.96424],[-1.530332,54.963746],[-1.5301,54.96333],[-1.53384,54.96416],[-1.53131,54.96318],[-1.52813,54.96347],[-1.527972,54.963583],[-1.52847,54.96086],[-1.52401,54.96126],[-1.51096,54.95692],[-1.51083,54.956749],[-1.51103,54.95693],[-1.51427,54.958],[-1.51139,54.95607],[-1.51154,54.95622],[-1.509463,54.954943],[-1.50753,54.95239],[-1.507375,54.95247],[-1.506301,54.952311],[-1.5062,54.95224],[-1.50324,54.95382],[-1.49933,54.95522],[-1.497153,54.955889],[-1.49693,54.95574],[-1.48736,54.96165],[-1.487821,54.962097]]]},"properties":{"code":"A88022","name":"THE GLEN MEDICAL GROUP","icb":"QHM"}}]}