{"type":"FeatureCollection","features":[{"type":"Feature","geometry":{"type":"Polygon","coordinates":[[[-1.45672,54.96451],[-1.44917,54.965],[-1.43904,54.96668],[-1.417164,54.971934],[-1.416836,54.971832],[-1.41569,54.96825],[-1.40556,54.96963],[-1.38857,54.97239],[-1.37655,54.97574],[-1.38222,54.97968],[-1.38805,54.98254],[-1.391292,54.983802],[-1.406583,54.991993],[-1.41037,54.99712],[-1.414952,54.999174],[-1.42479,55.00558],[-1.425601,55.005601],[-1.42576,55.005652],[-1.42616,55.00598],[-1.43131,55.00598],[-1.432051,55.005785],[-1.43234,55.00578],[-1.432476,55.005673],[-1.43955,55.00381],[-1.438524,55.000673],[-1.43869,54.9982],[-1.438029,54.995312],[-1.441256,54.990641],[-1.44539,54.98815],[-1.44659,54.9853],[-1.444051,54.979747],[-1.444106,54.979631],[-1.445563,54.978799],[-1.452604,54.975048],[-1.46736,54.96806],[-1.45672,54.96451]]]},"properties":{"code":"A88601","name":"IMEARY MEDICAL GROUP","icb":"QHM"}}]}