{"type":"FeatureCollection","features":[{"type":"Feature","geometry":{"type":"Polygon","coordinates":[[[-1.47388,54.94213],[-1.473864,54.942875],[-1.473597,54.943008],[-1.47251,54.94292],[-1.47251,54.958],[-1.47234,54.958122],[-1.46178,54.959513],[-1.458607,54.959778],[-1.455002,54.95968],[-1.454143,54.964213],[-1.466509,54.967761],[-1.464448,54.968845],[-1.462216,54.969633],[-1.453116,54.974954],[-1.450539,54.97653],[-1.449509,54.979682],[-1.451774,54.98499],[-1.451918,54.985733],[-1.452076,54.985812],[-1.45226,54.98707],[-1.4601,54.985574],[-1.467149,54.985646],[-1.47217,54.98668],[-1.480737,54.986281],[-1.48796,54.98648],[-1.496876,54.98628],[-1.50375,54.98668],[-1.51714,54.98668],[-1.523268,54.984229],[-1.52504,54.98372],[-1.53053,54.98018],[-1.531973,54.977202],[-1.53259,54.97663],[-1.53603,54.96283],[-1.532592,54.961602],[-1.530614,54.960119],[-1.530705,54.958054],[-1.523323,54.960518],[-1.516109,54.958546],[-1.514396,54.952189],[-1.515593,54.946224],[-1.535254,54.946421],[-1.534052,54.939766],[-1.522891,54.9444],[-1.51989,54.945682],[-1.51543,54.94568],[-1.502757,54.94536],[-1.496196,54.944832],[-1.47388,54.94213]]]},"properties":{"code":"A88613","name":"EAST WING PRACTICE","icb":"QHM"}}]}