{"type":"FeatureCollection","features":[{"type":"Feature","geometry":{"type":"Polygon","coordinates":[[[-1.53688,54.87503],[-1.51182,54.87522],[-1.505648,54.88282],[-1.49517,54.89102],[-1.4953,54.89113],[-1.495229,54.891319],[-1.48315,54.89556],[-1.4768,54.90099],[-1.499084,54.903791],[-1.499258,54.903922],[-1.49912,54.90563],[-1.50873,54.92734],[-1.56057,54.88125],[-1.560161,54.881301],[-1.559861,54.881128],[-1.56195,54.87552],[-1.53688,54.87503]]]},"properties":{"code":"A89010","name":"THE STEPHENSON MEDICAL PRACTICE","icb":"QHM"}}]}