{"type":"FeatureCollection","features":[{"type":"Feature","geometry":{"type":"Polygon","coordinates":[[[-1.508964,54.872682],[-1.497792,54.89253],[-1.49489,54.89427],[-1.49169,54.89796],[-1.499117,54.907606],[-1.49878,54.91234],[-1.503089,54.912215],[-1.50365,54.91625],[-1.50736,54.92189],[-1.507497,54.92189],[-1.51641,54.92645],[-1.52427,54.92549],[-1.53079,54.92639],[-1.538,54.92591],[-1.54092,54.92223],[-1.53234,54.92191],[-1.53723,54.921839],[-1.55641,54.92342],[-1.55178,54.9152],[-1.55611,54.90716],[-1.555988,54.907161],[-1.55907,54.89764],[-1.55892,54.8932],[-1.55843,54.88875],[-1.555734,54.888803],[-1.55311,54.88174],[-1.56238,54.87883],[-1.56092,54.87532],[-1.5132,54.86515],[-1.509061,54.872509],[-1.50714,54.87163],[-1.50987,54.86906],[-1.50751,54.86675],[-1.507397,54.866382],[-1.50362,54.86606],[-1.50594,54.86694],[-1.50718,54.86719],[-1.50661,54.86842],[-1.50504,54.87063],[-1.508964,54.872682]]]},"properties":{"code":"A89022","name":"CONCORD MEDICAL PRACTICE","icb":"QHM"}}]}