{"type":"FeatureCollection","features":[{"type":"Feature","geometry":{"type":"Polygon","coordinates":[[[-1.456846,54.903881],[-1.45449,54.89917],[-1.45646,54.89379],[-1.45715,54.89013],[-1.45131,54.87596],[-1.45037,54.87048],[-1.44135,54.87073],[-1.44522,54.86599],[-1.44436,54.865],[-1.43638,54.86544],[-1.42797,54.8689],[-1.4229,54.87513],[-1.42084,54.87878],[-1.42342,54.8809],[-1.41947,54.88303],[-1.41037,54.8854],[-1.40548,54.88535],[-1.405262,54.885196],[-1.40531,54.88515],[-1.4023,54.88303],[-1.402226,54.883048],[-1.40213,54.88298],[-1.399298,54.883765],[-1.39466,54.8849],[-1.393066,54.887023],[-1.38539,54.88431],[-1.38213,54.88159],[-1.379008,54.880029],[-1.3781,54.87942],[-1.377181,54.879116],[-1.37681,54.87893],[-1.36333,54.87759],[-1.35467,54.8773],[-1.354169,54.878385],[-1.35321,54.87977],[-1.358129,54.887428],[-1.35921,54.88925],[-1.359284,54.892999],[-1.359053,54.900881],[-1.358977,54.901377],[-1.35098,54.90608],[-1.353833,54.908616],[-1.355696,54.910446],[-1.35836,54.91323],[-1.36642,54.91353],[-1.367725,54.912423],[-1.37175,54.90958],[-1.3763,54.90997],[-1.3823,54.90943],[-1.38745,54.90988],[-1.3932,54.91279],[-1.39372,54.9159],[-1.39775,54.91673],[-1.397783,54.916703],[-1.39792,54.91673],[-1.40076,54.91422],[-1.40694,54.91303],[-1.41106,54.91372],[-1.41603,54.91624],[-1.42342,54.91619],[-1.42797,54.9152],[-1.434887,54.911965],[-1.438804,54.910976],[-1.43972,54.9116],[-1.448842,54.907776],[-1.45689,54.90455],[-1.456473,54.904576],[-1.45749,54.90415],[-1.456846,54.903881]]]},"properties":{"code":"A89013","name":"THE NEW CITY MEDICAL GROUP","icb":"QHM"}}]}