{"type":"FeatureCollection","features":[{"type":"Feature","geometry":{"type":"Polygon","coordinates":[[[-1.42959,54.894833],[-1.4287,54.893305],[-1.426344,54.891788],[-1.422601,54.890168],[-1.421576,54.889611],[-1.420394,54.889091],[-1.419424,54.888565],[-1.418808,54.888392],[-1.41488,54.889582],[-1.41416,54.889925],[-1.412433,54.890612],[-1.41184,54.890534],[-1.410465,54.891189],[-1.406042,54.891817],[-1.402964,54.893078],[-1.401592,54.892727],[-1.400577,54.892593],[-1.400926,54.892283],[-1.401875,54.891212],[-1.402225,54.890032],[-1.402138,54.88901],[-1.400372,54.88901],[-1.399052,54.888793],[-1.397573,54.888515],[-1.393203,54.887377],[-1.391358,54.88659],[-1.389306,54.886043],[-1.38655,54.88485],[-1.38372,54.883195],[-1.382232,54.884158],[-1.380714,54.884995],[-1.379215,54.885709],[-1.377814,54.886283],[-1.376379,54.887212],[-1.374968,54.887989],[-1.372495,54.889235],[-1.374543,54.890946],[-1.375089,54.892041],[-1.37591,54.8931],[-1.377458,54.894235],[-1.379092,54.895328],[-1.379374,54.895604],[-1.380752,54.897311],[-1.381592,54.898129],[-1.38381,54.899557],[-1.38364,54.899667],[-1.38245,54.899836],[-1.381491,54.900019],[-1.381446,54.90007],[-1.381337,54.903022],[-1.381213,54.904316],[-1.384596,54.903027],[-1.385962,54.904167],[-1.38741,54.90376],[-1.38908,54.90284],[-1.389182,54.903315],[-1.391343,54.902655],[-1.39518,54.903074],[-1.398439,54.902464],[-1.405302,54.901378],[-1.406301,54.901378],[-1.411107,54.900092],[-1.414455,54.899087],[-1.416462,54.898391],[-1.423844,54.896166],[-1.42959,54.894833]]]},"properties":{"code":"A89034","name":"PARK LANE PRACTICE","icb":"QHM"}}]}