{"type":"FeatureCollection","features":[{"type":"Feature","geometry":{"type":"Polygon","coordinates":[[[-1.419253,54.863638],[-1.411382,54.867916],[-1.401808,54.873007],[-1.397478,54.875174],[-1.39288,54.87734],[-1.392821,54.877504],[-1.39251,54.87766],[-1.393813,54.888149],[-1.39376,54.888236],[-1.389853,54.890668],[-1.38942,54.89077],[-1.389567,54.89086],[-1.391392,54.893394],[-1.39116,54.89398],[-1.391315,54.894005],[-1.391409,54.893975],[-1.391782,54.894043],[-1.391909,54.89411],[-1.39461,54.89786],[-1.394928,54.897995],[-1.39466,54.90706],[-1.41449,54.91392],[-1.43045,54.91382],[-1.448447,54.906633],[-1.45384,54.90597],[-1.455089,54.895857],[-1.45736,54.88947],[-1.45552,54.88507],[-1.45002,54.87287],[-1.41932,54.863859],[-1.419253,54.863638]]]},"properties":{"code":"A89614","name":"SUNDERLAND GP ALLIANCE SOUTH HYLTON SURG","icb":"QHM"}}]}