{"type":"FeatureCollection","features":[{"type":"Feature","geometry":{"type":"Polygon","coordinates":[[[-0.453526,53.711612],[-0.356522,53.733038],[-0.356562,53.733454],[-0.356413,53.733581],[-0.312778,53.741523],[-0.312802,53.741627],[-0.31257,53.741781],[-0.22775,53.740846],[-0.227608,53.745236],[-0.227386,53.745364],[-0.227378,53.745369],[-0.227599,53.745504],[-0.227515,53.748082],[-0.227734,53.748249],[-0.235492,53.807592],[-0.357203,53.809737],[-0.457864,53.806823],[-0.47667,53.758833],[-0.486297,53.746223],[-0.48585,53.746222],[-0.485633,53.746103],[-0.482879,53.725947],[-0.483041,53.725813],[-0.484452,53.725602],[-0.453526,53.711612]]]},"properties":{"code":"B81052","name":"","icb":""}}]}