{"type":"FeatureCollection","features":[{"type":"Feature","geometry":{"type":"Polygon","coordinates":[[[-0.37354,53.92132],[-0.35019,53.8663],[-0.31551,53.8426],[-0.28942,53.82295],[-0.24685,53.80856],[-0.21097,53.82305],[-0.20874,53.85212],[-0.21286,53.94396],[-0.21492,53.99162],[-0.21664,54.01342],[-0.22385,54.03439],[-0.24427,54.04377],[-0.26273,54.04321],[-0.27775,54.03782],[-0.29268,54.03167],[-0.30208,54.02761],[-0.31011,54.02234],[-0.32259,54.01869],[-0.32822,54.00898],[-0.34161,53.99364],[-0.3677,53.95103],[-0.37354,53.92132]]]},"properties":{"code":"B81034","name":"LEVEN & BEEFORD MEDICAL PRACTICE","icb":"QOQ"}}]}