{"type":"FeatureCollection","features":[{"type":"Feature","geometry":{"type":"Polygon","coordinates":[[[-0.78483,53.94316],[-0.83153,53.91202],[-0.83839,53.82619],[-0.77454,53.78321],[-0.70175,53.75927],[-0.60356,53.76454],[-0.54176,53.78037],[-0.50811,53.79234],[-0.50056,53.81322],[-0.49095,53.84645],[-0.48597,53.86255],[-0.48194,53.8705],[-0.48615,53.87844],[-0.50743,53.9288],[-0.5476,53.97931],[-0.78483,53.94316]]]},"properties":{"code":"B81009","name":"MARKET WEIGHTON GROUP PRACTICE","icb":"QOQ"}}]}