{"type":"FeatureCollection","features":[{"type":"Feature","geometry":{"type":"Polygon","coordinates":[[[-0.434926,53.738474],[-0.42863,53.739819],[-0.4273,53.741609],[-0.427162,53.742428],[-0.425289,53.742372],[-0.423727,53.742484],[-0.418294,53.744546],[-0.418152,53.745389],[-0.420682,53.746364],[-0.423512,53.746925],[-0.425758,53.746992],[-0.42822,53.747007],[-0.427861,53.749131],[-0.427473,53.750217],[-0.425793,53.750398],[-0.421119,53.75196],[-0.420709,53.753607],[-0.426233,53.753847],[-0.427699,53.756099],[-0.427796,53.758641],[-0.427196,53.759959],[-0.427883,53.763003],[-0.44489,53.763105],[-0.445748,53.765134],[-0.450558,53.765439],[-0.452276,53.762496],[-0.456227,53.764018],[-0.456571,53.759655],[-0.46035,53.759249],[-0.460178,53.757524],[-0.472547,53.758234],[-0.473062,53.750723],[-0.483369,53.746359],[-0.497283,53.744024],[-0.502952,53.739353],[-0.504498,53.736815],[-0.501922,53.732855],[-0.499817,53.732657],[-0.497627,53.733058],[-0.497079,53.732847],[-0.478216,53.736612],[-0.467221,53.737323],[-0.451246,53.74047],[-0.434926,53.738474]]]},"properties":{"code":"B81024","name":"WILLERBY AND SWANLAND SURGERY","icb":"QOQ"}}]}