{"type":"FeatureCollection","features":[{"type":"Feature","geometry":{"type":"Polygon","coordinates":[[[-0.092074,53.800365],[-0.088968,53.800435],[-0.085725,53.800416],[-0.058509,53.800852],[-0.058301,53.800797],[-0.035019,53.786861],[-0.082676,53.828687],[-0.086519,53.833081],[-0.121885,53.860841],[-0.169142,53.925643],[-0.170215,53.92562],[-0.170442,53.925861],[-0.170228,53.926048],[-0.191574,53.964115],[-0.225906,53.959267],[-0.238472,53.946746],[-0.238673,53.946659],[-0.267505,53.946608],[-0.287632,53.919845],[-0.287453,53.919863],[-0.287177,53.919715],[-0.290971,53.892071],[-0.28676,53.869636],[-0.286594,53.869591],[-0.230228,53.837611],[-0.229174,53.837607],[-0.116305,53.820028],[-0.116129,53.819909],[-0.115735,53.819808],[-0.092074,53.800365]]]},"properties":{"code":"B81004","name":"EASTGATE MEDICAL GROUP, HORNSEA","icb":"QOQ"}}]}