{"type":"FeatureCollection","features":[{"type":"Feature","geometry":{"type":"Polygon","coordinates":[[[-0.411585,53.771018],[-0.43106,53.769901],[-0.4516,53.76886],[-0.454726,53.765283],[-0.455183,53.765024],[-0.457079,53.764401],[-0.46984,53.7614],[-0.4734,53.76013],[-0.47602,53.75848],[-0.47743,53.75683],[-0.477606,53.756198],[-0.47812,53.75523],[-0.47833,53.75351],[-0.477191,53.74879],[-0.47679,53.74686],[-0.476649,53.746543],[-0.47645,53.74572],[-0.474708,53.742192],[-0.4725,53.73724],[-0.47106,53.735521],[-0.47035,53.73455],[-0.46555,53.73084],[-0.45525,53.72343],[-0.451801,53.720595],[-0.451568,53.720254],[-0.45079,53.715994],[-0.45074,53.71538],[-0.43508,53.71835],[-0.42559,53.71977],[-0.4183,53.7202],[-0.39894,53.72378],[-0.391827,53.724943],[-0.38212,53.72642],[-0.37422,53.72843],[-0.369302,53.729823],[-0.36049,53.73201],[-0.358241,53.732955],[-0.35727,53.73323],[-0.35628,53.73417],[-0.356272,53.734394],[-0.35585,53.73488],[-0.35628,53.73572],[-0.356613,53.73613],[-0.35693,53.73681],[-0.35907,53.73955],[-0.359416,53.741014],[-0.35942,53.741477],[-0.3592,53.743],[-0.359322,53.743062],[-0.35907,53.74445],[-0.35942,53.74874],[-0.35976,53.7513],[-0.36088,53.75173],[-0.362368,53.75153],[-0.366363,53.751222],[-0.373117,53.751143],[-0.37349,53.753],[-0.37367,53.75324],[-0.37384,53.75412],[-0.37439,53.75851],[-0.37491,53.76104],[-0.374999,53.760648],[-0.375054,53.76098],[-0.37499,53.76109],[-0.37508,53.76114],[-0.380207,53.762708],[-0.38534,53.7652],[-0.38832,53.76728],[-0.39388,53.7722],[-0.411585,53.771018]]]},"properties":{"code":"B81038","name":"THE OAKS MEDICAL CENTRE","icb":"QOQ"}}]}