{"type":"FeatureCollection","features":[{"type":"Feature","geometry":{"type":"Polygon","coordinates":[[[-0.41924,53.719644],[-0.405121,53.722412],[-0.395594,53.722412],[-0.388041,53.723783],[-0.376969,53.725967],[-0.366583,53.728709],[-0.356541,53.731248],[-0.352679,53.732365],[-0.348044,53.733736],[-0.343152,53.735157],[-0.337487,53.736833],[-0.331822,53.738153],[-0.326243,53.738914],[-0.319634,53.740183],[-0.312768,53.740793],[-0.302467,53.740792],[-0.294229,53.741808],[-0.277275,53.740869],[-0.275087,53.747949],[-0.275389,53.749142],[-0.272126,53.750792],[-0.268393,53.751781],[-0.269722,53.755029],[-0.273114,53.757211],[-0.272684,53.76155],[-0.270495,53.76675],[-0.268436,53.770276],[-0.266376,53.771848],[-0.268779,53.772888],[-0.26118,53.77865],[-0.259681,53.78009],[-0.258822,53.780826],[-0.25865,53.78169],[-0.25891,53.78321],[-0.26311,53.78296],[-0.265605,53.78236],[-0.265866,53.782408],[-0.266762,53.783232],[-0.26839,53.78488],[-0.27337,53.78235],[-0.271038,53.780572],[-0.271007,53.780458],[-0.271783,53.781029],[-0.274143,53.780243],[-0.275131,53.779888],[-0.277019,53.781181],[-0.28063,53.78348],[-0.304267,53.798344],[-0.317659,53.814867],[-0.339503,53.811953],[-0.346229,53.810585],[-0.349245,53.809521],[-0.352163,53.809293],[-0.354695,53.806531],[-0.357871,53.80501],[-0.361518,53.804706],[-0.367013,53.804376],[-0.372334,53.804047],[-0.377356,53.802019],[-0.37757,53.801208],[-0.375939,53.799257],[-0.373108,53.800119],[-0.372807,53.799206],[-0.376279,53.796595],[-0.387225,53.793731],[-0.392908,53.790917],[-0.396452,53.782778],[-0.399242,53.782791],[-0.399027,53.779812],[-0.39791,53.777022],[-0.396879,53.774993],[-0.396021,53.773674],[-0.394649,53.772153],[-0.402867,53.767587],[-0.405336,53.764289],[-0.415934,53.760586],[-0.421041,53.755416],[-0.423219,53.753177],[-0.424047,53.750842],[-0.41984,53.747474],[-0.419819,53.746103],[-0.418296,53.745202],[-0.418318,53.744676],[-0.419809,53.744492],[-0.421901,53.744162],[-0.426019,53.742074],[-0.421312,53.734637],[-0.423886,53.73034],[-0.423617,53.727313],[-0.42263,53.724342],[-0.421942,53.724088],[-0.42117,53.722818],[-0.420313,53.721447],[-0.41924,53.719644]]]},"properties":{"code":"B81085","name":"HAXBY GROUP HULL","icb":"QOQ"}}]}