{"type":"FeatureCollection","features":[{"type":"Feature","geometry":{"type":"Polygon","coordinates":[[[-0.65514,53.519429],[-0.592482,53.537172],[-0.590931,53.557461],[-0.579316,53.578379],[-0.568316,53.582657],[-0.56854,53.60554],[-0.575767,53.613703],[-0.576612,53.614444],[-0.579325,53.618335],[-0.580949,53.620756],[-0.583577,53.625084],[-0.585337,53.629598],[-0.589066,53.645129],[-0.589574,53.65358],[-0.61365,53.663046],[-0.643389,53.662544],[-0.670851,53.664578],[-0.70587,53.64464],[-0.710092,53.628539],[-0.694531,53.609256],[-0.711061,53.604584],[-0.720975,53.594543],[-0.723035,53.556626],[-0.65514,53.519429]]]},"properties":{"code":"B81026","name":"ANCORA MEDICAL PRACTICE","icb":"QOQ"}}]}