{"type":"FeatureCollection","features":[{"type":"Feature","geometry":{"type":"Polygon","coordinates":[[[0.123602,53.654812],[0.098876,53.679629],[0.005965,53.754468],[-0.045021,53.796741],[-0.091693,53.798769],[-0.109707,53.831533],[-0.18761,53.853815],[-0.284387,53.840244],[-0.279239,53.803765],[-0.248116,53.779189],[-0.237708,53.719539],[-0.204763,53.684785],[-0.17319,53.665465],[-0.122056,53.63433],[-0.087395,53.629444],[-0.053763,53.629241],[0.110555,53.574162],[0.148294,53.596173],[0.150366,53.605952],[0.123602,53.654812]]]},"properties":{"code":"B81025","name":"HOLDERNESS HEALTH","icb":"QOQ"}}]}