{"type":"FeatureCollection","features":[{"type":"Feature","geometry":{"type":"Polygon","coordinates":[[[-0.35435,53.807658],[-0.355844,53.806252],[-0.35871,53.805195],[-0.361732,53.804933],[-0.364687,53.803659],[-0.365722,53.802412],[-0.365378,53.799232],[-0.363128,53.79549],[-0.358643,53.793697],[-0.36694,53.795241],[-0.357357,53.779298],[-0.353765,53.768591],[-0.341872,53.767816],[-0.335914,53.767427],[-0.332599,53.767295],[-0.329921,53.767356],[-0.328543,53.766354],[-0.327848,53.765259],[-0.328151,53.762726],[-0.328131,53.758025],[-0.325002,53.757101],[-0.322197,53.755522],[-0.316459,53.751811],[-0.297145,53.762804],[-0.27581,53.77068],[-0.27241,53.77184],[-0.268847,53.773054],[-0.275056,53.77421],[-0.273804,53.778059],[-0.275295,53.779946],[-0.277398,53.781532],[-0.280282,53.783489],[-0.290191,53.790461],[-0.301738,53.796958],[-0.309256,53.805227],[-0.31633,53.813492],[-0.318735,53.816136],[-0.324518,53.815455],[-0.332084,53.814475],[-0.344181,53.820112],[-0.358679,53.817544],[-0.355174,53.815572],[-0.353947,53.813067],[-0.353936,53.810307],[-0.353486,53.808965],[-0.35435,53.807658]]]},"properties":{"code":"B81020","name":"THE SUTTON MANOR SURGERY","icb":"QOQ"}}]}