{"type":"FeatureCollection","features":[{"type":"Feature","geometry":{"type":"Polygon","coordinates":[[[-0.436368,53.717231],[-0.41233,53.72038],[-0.365839,53.729036],[-0.36564,53.72901],[-0.33148,53.73856],[-0.32976,53.74039],[-0.3283,53.74587],[-0.331638,53.749158],[-0.333045,53.751836],[-0.332902,53.752],[-0.32993,53.75257],[-0.32856,53.7548],[-0.33148,53.75663],[-0.335988,53.758606],[-0.336062,53.758745],[-0.334404,53.761692],[-0.332387,53.764085],[-0.332237,53.764149],[-0.32787,53.76454],[-0.32976,53.76678],[-0.332336,53.767283],[-0.336903,53.766782],[-0.339202,53.767486],[-0.343665,53.768094],[-0.346597,53.768198],[-0.349845,53.768602],[-0.351401,53.7685],[-0.356504,53.7685],[-0.359456,53.769109],[-0.36062,53.76918],[-0.361861,53.769718],[-0.361888,53.769431],[-0.362114,53.769308],[-0.36455,53.769347],[-0.366088,53.769418],[-0.366179,53.769373],[-0.371398,53.769456],[-0.374218,53.769921],[-0.383945,53.77067],[-0.397229,53.776515],[-0.399815,53.776227],[-0.400042,53.776294],[-0.401346,53.777834],[-0.403062,53.778239],[-0.403291,53.778091],[-0.403579,53.778074],[-0.405522,53.778888],[-0.405541,53.778654],[-0.408559,53.777529],[-0.430195,53.768805],[-0.432932,53.758264],[-0.438775,53.749929],[-0.438769,53.742417],[-0.435062,53.733029],[-0.43527,53.732862],[-0.465196,53.731654],[-0.441589,53.725983],[-0.441488,53.725928],[-0.438093,53.721917],[-0.436368,53.717231]]]},"properties":{"code":"B81027","name":"ST ANDREWS SURGERY","icb":"QOQ"}}]}