{"type":"FeatureCollection","features":[{"type":"Feature","geometry":{"type":"Polygon","coordinates":[[[-0.44632,53.76444],[-0.45198,53.7644],[-0.45971,53.75838],[-0.45799,53.75524],[-0.46177,53.7523],[-0.46216,53.75109],[-0.46048,53.75007],[-0.4525,53.74013],[-0.44662,53.74026],[-0.44207,53.74011],[-0.4398,53.74034],[-0.43868,53.7415],[-0.43602,53.73912],[-0.43576,53.73549],[-0.43585,53.73186],[-0.41988,53.7347],[-0.41036,53.73546],[-0.41044,53.73871],[-0.40924,53.74521],[-0.4098,53.74784],[-0.4107,53.75066],[-0.41267,53.75287],[-0.4198,53.75302],[-0.42555,53.75348],[-0.4272,53.7572],[-0.42885,53.76234],[-0.44177,53.76104],[-0.44632,53.76444]]]},"properties":{"code":"B81100","name":"DR AC MILNER","icb":"QOQ"}}]}