{"type":"FeatureCollection","features":[{"type":"Feature","geometry":{"type":"Polygon","coordinates":[[[0.009864,53.533206],[-0.003666,53.544399],[-0.029635,53.563672],[-0.040912,53.569313],[-0.048077,53.571544],[-0.054568,53.573036],[-0.080469,53.574261],[-0.12073,53.579774],[-0.145997,53.572161],[-0.162232,53.546988],[-0.157189,53.524646],[-0.108498,53.506781],[-0.071083,53.516274],[-0.034683,53.516655],[0.009864,53.533206]]]},"properties":{"code":"B81642","name":"DR OZ QURESHI","icb":"QOQ"}}]}