{"type":"FeatureCollection","features":[{"type":"Feature","geometry":{"type":"Polygon","coordinates":[[[-0.193167,53.771888],[-0.19089,53.7757],[-0.1902,53.79295],[-0.245092,53.802553],[-0.24616,53.80359],[-0.24839,53.82123],[-0.24908,53.82224],[-0.26436,53.83845],[-0.26796,53.83804],[-0.28908,53.83501],[-0.279451,53.82293],[-0.27157,53.80542],[-0.270195,53.804588],[-0.270195,53.803689],[-0.26995,53.803664],[-0.268665,53.803168],[-0.267963,53.802371],[-0.266561,53.801989],[-0.265425,53.801292],[-0.26487,53.800436],[-0.264015,53.798721],[-0.261784,53.797809],[-0.260182,53.797336],[-0.259093,53.796712],[-0.258179,53.795477],[-0.256845,53.794198],[-0.256645,53.793543],[-0.25681,53.79274],[-0.256795,53.792299],[-0.257835,53.79061],[-0.257907,53.790378],[-0.25942,53.78942],[-0.25955,53.78907],[-0.25955,53.78625],[-0.25899,53.784199],[-0.258596,53.783639],[-0.258128,53.781844],[-0.258183,53.781039],[-0.259895,53.779555],[-0.258179,53.778845],[-0.255321,53.779341],[-0.253217,53.779294],[-0.25208,53.77857],[-0.246591,53.77852],[-0.24273,53.77799],[-0.236388,53.77928],[-0.234925,53.779152],[-0.22969,53.7759],[-0.20119,53.75845],[-0.193167,53.771888]]]},"properties":{"code":"B81635","name":"LAURBEL SURGERY","icb":"QOQ"}}]}