{"type":"FeatureCollection","features":[{"type":"Feature","geometry":{"type":"Polygon","coordinates":[[[-1.199413,54.016318],[-1.196906,54.015341],[-1.196369,54.014506],[-1.1776,54.00333],[-1.119979,53.993564],[-1.108939,54.045279],[-1.070486,54.073491],[-1.107564,54.102087],[-1.13297,54.1375],[-1.26549,54.13026],[-1.33895,54.126183],[-1.342097,54.109465],[-1.31287,54.08356],[-1.26549,54.03722],[-1.243223,54.03347],[-1.23704,54.035645],[-1.229991,54.035532],[-1.223926,54.034509],[-1.222548,54.033158],[-1.222722,54.031444],[-1.222842,54.030255],[-1.22124,54.029303],[-1.217315,54.025452],[-1.217014,54.022401],[-1.217285,54.019729],[-1.213391,54.021602],[-1.217324,54.019339],[-1.216577,54.016597],[-1.207995,54.016458],[-1.204994,54.015724],[-1.202685,54.013665],[-1.200679,54.012295],[-1.196998,54.012704],[-1.196061,54.014028],[-1.196369,54.014506],[-1.199413,54.016318]]]},"properties":{"code":"B82064","name":"TOLLERTON SURGERY","icb":"QOQ"}}]}