{"type":"FeatureCollection","features":[{"type":"Feature","geometry":{"type":"Polygon","coordinates":[[[-1.137072,54.387955],[-1.040785,54.450297],[-1.026528,54.456514],[-1.060789,54.481957],[-1.085588,54.524299],[-1.085979,54.52513],[-1.091974,54.530412],[-1.099069,54.533175],[-1.130576,54.531542],[-1.161287,54.532338],[-1.161353,54.526867],[-1.164462,54.522689],[-1.169179,54.519931],[-1.171665,54.518476],[-1.174725,54.518555],[-1.178804,54.519945],[-1.182395,54.521701],[-1.185886,54.520544],[-1.187202,54.518487],[-1.185795,54.514979],[-1.190171,54.512986],[-1.192317,54.509946],[-1.31973,54.42812],[-1.306336,54.399948],[-1.26583,54.40854],[-1.136655,54.451471],[-1.136271,54.45134],[-1.137072,54.387955]]]},"properties":{"code":"B82022","name":"GREAT AYTON SURGERY","icb":"QOQ"}}]}