{"type":"FeatureCollection","features":[{"type":"Feature","geometry":{"type":"Polygon","coordinates":[[[-1.521628,54.108666],[-1.521735,54.105836],[-1.521091,54.06503],[-1.470537,54.037568],[-1.39078,54.03911],[-1.337972,54.008248],[-1.326599,54.004313],[-1.324925,54.004023],[-1.32323,54.003809],[-1.319475,54.003519],[-1.317265,54.003683],[-1.311986,54.003733],[-1.309326,54.003998],[-1.307437,54.004017],[-1.305056,54.004263],[-1.304723,54.003771],[-1.304187,54.003159],[-1.303768,54.00246],[-1.301193,54.002649],[-1.28231,54.034645],[-1.26729,54.067296],[-1.238194,54.131768],[-1.29981,54.18008],[-1.33688,54.18767],[-1.364021,54.182329],[-1.39041,54.17512],[-1.406937,54.175146],[-1.423588,54.174945],[-1.438866,54.174593],[-1.45535,54.17188],[-1.483455,54.141423],[-1.521649,54.114716],[-1.521692,54.112553],[-1.521628,54.108666]]]},"properties":{"code":"B82032","name":"CHURCH LANE SURGERY","icb":"QOQ"}}]}