{"type":"FeatureCollection","features":[{"type":"Feature","geometry":{"type":"Polygon","coordinates":[[[-1.620215,54.3959],[-1.620183,54.395924],[-1.620146,54.395947],[-1.620104,54.395965],[-1.620058,54.395981],[-1.61946,54.39615],[-1.621695,54.399349],[-1.621709,54.399375],[-1.621719,54.399401],[-1.621723,54.399428],[-1.621721,54.399455],[-1.62109,54.40345],[-1.62186,54.41254],[-1.632926,54.430114],[-1.632933,54.430126],[-1.63769,54.4392],[-1.64383,54.44908],[-1.6955,54.47263],[-1.75369,54.486],[-1.784825,54.484854],[-1.784876,54.484854],[-1.784927,54.484858],[-1.784977,54.484866],[-1.785024,54.484878],[-1.817547,54.494469],[-1.817553,54.494471],[-1.82652,54.49724],[-1.83103,54.49442],[-1.83666,54.487428],[-1.836676,54.487409],[-1.836695,54.487392],[-1.836717,54.487376],[-1.836741,54.487361],[-1.86012,54.47423],[-1.87832,54.45886],[-1.884817,54.450908],[-1.884843,54.450881],[-1.884875,54.450857],[-1.91299,54.43211],[-1.93411,54.41613],[-1.919931,54.392667],[-1.919917,54.39264],[-1.91991,54.392612],[-1.919909,54.392583],[-1.919914,54.392555],[-1.919925,54.392528],[-1.919942,54.392501],[-1.919964,54.392476],[-1.919992,54.392453],[-1.93102,54.38431],[-1.93205,54.38098],[-1.924428,54.379873],[-1.924392,54.379866],[-1.915295,54.377973],[-1.915233,54.377957],[-1.915177,54.377934],[-1.88278,54.36216],[-1.814142,54.349354],[-1.814099,54.349344],[-1.77017,54.33755],[-1.7173,54.32373],[-1.69129,54.33369],[-1.679902,54.344529],[-1.679878,54.344549],[-1.67985,54.344568],[-1.64761,54.36386],[-1.637104,54.380437],[-1.637088,54.380459],[-1.637068,54.38048],[-1.620215,54.3959]]]},"properties":{"code":"B82072","name":"THE FRIARY SURGERY","icb":"QOQ"}}]}