{"type":"FeatureCollection","features":[{"type":"Feature","geometry":{"type":"Polygon","coordinates":[[[-1.201825,53.949947],[-1.15331,53.90543],[-1.09058,53.89933],[-1.09017,53.8877],[-1.10722,53.87393],[-1.11386,53.86998],[-1.12284,53.86558],[-1.12647,53.8651],[-1.12743,53.86334],[-1.12599,53.86178],[-1.12112,53.85817],[-1.11354,53.85824],[-1.09303,53.85854],[-1.06157,53.85914],[-0.94963,53.85965],[-0.94466,53.86604],[-0.94201,53.8662],[-0.94021,53.86777],[-0.94038,53.87081],[-0.94159,53.87364],[-0.93853,53.87842],[-0.93437,53.8822],[-0.94034,53.88618],[-0.94731,53.89737],[-0.94307,53.89795],[-0.94197,53.90381],[-0.9392,53.90765],[-0.9335,53.90926],[-0.93209,53.91723],[-0.92882,53.91851],[-0.92899,53.92061],[-0.92537,53.92169],[-0.92271,53.92071],[-0.92279,53.92297],[-0.9273,53.93742],[-0.93318,53.93609],[-0.93809,53.94496],[-0.987226,53.989],[-0.99032,53.99556],[-0.979246,54.005045],[-0.984135,54.009383],[-0.993233,54.00787],[-1.004047,54.005449],[-1.018982,54.005448],[-1.03392,54.0119],[-1.045759,54.019167],[-1.058809,54.018461],[-1.074261,54.017049],[-1.088331,54.015637],[-1.102415,54.013418],[-1.19442,53.97305],[-1.20223,53.94972],[-1.201825,53.949947]]]},"properties":{"code":"B82005","name":"PRIORY MEDICAL GROUP","icb":"QOQ"}}]}