{"type":"FeatureCollection","features":[{"type":"Feature","geometry":{"type":"Polygon","coordinates":[[[-0.90672,53.9892],[-0.91993,53.95497],[-0.96911,53.95553],[-0.96075,53.99538],[-0.99021,53.99149],[-1.01795,53.97709],[-1.01435,53.95629],[-1.05263,53.91162],[-0.98156,53.89058],[-0.95289,53.89422],[-0.95306,53.84929],[-0.91221,53.83141],[-0.87479,53.8346],[-0.8099,53.85597],[-0.72939,53.88826],[-0.7887,53.92299],[-0.78484,53.97346],[-0.90672,53.9892]]]},"properties":{"code":"B82081","name":"ELVINGTON MEDICAL PRACTICE","icb":"QOQ"}}]}