{"type":"FeatureCollection","features":[{"type":"Feature","geometry":{"type":"Polygon","coordinates":[[[-1.53397,53.95346],[-1.497417,53.964815],[-1.479429,53.97539],[-1.462696,53.987649],[-1.46717,53.996528],[-1.472709,54.005299],[-1.474423,54.008012],[-1.477498,54.009352],[-1.516814,54.021626],[-1.564186,54.031963],[-1.5788,54.028347],[-1.60451,54.023822],[-1.600802,54.003458],[-1.597747,53.986669],[-1.59611,53.97043],[-1.568183,53.958289],[-1.53397,53.95346]]]},"properties":{"code":"B82027","name":"THE SPA SURGERY","icb":"QOQ"}}]}