{"type":"FeatureCollection","features":[{"type":"Feature","geometry":{"type":"Polygon","coordinates":[[[-1.49839,53.9785],[-1.48959,53.983854],[-1.48983,53.99058],[-1.48818,53.99463],[-1.48578,53.9978],[-1.48648,53.99898],[-1.48716,54.00309],[-1.48821,54.00528],[-1.48959,54.0073],[-1.49003,54.00814],[-1.49025,54.00909],[-1.49124,54.01043],[-1.49163,54.01204],[-1.50461,54.01208],[-1.52843,54.01533],[-1.53617,54.01583],[-1.54344,54.01494],[-1.5539,54.01185],[-1.55858,54.00796],[-1.56569,54.00719],[-1.56861,54.00708],[-1.57047,54.00714],[-1.57813,54.00789],[-1.58302,54.00108],[-1.58418,53.99521],[-1.57064,53.98194],[-1.56319,53.96755],[-1.5463,53.96634],[-1.53739,53.9655],[-1.52882,53.96719],[-1.5189,53.96977],[-1.51019,53.97507],[-1.494992,53.967642],[-1.48467,53.970695],[-1.478494,53.973584],[-1.473788,53.980142],[-1.48959,53.983854],[-1.48959,53.98385],[-1.49839,53.9785]]]},"properties":{"code":"B82014","name":"KINGSWOOD SURGERY","icb":"QOQ"}}]}