{"type":"FeatureCollection","features":[{"type":"Feature","geometry":{"type":"Polygon","coordinates":[[[-0.41748,54.24612],[-0.420067,54.248459],[-0.420695,54.252157],[-0.419377,54.255776],[-0.429753,54.261053],[-0.435967,54.266332],[-0.438951,54.268515],[-0.453137,54.278886],[-0.477171,54.287538],[-0.483286,54.303619],[-0.512182,54.318464],[-0.540141,54.32081],[-0.56871,54.31667],[-0.61678,54.30551],[-0.70141,54.28457],[-0.70458,54.28001],[-0.71548,54.26943],[-0.7183,54.26377],[-0.71887,54.25991],[-0.72175,54.2564],[-0.72377,54.25374],[-0.72716,54.25068],[-0.72956,54.24707],[-0.73201,54.24266],[-0.736963,54.224681],[-0.712196,54.202475],[-0.695455,54.195839],[-0.66787,54.18846],[-0.61588,54.19016],[-0.55324,54.19428],[-0.4937,54.19981],[-0.4622,54.20623],[-0.45931,54.20709],[-0.45625,54.20845],[-0.45271,54.21177],[-0.42993,54.23117],[-0.42383,54.23529],[-0.418,54.23985],[-0.41688,54.24121],[-0.41619,54.24226],[-0.41568,54.24366],[-0.41594,54.24502],[-0.41748,54.24612]]]},"properties":{"code":"B82063","name":"AYTON AND SNAINTON MEDICAL PRACTICE","icb":"QOQ"}}]}