{"type":"FeatureCollection","features":[{"type":"Feature","geometry":{"type":"Polygon","coordinates":[[[-0.43242,54.34025],[-0.44477,54.33955],[-0.46211,54.33845],[-0.47945,54.33474],[-0.49181,54.33044],[-0.50177,54.32654],[-0.504645,54.325277],[-0.50601,54.32501],[-0.5131,54.31833],[-0.51095,54.30428],[-0.51065,54.2875],[-0.45859,54.26725],[-0.48559,54.25465],[-0.44224,54.23616],[-0.37984,54.23426],[-0.35375,54.24208],[-0.384056,54.286231],[-0.38349,54.28707],[-0.385885,54.288797],[-0.4161,54.33113],[-0.421324,54.334161],[-0.42435,54.33975],[-0.432183,54.33975],[-0.43204,54.339446],[-0.43224,54.33975],[-0.432183,54.33975],[-0.43242,54.34025]]]},"properties":{"code":"B82038","name":"HAXBY GROUP SCARBOROUGH","icb":"QOQ"}}]}