{"type":"FeatureCollection","features":[{"type":"Feature","geometry":{"type":"Polygon","coordinates":[[[-0.96182,54.26394],[-1.00654,54.25991],[-1.02587,54.25756],[-1.04108,54.25596],[-1.05527,54.25412],[-1.08126,54.255],[-1.1152,54.26482],[-1.13841,54.26793],[-1.15018,54.2873],[-1.15462,54.29325],[-1.15903,54.29625],[-1.16144,54.3013],[-1.16248,54.30208],[-1.16369,54.30245],[-1.16626,54.30198],[-1.16689,54.3012],[-1.16738,54.30092],[-1.17186,54.2957],[-1.18105,54.28657],[-1.18401,54.28256],[-1.18953,54.27825],[-1.19983,54.26843],[-1.21227,54.25771],[-1.21596,54.2542],[-1.21502,54.2541],[-1.21453,54.25414],[-1.21388,54.25388],[-1.21377,54.25346],[-1.21338,54.25303],[-1.2131,54.25213],[-1.21303,54.25053],[-1.21327,54.24897],[-1.213,54.24652],[-1.21219,54.24447],[-1.21279,54.24025],[-1.20987,54.23654],[-1.21107,54.23614],[-1.21167,54.23544],[-1.226361,54.231562],[-1.22611,54.231375],[-1.22577,54.2317],[-1.225587,54.231288],[-1.22189,54.23067],[-1.2212,54.23063],[-1.21983,54.22983],[-1.21914,54.22964],[-1.21828,54.22925],[-1.2176,54.22868],[-1.21692,54.22793],[-1.21624,54.22675],[-1.21472,54.22508],[-1.21339,54.22294],[-1.21231,54.22104],[-1.21218,54.21828],[-1.2133,54.21537],[-1.21553,54.21195],[-1.23133,54.19788],[-1.23322,54.19471],[-1.23648,54.19114],[-1.23974,54.18696],[-1.24128,54.18419],[-1.22849,54.17022],[-1.22442,54.16644],[-1.22223,54.1623],[-1.21554,54.15645],[-1.20382,54.14698],[-1.19794,54.14087],[-1.18313,54.12908],[-1.18,54.12473],[-1.17197,54.11681],[-1.16007,54.11343],[-1.14903,54.11106],[-1.14309,54.10954],[-1.13695,54.10927],[-1.12839,54.1087],[-1.11799,54.10727],[-1.11047,54.10455],[-1.10737,54.10506],[-1.10443,54.10648],[-1.0994,54.10702],[-1.09383,54.10814],[-1.09067,54.10826],[-1.08803,54.10859],[-1.07637,54.10656],[-1.06713,54.10584],[-1.05221,54.10212],[-1.04124,54.10061],[-1.03406,54.09981],[-1.02245,54.09641],[-1.00334,54.09382],[-0.98059,54.09691],[-0.95533,54.09604],[-0.93435,54.09549],[-0.91467,54.09845],[-0.90896,54.09817],[-0.89912,54.09829],[-0.89135,54.10159],[-0.88329,54.10889],[-0.86835,54.13469],[-0.86305,54.14272],[-0.8611,54.14391],[-0.85496,54.15082],[-0.85178,54.15811],[-0.85517,54.15915],[-0.8565,54.16341],[-0.8571,54.16952],[-0.85658,54.17892],[-0.85278,54.18493],[-0.85087,54.19235],[-0.85287,54.19443],[-0.85208,54.201],[-0.8577,54.20089],[-0.85922,54.20241],[-0.86452,54.20453],[-0.86799,54.21074],[-0.86784,54.21622],[-0.86847,54.21753],[-0.87061,54.2227],[-0.87292,54.22442],[-0.8753,54.23336],[-0.88575,54.23991],[-0.89903,54.25334],[-0.91178,54.25853],[-0.92006,54.26091],[-0.93101,54.26319],[-0.94319,54.2663],[-0.96182,54.26394]]]},"properties":{"code":"B82609","name":"AMPLEFORTH SURGERY","icb":"QOQ"}}]}