{"type":"FeatureCollection","features":[{"type":"Feature","geometry":{"type":"Polygon","coordinates":[[[-1.88793,53.98527],[-1.92055,53.98143],[-1.94595,53.96618],[-1.91231,53.94073],[-1.87248,53.91566],[-1.79352,53.90353],[-1.76331,53.89382],[-1.749069,53.8967],[-1.7276,53.907979],[-1.72451,53.929007],[-1.725197,53.937698],[-1.72794,53.94659],[-1.74374,53.96921],[-1.74305,53.97568],[-1.74374,53.98416],[-1.73103,53.99324],[-1.74339,53.9995],[-1.76159,53.99384],[-1.77944,53.99465],[-1.80244,53.99001],[-1.81171,53.99082],[-1.82716,53.98739],[-1.84364,53.98577],[-1.88793,53.98527]]]},"properties":{"code":"B83002","name":"ILKLEY & WHARFEDALE MEDICAL PRACTICE","icb":"QWO"}}]}