{"type":"FeatureCollection","features":[{"type":"Feature","geometry":{"type":"MultiPolygon","coordinates":[[[[-1.793976,53.784286],[-1.791184,53.78597],[-1.789804,53.786893],[-1.790544,53.788164],[-1.794669,53.788011],[-1.799646,53.787954],[-1.809891,53.789059],[-1.815528,53.792091],[-1.818313,53.791799],[-1.820826,53.79177],[-1.822347,53.792446],[-1.827066,53.791476],[-1.83304,53.791083],[-1.836707,53.785828],[-1.840985,53.782968],[-1.844787,53.77867],[-1.847164,53.778642],[-1.849428,53.777759],[-1.85183,53.777507],[-1.852896,53.775979],[-1.851839,53.774163],[-1.836057,53.769287],[-1.830677,53.767625],[-1.817652,53.768993],[-1.809074,53.770266],[-1.805903,53.77218],[-1.805198,53.7746],[-1.803782,53.774945],[-1.804753,53.775468],[-1.799628,53.779604],[-1.797438,53.78137],[-1.795844,53.783831],[-1.793976,53.784286]]],[[[-1.745021,53.732799],[-1.7415,53.73394],[-1.73837,53.73569],[-1.74352,53.74133],[-1.74408,53.74356],[-1.73417,53.74381],[-1.72781,53.74295],[-1.72777,53.74364],[-1.71683,53.74435],[-1.71629,53.7463],[-1.71782,53.74671],[-1.72681,53.75198],[-1.72867,53.75341],[-1.73586,53.75184],[-1.74279,53.75084],[-1.74528,53.75632],[-1.74974,53.76038],[-1.75627,53.76302],[-1.75824,53.76264],[-1.75871,53.76138],[-1.75979,53.76127],[-1.7612,53.75933],[-1.76434,53.75719],[-1.76554,53.75785],[-1.76794,53.75754],[-1.77013,53.75823],[-1.77118,53.75875],[-1.77206,53.75947],[-1.77395,53.75998],[-1.77348,53.75797],[-1.77948,53.75703],[-1.77841,53.75495],[-1.77863,53.75419],[-1.77979,53.75358],[-1.77863,53.75046],[-1.78472,53.75253],[-1.78661,53.75292],[-1.78742,53.75084],[-1.78712,53.74737],[-1.78697,53.74639],[-1.78554,53.74493],[-1.78687,53.74347],[-1.79639,53.7379],[-1.79343,53.73231],[-1.78991,53.73292],[-1.78833,53.73287],[-1.78634,53.73216],[-1.78161,53.7311],[-1.78003,53.73097],[-1.78017,53.72952],[-1.7812,53.7263],[-1.78129,53.72308],[-1.78069,53.71698],[-1.77784,53.71716],[-1.77728,53.72002],[-1.77687,53.72165],[-1.7756,53.72298],[-1.77265,53.72281],[-1.7697,53.72284],[-1.76307,53.72273],[-1.75853,53.72192],[-1.75595,53.72194],[-1.754226,53.721801],[-1.75408,53.72185],[-1.75416,53.72188],[-1.74925,53.721],[-1.74468,53.71947],[-1.74078,53.72289],[-1.74432,53.73035],[-1.74515,53.7315],[-1.74505,53.73153],[-1.745021,53.732799]]]]},"properties":{"code":"B83009","name":"SUNNYBANK & COWGILL MEDICAL PRACTICE","icb":"QWO"}}]}