{"type":"FeatureCollection","features":[{"type":"Feature","geometry":{"type":"Polygon","coordinates":[[[-1.70655,53.830295],[-1.707194,53.830966],[-1.707988,53.831371],[-1.709018,53.831738],[-1.71037,53.832144],[-1.709812,53.832486],[-1.708395,53.833651],[-1.706443,53.835423],[-1.705885,53.836107],[-1.70552,53.836854],[-1.705756,53.837133],[-1.706679,53.837576],[-1.709318,53.837259],[-1.712494,53.837766],[-1.715755,53.836322],[-1.721206,53.836069],[-1.720347,53.836626],[-1.719146,53.836677],[-1.720862,53.838108],[-1.7223,53.838753],[-1.722944,53.83945],[-1.725433,53.840994],[-1.725497,53.841475],[-1.725647,53.841488],[-1.726291,53.843058],[-1.727343,53.845147],[-1.73599,53.846248],[-1.738844,53.846172],[-1.741977,53.84578],[-1.746333,53.844337],[-1.750495,53.842767],[-1.7432,53.840918],[-1.74095,53.84141],[-1.74032,53.84035],[-1.7373,53.83956],[-1.73475,53.83869],[-1.7338,53.83788],[-1.73372,53.83769],[-1.73382,53.83751],[-1.73372,53.83736],[-1.73466,53.83742],[-1.73741,53.83684],[-1.74032,53.83663],[-1.74226,53.83588],[-1.74421,53.8352],[-1.74756,53.83454],[-1.74904,53.83437],[-1.75065,53.83427],[-1.75189,53.83403],[-1.75421,53.83344],[-1.7571,53.83209],[-1.75723,53.83173],[-1.75668,53.83116],[-1.75708,53.8306],[-1.75751,53.83043],[-1.75779,53.83057],[-1.75865,53.83086],[-1.76026,53.8309],[-1.76118,53.83079],[-1.76193,53.83047],[-1.76221,53.83009],[-1.76187,53.8298],[-1.76101,53.82946],[-1.76045,53.82879],[-1.76099,53.82878],[-1.75953,53.82698],[-1.75777,53.82434],[-1.75571,53.82366],[-1.75356,53.82313],[-1.75236,53.81887],[-1.75125,53.81778],[-1.74953,53.8172],[-1.75356,53.81423],[-1.75451,53.81307],[-1.75464,53.81228],[-1.75438,53.81117],[-1.75326,53.81013],[-1.75275,53.80922],[-1.75292,53.80749],[-1.75395,53.80592],[-1.75266,53.80313],[-1.7488,53.8005],[-1.74554,53.79801],[-1.74468,53.79842],[-1.74408,53.79923],[-1.74331,53.79969],[-1.74245,53.79923],[-1.74099,53.79867],[-1.73876,53.79761],[-1.73773,53.79685],[-1.73361,53.79776],[-1.73043,53.79822],[-1.72777,53.79822],[-1.72305,53.79786],[-1.72056,53.79842],[-1.71387,53.80014],[-1.70116,53.80232],[-1.70975,53.80466],[-1.70846,53.81104],[-1.70717,53.81591],[-1.70425,53.82082],[-1.70709,53.82948],[-1.70655,53.830295]]]},"properties":{"code":"B83056","name":"MOORSIDE SURGERY","icb":"QWO"}}]}