{"type":"FeatureCollection","features":[{"type":"Feature","geometry":{"type":"Polygon","coordinates":[[[-1.862869,53.894527],[-1.86647,53.88957],[-1.882782,53.907574],[-1.892738,53.929209],[-1.868019,53.945377],[-1.877289,53.983954],[-1.902008,54.041046],[-2.099075,54.209645],[-2.202072,54.178914],[-2.316399,54.152181],[-2.266617,54.076714],[-2.272453,54.026932],[-2.186279,53.947802],[-2.070236,53.89564],[-2.028008,53.873785],[-2.046204,53.851514],[-2.062855,53.825482],[-1.95677,53.80592],[-1.94801,53.80303],[-1.928787,53.800651],[-1.906128,53.806531],[-1.89394,53.816058],[-1.880207,53.821733],[-1.878147,53.832473],[-1.865444,53.839057],[-1.851711,53.848172],[-1.850338,53.86174],[-1.84433,53.871154],[-1.846218,53.875303],[-1.834373,53.884006],[-1.847076,53.889368],[-1.854115,53.891998],[-1.862869,53.894527]]]},"properties":{"code":"B83033","name":"MODALITY PARTNERSHIP (AWC)","icb":"QWO"}}]}