{"type":"FeatureCollection","features":[{"type":"Feature","geometry":{"type":"Polygon","coordinates":[[[-1.761503,53.764188],[-1.759014,53.765304],[-1.756697,53.766573],[-1.753521,53.76779],[-1.748199,53.768247],[-1.744337,53.768247],[-1.735754,53.769566],[-1.731291,53.771392],[-1.730175,53.773319],[-1.727858,53.775602],[-1.725883,53.775855],[-1.724682,53.776819],[-1.722364,53.778746],[-1.730433,53.780522],[-1.72966,53.786759],[-1.737642,53.787469],[-1.740217,53.787418],[-1.741676,53.788077],[-1.743093,53.788458],[-1.745968,53.790689],[-1.74541,53.791335],[-1.744702,53.791969],[-1.743178,53.793211],[-1.742835,53.79406],[-1.743597,53.795639],[-1.744187,53.796874],[-1.745625,53.79837],[-1.74895,53.800714],[-1.749744,53.801259],[-1.755624,53.799054],[-1.760548,53.796957],[-1.772661,53.798218],[-1.781373,53.798927],[-1.784635,53.799206],[-1.787853,53.799257],[-1.791716,53.799029],[-1.792939,53.798889],[-1.792231,53.797178],[-1.791759,53.793072],[-1.791587,53.790131],[-1.791458,53.78937],[-1.790686,53.78823],[-1.789913,53.787723],[-1.789334,53.787583],[-1.79002,53.786873],[-1.791372,53.785846],[-1.792295,53.785415],[-1.792853,53.785124],[-1.793261,53.784883],[-1.79369,53.784629],[-1.794569,53.784338],[-1.79575,53.78405],[-1.796243,53.783564],[-1.796415,53.78307],[-1.796737,53.782144],[-1.797252,53.781422],[-1.797938,53.780724],[-1.798689,53.780065],[-1.79964,53.77947],[-1.800106,53.779203],[-1.800621,53.778721],[-1.801456,53.777954],[-1.802498,53.777216],[-1.802766,53.777238],[-1.803238,53.777428],[-1.80373,53.77755],[-1.80456,53.77575],[-1.804194,53.774964],[-1.804247,53.774663],[-1.807895,53.773725],[-1.809204,53.773269],[-1.810341,53.772812],[-1.810148,53.771645],[-1.810234,53.7711],[-1.810513,53.770466],[-1.810448,53.769794],[-1.809869,53.768602],[-1.809053,53.76741],[-1.807852,53.76609],[-1.807294,53.765279],[-1.807208,53.764771],[-1.804762,53.757135],[-1.797595,53.758023],[-1.790085,53.758911],[-1.781201,53.760053],[-1.777725,53.760712],[-1.774249,53.761144],[-1.76837,53.761803],[-1.764164,53.763122],[-1.761503,53.764188]]]},"properties":{"code":"B83035","name":"HORTON PARK MEDICAL PRACTICE","icb":"QWO"}}]}