{"type":"FeatureCollection","features":[{"type":"Feature","geometry":{"type":"Polygon","coordinates":[[[-1.74185,53.79923],[-1.73961,53.79946],[-1.73755,53.79928],[-1.73464,53.7972],[-1.72949,53.79827],[-1.72417,53.79807],[-1.71945,53.79492],[-1.71331,53.79518],[-1.71267,53.79867],[-1.706998,53.803287],[-1.7064,53.80977],[-1.70756,53.81682],[-1.71541,53.83156],[-1.72366,53.83882],[-1.72985,53.84204],[-1.73603,53.84242],[-1.75501,53.83732],[-1.76249,53.82777],[-1.76114,53.82202],[-1.763434,53.82055],[-1.7635,53.81964],[-1.765205,53.819416],[-1.76665,53.81849],[-1.74185,53.79923]]]},"properties":{"code":"B83016","name":"FARROW MEDICAL CENTRE","icb":"QWO"}}]}