{"type":"FeatureCollection","features":[{"type":"Feature","geometry":{"type":"Polygon","coordinates":[[[-1.711135,53.787803],[-1.70992,53.79284],[-1.70443,53.79893],[-1.70752,53.80106],[-1.70614,53.8041],[-1.70734,53.80927],[-1.71593,53.81292],[-1.71988,53.81586],[-1.72365,53.81697],[-1.73189,53.81727],[-1.7379,53.81474],[-1.74562,53.81048],[-1.745231,53.810224],[-1.75043,53.80744],[-1.75043,53.80085],[-1.74322,53.79269],[-1.72812,53.78666],[-1.72554,53.77672],[-1.70391,53.77763],[-1.70546,53.7828],[-1.710991,53.787326],[-1.71078,53.78757],[-1.711135,53.787803]]]},"properties":{"code":"B83058","name":"THE AVICENNA MEDICAL PRACTICE","icb":"QWO"}}]}