{"type":"FeatureCollection","features":[{"type":"Feature","geometry":{"type":"MultiPolygon","coordinates":[[[[-1.80468,53.75743],[-1.8039,53.75746],[-1.79862,53.75805],[-1.793268,53.758859],[-1.78961,53.75922],[-1.78009,53.7604],[-1.774345,53.761368],[-1.77103,53.7616],[-1.76777,53.76231],[-1.76537,53.76301],[-1.76408,53.76355],[-1.76253,53.76435],[-1.76159,53.76495],[-1.76295,53.768117],[-1.76159,53.7717],[-1.76614,53.77345],[-1.77322,53.77601],[-1.775847,53.776302],[-1.775966,53.776345],[-1.779679,53.779184],[-1.78019,53.78015],[-1.78154,53.7809],[-1.7833,53.78179],[-1.794502,53.775278],[-1.797363,53.775071],[-1.79983,53.77518],[-1.80322,53.77474],[-1.806683,53.773752],[-1.80843,53.77336],[-1.81,53.77271],[-1.81043,53.77111],[-1.8103,53.77003],[-1.81006,53.76927],[-1.80974,53.76855],[-1.808102,53.766592],[-1.807286,53.765489],[-1.805619,53.760885],[-1.805231,53.759116],[-1.80521,53.75838],[-1.80468,53.75743]]],[[[-1.82253,53.74658],[-1.81789,53.75013],[-1.816141,53.753301],[-1.811764,53.755638],[-1.81019,53.75639],[-1.81115,53.75863],[-1.81261,53.75864],[-1.815794,53.759863],[-1.81759,53.76185],[-1.82006,53.76145],[-1.822091,53.760821],[-1.822286,53.760823],[-1.82455,53.7616],[-1.82518,53.76154],[-1.826308,53.760363],[-1.826592,53.760312],[-1.827583,53.760595],[-1.82816,53.76085],[-1.833015,53.759766],[-1.833358,53.759951],[-1.833161,53.76034],[-1.831194,53.761678],[-1.82967,53.7626],[-1.8267,53.76459],[-1.82573,53.76619],[-1.825162,53.768452],[-1.82445,53.7699],[-1.82469,53.77093],[-1.830062,53.770085],[-1.830372,53.770301],[-1.829627,53.771284],[-1.82837,53.77171],[-1.82783,53.77236],[-1.82841,53.77545],[-1.84133,53.77563],[-1.857113,53.774342],[-1.857325,53.77468],[-1.85279,53.77643],[-1.857881,53.775531],[-1.862482,53.77561],[-1.86386,53.775707],[-1.86822,53.77755],[-1.867422,53.77602],[-1.867501,53.775363],[-1.86839,53.7746],[-1.86773,53.77336],[-1.866571,53.772021],[-1.86747,53.76895],[-1.86375,53.76407],[-1.85968,53.76006],[-1.858949,53.763112],[-1.858066,53.76367],[-1.857232,53.763973],[-1.856894,53.763902],[-1.85601,53.76245],[-1.854099,53.761435],[-1.853726,53.760988],[-1.853735,53.760875],[-1.85459,53.76003],[-1.85257,53.75923],[-1.8503,53.75991],[-1.845401,53.762699],[-1.84511,53.762705],[-1.842512,53.761395],[-1.84145,53.7599],[-1.839733,53.758269],[-1.83909,53.75725],[-1.83762,53.75676],[-1.835516,53.756259],[-1.83382,53.75474],[-1.83,53.75168],[-1.82253,53.74658]]]]},"properties":{"code":"B83028","name":"WIBSEY & QUEENSBURY MED P","icb":"QWO"}}]}