{"type":"FeatureCollection","features":[{"type":"Feature","geometry":{"type":"Polygon","coordinates":[[[-1.703838,53.831176],[-1.701958,53.834436],[-1.70537,53.83696],[-1.70653,53.83756],[-1.7079,53.83766],[-1.70915,53.83746],[-1.71065,53.83766],[-1.71206,53.83794],[-1.71292,53.83787],[-1.71365,53.83754],[-1.714737,53.837619],[-1.718897,53.839191],[-1.722233,53.840652],[-1.725147,53.841927],[-1.726527,53.842948],[-1.72879,53.843971],[-1.729237,53.844724],[-1.731095,53.845093],[-1.73399,53.844466],[-1.738277,53.845022],[-1.74087,53.84446],[-1.744217,53.842462],[-1.744259,53.842141],[-1.74361,53.84091],[-1.74438,53.84063],[-1.752635,53.838311],[-1.747613,53.834596],[-1.74515,53.83499],[-1.74474,53.83446],[-1.74402,53.83257],[-1.74296,53.83056],[-1.74284,53.82999],[-1.74245,53.82938],[-1.74176,53.8289],[-1.74335,53.82631],[-1.74369,53.82524],[-1.74414,53.82181],[-1.74489,53.82058],[-1.74116,53.82195],[-1.73769,53.82311],[-1.737,53.82338],[-1.73633,53.822],[-1.73605,53.82094],[-1.73532,53.81901],[-1.73365,53.81669],[-1.73296,53.81675],[-1.73153,53.81706],[-1.72981,53.81751],[-1.72904,53.81755],[-1.72342,53.81682],[-1.71968,53.81648],[-1.71805,53.81736],[-1.717595,53.81786],[-1.715742,53.816901],[-1.711531,53.813971],[-1.709145,53.814769],[-1.70824,53.817343],[-1.70734,53.8199],[-1.70728,53.8203],[-1.70782,53.82121],[-1.70848,53.82177],[-1.708633,53.821844],[-1.7064,53.8233],[-1.706439,53.823429],[-1.7061,53.82368],[-1.70653,53.82439],[-1.707093,53.825583],[-1.7073,53.82629],[-1.70685,53.82707],[-1.70715,53.82774],[-1.70758,53.82827],[-1.70745,53.82895],[-1.705594,53.829247],[-1.703838,53.831176]]]},"properties":{"code":"B83054","name":"","icb":""}}]}