{"type":"FeatureCollection","features":[{"type":"Feature","geometry":{"type":"Polygon","coordinates":[[[-1.801869,53.767192],[-1.80279,53.76211],[-1.80244,53.7619],[-1.801484,53.767179],[-1.77086,53.76617],[-1.71387,53.76901],[-1.68915,53.8043],[-1.709258,53.817794],[-1.6967,53.812],[-1.71936,53.83713],[-1.72897,53.8422],[-1.74133,53.84159],[-1.732182,53.833164],[-1.77017,53.8586],[-1.9075,53.88046],[-1.96999,53.84159],[-1.95351,53.80917],[-1.84502,53.7686],[-1.834739,53.768266],[-1.819646,53.765293],[-1.813071,53.767559],[-1.801869,53.767192]]]},"properties":{"code":"B83657","name":"BEVAN COMMUNITY BENEFIT SOCIETY","icb":"QWO"}}]}