{"type":"FeatureCollection","features":[{"type":"Feature","geometry":{"type":"Polygon","coordinates":[[[-1.78082,53.78209],[-1.777963,53.777252],[-1.775233,53.776464],[-1.772621,53.776037],[-1.768149,53.774513],[-1.760437,53.771523],[-1.755945,53.770226],[-1.754886,53.76992],[-1.753439,53.770123],[-1.752322,53.769455],[-1.75095,53.77002],[-1.73359,53.775137],[-1.738696,53.777813],[-1.740455,53.779498],[-1.742329,53.781293],[-1.7458,53.7896],[-1.78202,53.7898],[-1.78082,53.78209]]]},"properties":{"code":"B83653","name":"DR GILKAR","icb":"QWO"}}]}