{"type":"FeatureCollection","features":[{"type":"Feature","geometry":{"type":"Polygon","coordinates":[[[-2.01187,53.97749],[-1.984915,53.949692],[-1.962033,53.929702],[-1.963916,53.92138],[-1.953184,53.917566],[-1.951988,53.91652],[-1.949935,53.91626],[-1.947994,53.915734],[-1.946959,53.915687],[-1.944361,53.915185],[-1.943016,53.915013],[-1.942788,53.914974],[-1.94256,53.914932],[-1.942316,53.914845],[-1.941343,53.914864],[-1.9406,53.914957],[-1.939654,53.915188],[-1.937826,53.915513],[-1.937274,53.91503],[-1.932495,53.914418],[-1.932175,53.914138],[-1.930986,53.914667],[-1.928979,53.913761],[-1.927297,53.913523],[-1.925789,53.913395],[-1.896897,53.909692],[-1.816241,53.90078],[-1.7664,53.93467],[-1.83128,53.99162],[-1.910622,53.995206],[-1.98372,53.99001],[-2.01187,53.97749]]]},"properties":{"code":"B83620","name":"ADDINGHAM SURGERY","icb":"QWO"}}]}