{"type":"FeatureCollection","features":[{"type":"Feature","geometry":{"type":"Polygon","coordinates":[[[-1.790498,53.673214],[-1.78524,53.67086],[-1.78245,53.66921],[-1.78189,53.66923],[-1.77934,53.6715],[-1.77906,53.67292],[-1.7791,53.674152],[-1.77815,53.67536],[-1.77644,53.6765],[-1.7759,53.67742],[-1.77597,53.67855],[-1.77104,53.67922],[-1.76616,53.67995],[-1.76219,53.67518],[-1.75386,53.67706],[-1.75856,53.68681],[-1.76029,53.69176],[-1.74837,53.69915],[-1.7494,53.70158],[-1.75292,53.70301],[-1.76318,53.70794],[-1.77163,53.70524],[-1.77425,53.70529],[-1.77532,53.70768],[-1.77614,53.71096],[-1.78166,53.7111],[-1.7873,53.71136],[-1.79189,53.70999],[-1.79287,53.71003],[-1.79388,53.70947],[-1.79376,53.70516],[-1.79337,53.69958],[-1.80284,53.69592],[-1.80794,53.69279],[-1.81575,53.683572],[-1.81828,53.68241],[-1.815111,53.677636],[-1.80442,53.67462],[-1.80001,53.67343],[-1.79734,53.67332],[-1.790498,53.673214]]]},"properties":{"code":"B84014","name":"RASTRICK HEALTH CENTRE","icb":"QWO"}}]}