{"type":"FeatureCollection","features":[{"type":"Feature","geometry":{"type":"Polygon","coordinates":[[[-1.790396,53.667413],[-1.788433,53.667788],[-1.787476,53.667869],[-1.786216,53.667895],[-1.78516,53.667833],[-1.784838,53.668189],[-1.785139,53.66904],[-1.785733,53.669544],[-1.786254,53.67024],[-1.786226,53.670365],[-1.786093,53.670463],[-1.785893,53.670506],[-1.784971,53.670582],[-1.784691,53.670434],[-1.78471,53.670286],[-1.783797,53.67001],[-1.783689,53.669917],[-1.783615,53.669536],[-1.7831,53.669091],[-1.78207,53.668722],[-1.781405,53.668939],[-1.780962,53.66984],[-1.78062,53.670312],[-1.779603,53.671354],[-1.778959,53.672155],[-1.778741,53.674892],[-1.777618,53.675663],[-1.776845,53.676324],[-1.775987,53.677417],[-1.775586,53.678351],[-1.775199,53.678852],[-1.775056,53.678931],[-1.772254,53.67912],[-1.770808,53.679455],[-1.767147,53.679959],[-1.764904,53.680332],[-1.76466,53.68027],[-1.763155,53.678584],[-1.76337,53.67818],[-1.763413,53.677646],[-1.763113,53.677533],[-1.762982,53.67735],[-1.763284,53.676476],[-1.761568,53.676222],[-1.760728,53.676516],[-1.760519,53.676515],[-1.759851,53.676273],[-1.758392,53.676324],[-1.756117,53.676476],[-1.756032,53.677341],[-1.756418,53.678129],[-1.757143,53.678535],[-1.757235,53.678656],[-1.757311,53.679379],[-1.757061,53.68034],[-1.757319,53.681052],[-1.757679,53.681765],[-1.757609,53.681962],[-1.757479,53.682039],[-1.756353,53.682249],[-1.754572,53.68245],[-1.75268,53.682781],[-1.750856,53.68283],[-1.749062,53.682726],[-1.747497,53.682432],[-1.747311,53.682288],[-1.747304,53.682196],[-1.747706,53.68156],[-1.747577,53.680696],[-1.747431,53.681009],[-1.747242,53.681119],[-1.746118,53.681077],[-1.744584,53.681483],[-1.744397,53.681476],[-1.743929,53.681306],[-1.742513,53.681357],[-1.741655,53.681814],[-1.741784,53.683263],[-1.751096,53.685449],[-1.753242,53.685169],[-1.752899,53.684254],[-1.752552,53.684197],[-1.75242,53.684102],[-1.751969,53.683177],[-1.752104,53.683018],[-1.753687,53.682676],[-1.758606,53.681891],[-1.761911,53.681306],[-1.765807,53.680208],[-1.768107,53.679847],[-1.770194,53.679603],[-1.770875,53.679448],[-1.775076,53.678988],[-1.775319,53.679072],[-1.776073,53.680366],[-1.77779,53.681637],[-1.779761,53.682461],[-1.781065,53.683619],[-1.781756,53.684868],[-1.781532,53.686166],[-1.781462,53.686243],[-1.780315,53.686774],[-1.779511,53.686774],[-1.778406,53.686482],[-1.777449,53.685956],[-1.776631,53.685271],[-1.774571,53.684839],[-1.774828,53.685119],[-1.77606,53.685313],[-1.776614,53.685512],[-1.777275,53.686364],[-1.778562,53.686872],[-1.780068,53.687115],[-1.780188,53.687354],[-1.778617,53.688411],[-1.776717,53.689261],[-1.775753,53.691072],[-1.775663,53.691139],[-1.772535,53.692194],[-1.772179,53.692165],[-1.77191,53.692006],[-1.770151,53.692666],[-1.770118,53.693117],[-1.769888,53.693281],[-1.767704,53.693581],[-1.766055,53.695225],[-1.765758,53.695272],[-1.762764,53.694283],[-1.761911,53.693073],[-1.759551,53.692311],[-1.762779,53.695747],[-1.762763,53.695882],[-1.762624,53.695989],[-1.762409,53.696032],[-1.758812,53.695479],[-1.758664,53.695389],[-1.758091,53.693886],[-1.756761,53.693734],[-1.75513,53.695716],[-1.758958,53.696812],[-1.759941,53.697509],[-1.759967,53.697639],[-1.758089,53.699957],[-1.757824,53.700023],[-1.75521,53.699492],[-1.753671,53.698637],[-1.752997,53.698588],[-1.750902,53.697885],[-1.750753,53.697774],[-1.749122,53.698637],[-1.75204,53.699933],[-1.752698,53.700014],[-1.752834,53.700075],[-1.752918,53.700267],[-1.752641,53.700645],[-1.757405,53.703261],[-1.760545,53.704811],[-1.760613,53.704883],[-1.760604,53.705046],[-1.759422,53.706107],[-1.760924,53.706691],[-1.761571,53.706698],[-1.762037,53.706816],[-1.762647,53.707437],[-1.763713,53.708926],[-1.764357,53.709028],[-1.763738,53.708575],[-1.762087,53.70669],[-1.762077,53.70656],[-1.762661,53.706104],[-1.763327,53.705929],[-1.765574,53.704385],[-1.765901,53.704377],[-1.770076,53.706799],[-1.771595,53.708222],[-1.771551,53.708389],[-1.76985,53.709231],[-1.77089,53.710083],[-1.771082,53.711309],[-1.770279,53.712101],[-1.770022,53.713066],[-1.770982,53.719212],[-1.770895,53.719323],[-1.770724,53.719392],[-1.770519,53.7194],[-1.770183,53.719301],[-1.769934,53.719333],[-1.76966,53.719218],[-1.769539,53.718603],[-1.768569,53.71863],[-1.767458,53.718095],[-1.767994,53.719123],[-1.768405,53.719417],[-1.768574,53.719771],[-1.768981,53.719961],[-1.769424,53.719811],[-1.769632,53.719826],[-1.7699,53.71992],[-1.769992,53.720074],[-1.769775,53.720419],[-1.770591,53.72066],[-1.771129,53.72024],[-1.771596,53.720102],[-1.772043,53.720093],[-1.772258,53.720212],[-1.772372,53.721066],[-1.772891,53.721145],[-1.773115,53.721322],[-1.773046,53.722575],[-1.772991,53.722653],[-1.773773,53.724316],[-1.77368,53.724545],[-1.774415,53.725611],[-1.774353,53.725731],[-1.773745,53.726145],[-1.774909,53.727671],[-1.774857,53.72779],[-1.773123,53.729102],[-1.773493,53.729401],[-1.773502,53.730004],[-1.773357,53.730159],[-1.772865,53.730334],[-1.773466,53.730702],[-1.774176,53.729729],[-1.774397,53.729635],[-1.776203,53.729913],[-1.776405,53.730035],[-1.77668,53.730656],[-1.77664,53.730762],[-1.775569,53.731527],[-1.775746,53.732472],[-1.775782,53.733328],[-1.775612,53.73465],[-1.776084,53.734865],[-1.775913,53.734272],[-1.775952,53.732957],[-1.776134,53.732833],[-1.776415,53.732808],[-1.776654,53.732896],[-1.776963,53.733482],[-1.781512,53.736058],[-1.783646,53.73631],[-1.784813,53.736502],[-1.78493,53.736743],[-1.784538,53.736998],[-1.785182,53.737975],[-1.786448,53.738318],[-1.787889,53.738437],[-1.789456,53.73919],[-1.789763,53.739501],[-1.789725,53.739652],[-1.788958,53.740094],[-1.789538,53.740577],[-1.790549,53.740222],[-1.790813,53.740245],[-1.791619,53.740754],[-1.792864,53.74045],[-1.79288,53.740225],[-1.793026,53.740122],[-1.793266,53.740059],[-1.793608,53.740102],[-1.794323,53.740577],[-1.795546,53.740424],[-1.795032,53.739435],[-1.795174,53.739301],[-1.796855,53.738787],[-1.796311,53.73843],[-1.796256,53.738277],[-1.797006,53.737664],[-1.798694,53.737039],[-1.801275,53.736655],[-1.802262,53.734815],[-1.802444,53.733979],[-1.802531,53.733895],[-1.803535,53.733511],[-1.805137,53.733304],[-1.807807,53.732786],[-1.808635,53.732822],[-1.809086,53.732682],[-1.810311,53.731889],[-1.812755,53.731476],[-1.815265,53.730537],[-1.814091,53.728478],[-1.814165,53.728338],[-1.814662,53.728141],[-1.814869,53.728147],[-1.815223,53.728252],[-1.815609,53.72815],[-1.814743,53.72794],[-1.814624,53.727761],[-1.814924,53.727383],[-1.81549,53.726925],[-1.81614,53.726484],[-1.816918,53.726157],[-1.816319,53.725831],[-1.81652,53.725541],[-1.816832,53.725548],[-1.817755,53.72537],[-1.817599,53.725213],[-1.817596,53.725094],[-1.818269,53.724367],[-1.818956,53.723288],[-1.818677,53.722133],[-1.818377,53.721447],[-1.817434,53.720616],[-1.817003,53.719987],[-1.813986,53.718514],[-1.81312,53.717676],[-1.810759,53.716571],[-1.809594,53.716268],[-1.806647,53.715093],[-1.805512,53.714192],[-1.804708,53.713409],[-1.803378,53.712317],[-1.802284,53.711631],[-1.800816,53.711067],[-1.799529,53.710294],[-1.798464,53.709498],[-1.797541,53.709155],[-1.795759,53.708827],[-1.795614,53.708758],[-1.794161,53.705851],[-1.794198,53.705708],[-1.795089,53.704911],[-1.795242,53.704858],[-1.795581,53.704889],[-1.797633,53.706214],[-1.798207,53.706754],[-1.800116,53.707059],[-1.803348,53.706414],[-1.803492,53.706418],[-1.806575,53.70725],[-1.80948,53.706983],[-1.810588,53.707466],[-1.812108,53.707586],[-1.815952,53.708761],[-1.818227,53.708863],[-1.819342,53.708837],[-1.82113,53.708655],[-1.823179,53.708895],[-1.824197,53.709258],[-1.825157,53.709777],[-1.827087,53.710318],[-1.82717,53.710451],[-1.82709,53.710733],[-1.82638,53.711352],[-1.826509,53.711504],[-1.826788,53.711578],[-1.827113,53.711814],[-1.827303,53.712571],[-1.828057,53.712581],[-1.828272,53.71271],[-1.82829,53.713358],[-1.829406,53.713612],[-1.830651,53.713727],[-1.831692,53.713591],[-1.832091,53.713577],[-1.832818,53.713777],[-1.835636,53.71389],[-1.836539,53.714096],[-1.838096,53.714882],[-1.838696,53.714753],[-1.839511,53.714732],[-1.839659,53.714766],[-1.840371,53.715187],[-1.841379,53.715568],[-1.84477,53.715009],[-1.844276,53.714057],[-1.84316,53.713143],[-1.839727,53.714387],[-1.839424,53.714645],[-1.839255,53.714696],[-1.839065,53.714694],[-1.8389,53.714639],[-1.838311,53.714095],[-1.836708,53.713052],[-1.833612,53.710361],[-1.831904,53.709368],[-1.831294,53.708646],[-1.831187,53.70838],[-1.829651,53.708672],[-1.829351,53.708558],[-1.829256,53.708101],[-1.828247,53.708355],[-1.826865,53.708776],[-1.825715,53.708964],[-1.825238,53.70946],[-1.824889,53.709497],[-1.824256,53.70918],[-1.82314,53.70885],[-1.821145,53.708621],[-1.819361,53.70881],[-1.818333,53.708858],[-1.81611,53.70874],[-1.812133,53.707554],[-1.810402,53.707365],[-1.80945,53.706919],[-1.806477,53.707217],[-1.803378,53.706335],[-1.800256,53.706996],[-1.798544,53.706734],[-1.797144,53.705898],[-1.795516,53.704802],[-1.795404,53.704403],[-1.795491,53.704289],[-1.796511,53.703871],[-1.797223,53.703287],[-1.798623,53.702896],[-1.799601,53.70269],[-1.800457,53.702258],[-1.801554,53.702105],[-1.802892,53.701693],[-1.80576,53.70114],[-1.807386,53.700578],[-1.809038,53.700137],[-1.810442,53.69979],[-1.811446,53.699679],[-1.814447,53.698904],[-1.816754,53.698616],[-1.818248,53.698599],[-1.816832,53.698536],[-1.814643,53.698841],[-1.813367,53.699174],[-1.812433,53.699336],[-1.81145,53.699596],[-1.81033,53.699781],[-1.807584,53.700518],[-1.805652,53.701094],[-1.802799,53.701712],[-1.801628,53.702047],[-1.800288,53.702258],[-1.799491,53.702678],[-1.798593,53.702868],[-1.797353,53.703208],[-1.79619,53.703808],[-1.795353,53.70429],[-1.795079,53.704882],[-1.794325,53.705535],[-1.794007,53.705567],[-1.792925,53.705088],[-1.791211,53.703987],[-1.790375,53.703223],[-1.789326,53.702691],[-1.787701,53.6998],[-1.78797,53.699609],[-1.78883,53.699679],[-1.791163,53.699691],[-1.791383,53.699743],[-1.794344,53.699374],[-1.795717,53.698815],[-1.79516,53.698333],[-1.794574,53.698588],[-1.794433,53.69861],[-1.794163,53.698558],[-1.79255,53.697402],[-1.792675,53.697168],[-1.794924,53.696808],[-1.798185,53.695588],[-1.800858,53.693908],[-1.801082,53.693877],[-1.802938,53.694298],[-1.803109,53.694453],[-1.803104,53.694547],[-1.802927,53.694763],[-1.803292,53.69489],[-1.803846,53.6942],[-1.804816,53.693378],[-1.804454,53.692152],[-1.804552,53.692025],[-1.806039,53.691497],[-1.807466,53.689831],[-1.809236,53.689159],[-1.809344,53.688185],[-1.809561,53.68809],[-1.81018,53.688054],[-1.810008,53.687076],[-1.809,53.687431],[-1.809143,53.689108],[-1.809036,53.689222],[-1.807785,53.689625],[-1.807595,53.689625],[-1.80401,53.688488],[-1.800851,53.685639],[-1.800871,53.685429],[-1.801361,53.685081],[-1.799979,53.684262],[-1.799922,53.684188],[-1.799946,53.68403],[-1.80174,53.682534],[-1.801949,53.682498],[-1.80385,53.682641],[-1.804579,53.6817],[-1.803993,53.681554],[-1.803833,53.681371],[-1.803871,53.681268],[-1.803281,53.681098],[-1.803195,53.680895],[-1.803743,53.680442],[-1.803185,53.680404],[-1.802264,53.68141],[-1.801854,53.681598],[-1.801594,53.681985],[-1.80114,53.682296],[-1.800583,53.682425],[-1.798422,53.682192],[-1.796337,53.681809],[-1.795426,53.681448],[-1.794666,53.680938],[-1.792371,53.680231],[-1.792269,53.680069],[-1.792392,53.679883],[-1.791522,53.679574],[-1.791451,53.679447],[-1.791683,53.67837],[-1.791476,53.678321],[-1.791342,53.67816],[-1.79155,53.677309],[-1.791761,53.6772],[-1.796468,53.677176],[-1.796061,53.676413],[-1.795288,53.676108],[-1.79443,53.676032],[-1.793313,53.676252],[-1.793143,53.676239],[-1.792908,53.676098],[-1.792864,53.675854],[-1.792327,53.67579],[-1.792244,53.676212],[-1.792009,53.676327],[-1.791594,53.676308],[-1.791416,53.676227],[-1.791342,53.6761],[-1.791512,53.675752],[-1.790888,53.675346],[-1.790279,53.67356],[-1.79119,53.672625],[-1.791111,53.672473],[-1.791301,53.672296],[-1.793121,53.671964],[-1.792799,53.671227],[-1.790595,53.671385],[-1.790335,53.671235],[-1.790376,53.670966],[-1.790616,53.670808],[-1.796812,53.670108],[-1.795717,53.667769],[-1.794022,53.667629],[-1.791877,53.667858],[-1.79079,53.668089],[-1.790477,53.66797],[-1.790396,53.667413]]]},"properties":{"code":"B84011","name":"CHURCH LANE SURGERY","icb":"QWO"}}]}