{"type":"FeatureCollection","features":[{"type":"Feature","geometry":{"type":"Polygon","coordinates":[[[-1.901609,53.748921],[-1.906043,53.749208],[-1.906442,53.74948],[-1.906663,53.749785],[-1.907656,53.750708],[-1.908299,53.751305],[-1.907559,53.754075],[-1.908713,53.754616],[-1.920005,53.752745],[-1.928472,53.752834],[-1.931694,53.752314],[-1.933473,53.751971],[-1.935007,53.751497],[-1.935951,53.750613],[-1.937142,53.750543],[-1.938194,53.750351],[-1.941031,53.750074],[-1.941684,53.747629],[-1.941562,53.74665],[-1.940442,53.745887],[-1.938248,53.743645],[-1.939015,53.742927],[-1.942741,53.734911],[-1.942247,53.732511],[-1.940322,53.730382],[-1.93715,53.730239],[-1.935396,53.730572],[-1.934782,53.730153],[-1.934835,53.729503],[-1.934531,53.728934],[-1.93373,53.728388],[-1.921752,53.724091],[-1.922338,53.723379],[-1.921154,53.719404],[-1.916931,53.717261],[-1.91903,53.716193],[-1.91971,53.716041],[-1.921071,53.715735],[-1.92038,53.715184],[-1.920349,53.714218],[-1.913963,53.713929],[-1.913543,53.712781],[-1.913509,53.711735],[-1.912807,53.710768],[-1.911696,53.71033],[-1.907447,53.709551],[-1.90164,53.710671],[-1.898366,53.710918],[-1.893342,53.710223],[-1.888832,53.709207],[-1.883827,53.706666],[-1.881109,53.705347],[-1.878589,53.704068],[-1.873645,53.701458],[-1.872678,53.700639],[-1.87143,53.700033],[-1.870206,53.699643],[-1.868947,53.699441],[-1.8593,53.69934],[-1.854471,53.702796],[-1.85366,53.704356],[-1.854086,53.705153],[-1.857459,53.707115],[-1.859168,53.711788],[-1.859001,53.713246],[-1.860503,53.715315],[-1.860414,53.716416],[-1.860132,53.718878],[-1.861151,53.720785],[-1.863327,53.721842],[-1.865687,53.724625],[-1.861496,53.726576],[-1.859979,53.728125],[-1.86312,53.730005],[-1.864246,53.732113],[-1.865682,53.735002],[-1.867827,53.738848],[-1.8754,53.74176],[-1.88046,53.74678],[-1.901609,53.748921]]]},"properties":{"code":"B84013","name":"PLANE TREES GROUP PRACTICE","icb":"QWO"}}]}