{"type":"FeatureCollection","features":[{"type":"Feature","geometry":{"type":"Polygon","coordinates":[[[-1.813755,53.639042],[-1.817259,53.63789],[-1.82222,53.637501],[-1.826804,53.637142],[-1.831373,53.637352],[-1.834358,53.63637],[-1.836928,53.634693],[-1.841895,53.631083],[-1.845626,53.62744],[-1.848991,53.623715],[-1.849605,53.621398],[-1.851196,53.619365],[-1.851827,53.61698],[-1.852265,53.615326],[-1.85139,53.615119],[-1.849533,53.615004],[-1.845981,53.614782],[-1.840853,53.615185],[-1.836702,53.615044],[-1.830195,53.613162],[-1.822926,53.609535],[-1.81444,53.606573],[-1.81127,53.606543],[-1.809804,53.606529],[-1.807374,53.606329],[-1.803578,53.60639],[-1.799202,53.606733],[-1.794325,53.609739],[-1.791605,53.610861],[-1.78957,53.61267],[-1.778943,53.617751],[-1.773567,53.622529],[-1.765055,53.628704],[-1.755869,53.629178],[-1.75061,53.630225],[-1.746151,53.6316],[-1.749301,53.634829],[-1.753479,53.636649],[-1.759499,53.639064],[-1.761032,53.641051],[-1.765796,53.642012],[-1.768612,53.642581],[-1.774201,53.6442],[-1.776979,53.64517],[-1.780225,53.643833],[-1.78176,53.642469],[-1.78374,53.642616],[-1.785509,53.643034],[-1.786998,53.643871],[-1.788658,53.647138],[-1.791403,53.646843],[-1.794166,53.646292],[-1.796891,53.646079],[-1.799624,53.646281],[-1.7987,53.644116],[-1.798673,53.642459],[-1.798232,53.641593],[-1.798779,53.641107],[-1.799947,53.640069],[-1.802013,53.639961],[-1.80823,53.639638],[-1.813755,53.639042]]]},"properties":{"code":"B85016","name":"MELTHAM ROAD SURGERY","icb":"QWO"}}]}