{"type":"FeatureCollection","features":[{"type":"Feature","geometry":{"type":"Polygon","coordinates":[[[-1.91115,53.645008],[-1.9114,53.645086],[-1.91774,53.645836],[-1.92442,53.646886],[-1.9311,53.646706],[-1.987321,53.633526],[-2.005131,53.630555],[-2.017821,53.628045],[-2.019691,53.623945],[-2.022261,53.618615],[-2.021871,53.613605],[-2.015841,53.609665],[-2.008441,53.605735],[-1.999081,53.595035],[-1.971192,53.583315],[-1.901661,53.572925],[-1.881241,53.592285],[-1.878392,53.600034],[-1.875879,53.600956],[-1.872587,53.602793],[-1.87191,53.604265],[-1.86181,53.612685],[-1.85041,53.613895],[-1.84153,53.627025],[-1.822644,53.635308],[-1.830529,53.639515],[-1.835316,53.639535],[-1.836061,53.644102],[-1.836292,53.645157],[-1.836523,53.646212],[-1.841277,53.647409],[-1.844849,53.648705],[-1.846845,53.647768],[-1.848832,53.647041],[-1.855832,53.644318],[-1.858879,53.645085],[-1.86035,53.646773],[-1.86028,53.650031],[-1.865666,53.651567],[-1.87677,53.656225],[-1.89703,53.643916],[-1.91115,53.645008]]]},"properties":{"code":"B85054","name":"COLNE VALLEY GROUP PRACTICE","icb":"QWO"}}]}