{"type":"FeatureCollection","features":[{"type":"Feature","geometry":{"type":"Polygon","coordinates":[[[-1.600021,53.723541],[-1.599623,53.724258],[-1.600899,53.723881],[-1.620463,53.730861],[-1.630703,53.744369],[-1.63113,53.74465],[-1.631334,53.744681],[-1.632464,53.745242],[-1.635314,53.744888],[-1.644029,53.745172],[-1.656991,53.746334],[-1.663262,53.746216],[-1.666291,53.746214],[-1.668001,53.745904],[-1.668149,53.745991],[-1.668839,53.746006],[-1.666667,53.746203],[-1.671339,53.74606],[-1.692598,53.746519],[-1.705906,53.742588],[-1.709076,53.73985],[-1.713442,53.736555],[-1.718731,53.735898],[-1.72485,53.73734],[-1.723183,53.733276],[-1.710649,53.725859],[-1.712217,53.722669],[-1.6991,53.71703],[-1.694965,53.715803],[-1.68846,53.71276],[-1.687234,53.711014],[-1.684844,53.709925],[-1.679424,53.708867],[-1.674098,53.707199],[-1.669456,53.708232],[-1.663587,53.709335],[-1.660601,53.709391],[-1.658618,53.708438],[-1.654217,53.706546],[-1.647912,53.704445],[-1.643791,53.702062],[-1.639671,53.699325],[-1.63756,53.697188],[-1.632212,53.693634],[-1.630525,53.693453],[-1.630348,53.694025],[-1.629792,53.693965],[-1.628154,53.693579],[-1.626222,53.693007],[-1.625347,53.692425],[-1.623695,53.693462],[-1.619641,53.694365],[-1.613209,53.699225],[-1.605474,53.703557],[-1.601586,53.70493],[-1.598558,53.707218],[-1.593835,53.715731],[-1.595938,53.719892],[-1.595008,53.719061],[-1.595098,53.720091],[-1.595256,53.719971],[-1.596414,53.720656],[-1.596436,53.720877],[-1.596619,53.720501],[-1.600021,53.723541]]]},"properties":{"code":"B85008","name":"BATLEY HEALTH CENTRE SURGERY","icb":"QWO"}}]}