{"type":"FeatureCollection","features":[{"type":"Feature","geometry":{"type":"Polygon","coordinates":[[[-1.79648,53.60672],[-1.79817,53.60613],[-1.79952,53.60635],[-1.80397,53.60543],[-1.80553,53.60499],[-1.80831,53.60537],[-1.81122,53.60594],[-1.81145,53.60649],[-1.81128,53.60752],[-1.81147,53.60832],[-1.81168,53.60867],[-1.81235,53.60925],[-1.81326,53.6098],[-1.8141,53.6102],[-1.81459,53.61064],[-1.81476,53.61124],[-1.81458,53.61164],[-1.81775,53.6129],[-1.81879,53.61352],[-1.81942,53.61382],[-1.82108,53.61396],[-1.82271,53.614],[-1.82547,53.61405],[-1.82906,53.61393],[-1.83046,53.61412],[-1.83095,53.61405],[-1.8325,53.61408],[-1.83435,53.61465],[-1.83699,53.61519],[-1.84006,53.6153],[-1.84275,53.61515],[-1.84541,53.61492],[-1.84904,53.61487],[-1.85071,53.61537],[-1.85286,53.6145],[-1.86797,53.61364],[-1.86978,53.6132],[-1.88066,53.60823],[-1.88208,53.60793],[-1.88218,53.60697],[-1.880544,53.606176],[-1.880005,53.605425],[-1.878519,53.604243],[-1.873017,53.602321],[-1.8862,53.59648],[-1.88724,53.59616],[-1.87608,53.58221],[-1.87574,53.58142],[-1.87491,53.58103],[-1.87464,53.58041],[-1.87482,53.57988],[-1.87595,53.57875],[-1.88352,53.57337],[-1.88649,53.57195],[-1.88692,53.57148],[-1.88696,53.57101],[-1.88688,53.57029],[-1.88645,53.56969],[-1.88706,53.56883],[-1.88673,53.56793],[-1.88495,53.56697],[-1.88494,53.56457],[-1.8845,53.5635],[-1.88553,53.56217],[-1.861438,53.548142],[-1.84952,53.5412],[-1.84854,53.54059],[-1.84815,53.53977],[-1.84924,53.53856],[-1.85122,53.53733],[-1.85327,53.53595],[-1.85481,53.53405],[-1.85781,53.52801],[-1.85334,53.52445],[-1.85222,53.5228],[-1.85213,53.52002],[-1.85248,53.51528],[-1.85316,53.51063],[-1.85385,53.50831],[-1.85299,53.50599],[-1.85196,53.50237],[-1.84758,53.50325],[-1.84053,53.5029],[-1.835275,53.500887],[-1.832743,53.499968],[-1.829824,53.499407],[-1.826692,53.498564],[-1.823215,53.49785],[-1.820405,53.497741],[-1.819353,53.49776],[-1.815029,53.49769],[-1.812658,53.497722],[-1.81197,53.49892],[-1.812701,53.499074],[-1.81171,53.49969],[-1.81274,53.49979],[-1.79798,53.50214],[-1.79234,53.50001],[-1.78944,53.50155],[-1.78826,53.50412],[-1.78502,53.50576],[-1.77685,53.51006],[-1.76798,53.51416],[-1.76379,53.51602],[-1.76294,53.51812],[-1.76088,53.51828],[-1.755479,53.520475],[-1.750183,53.522327],[-1.749405,53.523426],[-1.74545,53.524055],[-1.740951,53.523237],[-1.73579,53.523526],[-1.721865,53.524399],[-1.718863,53.524659],[-1.713735,53.525705],[-1.711715,53.526275],[-1.708892,53.526963],[-1.70872,53.52929],[-1.711551,53.532993],[-1.714001,53.533918],[-1.716342,53.535567],[-1.71824,53.5375],[-1.72391,53.54037],[-1.728942,53.542268],[-1.732506,53.545106],[-1.72877,53.54762],[-1.72706,53.55047],[-1.72541,53.55114],[-1.72426,53.55229],[-1.725245,53.553293],[-1.725826,53.55402],[-1.725885,53.554361],[-1.725758,53.554675],[-1.72498,53.555635],[-1.72408,53.557855],[-1.723449,53.559078],[-1.722947,53.560317],[-1.721265,53.563975],[-1.720438,53.565773],[-1.719524,53.567613],[-1.716721,53.568959],[-1.713935,53.570233],[-1.713955,53.570843],[-1.713744,53.571487],[-1.71335,53.57225],[-1.714237,53.573487],[-1.71116,53.57592],[-1.71711,53.577],[-1.7218,53.57864],[-1.72636,53.58061],[-1.72739,53.58111],[-1.72971,53.58347],[-1.72912,53.58429],[-1.73172,53.58802],[-1.73578,53.59005],[-1.73591,53.59119],[-1.73932,53.59268],[-1.74168,53.59434],[-1.75232,53.59352],[-1.75713,53.59138],[-1.76468,53.59352],[-1.77342,53.59938],[-1.7762,53.60157],[-1.77864,53.60363],[-1.7797,53.60595],[-1.77981,53.60651],[-1.78017,53.60705],[-1.78077,53.60826],[-1.78356,53.61043],[-1.78697,53.61043],[-1.78845,53.61074],[-1.79013,53.60997],[-1.79272,53.60929],[-1.79531,53.60849],[-1.79648,53.60672]]]},"properties":{"code":"B85006","name":"ELMWOOD FAMILY DOCTORS","icb":"QWO"}}]}