{"type":"FeatureCollection","features":[{"type":"Feature","geometry":{"type":"Polygon","coordinates":[[[-1.780589,53.668942],[-1.790518,53.669372],[-1.790209,53.666162],[-1.790709,53.66534],[-1.789952,53.663908],[-1.788207,53.663284],[-1.789315,53.662916],[-1.79205,53.663722],[-1.794277,53.663446],[-1.794437,53.662986],[-1.794227,53.662589],[-1.792525,53.65908],[-1.79161,53.658243],[-1.790493,53.657671],[-1.79159,53.65691],[-1.793392,53.656213],[-1.794441,53.655569],[-1.797334,53.653563],[-1.800885,53.651383],[-1.800932,53.651061],[-1.801419,53.650686],[-1.801381,53.650291],[-1.80086,53.648845],[-1.800056,53.647783],[-1.799386,53.64548],[-1.798847,53.644461],[-1.798655,53.642459],[-1.799191,53.642101],[-1.800994,53.642037],[-1.800242,53.641446],[-1.800426,53.640918],[-1.800798,53.64072],[-1.801174,53.640102],[-1.801468,53.639964],[-1.804894,53.640112],[-1.810055,53.639472],[-1.814281,53.639045],[-1.816078,53.638199],[-1.812022,53.638702],[-1.808472,53.637972],[-1.805409,53.636402],[-1.803532,53.636321],[-1.80114,53.634439],[-1.800195,53.634473],[-1.798454,53.633851],[-1.796451,53.633531],[-1.795366,53.633048],[-1.792128,53.635206],[-1.789432,53.637696],[-1.786358,53.639327],[-1.785653,53.640248],[-1.784753,53.641727],[-1.783895,53.642389],[-1.781956,53.642305],[-1.781237,53.642504],[-1.780774,53.642861],[-1.780168,53.643858],[-1.778971,53.644116],[-1.776939,53.645194],[-1.773862,53.643917],[-1.773271,53.645615],[-1.773635,53.651935],[-1.772762,53.651953],[-1.772323,53.652023],[-1.771149,53.652169],[-1.771385,53.653182],[-1.770506,53.653859],[-1.769255,53.655014],[-1.767621,53.655276],[-1.766033,53.656024],[-1.766971,53.656413],[-1.7692,53.65707],[-1.770173,53.657503],[-1.7678,53.65862],[-1.76757,53.660198],[-1.769548,53.660905],[-1.770261,53.661576],[-1.775289,53.66415],[-1.769633,53.667917],[-1.773088,53.668067],[-1.7739,53.668196],[-1.774967,53.668671],[-1.775988,53.668332],[-1.778071,53.667997],[-1.778919,53.6683],[-1.779975,53.668131],[-1.780589,53.668942]]]},"properties":{"code":"B85614","name":"CROFT MEDICAL CENTRE","icb":"QWO"}}]}