{"type":"FeatureCollection","features":[{"type":"Feature","geometry":{"type":"Polygon","coordinates":[[[-1.5786,53.71652],[-1.59542,53.7168],[-1.61036,53.71616],[-1.62563,53.71512],[-1.64143,53.71357],[-1.65396,53.71032],[-1.66546,53.70565],[-1.67507,53.69803],[-1.68022,53.69071],[-1.68048,53.68568],[-1.67044,53.6779],[-1.66512,53.67607],[-1.65593,53.67205],[-1.6437,53.66913],[-1.63147,53.66753],[-1.61988,53.66748],[-1.6083,53.67261],[-1.59199,53.69284],[-1.59156,53.69861],[-1.58735,53.70458],[-1.5786,53.71652]]]},"properties":{"code":"B85620","name":"WINDSOR MEDICAL CENTRE","icb":"QWO"}}]}