{"type":"FeatureCollection","features":[{"type":"Feature","geometry":{"type":"Polygon","coordinates":[[[-1.558122,53.793791],[-1.558465,53.793961],[-1.561338,53.795745],[-1.561918,53.796024],[-1.563365,53.796504],[-1.57326,53.797995],[-1.578374,53.799905],[-1.582427,53.801419],[-1.586153,53.802689],[-1.587982,53.803195],[-1.590399,53.804098],[-1.591504,53.804554],[-1.592758,53.805072],[-1.595134,53.806007],[-1.596314,53.806593],[-1.599966,53.808101],[-1.602895,53.809917],[-1.604513,53.811341],[-1.606646,53.812366],[-1.608827,53.811886],[-1.614293,53.811064],[-1.614435,53.814079],[-1.611185,53.814633],[-1.612055,53.815993],[-1.61057,53.816666],[-1.611214,53.816844],[-1.611943,53.817249],[-1.614475,53.818465],[-1.620054,53.820365],[-1.621943,53.820872],[-1.624947,53.82072],[-1.628036,53.820466],[-1.631985,53.820213],[-1.635418,53.819098],[-1.639709,53.817477],[-1.64516,53.813955],[-1.649795,53.811143],[-1.65194,53.809774],[-1.660781,53.807823],[-1.664042,53.807798],[-1.667604,53.80539],[-1.667089,53.804833],[-1.66666,53.803261],[-1.664901,53.799916],[-1.663527,53.796494],[-1.650567,53.796139],[-1.644945,53.796747],[-1.642199,53.795531],[-1.643229,53.794466],[-1.643229,53.793401],[-1.642714,53.792387],[-1.641083,53.791779],[-1.638937,53.791069],[-1.641169,53.779786],[-1.641297,53.777479],[-1.640997,53.775779],[-1.642284,53.774118],[-1.644366,53.772698],[-1.650503,53.768865],[-1.652638,53.767137],[-1.651117,53.766634],[-1.64907,53.76648],[-1.647263,53.766344],[-1.642615,53.766125],[-1.636687,53.76613],[-1.621519,53.765905],[-1.613807,53.765691],[-1.605431,53.765812],[-1.595764,53.769464],[-1.584435,53.777656],[-1.581817,53.775348],[-1.580358,53.772203],[-1.579027,53.770808],[-1.577075,53.76817],[-1.576409,53.767511],[-1.574543,53.763922],[-1.573405,53.762793],[-1.571155,53.761952],[-1.56669,53.762713],[-1.565037,53.763249],[-1.563106,53.764036],[-1.559973,53.765456],[-1.556886,53.766677],[-1.554093,53.767942],[-1.550832,53.7702],[-1.54654,53.773776],[-1.545794,53.774572],[-1.545286,53.775388],[-1.544905,53.77682],[-1.544824,53.778227],[-1.544824,53.779634],[-1.544394,53.782271],[-1.542892,53.783755],[-1.544716,53.785656],[-1.545038,53.786531],[-1.546197,53.788737],[-1.546477,53.78945],[-1.546982,53.790448],[-1.547071,53.790959],[-1.54699,53.791301],[-1.546956,53.791447],[-1.546827,53.791654],[-1.547873,53.791926],[-1.548506,53.792023],[-1.549504,53.792175],[-1.549833,53.792284],[-1.550619,53.792476],[-1.551238,53.792582],[-1.55334,53.792874],[-1.555238,53.793118],[-1.556671,53.793317],[-1.557796,53.793629],[-1.558122,53.793791]]]},"properties":{"code":"B86024","name":"PRIORY VIEW MEDICAL CENTRE","icb":"QWO"}}]}