{"type":"FeatureCollection","features":[{"type":"Feature","geometry":{"type":"Polygon","coordinates":[[[-1.47466,53.83379],[-1.475258,53.833131],[-1.475175,53.833182],[-1.475345,53.832574],[-1.47556,53.83226],[-1.47607,53.83061],[-1.4771,53.82976],[-1.48079,53.82844],[-1.48302,53.82718],[-1.4844,53.82487],[-1.49516,53.82126],[-1.49252,53.81972],[-1.49147,53.81814],[-1.4913,53.81565],[-1.49058,53.81431],[-1.49066,53.81289],[-1.48898,53.80969],[-1.489,53.80845],[-1.48823,53.80722],[-1.48594,53.80127],[-1.479378,53.802324],[-1.469508,53.802729],[-1.462901,53.803084],[-1.455949,53.8043],[-1.444878,53.805618],[-1.441352,53.805416],[-1.438003,53.805263],[-1.434999,53.804909],[-1.429249,53.804503],[-1.425583,53.804212],[-1.423266,53.803996],[-1.422515,53.806974],[-1.421957,53.808786],[-1.421442,53.810053],[-1.429934,53.813018],[-1.434481,53.815146],[-1.431141,53.820264],[-1.416035,53.818566],[-1.41618,53.82228],[-1.41659,53.83059],[-1.42329,53.83945],[-1.42941,53.83938],[-1.44436,53.83974],[-1.46742,53.84064],[-1.468479,53.840577],[-1.469423,53.840475],[-1.470195,53.839969],[-1.470453,53.839462],[-1.471483,53.8385],[-1.471998,53.837791],[-1.472685,53.837183],[-1.473286,53.836272],[-1.473716,53.835765],[-1.47363,53.835411],[-1.474231,53.835056],[-1.473973,53.8346],[-1.474317,53.834398],[-1.474488,53.834094],[-1.47466,53.83379]]]},"properties":{"code":"B86007","name":"WINDMILL HEALTH CENTRE","icb":"QWO"}}]}