{"type":"FeatureCollection","features":[{"type":"Feature","geometry":{"type":"Polygon","coordinates":[[[-1.642733,53.862413],[-1.641001,53.856283],[-1.647648,53.853518],[-1.653824,53.849531],[-1.653596,53.845937],[-1.655235,53.844737],[-1.655542,53.844358],[-1.667814,53.839976],[-1.673288,53.835248],[-1.664457,53.826641],[-1.667215,53.824621],[-1.664924,53.823602],[-1.663329,53.823113],[-1.661881,53.823138],[-1.65978,53.823174],[-1.658503,53.822533],[-1.657151,53.821938],[-1.655824,53.821187],[-1.652873,53.819516],[-1.651075,53.818847],[-1.649336,53.818204],[-1.643867,53.817223],[-1.641466,53.81705],[-1.638258,53.817706],[-1.633094,53.819857],[-1.626142,53.820307],[-1.623534,53.820638],[-1.621678,53.820417],[-1.617426,53.820047],[-1.615104,53.819631],[-1.605525,53.821436],[-1.598653,53.81234],[-1.596261,53.811138],[-1.593545,53.810243],[-1.588454,53.808152],[-1.581527,53.806028],[-1.576877,53.804631],[-1.571488,53.802626],[-1.570509,53.802448],[-1.567961,53.801315],[-1.56633,53.800581],[-1.564482,53.799767],[-1.5635,53.799237],[-1.562385,53.798956],[-1.560319,53.798586],[-1.558086,53.798557],[-1.555769,53.799386],[-1.55379,53.80285],[-1.55203,53.80388],[-1.54957,53.80487],[-1.54753,53.80513],[-1.54609,53.80509],[-1.5436,53.80491],[-1.54191,53.80443],[-1.54097,53.80362],[-1.54068,53.80271],[-1.537569,53.802152],[-1.5365,53.80319],[-1.53625,53.80359],[-1.53571,53.80486],[-1.53566,53.8061],[-1.53574,53.80663],[-1.53584,53.80702],[-1.53624,53.80761],[-1.53526,53.80872],[-1.53538,53.8097],[-1.53368,53.81351],[-1.53206,53.81551],[-1.53158,53.81635],[-1.53132,53.81718],[-1.53131,53.81885],[-1.53267,53.82234],[-1.53186,53.82347],[-1.53193,53.82412],[-1.53662,53.82715],[-1.53766,53.82833],[-1.53839,53.83029],[-1.53879,53.8339],[-1.53909,53.83526],[-1.53974,53.83656],[-1.54132,53.83727],[-1.54399,53.8406],[-1.54684,53.84437],[-1.54781,53.84507],[-1.54881,53.84544],[-1.55255,53.84393],[-1.55671,53.84283],[-1.56135,53.84224],[-1.5683,53.84307],[-1.56482,53.85131],[-1.56684,53.85412],[-1.56804,53.85708],[-1.57104,53.86184],[-1.619281,53.866828],[-1.642733,53.862413]]]},"properties":{"code":"B86017","name":"CRAVEN ROAD MEDICAL PRACTICE","icb":"QWO"}}]}