{"type":"FeatureCollection","features":[{"type":"Feature","geometry":{"type":"Polygon","coordinates":[[[-1.271207,53.962121],[-1.27064,53.96901],[-1.283126,53.974414],[-1.29849,53.979311],[-1.305785,53.981683],[-1.31793,53.982591],[-1.344581,53.977443],[-1.348443,53.976761],[-1.352091,53.97603],[-1.374235,53.973405],[-1.398525,53.974313],[-1.413288,53.975171],[-1.420412,53.973405],[-1.424532,53.970375],[-1.429424,53.966892],[-1.433544,53.962852],[-1.450024,53.955985],[-1.452255,53.947802],[-1.45397,53.93548],[-1.45603,53.92982],[-1.44608,53.92314],[-1.43166,53.91667],[-1.40728,53.90697],[-1.36505,53.91041],[-1.33759,53.91485],[-1.32042,53.92011],[-1.284499,53.932443],[-1.278896,53.935016],[-1.276031,53.936971],[-1.273212,53.939012],[-1.271839,53.954168],[-1.271839,53.955682],[-1.271925,53.955732],[-1.271663,53.956349],[-1.271207,53.962121]]]},"properties":{"code":"B86033","name":"CROSSLEY STREET SURGERY","icb":"QWO"}}]}