{"type":"FeatureCollection","features":[{"type":"Feature","geometry":{"type":"Polygon","coordinates":[[[-1.66803,53.82457],[-1.68529,53.80947],[-1.68361,53.80637],[-1.68296,53.80553],[-1.68227,53.8051],[-1.67342,53.80533],[-1.66808,53.80479],[-1.66724,53.80516],[-1.66634,53.8035],[-1.66509,53.80184],[-1.6608,53.80145],[-1.65642,53.80204],[-1.65644,53.80063],[-1.65611,53.79912],[-1.65531,53.79918],[-1.6555,53.79761],[-1.65397,53.79769],[-1.65057,53.79589],[-1.64222,53.79642],[-1.63885,53.79641],[-1.63548,53.79686],[-1.63116,53.79829],[-1.62951,53.79836],[-1.62817,53.79792],[-1.62409,53.79552],[-1.62169,53.79392],[-1.62081,53.79495],[-1.62096,53.79588],[-1.61963,53.79543],[-1.61284,53.79338],[-1.61139,53.79342],[-1.60894,53.79314],[-1.60666,53.79278],[-1.60235,53.79332],[-1.59718,53.79337],[-1.59572,53.79675],[-1.59403,53.79952],[-1.60039,53.80557],[-1.60344,53.80886],[-1.6058,53.81215],[-1.60675,53.81266],[-1.60688,53.81421],[-1.60783,53.81603],[-1.61218,53.81814],[-1.618895,53.820846],[-1.628551,53.823709],[-1.632414,53.825634],[-1.636191,53.825735],[-1.637264,53.825102],[-1.638336,53.824469],[-1.638637,53.823608],[-1.638423,53.822746],[-1.640031,53.820568],[-1.641158,53.81958],[-1.642596,53.818864],[-1.646833,53.81806],[-1.651297,53.819098],[-1.65898,53.82341],[-1.66803,53.82457]]]},"properties":{"code":"B86015","name":"MANOR PARK SURGERY","icb":"QWO"}}]}