{"type":"FeatureCollection","features":[{"type":"Feature","geometry":{"type":"Polygon","coordinates":[[[-1.478949,53.841093],[-1.478176,53.839878],[-1.472855,53.837042],[-1.476631,53.830406],[-1.48324,53.827418],[-1.485128,53.824733],[-1.480579,53.82073],[-1.480837,53.813281],[-1.48736,53.802131],[-1.472597,53.795845],[-1.471224,53.792043],[-1.468992,53.789457],[-1.455345,53.790268],[-1.449938,53.794324],[-1.441011,53.797772],[-1.428137,53.7926],[-1.415777,53.799394],[-1.419039,53.804716],[-1.414146,53.822453],[-1.424017,53.840435],[-1.446075,53.839827],[-1.448393,53.841397],[-1.453543,53.843423],[-1.463928,53.843575],[-1.468048,53.842815],[-1.469593,53.840739],[-1.478949,53.841093]]]},"properties":{"code":"B86055","name":"ASHFIELD MEDICAL CENTRE","icb":"QWO"}}]}