{"type":"FeatureCollection","features":[{"type":"Feature","geometry":{"type":"Polygon","coordinates":[[[-1.62838,53.74546],[-1.6246,53.7412],[-1.62254,53.73836],[-1.61671,53.7349],[-1.61053,53.73267],[-1.60297,53.73023],[-1.59405,53.73023],[-1.58752,53.73186],[-1.58134,53.73348],[-1.57207,53.73348],[-1.56212,53.73368],[-1.55903,53.73572],[-1.55045,53.73673],[-1.52916,53.7416],[-1.52058,53.74506],[-1.52229,53.7483],[-1.51577,53.75277],[-1.51611,53.75663],[-1.51989,53.76535],[-1.51749,53.76941],[-1.51371,53.77002],[-1.50719,53.76738],[-1.49963,53.76515],[-1.49174,53.76495],[-1.49105,53.7684],[-1.49414,53.77286],[-1.50272,53.77591],[-1.51028,53.77591],[-1.51543,53.77936],[-1.52298,53.78422],[-1.5271,53.7897],[-1.53225,53.79315],[-1.54118,53.79355],[-1.54976,53.79477],[-1.56281,53.79639],[-1.56761,53.79477],[-1.56761,53.78706],[-1.56933,53.78402],[-1.5707,53.78078],[-1.58203,53.77956],[-1.59027,53.77307],[-1.58958,53.77043],[-1.59267,53.7684],[-1.59508,53.76576],[-1.59817,53.76312],[-1.60297,53.76048],[-1.60881,53.75805],[-1.61362,53.75521],[-1.61808,53.75054],[-1.62117,53.7479],[-1.62838,53.74546]]]},"properties":{"code":"B86005","name":"DR N DUMPHY & PARTNERS","icb":"QWO"}}]}