{"type":"FeatureCollection","features":[{"type":"Feature","geometry":{"type":"Polygon","coordinates":[[[-1.546197,53.825335],[-1.546197,53.82487],[-1.544137,53.821932],[-1.541219,53.819196],[-1.538815,53.816459],[-1.5383,53.81352],[-1.535726,53.810682],[-1.532464,53.811392],[-1.528172,53.810682],[-1.524911,53.811291],[-1.522336,53.81271],[-1.51547,53.818385],[-1.508775,53.823756],[-1.50517,53.828923],[-1.504312,53.833887],[-1.504827,53.836521],[-1.504655,53.839154],[-1.504827,53.842193],[-1.507058,53.84351],[-1.512208,53.844826],[-1.518559,53.844725],[-1.524739,53.84432],[-1.533666,53.842598],[-1.54036,53.842396],[-1.54242,53.84037],[-1.544652,53.837433],[-1.54345,53.833786],[-1.546197,53.830443],[-1.546197,53.829559],[-1.54688,53.82847],[-1.54695,53.82671],[-1.546197,53.825335]]]},"properties":{"code":"B86039","name":"ALLERTON MEDICAL CENTRE","icb":"QWO"}}]}