{"type":"FeatureCollection","features":[{"type":"Feature","geometry":{"type":"Polygon","coordinates":[[[-1.5834,53.76414],[-1.58272,53.75785],[-1.57963,53.75845],[-1.581,53.75297],[-1.57413,53.75521],[-1.5707,53.75724],[-1.56796,53.75521],[-1.55972,53.75521],[-1.55079,53.75642],[-1.54667,53.75886],[-1.54221,53.76353],[-1.54015,53.76759],[-1.53843,53.77124],[-1.53774,53.77793],[-1.538558,53.780724],[-1.521944,53.787976],[-1.532547,53.795353],[-1.53611,53.795936],[-1.538771,53.796063],[-1.543836,53.796291],[-1.550188,53.796469],[-1.552935,53.796595],[-1.55611,53.796646],[-1.558256,53.796342],[-1.56066,53.795417],[-1.56332,53.794263],[-1.566068,53.792641],[-1.570102,53.790562],[-1.56813,53.78848],[-1.56744,53.78686],[-1.5695,53.78382],[-1.57139,53.78311],[-1.57104,53.78169],[-1.5695,53.78189],[-1.56933,53.78098],[-1.56916,53.77895],[-1.57173,53.77712],[-1.57516,53.77611],[-1.57757,53.7758],[-1.581,53.77651],[-1.58306,53.77631],[-1.58443,53.77469],[-1.59061,53.77215],[-1.58907,53.77023],[-1.58735,53.76708],[-1.58512,53.76535],[-1.5834,53.76414]]]},"properties":{"code":"B86002","name":"CITY VIEW MEDICAL PRACTICE","icb":"QWO"}}]}