{"type":"FeatureCollection","features":[{"type":"Feature","geometry":{"type":"Polygon","coordinates":[[[-1.441993,53.797782],[-1.44193,53.79806],[-1.44243,53.79849],[-1.44306,53.79878],[-1.44612,53.80061],[-1.45174,53.80379],[-1.45223,53.80429],[-1.45242,53.8049],[-1.45256,53.80604],[-1.45249,53.80693],[-1.45266,53.80783],[-1.45408,53.80811],[-1.45558,53.80821],[-1.45851,53.80816],[-1.46497,53.80821],[-1.46598,53.80827],[-1.46637,53.8081],[-1.46967,53.80707],[-1.47313,53.80644],[-1.47406,53.80616],[-1.4749,53.80583],[-1.47659,53.80502],[-1.47981,53.80412],[-1.48869,53.80144],[-1.49208,53.8013],[-1.49414,53.80156],[-1.49795,53.80126],[-1.501337,53.800679],[-1.50292,53.80045],[-1.50596,53.79958],[-1.506462,53.799363],[-1.507518,53.79905],[-1.50837,53.79892],[-1.50894,53.79867],[-1.50994,53.79841],[-1.510383,53.798193],[-1.511686,53.797762],[-1.51269,53.79755],[-1.51423,53.797445],[-1.51524,53.79743],[-1.52019,53.79795],[-1.522969,53.797785],[-1.524182,53.797846],[-1.52761,53.79832],[-1.52792,53.79831],[-1.52849,53.79805],[-1.52901,53.79758],[-1.53038,53.7968],[-1.53152,53.79604],[-1.53143,53.79459],[-1.53062,53.79348],[-1.52787,53.79137],[-1.52667,53.79066],[-1.52452,53.79003],[-1.52255,53.78886],[-1.52109,53.78785],[-1.5186,53.78765],[-1.51637,53.78813],[-1.51465,53.78914],[-1.51324,53.79018],[-1.51285,53.79054],[-1.49976,53.78983],[-1.4971,53.7896],[-1.48234,53.78881],[-1.46788,53.78846],[-1.457449,53.788381],[-1.458774,53.788781],[-1.44711,53.78716],[-1.44534,53.78842],[-1.44478,53.78931],[-1.44402,53.79015],[-1.44369,53.79102],[-1.44468,53.79125],[-1.44529,53.79152],[-1.44542,53.79201],[-1.44459,53.79253],[-1.4445,53.7932],[-1.44357,53.79438],[-1.44298,53.79558],[-1.4418,53.79639],[-1.44159,53.79672],[-1.441993,53.797782]]]},"properties":{"code":"B86043","name":"EAST PARK MEDICAL CENTRE","icb":"QWO"}}]}