{"type":"FeatureCollection","features":[{"type":"Feature","geometry":{"type":"Polygon","coordinates":[[[-1.42567,53.720515],[-1.380237,53.731344],[-1.36299,53.73693],[-1.283119,53.763337],[-1.29072,53.771605],[-1.303695,53.778574],[-1.309052,53.780383],[-1.316741,53.78145],[-1.320859,53.787538],[-1.324667,53.797215],[-1.339079,53.804342],[-1.339579,53.809729],[-1.336913,53.815149],[-1.319275,53.82363],[-1.337576,53.829985],[-1.341673,53.840376],[-1.346926,53.832476],[-1.387272,53.831754],[-1.390989,53.837228],[-1.40419,53.83409],[-1.43234,53.82498],[-1.431903,53.82038],[-1.421134,53.811939],[-1.420409,53.804288],[-1.436383,53.80499],[-1.45148,53.80471],[-1.44105,53.78861],[-1.427183,53.78582],[-1.429879,53.777492],[-1.435951,53.774561],[-1.456162,53.774834],[-1.462574,53.775716],[-1.471667,53.774544],[-1.4792,53.770404],[-1.48109,53.764543],[-1.495432,53.761116],[-1.503244,53.760106],[-1.509605,53.757727],[-1.514216,53.75105],[-1.51539,53.745056],[-1.509433,53.736309],[-1.508909,53.730892],[-1.4966,53.728419],[-1.452687,53.729247],[-1.438261,53.72726],[-1.42567,53.720515]]]},"properties":{"code":"B86658","name":"MOORFIELD HOUSE SURGERY","icb":"QWO"}}]}