{"type":"FeatureCollection","features":[{"type":"Feature","geometry":{"type":"Polygon","coordinates":[[[-1.65865,53.75826],[-1.65993,53.75773],[-1.66167,53.75677],[-1.66083,53.75649],[-1.65699,53.75431],[-1.65595,53.75392],[-1.65454,53.75403],[-1.6542,53.75399],[-1.65317,53.75357],[-1.65134,53.75268],[-1.65065,53.75223],[-1.64769,53.75142],[-1.64542,53.75094],[-1.64342,53.75067],[-1.64238,53.75045],[-1.64049,53.74987],[-1.63918,53.74974],[-1.63741,53.74981],[-1.63551,53.74998],[-1.6347,53.75015],[-1.63299,53.75096],[-1.63172,53.75186],[-1.63079,53.75236],[-1.62761,53.75442],[-1.62154,53.75612],[-1.61982,53.75674],[-1.61694,53.75823],[-1.62065,53.75921],[-1.62194,53.75848],[-1.62735,53.76212],[-1.62938,53.76196],[-1.6294,53.76267],[-1.63,53.76295],[-1.63028,53.76332],[-1.63089,53.76365],[-1.63156,53.76385],[-1.63495,53.76417],[-1.63581,53.76404],[-1.63653,53.76411],[-1.63764,53.76467],[-1.63762,53.76524],[-1.64038,53.76565],[-1.64024,53.76615],[-1.63998,53.7666],[-1.63912,53.7675],[-1.63868,53.76786],[-1.63721,53.76853],[-1.63623,53.76883],[-1.6359,53.769],[-1.63494,53.76976],[-1.63074,53.77118],[-1.62411,53.7737],[-1.62006,53.77559],[-1.6134,53.77799],[-1.60385,53.78031],[-1.60445,53.77862],[-1.60245,53.77766],[-1.5995,53.77739],[-1.59722,53.77685],[-1.59654,53.77784],[-1.59467,53.77756],[-1.59399,53.77903],[-1.59413,53.77984],[-1.59556,53.78028],[-1.59552,53.78095],[-1.59585,53.78118],[-1.59578,53.78137],[-1.59528,53.78148],[-1.58781,53.78206],[-1.58526,53.78238],[-1.58338,53.78347],[-1.58223,53.78325],[-1.58033,53.78425],[-1.5829,53.7861],[-1.58201,53.78652],[-1.58251,53.78764],[-1.58188,53.78773],[-1.58195,53.7881],[-1.58066,53.78848],[-1.58076,53.78903],[-1.58032,53.78905],[-1.57948,53.78941],[-1.57864,53.78959],[-1.57752,53.78971],[-1.57629,53.79006],[-1.57453,53.79075],[-1.57581,53.791],[-1.57871,53.79191],[-1.58028,53.79218],[-1.58168,53.79252],[-1.58238,53.79264],[-1.58464,53.79287],[-1.58649,53.7932],[-1.5901,53.79342],[-1.59229,53.79368],[-1.59321,53.79361],[-1.59411,53.79343],[-1.59523,53.79328],[-1.59711,53.79345],[-1.59869,53.79436],[-1.59914,53.79474],[-1.60025,53.79534],[-1.60242,53.79466],[-1.60695,53.79344],[-1.60778,53.79347],[-1.60861,53.79356],[-1.609879,53.79346],[-1.610579,53.793511],[-1.61145,53.793574],[-1.613239,53.793704],[-1.615157,53.794306],[-1.616834,53.794764],[-1.617912,53.795096],[-1.618633,53.795459],[-1.619612,53.795666],[-1.620571,53.796004],[-1.620942,53.796156],[-1.620978,53.796696],[-1.620845,53.79707],[-1.620845,53.797992],[-1.620673,53.798477],[-1.620443,53.799001],[-1.620371,53.79949],[-1.620169,53.799512],[-1.6202,53.79987],[-1.61986,53.80094],[-1.61996,53.80124],[-1.620722,53.801525],[-1.621678,53.801452],[-1.621907,53.801675],[-1.622088,53.801623],[-1.622421,53.801396],[-1.623913,53.801955],[-1.625113,53.802379],[-1.62551,53.80268],[-1.62708,53.80202],[-1.63057,53.80149],[-1.63416,53.80158],[-1.63543,53.80192],[-1.63665,53.8026],[-1.63889,53.80411],[-1.64101,53.803686],[-1.645125,53.801984],[-1.651592,53.799556],[-1.653591,53.798263],[-1.655078,53.797586],[-1.660282,53.797514],[-1.662005,53.796939],[-1.66308,53.79661],[-1.66476,53.79535],[-1.66673,53.79435],[-1.6675,53.7938],[-1.66774,53.79287],[-1.66872,53.79255],[-1.66858,53.79129],[-1.66859,53.79008],[-1.66851,53.78917],[-1.66859,53.78863],[-1.66973,53.78883],[-1.66997,53.78747],[-1.66985,53.78718],[-1.66851,53.78629],[-1.66666,53.78541],[-1.66365,53.78504],[-1.66211,53.78501],[-1.66096,53.78514],[-1.66058,53.7854],[-1.66016,53.7856],[-1.659,53.78565],[-1.65647,53.78616],[-1.65472,53.78633],[-1.65257,53.78637],[-1.65137,53.78619],[-1.65017,53.7859],[-1.64876,53.78536],[-1.64835,53.78499],[-1.64805,53.78454],[-1.64743,53.78424],[-1.64647,53.78422],[-1.64552,53.78412],[-1.64533,53.78342],[-1.64482,53.78237],[-1.64439,53.78226],[-1.64395,53.78221],[-1.64354,53.78205],[-1.64292,53.78155],[-1.64234,53.78069],[-1.64209,53.7805],[-1.64146,53.78031],[-1.64065,53.78019],[-1.63997,53.77996],[-1.63662,53.78207],[-1.63599,53.78274],[-1.63574,53.78331],[-1.63553,53.7833],[-1.63547,53.78318],[-1.63547,53.78125],[-1.63555,53.7802],[-1.63596,53.77967],[-1.63635,53.7793],[-1.6364,53.77868],[-1.63636,53.77811],[-1.63608,53.77691],[-1.63626,53.77651],[-1.63627,53.77616],[-1.6359,53.77137],[-1.63585,53.77098],[-1.63557,53.77043],[-1.63535,53.76963],[-1.63774,53.76898],[-1.64174,53.76776],[-1.64635,53.76481],[-1.65094,53.76204],[-1.65256,53.7607],[-1.65535,53.7595],[-1.65865,53.75826]]]},"properties":{"code":"B86672","name":"HAWTHORN SURGERY","icb":"QWO"}}]}