{"type":"FeatureCollection","features":[{"type":"Feature","geometry":{"type":"Polygon","coordinates":[[[-1.623786,53.635733],[-1.623314,53.635911],[-1.6237,53.635606],[-1.624002,53.635682],[-1.62398,53.635211],[-1.623829,53.635428],[-1.62353,53.635504],[-1.62471,53.634079],[-1.625204,53.633118],[-1.622698,53.632913],[-1.617995,53.630593],[-1.612758,53.63016],[-1.610527,53.630186],[-1.608724,53.629677],[-1.609035,53.629367],[-1.606879,53.62988],[-1.606021,53.629397],[-1.60306,53.628989],[-1.599712,53.628302],[-1.597051,53.627921],[-1.596884,53.626738],[-1.596966,53.627921],[-1.595249,53.627895],[-1.592588,53.627742],[-1.590657,53.628251],[-1.5886,53.62699],[-1.58121,53.62539],[-1.57175,53.62805],[-1.56178,53.63156],[-1.546579,53.644031],[-1.54026,53.652672],[-1.53394,53.66131],[-1.536542,53.657483],[-1.532752,53.66021],[-1.536156,53.657737],[-1.531563,53.659111],[-1.527099,53.660586],[-1.521327,53.662823],[-1.515427,53.664959],[-1.51238,53.666116],[-1.510942,53.666599],[-1.50989,53.666955],[-1.50959,53.667507],[-1.509236,53.667422],[-1.508882,53.667337],[-1.508238,53.667591],[-1.507165,53.668036],[-1.505921,53.668722],[-1.504825,53.669473],[-1.510126,53.669612],[-1.516348,53.669778],[-1.52921,53.66619],[-1.53011,53.66974],[-1.53581,53.67065],[-1.540781,53.675734],[-1.544411,53.67982],[-1.540533,53.68025],[-1.537665,53.681848],[-1.541308,53.682368],[-1.54749,53.680877],[-1.55679,53.68407],[-1.57586,53.68925],[-1.58453,53.69438],[-1.59184,53.69301],[-1.59655,53.6666],[-1.590998,53.654635],[-1.606876,53.651252],[-1.613314,53.649344],[-1.614517,53.648403],[-1.614774,53.647462],[-1.61452,53.6469],[-1.623786,53.635733]]]},"properties":{"code":"B87002","name":"ORCHARD CROFT","icb":"QWO"}}]}