{"type":"FeatureCollection","features":[{"type":"Feature","geometry":{"type":"Polygon","coordinates":[[[-1.27845,53.58349],[-1.2608,53.60115],[-1.25297,53.61343],[-1.2519,53.61746],[-1.25339,53.6199],[-1.27675,53.62695],[-1.29351,53.63175],[-1.30088,53.63465],[-1.3057,53.63621],[-1.31662,53.64095],[-1.31324,53.65177],[-1.3223,53.65463],[-1.33193,53.65151],[-1.33364,53.65062],[-1.33606,53.64992],[-1.33814,53.64966],[-1.34608,53.64949],[-1.35441,53.65044],[-1.38199,53.64917],[-1.38154,53.64231],[-1.38258,53.63957],[-1.40732,53.63248],[-1.41319,53.63172],[-1.4265,53.62576],[-1.42962,53.62293],[-1.43012,53.6214],[-1.42927,53.61966],[-1.42507,53.618],[-1.4219,53.61684],[-1.41848,53.61362],[-1.41599,53.6126],[-1.4141,53.61125],[-1.41248,53.60938],[-1.41386,53.60726],[-1.41732,53.60505],[-1.41986,53.60329],[-1.41919,53.60154],[-1.41878,53.59679],[-1.41929,53.59486],[-1.42539,53.58754],[-1.42607,53.58476],[-1.42581,53.58314],[-1.42537,53.58126],[-1.42337,53.57959],[-1.415,53.57834],[-1.41478,53.57789],[-1.41455,53.57679],[-1.41359,53.57525],[-1.40968,53.57628],[-1.40225,53.57396],[-1.39804,53.57244],[-1.39228,53.57061],[-1.3859,53.57012],[-1.38517,53.56622],[-1.37574,53.56692],[-1.37022,53.56684],[-1.36011,53.56705],[-1.35015,53.56777],[-1.34,53.56987],[-1.31757,53.57905],[-1.30816,53.58136],[-1.29308,53.58222],[-1.29112,53.58249],[-1.28898,53.58294],[-1.28393,53.58009],[-1.28182,53.58085],[-1.27845,53.58349]]]},"properties":{"code":"B87026","name":"THE GRANGE MEDICAL CENTRE","icb":"QWO"}}]}