{"type":"FeatureCollection","features":[{"type":"Feature","geometry":{"type":"Polygon","coordinates":[[[-1.35844,53.67921],[-1.35696,53.67941],[-1.34797,53.68273],[-1.34426,53.68423],[-1.331743,53.692338],[-1.32154,53.69439],[-1.32059,53.69465],[-1.32085,53.69511],[-1.326771,53.702401],[-1.330131,53.706831],[-1.330141,53.706911],[-1.329547,53.708063],[-1.32761,53.708921],[-1.324683,53.709612],[-1.314513,53.710199],[-1.31235,53.710144],[-1.31215,53.710041],[-1.311365,53.707476],[-1.311743,53.705278],[-1.31467,53.70334],[-1.31398,53.70186],[-1.31209,53.6992],[-1.309,53.69869],[-1.30312,53.69924],[-1.29424,53.70171],[-1.28686,53.70397],[-1.2836,53.7059],[-1.28244,53.70732],[-1.283,53.70789],[-1.28531,53.70887],[-1.28926,53.70918],[-1.29501,53.7086],[-1.299245,53.706965],[-1.299387,53.706948],[-1.306807,53.70775],[-1.306946,53.707809],[-1.30862,53.709605],[-1.30858,53.709757],[-1.307078,53.710595],[-1.30527,53.71139],[-1.30094,53.71439],[-1.302064,53.716393],[-1.302051,53.716484],[-1.300293,53.718477],[-1.29926,53.71949],[-1.29892,53.72211],[-1.301012,53.72534],[-1.300351,53.727843],[-1.29742,53.73016],[-1.29579,53.73592],[-1.30085,53.7363],[-1.307645,53.736528],[-1.308585,53.737044],[-1.31132,53.73896],[-1.313,53.7397],[-1.31527,53.73891],[-1.317801,53.735718],[-1.318876,53.734471],[-1.319015,53.734409],[-1.329216,53.733231],[-1.33416,53.732803],[-1.335755,53.733054],[-1.3396,53.73414],[-1.34977,53.73348],[-1.354377,53.732481],[-1.354668,53.732567],[-1.356038,53.735231],[-1.35518,53.74272],[-1.357727,53.743179],[-1.357861,53.743382],[-1.35741,53.74384],[-1.3578,53.74417],[-1.3599,53.74485],[-1.36222,53.74544],[-1.36312,53.74521],[-1.363827,53.744591],[-1.36484,53.74404],[-1.36578,53.74343],[-1.366578,53.742739],[-1.36775,53.74229],[-1.367835,53.741021],[-1.367968,53.740911],[-1.37808,53.738632],[-1.378397,53.738746],[-1.37853,53.73942],[-1.38247,53.74072],[-1.386173,53.74099],[-1.391983,53.741528],[-1.39642,53.74244],[-1.400595,53.741629],[-1.405541,53.741172],[-1.4141,53.7414],[-1.41771,53.74044],[-1.41814,53.73968],[-1.4141,53.73559],[-1.408687,53.732486],[-1.40762,53.72972],[-1.406766,53.728062],[-1.40659,53.72652],[-1.39973,53.72645],[-1.394197,53.728284],[-1.388883,53.728202],[-1.388723,53.72815],[-1.386072,53.725818],[-1.38599,53.72393],[-1.38411,53.72188],[-1.38081,53.721208],[-1.380688,53.721137],[-1.379593,53.719345],[-1.379613,53.719241],[-1.381301,53.717666],[-1.381471,53.71761],[-1.386931,53.71761],[-1.3911,53.71784],[-1.394188,53.716817],[-1.39921,53.71647],[-1.419783,53.714692],[-1.42316,53.71497],[-1.43118,53.71324],[-1.44033,53.70992],[-1.4453,53.70732],[-1.44547,53.70534],[-1.4356,53.70146],[-1.42496,53.69983],[-1.422546,53.700615],[-1.422388,53.700624],[-1.419331,53.700022],[-1.41711,53.6994],[-1.415691,53.699748],[-1.415398,53.699674],[-1.4144,53.69838],[-1.413203,53.698144],[-1.412109,53.697766],[-1.4113,53.697219],[-1.41009,53.69591],[-1.40872,53.69468],[-1.40816,53.69439],[-1.407081,53.694091],[-1.406597,53.69375],[-1.40601,53.69231],[-1.40554,53.69196],[-1.403729,53.692075],[-1.403588,53.692051],[-1.402573,53.691576],[-1.40177,53.69104],[-1.39979,53.69203],[-1.399651,53.692057],[-1.386577,53.691548],[-1.380121,53.690739],[-1.376536,53.688814],[-1.37591,53.68809],[-1.367563,53.690182],[-1.367279,53.690118],[-1.35844,53.67921]]]},"properties":{"code":"B87005","name":"RIVERSIDE MEDICAL CENTRE","icb":"QWO"}}]}