{"type":"FeatureCollection","features":[{"type":"Feature","geometry":{"type":"Polygon","coordinates":[[[-1.47174,53.632527],[-1.400155,53.633138],[-1.381531,53.641172],[-1.352087,53.639829],[-1.349645,53.64619],[-1.394923,53.682526],[-1.426098,53.682698],[-1.43893,53.687921],[-1.467665,53.682552],[-1.470366,53.675949],[-1.473627,53.67485],[-1.477449,53.673985],[-1.473295,53.67],[-1.480709,53.665137],[-1.484229,53.661781],[-1.482897,53.658538],[-1.487749,53.654838],[-1.481823,53.651099],[-1.473496,53.648225],[-1.47174,53.632527]]]},"properties":{"code":"B87028","name":"CROFTON AND SHARLSTON MED PRAC","icb":"QWO"}}]}