{"type":"FeatureCollection","features":[{"type":"Feature","geometry":{"type":"Polygon","coordinates":[[[-1.527658,53.708913],[-1.530082,53.708021],[-1.531064,53.707494],[-1.531311,53.707411],[-1.532807,53.707691],[-1.537077,53.707002],[-1.5402,53.705776],[-1.541793,53.705243],[-1.542072,53.705214],[-1.543354,53.704477],[-1.544368,53.703541],[-1.545108,53.703274],[-1.552409,53.701721],[-1.552865,53.701572],[-1.552312,53.701],[-1.55162,53.699831],[-1.551229,53.699419],[-1.550531,53.698895],[-1.547195,53.69717],[-1.546127,53.696484],[-1.544588,53.695798],[-1.545478,53.694915],[-1.546192,53.694102],[-1.548321,53.692177],[-1.548525,53.69191],[-1.5486,53.691567],[-1.548901,53.691383],[-1.549673,53.691294],[-1.551111,53.691243],[-1.552559,53.6909],[-1.553149,53.690652],[-1.55405,53.690366],[-1.554673,53.690328],[-1.555917,53.689864],[-1.557376,53.689737],[-1.558932,53.689445],[-1.561056,53.688975],[-1.561775,53.688924],[-1.561979,53.688848],[-1.562215,53.687368],[-1.562011,53.686916],[-1.561947,53.686599],[-1.562097,53.686332],[-1.561893,53.686122],[-1.55978,53.685169],[-1.556861,53.683441],[-1.55508,53.683237],[-1.553643,53.683911],[-1.549673,53.682005],[-1.553922,53.68006],[-1.553793,53.678204],[-1.552892,53.676247],[-1.550016,53.672789],[-1.546519,53.670019],[-1.541777,53.667578],[-1.53785,53.664819],[-1.529675,53.657508],[-1.528366,53.655677],[-1.528022,53.653337],[-1.52873,53.650145],[-1.527379,53.650393],[-1.52651,53.650781],[-1.523699,53.651576],[-1.521403,53.652307],[-1.519128,53.653184],[-1.517369,53.654145],[-1.51562,53.655372],[-1.513656,53.657063],[-1.512626,53.658036],[-1.512133,53.657953],[-1.511854,53.657597],[-1.511779,53.65712],[-1.512262,53.655569],[-1.512058,53.654997],[-1.511436,53.654208],[-1.509569,53.652301],[-1.508099,53.650902],[-1.507294,53.650399],[-1.506393,53.650024],[-1.505352,53.649712],[-1.503046,53.649229],[-1.500224,53.648733],[-1.498829,53.648619],[-1.498003,53.648816],[-1.494817,53.64879],[-1.49251,53.649522],[-1.4906,53.650463],[-1.489624,53.651194],[-1.489109,53.651747],[-1.488551,53.653553],[-1.488261,53.654017],[-1.487639,53.654558],[-1.486019,53.656186],[-1.484667,53.656961],[-1.48353,53.657794],[-1.482843,53.658583],[-1.482586,53.659072],[-1.482704,53.659549],[-1.483562,53.660395],[-1.484013,53.661208],[-1.487274,53.667915],[-1.48795,53.669193],[-1.488433,53.66993],[-1.488626,53.67075],[-1.488819,53.671182],[-1.489431,53.671678],[-1.490042,53.672307],[-1.490407,53.673019],[-1.490375,53.673794],[-1.490128,53.674671],[-1.489613,53.6753],[-1.489956,53.676044],[-1.490943,53.677747],[-1.491888,53.679133],[-1.492081,53.679857],[-1.491619,53.681071],[-1.491823,53.682138],[-1.492167,53.683339],[-1.492682,53.684178],[-1.492542,53.685163],[-1.49251,53.686021],[-1.492724,53.68665],[-1.491845,53.686802],[-1.490353,53.686904],[-1.489334,53.68691],[-1.488808,53.687012],[-1.488283,53.687399],[-1.48809,53.688308],[-1.487703,53.689178],[-1.485858,53.691631],[-1.485171,53.69306],[-1.484361,53.695144],[-1.484876,53.698507],[-1.484892,53.698825],[-1.484823,53.699015],[-1.484549,53.699234],[-1.482849,53.700044],[-1.481845,53.700397],[-1.480901,53.70093],[-1.479914,53.702086],[-1.479496,53.70241],[-1.478412,53.702892],[-1.478187,53.703325],[-1.477758,53.704627],[-1.476245,53.705579],[-1.475902,53.706094],[-1.475472,53.707453],[-1.475644,53.707484],[-1.476771,53.708157],[-1.477066,53.708637],[-1.478128,53.71125],[-1.478981,53.712063],[-1.479045,53.712339],[-1.47897,53.712539],[-1.478729,53.712695],[-1.478487,53.713031],[-1.478439,53.713212],[-1.478503,53.714327],[-1.47831,53.714565],[-1.4775,53.715276],[-1.477184,53.715463],[-1.47647,53.715749],[-1.476497,53.716123],[-1.476079,53.716523],[-1.476116,53.716644],[-1.476046,53.716714],[-1.476304,53.716879],[-1.478466,53.716968],[-1.479721,53.717092],[-1.484157,53.717149],[-1.485053,53.71706],[-1.486899,53.71652],[-1.487698,53.716419],[-1.488529,53.716384],[-1.489838,53.716422],[-1.493239,53.71632],[-1.496372,53.716799],[-1.496565,53.717307],[-1.497531,53.717244],[-1.499033,53.717256],[-1.503303,53.715301],[-1.508517,53.71299],[-1.513839,53.709802],[-1.514482,53.709954],[-1.51562,53.709992],[-1.516199,53.709738],[-1.517315,53.707846],[-1.518581,53.706855],[-1.52063,53.704265],[-1.525866,53.707707],[-1.526493,53.708294],[-1.526692,53.708586],[-1.526826,53.708618],[-1.527105,53.708583],[-1.527658,53.708913]]]},"properties":{"code":"B87027","name":"NEW SOUTHGATE SURGERY","icb":"QWO"}}]}