{"type":"FeatureCollection","features":[{"type":"Feature","geometry":{"type":"Polygon","coordinates":[[[-1.25729,53.70837],[-1.25742,53.70867],[-1.26085,53.70926],[-1.26407,53.71098],[-1.26686,53.71304],[-1.26892,53.71535],[-1.26969,53.71637],[-1.26961,53.71771],[-1.27274,53.72],[-1.27476,53.72129],[-1.27802,53.72526],[-1.27974,53.72881],[-1.27896,53.73851],[-1.28549,53.73556],[-1.28815,53.7314],[-1.29055,53.7281],[-1.29107,53.72211],[-1.2945,53.72175],[-1.29656,53.71977],[-1.30171,53.71891],[-1.30746,53.71992],[-1.3181,53.71977],[-1.32042,53.7187],[-1.32299,53.71875],[-1.32471,53.718],[-1.34119,53.71627],[-1.34806,53.71571],[-1.35243,53.71383],[-1.35595,53.71327],[-1.36205,53.71002],[-1.36196,53.70794],[-1.36857,53.70082],[-1.36921,53.69729],[-1.3663,53.69577],[-1.36668,53.6946],[-1.36479,53.69269],[-1.36024,53.69251],[-1.35119,53.69348],[-1.34827,53.69193],[-1.34557,53.68324],[-1.35055,53.67386],[-1.35269,53.66727],[-1.35265,53.66694],[-1.3514,53.66552],[-1.34814,53.66389],[-1.34819,53.66305],[-1.34754,53.66242],[-1.34299,53.66092],[-1.34115,53.66026],[-1.33956,53.65873],[-1.33806,53.65718],[-1.33754,53.65453],[-1.33415,53.64866],[-1.32557,53.64912],[-1.3133,53.64871],[-1.28969,53.64774],[-1.29003,53.64494],[-1.28789,53.63517],[-1.28523,53.63324],[-1.27553,53.63294],[-1.27107,53.63568],[-1.2715,53.63955],[-1.2745,53.64255],[-1.26214,53.64606],[-1.25562,53.64566],[-1.25218,53.64566],[-1.22137,53.63922],[-1.21021,53.63856],[-1.2018,53.64296],[-1.19536,53.64787],[-1.19258,53.6554],[-1.19137,53.65702],[-1.19086,53.65929],[-1.19103,53.66308],[-1.18841,53.66282],[-1.18665,53.66369],[-1.18777,53.66476],[-1.19403,53.66959],[-1.19777,53.6706],[-1.20665,53.67332],[-1.21202,53.67472],[-1.22116,53.67625],[-1.22862,53.67696],[-1.23583,53.67744],[-1.23957,53.67806],[-1.2454,53.67843],[-1.25317,53.67861],[-1.25708,53.67971],[-1.2627,53.68187],[-1.26532,53.68438],[-1.26617,53.6856],[-1.26587,53.68997],[-1.26626,53.69287],[-1.2557,53.69521],[-1.24931,53.69648],[-1.24961,53.69884],[-1.2512,53.70296],[-1.25201,53.70392],[-1.2533,53.7053],[-1.25476,53.70537],[-1.25575,53.70746],[-1.25729,53.70837]]]},"properties":{"code":"B87011","name":"FRIARWOOD SURGERY","icb":"QWO"}}]}