{"type":"FeatureCollection","features":[{"type":"Feature","geometry":{"type":"Polygon","coordinates":[[[-1.44796,53.66689],[-1.41655,53.66687],[-1.414894,53.667586],[-1.41217,53.66816],[-1.40947,53.6689],[-1.405402,53.671253],[-1.402616,53.672373],[-1.39711,53.67371],[-1.394843,53.674699],[-1.392902,53.675477],[-1.392726,53.675491],[-1.3911,53.67516],[-1.39041,53.68296],[-1.39033,53.68939],[-1.390719,53.694397],[-1.390077,53.699269],[-1.390001,53.699352],[-1.38805,53.70026],[-1.38518,53.70196],[-1.381709,53.70434],[-1.37797,53.7053],[-1.36951,53.70796],[-1.368182,53.712902],[-1.36771,53.7138],[-1.36927,53.714416],[-1.372677,53.716233],[-1.37595,53.71873],[-1.38282,53.72048],[-1.38999,53.72145],[-1.401689,53.72134],[-1.40672,53.72165],[-1.411656,53.7217],[-1.41406,53.72178],[-1.41887,53.72124],[-1.42608,53.71952],[-1.432845,53.716068],[-1.437726,53.714468],[-1.448779,53.71302],[-1.45419,53.71236],[-1.45916,53.71025],[-1.4611,53.7075],[-1.461933,53.704167],[-1.462055,53.704074],[-1.46247,53.70397],[-1.464384,53.702772],[-1.466478,53.702048],[-1.46905,53.701635],[-1.47128,53.701709],[-1.47285,53.70207],[-1.47423,53.70212],[-1.475524,53.701997],[-1.475664,53.702015],[-1.4774,53.7027],[-1.47882,53.70283],[-1.48058,53.70158],[-1.482193,53.700304],[-1.48474,53.6992],[-1.484574,53.695547],[-1.485766,53.691812],[-1.48805,53.68855],[-1.48526,53.68781],[-1.481353,53.68812],[-1.477884,53.68832],[-1.47135,53.68852],[-1.469446,53.689136],[-1.469082,53.689017],[-1.468993,53.688078],[-1.46981,53.68512],[-1.47187,53.67546],[-1.463841,53.67284],[-1.457026,53.670532],[-1.44796,53.66689]]]},"properties":{"code":"B87602","name":"PATIENCE LANE SURGERY","icb":"QWO"}}]}