{"type":"FeatureCollection","features":[{"type":"Feature","geometry":{"type":"Polygon","coordinates":[[[-1.580145,53.044],[-1.590915,53.051997],[-1.605506,53.063449],[-1.62147,53.076213],[-1.65971,53.09093],[-1.66724,53.08392],[-1.67649,53.07815],[-1.69756,53.04926],[-1.700998,53.022735],[-1.699621,53.01437],[-1.705456,53.010342],[-1.711978,53.004042],[-1.713867,53.003086],[-1.715455,53.002492],[-1.722794,52.99805],[-1.734381,52.990766],[-1.740902,52.986167],[-1.740815,52.981051],[-1.742021,52.978726],[-1.742705,52.977589],[-1.745881,52.97087],[-1.75411,52.961978],[-1.755059,52.950655],[-1.755055,52.940104],[-1.735582,52.927688],[-1.732834,52.917753],[-1.720217,52.909109],[-1.701163,52.896995],[-1.674299,52.8957],[-1.650611,52.897513],[-1.64117,52.9009],[-1.60988,52.90219],[-1.59768,52.90697],[-1.580829,52.913043],[-1.564435,52.919771],[-1.545809,52.924739],[-1.538257,52.925153],[-1.53405,52.92852],[-1.51903,52.936845],[-1.528133,52.952361],[-1.533271,52.974695],[-1.531213,52.989784],[-1.530974,53.001666],[-1.532266,53.007347],[-1.537156,53.013544],[-1.542046,53.019069],[-1.554572,53.024954],[-1.567186,53.033936],[-1.580145,53.044]]]},"properties":{"code":"C81075","name":"HENMORE HEALTH - BRAILSFORD SURGERY","icb":"QJ2"}}]}