{"type":"FeatureCollection","features":[{"type":"Feature","geometry":{"type":"Polygon","coordinates":[[[-1.476224,52.812051],[-1.48009,52.815454],[-1.482769,52.819006],[-1.484439,52.82136],[-1.486959,52.823457],[-1.488051,52.82645],[-1.488466,52.830169],[-1.487372,52.833918],[-1.486476,52.837637],[-1.485705,52.839965],[-1.486695,52.84136],[-1.492558,52.841717],[-1.495149,52.841813],[-1.497403,52.843296],[-1.497128,52.844925],[-1.498617,52.848147],[-1.503009,52.850852],[-1.506643,52.852966],[-1.510392,52.854495],[-1.516632,52.855735],[-1.520172,52.855727],[-1.523719,52.855719],[-1.527064,52.855618],[-1.530183,52.854981],[-1.535994,52.853879],[-1.542292,52.854262],[-1.552418,52.853119],[-1.564402,52.853564],[-1.561304,52.847226],[-1.565836,52.84438],[-1.566872,52.843629],[-1.566673,52.842653],[-1.564167,52.840132],[-1.572755,52.837016],[-1.576526,52.839454],[-1.57875,52.837046],[-1.583571,52.833551],[-1.585464,52.83041],[-1.59839,52.827769],[-1.600849,52.827145],[-1.603625,52.825133],[-1.604851,52.822601],[-1.605454,52.820779],[-1.606138,52.818709],[-1.608011,52.817583],[-1.608105,52.815888],[-1.602572,52.814493],[-1.596393,52.810595],[-1.590129,52.807543],[-1.589874,52.803215],[-1.587925,52.800912],[-1.59198,52.797218],[-1.594913,52.796661],[-1.599576,52.797224],[-1.600705,52.795966],[-1.600983,52.794319],[-1.601523,52.792684],[-1.605621,52.790218],[-1.611329,52.789361],[-1.612443,52.788425],[-1.611638,52.787357],[-1.612026,52.786091],[-1.608617,52.78484],[-1.610481,52.782762],[-1.611376,52.781465],[-1.616851,52.782554],[-1.620285,52.783815],[-1.622978,52.78186],[-1.625043,52.780361],[-1.626808,52.779521],[-1.629298,52.780017],[-1.632051,52.78231],[-1.63699,52.785507],[-1.639077,52.785923],[-1.641715,52.78376],[-1.645189,52.781239],[-1.648655,52.779153],[-1.655017,52.779922],[-1.658363,52.78271],[-1.661959,52.78498],[-1.667019,52.784019],[-1.670154,52.780527],[-1.669325,52.776458],[-1.670177,52.773678],[-1.674666,52.771868],[-1.677387,52.771382],[-1.680165,52.770887],[-1.681558,52.770325],[-1.682688,52.768456],[-1.683983,52.767394],[-1.685298,52.765929],[-1.683355,52.764309],[-1.684396,52.762158],[-1.685356,52.760173],[-1.688184,52.757593],[-1.692476,52.756828],[-1.695014,52.754746],[-1.696964,52.752631],[-1.695298,52.751602],[-1.693785,52.750623],[-1.695026,52.749605],[-1.696159,52.748675],[-1.695516,52.747357],[-1.69405,52.746431],[-1.692433,52.74471],[-1.693034,52.743838],[-1.695191,52.743918],[-1.697951,52.743393],[-1.698826,52.740535],[-1.700218,52.73822],[-1.699461,52.737214],[-1.699575,52.735154],[-1.700662,52.733576],[-1.704279,52.731396],[-1.702929,52.729798],[-1.700454,52.72859],[-1.697684,52.727602],[-1.694528,52.727409],[-1.684454,52.727034],[-1.677874,52.727432],[-1.675343,52.726793],[-1.676612,52.724951],[-1.667337,52.723547],[-1.662941,52.723556],[-1.661059,52.722786],[-1.657099,52.721997],[-1.656154,52.720742],[-1.655873,52.715969],[-1.659399,52.713992],[-1.657081,52.710912],[-1.655943,52.709304],[-1.655589,52.708537],[-1.654226,52.707871],[-1.653411,52.703862],[-1.654672,52.701252],[-1.654585,52.699773],[-1.652999,52.699352],[-1.651805,52.699424],[-1.650538,52.699501],[-1.649664,52.698465],[-1.646492,52.698892],[-1.643731,52.699595],[-1.640604,52.699404],[-1.638871,52.699845],[-1.638516,52.700922],[-1.63518,52.701771],[-1.63304,52.700984],[-1.631761,52.70036],[-1.63042,52.700021],[-1.626581,52.700253],[-1.625724,52.698495],[-1.62421,52.697103],[-1.620541,52.699414],[-1.614904,52.700053],[-1.610085,52.698772],[-1.607115,52.697983],[-1.605208,52.696777],[-1.601905,52.697617],[-1.599722,52.698993],[-1.594575,52.703693],[-1.593676,52.703455],[-1.59309,52.703783],[-1.592708,52.705096],[-1.589577,52.706236],[-1.588422,52.70653],[-1.587273,52.706994],[-1.585786,52.707096],[-1.584867,52.707261],[-1.583916,52.70786],[-1.582406,52.708707],[-1.579056,52.710303],[-1.577523,52.711562],[-1.575297,52.712128],[-1.571615,52.710775],[-1.569221,52.710138],[-1.568146,52.710008],[-1.566994,52.710473],[-1.565987,52.71088],[-1.564976,52.711288],[-1.563244,52.71226],[-1.56083,52.714015],[-1.56032,52.714755],[-1.559382,52.715803],[-1.556442,52.717203],[-1.554775,52.717876],[-1.553234,52.718847],[-1.550902,52.720542],[-1.550683,52.721206],[-1.550473,52.721842],[-1.550536,52.722918],[-1.550173,52.725275],[-1.545607,52.728026],[-1.545096,52.730153],[-1.545859,52.732293],[-1.549673,52.735194],[-1.551597,52.736316],[-1.552624,52.737936],[-1.555639,52.740451],[-1.558162,52.745626],[-1.561056,52.749052],[-1.561886,52.750851],[-1.558648,52.753805],[-1.55766,52.756798],[-1.555318,52.758934],[-1.554698,52.760214],[-1.554997,52.761764],[-1.553078,52.763158],[-1.550655,52.764039],[-1.548324,52.763757],[-1.545662,52.763838],[-1.544648,52.762407],[-1.541385,52.760256],[-1.536912,52.760527],[-1.534977,52.76161],[-1.532993,52.762415],[-1.527615,52.762087],[-1.52607,52.765281],[-1.518521,52.766716],[-1.510428,52.767631],[-1.505713,52.767641],[-1.503277,52.767347],[-1.502186,52.766384],[-1.49787,52.763658],[-1.497589,52.762205],[-1.496745,52.761205],[-1.495968,52.760109],[-1.494377,52.759525],[-1.492928,52.760113],[-1.486401,52.76276],[-1.483111,52.763254],[-1.480792,52.763668],[-1.479857,52.763859],[-1.478325,52.763766],[-1.477348,52.763876],[-1.479945,52.766493],[-1.48062,52.767875],[-1.480715,52.769492],[-1.481935,52.774865],[-1.482246,52.776389],[-1.483069,52.778076],[-1.484016,52.781275],[-1.491408,52.787433],[-1.491145,52.792149],[-1.489075,52.798906],[-1.4841,52.801899],[-1.484157,52.802871],[-1.484222,52.803966],[-1.484286,52.805051],[-1.484351,52.806155],[-1.476224,52.812051]]]},"properties":{"code":"C81020","name":"NEWHALL SURGERY","icb":"QJ2"}}]}