{"type":"FeatureCollection","features":[{"type":"Feature","geometry":{"type":"Polygon","coordinates":[[[-1.736163,52.815627],[-1.731293,52.816191],[-1.69984,52.817018],[-1.694088,52.819269],[-1.685953,52.821816],[-1.673605,52.821603],[-1.663001,52.821749],[-1.658551,52.823285],[-1.653721,52.823486],[-1.64777,52.824454],[-1.65315,52.830587],[-1.645629,52.831452],[-1.640809,52.829917],[-1.637596,52.829174],[-1.635452,52.828211],[-1.634705,52.826578],[-1.632793,52.825627],[-1.629995,52.827878],[-1.628579,52.821581],[-1.626685,52.820639],[-1.619026,52.826801],[-1.61417,52.83101],[-1.61377,52.83436],[-1.613619,52.837546],[-1.613549,52.837651],[-1.6131,52.83795],[-1.61568,52.88156],[-1.628068,52.887716],[-1.628151,52.887835],[-1.62943,52.89506],[-1.680393,52.932154],[-1.68331,52.93457],[-1.69018,52.93891],[-1.695874,52.940221],[-1.696068,52.940105],[-1.696377,52.94011],[-1.70227,52.94234],[-1.714043,52.946128],[-1.716582,52.946851],[-1.72485,52.94947],[-1.73206,52.9505],[-1.75781,52.95257],[-1.758506,52.952166],[-1.758326,52.952109],[-1.758221,52.952004],[-1.758224,52.951882],[-1.758332,52.951778],[-1.759396,52.951211],[-1.75971,52.951203],[-1.759923,52.951342],[-1.76743,52.94698],[-1.768934,52.945957],[-1.7782,52.94087],[-1.787029,52.93143],[-1.79139,52.927914],[-1.802551,52.924835],[-1.836293,52.91425],[-1.844164,52.907064],[-1.83334,52.86001],[-1.821276,52.846347],[-1.808518,52.826732],[-1.805772,52.821999],[-1.802114,52.821475],[-1.79008,52.81853],[-1.780452,52.820272],[-1.772726,52.818379],[-1.760353,52.817693],[-1.736163,52.815627]]]},"properties":{"code":"C81018","name":"DOVE RIVER","icb":"QNC"}}]}