{"type":"FeatureCollection","features":[{"type":"Feature","geometry":{"type":"Polygon","coordinates":[[[-1.949532,53.419788],[-1.9493,53.41971],[-1.944209,53.423405],[-1.94234,53.425191],[-1.934426,53.432153],[-1.921491,53.434498],[-1.922801,53.442375],[-1.915239,53.449024],[-1.943139,53.4691],[-1.93107,53.474763],[-1.93119,53.47507],[-1.939912,53.474158],[-1.94149,53.47405],[-1.941919,53.473948],[-1.957455,53.476962],[-1.972046,53.48018],[-1.972202,53.480152],[-1.972561,53.480231],[-1.97275,53.480053],[-1.97376,53.47987],[-1.975811,53.477141],[-1.979342,53.47377],[-1.982946,53.467818],[-1.987259,53.462165],[-1.989727,53.45862],[-1.993639,53.452813],[-2.001657,53.44211],[-2.006297,53.434251],[-2.001388,53.429989],[-1.999877,53.428677],[-1.999163,53.428163],[-1.992967,53.427867],[-1.976337,53.428356],[-1.968507,53.421558],[-1.949558,53.419763],[-1.949532,53.419788]]]},"properties":{"code":"C81077","name":"","icb":""}}]}