{"type":"FeatureCollection","features":[{"type":"Feature","geometry":{"type":"Polygon","coordinates":[[[-1.542038,52.934229],[-1.544566,52.926433],[-1.54139,52.92422],[-1.548879,52.923199],[-1.552312,52.922772],[-1.554179,52.921996],[-1.554265,52.920392],[-1.553922,52.918658],[-1.552463,52.917261],[-1.552548,52.916355],[-1.557312,52.914427],[-1.55566,52.911115],[-1.554737,52.909083],[-1.553836,52.905486],[-1.552634,52.90313],[-1.550488,52.902457],[-1.545382,52.903622],[-1.543665,52.904114],[-1.542506,52.904709],[-1.542077,52.904735],[-1.54062,52.90549],[-1.53476,52.90745],[-1.5289,52.90932],[-1.52562,52.90989],[-1.52234,52.91035],[-1.52054,52.91036],[-1.5191,52.91053],[-1.51769,52.91104],[-1.51689,52.91154],[-1.51584,52.9123],[-1.51419,52.91243],[-1.5121,52.913],[-1.50852,52.91434],[-1.50808,52.91272],[-1.50696,52.91196],[-1.50515,52.91021],[-1.50377,52.90988],[-1.50261,52.90941],[-1.50187,52.90858],[-1.50118,52.908],[-1.49807,52.90923],[-1.49604,52.91009],[-1.4941,52.91051],[-1.49241,52.91068],[-1.4909,52.91093],[-1.48939,52.91125],[-1.488,52.91219],[-1.48668,52.91274],[-1.4843,52.91331],[-1.4839,52.91352],[-1.48354,52.91379],[-1.48304,52.9212],[-1.48296,52.92143],[-1.4829,52.92144],[-1.48291,52.9216],[-1.48307,52.92184],[-1.48367,52.92218],[-1.48438,52.92245],[-1.48443,52.92242],[-1.48449,52.92249],[-1.48487,52.92255],[-1.48451,52.92352],[-1.48408,52.92432],[-1.48373,52.92535],[-1.48321,52.92593],[-1.48002,52.92663],[-1.47916,52.92696],[-1.47702,52.92725],[-1.47612,52.92691],[-1.47517,52.92674],[-1.4753,52.92811],[-1.47552,52.9286],[-1.47607,52.9294],[-1.47712,52.93048],[-1.47805,52.93168],[-1.47835,52.9325],[-1.47843,52.93336],[-1.47775,52.93483],[-1.47748,52.93568],[-1.47781,52.93658],[-1.47736,52.93736],[-1.47564,52.93817],[-1.47418,52.93908],[-1.4739,52.93975],[-1.47396,52.94082],[-1.47453,52.94169],[-1.47582,52.94321],[-1.47597,52.94414],[-1.4753,52.94488],[-1.47351,52.94447],[-1.47215,52.944],[-1.47092,52.94449],[-1.4709,52.94547],[-1.47161,52.94658],[-1.47197,52.94781],[-1.47285,52.94905],[-1.47262,52.95042],[-1.4719,52.95204],[-1.47078,52.95198],[-1.47017,52.9513],[-1.47135,52.94952],[-1.47037,52.94844],[-1.46904,52.94834],[-1.46856,52.94875],[-1.46882,52.94995],[-1.46865,52.95115],[-1.46753,52.95211],[-1.4673,52.95325],[-1.46655,52.95347],[-1.46595,52.95398],[-1.46766,52.95528],[-1.46719,52.95665],[-1.46637,52.95768],[-1.46659,52.95809],[-1.46633,52.95818],[-1.46805,52.95969],[-1.46745,52.96114],[-1.4665,52.96203],[-1.46706,52.96351],[-1.46745,52.9643],[-1.46818,52.96499],[-1.47144,52.96451],[-1.47414,52.96544],[-1.47504,52.96656],[-1.47491,52.96808],[-1.47841,52.96856],[-1.4802,52.96856],[-1.48191,52.96831],[-1.48455,52.96729],[-1.486,52.96704],[-1.48822,52.96689],[-1.49086,52.96714],[-1.49221,52.968],[-1.49383,52.97058],[-1.49536,52.97471],[-1.49716,52.97534],[-1.50411,52.97597],[-1.5135,52.97447],[-1.51526,52.97148],[-1.51412,52.97006],[-1.51161,52.96807],[-1.5059,52.96451],[-1.50781,52.9601],[-1.508882,52.956756],[-1.513538,52.959704],[-1.514225,52.95898],[-1.514869,52.957015],[-1.515684,52.952077],[-1.515641,52.950629],[-1.515212,52.948767],[-1.51474,52.947759],[-1.513495,52.946724],[-1.511908,52.94525],[-1.51012,52.94321],[-1.50954,52.94213],[-1.50934,52.94141],[-1.50912,52.93961],[-1.51112,52.93933],[-1.51074,52.93739],[-1.51145,52.9365],[-1.5132,52.93612],[-1.52341,52.93637],[-1.53289,52.93765],[-1.53834,52.93883],[-1.53985,52.93818],[-1.54118,52.93717],[-1.54186,52.93501],[-1.542038,52.934229]]]},"properties":{"code":"C81064","name":"PARK FARM MEDICAL CENTRE","icb":"QJ2"}}]}