{"type":"FeatureCollection","features":[{"type":"Feature","geometry":{"type":"Polygon","coordinates":[[[-1.535,53.24139],[-1.53534,53.23193],[-1.48521,53.20644],[-1.46667,53.20768],[-1.44196,53.19863],[-1.41586,53.19945],[-1.42307,53.20896],[-1.42633,53.21392],[-1.42788,53.2195],[-1.41947,53.21919],[-1.41389,53.2196],[-1.41071,53.2195],[-1.40179,53.2456],[-1.39698,53.27363],[-1.40179,53.28041],[-1.40144,53.28779],[-1.409,53.29334],[-1.43028,53.29498],[-1.44127,53.29108],[-1.44333,53.27343],[-1.47182,53.28184],[-1.48315,53.28205],[-1.535,53.24139]]]},"properties":{"code":"C81045","name":"ROYAL PRIMARY CARE CHESTERFIELD WEST","icb":"QJ2"}}]}