{"type":"FeatureCollection","features":[{"type":"Feature","geometry":{"type":"Polygon","coordinates":[[[-1.299628,52.91093],[-1.30025,52.90793],[-1.29845,52.89907],[-1.29954,52.89391],[-1.30073,52.89218],[-1.30278,52.89032],[-1.31029,52.88141],[-1.30712,52.87061],[-1.29952,52.87375],[-1.29252,52.8727],[-1.28527,52.8732],[-1.27802,52.87597],[-1.26617,52.87638],[-1.2569,52.9002],[-1.25424,52.90254],[-1.26463,52.90488],[-1.27716,52.90603],[-1.287094,52.917001],[-1.28695,52.91698],[-1.287518,52.917321],[-1.29244,52.9177],[-1.2957,52.91656],[-1.2969,52.9162],[-1.29746,52.91592],[-1.297526,52.915827],[-1.2987,52.9154],[-1.298728,52.915265],[-1.29879,52.91524],[-1.29965,52.91087],[-1.299628,52.91093]]]},"properties":{"code":"C81097","name":"COLLEGE STREET MEDICAL PRACTICE","icb":"QJ2"}}]}