{"type":"FeatureCollection","features":[{"type":"Feature","geometry":{"type":"Polygon","coordinates":[[[-1.329305,52.993032],[-1.327166,52.989126],[-1.339508,52.984328],[-1.351802,52.984119],[-1.36882,52.985838],[-1.374762,52.988158],[-1.374673,52.982841],[-1.378772,52.978673],[-1.38436,52.97725],[-1.37913,52.9596],[-1.35921,52.94802],[-1.31115,52.93767],[-1.27888,52.95112],[-1.27347,52.955],[-1.27218,52.95888],[-1.28059,52.97428],[-1.28089,52.99473],[-1.308358,52.99752],[-1.329305,52.993032]]]},"properties":{"code":"C81022","name":"SOUTH STREET SURGERY","icb":"QJ2"}}]}