{"type":"FeatureCollection","features":[{"type":"Feature","geometry":{"type":"Polygon","coordinates":[[[-1.34056,52.980003],[-1.3884,52.98255],[-1.39071,52.96394],[-1.36488,52.95236],[-1.35303,52.93622],[-1.29021,52.93953],[-1.27999,52.95029],[-1.27459,52.96229],[-1.27364,52.97676],[-1.27888,52.9904],[-1.279199,52.990318],[-1.281796,52.995983],[-1.293125,52.994124],[-1.294842,52.986477],[-1.306858,52.99805],[-1.333294,52.985857],[-1.330569,52.980731],[-1.34056,52.980003]]]},"properties":{"code":"C81061","name":"LITTLEWICK MEDICAL CENTRE","icb":"QJ2"}}]}