{"type":"FeatureCollection","features":[{"type":"Feature","geometry":{"type":"Polygon","coordinates":[[[-1.505127,52.89104],[-1.506844,52.899739],[-1.506672,52.905485],[-1.501608,52.90766],[-1.503239,52.909006],[-1.506672,52.911076],[-1.507702,52.91413],[-1.513023,52.914182],[-1.519976,52.916562],[-1.516027,52.920392],[-1.515942,52.920702],[-1.519375,52.920599],[-1.527185,52.920909],[-1.540135,52.923776],[-1.540732,52.923753],[-1.555767,52.918581],[-1.56868,52.916221],[-1.577346,52.913388],[-1.580769,52.910187],[-1.580976,52.909418],[-1.581266,52.909146],[-1.583943,52.905488],[-1.586752,52.900412],[-1.589756,52.891713],[-1.553535,52.87773],[-1.542721,52.872757],[-1.525383,52.877885],[-1.51165,52.886224],[-1.505127,52.89104]]]},"properties":{"code":"C81113","name":"MICKLEOVER SURGERY","icb":"QJ2"}}]}