{"type":"FeatureCollection","features":[{"type":"Feature","geometry":{"type":"Polygon","coordinates":[[[-1.335353,52.998876],[-1.344451,52.99681],[-1.34381,52.99657],[-1.33558,52.99493],[-1.33566,52.9907],[-1.33989,52.99018],[-1.34381,52.9845],[-1.35356,52.98388],[-1.3749,52.98702],[-1.38505,52.9778],[-1.38587,52.97721],[-1.38548,52.96774],[-1.38449,52.96029],[-1.3799,52.95851],[-1.36067,52.94848],[-1.35947,52.94416],[-1.34213,52.93677],[-1.29827,52.93566],[-1.289177,52.939535],[-1.280251,52.942638],[-1.272698,52.945949],[-1.26793,52.94773],[-1.27562,52.95833],[-1.27956,52.96745],[-1.26841,52.97475],[-1.27592,52.97786],[-1.27553,52.98325],[-1.28265,52.99671],[-1.29044,52.99547],[-1.298103,52.988131],[-1.31321,52.996603],[-1.31956,52.99901],[-1.32677,53.002389],[-1.335353,52.998876]]]},"properties":{"code":"C81115","name":"GLADSTONE HOUSE SURGERY","icb":"QJ2"}}]}