{"type":"FeatureCollection","features":[{"type":"Feature","geometry":{"type":"Polygon","coordinates":[[[-1.47543,52.95184],[-1.48888,52.95328],[-1.49844,52.95312],[-1.50697,52.95213],[-1.49895,52.93317],[-1.51208,52.9221],[-1.50517,52.91573],[-1.48453,52.92386],[-1.48187,52.92712],[-1.47316,52.92696],[-1.44556,52.9267],[-1.43333,52.93309],[-1.4358,52.9427],[-1.45179,52.94564],[-1.46504,52.93617],[-1.46258,52.94532],[-1.46097,52.95456],[-1.46785,52.95486],[-1.47543,52.95184]]]},"properties":{"code":"C81652","name":"DERWENT MEDICAL CENTRE","icb":"QJ2"}}]}