{"type":"FeatureCollection","features":[{"type":"Feature","geometry":{"type":"Polygon","coordinates":[[[-1.96969,53.43539],[-1.968941,53.435827],[-1.96351,53.43649],[-1.963441,53.436537],[-1.962969,53.436397],[-1.961509,53.436473],[-1.961187,53.436588],[-1.960673,53.436729],[-1.960652,53.436755],[-1.960738,53.436959],[-1.95977,53.43723],[-1.959667,53.437381],[-1.95947,53.43751],[-1.959497,53.437631],[-1.95913,53.43817],[-1.959067,53.438642],[-1.958735,53.438761],[-1.95823,53.43863],[-1.95827,53.43912],[-1.958737,53.438948],[-1.959007,53.438971],[-1.962902,53.441551],[-1.96295,53.44165],[-1.96664,53.444],[-1.9675,53.44416],[-1.969149,53.444283],[-1.970308,53.444219],[-1.971853,53.443465],[-1.972389,53.443056],[-1.97284,53.443005],[-1.973291,53.442813],[-1.97357,53.442724],[-1.97351,53.44265],[-1.97423,53.44265],[-1.97531,53.44219],[-1.97565,53.44168],[-1.97561,53.44001],[-1.97501,53.43669],[-1.97436,53.43623],[-1.97217,53.43572],[-1.97145,53.43644],[-1.971363,53.437077],[-1.971046,53.437197],[-1.969973,53.436954],[-1.969894,53.436708],[-1.97029,53.43649],[-1.969707,53.436469],[-1.969499,53.436319],[-1.96969,53.43539]]]},"properties":{"code":"C81640","name":"SIMMONDLEY MEDICAL PRACTICE","icb":"QJ2"}}]}