{"type":"FeatureCollection","features":[{"type":"Feature","geometry":{"type":"Polygon","coordinates":[[[-1.09511,52.605625],[-1.082726,52.601779],[-1.021312,52.622337],[-1.017385,52.632749],[-1.044566,52.641184],[-1.071387,52.656216],[-1.105013,52.666646],[-1.152022,52.667295],[-1.165024,52.662658],[-1.172053,52.660151],[-1.176601,52.653181],[-1.183114,52.6432],[-1.189136,52.633969],[-1.188084,52.599907],[-1.182609,52.594252],[-1.12965,52.597087],[-1.09511,52.605625]]]},"properties":{"code":"C82020","name":"DE MONTFORT SURGERY","icb":"QK1"}}]}