{"type":"FeatureCollection","features":[{"type":"Feature","geometry":{"type":"MultiPolygon","coordinates":[[[[-1.12554,52.64588],[-1.124147,52.647749],[-1.12389,52.647816],[-1.121,52.64723],[-1.120928,52.647471],[-1.120631,52.647575],[-1.1171,52.6468],[-1.114777,52.648435],[-1.113664,52.649058],[-1.10369,52.6541],[-1.10261,52.6573],[-1.106024,52.661344],[-1.105931,52.661592],[-1.104393,52.663556],[-1.103145,52.664865],[-1.102278,52.665316],[-1.101734,52.66536],[-1.10102,52.66521],[-1.10075,52.66561],[-1.10664,52.66727],[-1.10797,52.66751],[-1.11132,52.66773],[-1.11392,52.66759],[-1.1159,52.66725],[-1.12378,52.66521],[-1.125432,52.664656],[-1.12733,52.66434],[-1.12788,52.66391],[-1.125871,52.662091],[-1.125903,52.661926],[-1.12701,52.66131],[-1.12729,52.66086],[-1.1273,52.66018],[-1.125865,52.658486],[-1.125356,52.65769],[-1.124753,52.655951],[-1.124873,52.655195],[-1.12525,52.65495],[-1.12594,52.65375],[-1.12658,52.64905],[-1.126521,52.648681],[-1.126654,52.647101],[-1.126876,52.646973],[-1.12802,52.64699],[-1.128117,52.646571],[-1.1283,52.64625],[-1.12806,52.64612],[-1.127761,52.646213],[-1.125937,52.646044],[-1.12554,52.64588]]],[[[-1.10438,52.61432],[-1.103,52.61453],[-1.10171,52.615653],[-1.100173,52.616094],[-1.096902,52.616418],[-1.09409,52.61633],[-1.09339,52.61651],[-1.09286,52.61692],[-1.092019,52.618571],[-1.08866,52.6246],[-1.08803,52.627],[-1.08805,52.62855],[-1.08825,52.629857],[-1.08831,52.63092],[-1.08852,52.63155],[-1.089273,52.632434],[-1.08972,52.63608],[-1.090552,52.637544],[-1.091385,52.639519],[-1.09153,52.6411],[-1.09172,52.64222],[-1.09812,52.64214],[-1.098389,52.640813],[-1.098701,52.639786],[-1.099807,52.638414],[-1.102078,52.636351],[-1.10346,52.63518],[-1.1059,52.63239],[-1.10664,52.63135],[-1.107626,52.629212],[-1.108725,52.627737],[-1.110343,52.626165],[-1.110561,52.62611],[-1.11106,52.62618],[-1.112764,52.62499],[-1.112975,52.624954],[-1.11343,52.62504],[-1.113667,52.62444],[-1.11435,52.62351],[-1.11435,52.62333],[-1.114004,52.623143],[-1.113176,52.622275],[-1.11111,52.61954],[-1.110426,52.618915],[-1.10935,52.6177],[-1.10851,52.61694],[-1.106995,52.616117],[-1.104831,52.614727],[-1.10438,52.61432]]]]},"properties":{"code":"C82088","name":"HORIZON HEALTHCARE","icb":"QK1"}}]}