{"type":"FeatureCollection","features":[{"type":"Feature","geometry":{"type":"Polygon","coordinates":[[[-1.218395,52.595732],[-1.21763,52.595419],[-1.216527,52.596155],[-1.215289,52.596632],[-1.21272,52.597853],[-1.21092,52.59918],[-1.210139,52.599994],[-1.20916,52.60047],[-1.20723,52.60104],[-1.20498,52.60126],[-1.20145,52.60083],[-1.1992,52.60085],[-1.1978,52.60111],[-1.19655,52.60186],[-1.19608,52.60285],[-1.19665,52.60528],[-1.19827,52.60885],[-1.20217,52.61411],[-1.20458,52.61751],[-1.20172,52.61712],[-1.20146,52.61588],[-1.19996,52.61474],[-1.19851,52.61436],[-1.19705,52.61418],[-1.19407,52.61422],[-1.19149,52.61393],[-1.1899,52.613915],[-1.189808,52.614389],[-1.189322,52.614603],[-1.189034,52.615684],[-1.188194,52.617429],[-1.187492,52.618538],[-1.187306,52.619047],[-1.187311,52.619663],[-1.187477,52.620019],[-1.188626,52.621359],[-1.188888,52.621756],[-1.188783,52.622259],[-1.188438,52.622582],[-1.18824,52.62267],[-1.1888,52.62294],[-1.19549,52.62556],[-1.20081,52.62686],[-1.20578,52.62894],[-1.20817,52.63036],[-1.21041,52.63072],[-1.21325,52.63228],[-1.21503,52.63332],[-1.21601,52.6349],[-1.21644,52.63613],[-1.21819,52.63594],[-1.22067,52.63879],[-1.22328,52.64055],[-1.22498,52.64282],[-1.226193,52.64404],[-1.227475,52.643488],[-1.228406,52.643179],[-1.228988,52.642911],[-1.229448,52.642803],[-1.23014,52.642478],[-1.232686,52.641622],[-1.22986,52.64046],[-1.22919,52.63998],[-1.22836,52.63925],[-1.23023,52.63834],[-1.23069,52.638],[-1.2312,52.63777],[-1.23199,52.6375],[-1.2325,52.63726],[-1.23335,52.63703],[-1.2351,52.63635],[-1.23769,52.63623],[-1.24163,52.63629],[-1.24275,52.6364],[-1.24365,52.63662],[-1.24455,52.63652],[-1.2468,52.63616],[-1.24865,52.63668],[-1.25145,52.63714],[-1.25153,52.63574],[-1.24598,52.63468],[-1.24319,52.63374],[-1.24051,52.63242],[-1.23489,52.62934],[-1.23154,52.62788],[-1.236712,52.627667],[-1.237936,52.628002],[-1.23915,52.62766],[-1.240768,52.626223],[-1.243446,52.62517],[-1.249747,52.624891],[-1.249538,52.62286],[-1.247091,52.621184],[-1.2482,52.619308],[-1.245364,52.615891],[-1.251683,52.614358],[-1.253703,52.613642],[-1.253154,52.613785],[-1.254,52.613452],[-1.253802,52.613321],[-1.248591,52.610944],[-1.247587,52.610242],[-1.245857,52.608561],[-1.244302,52.60773],[-1.2426,52.607315],[-1.242736,52.607361],[-1.242092,52.607239],[-1.24187,52.607146],[-1.239688,52.605918],[-1.23427,52.60269],[-1.233485,52.602065],[-1.232805,52.601655],[-1.231996,52.601294],[-1.227294,52.598683],[-1.225762,52.59817],[-1.223991,52.598076],[-1.22361,52.597857],[-1.220997,52.596874],[-1.218395,52.595732]]]},"properties":{"code":"C82066","name":"FOREST MEDICAL GROUP","icb":"QK1"}}]}