{"type":"FeatureCollection","features":[{"type":"Feature","geometry":{"type":"Polygon","coordinates":[[[-1.400834,52.688223],[-1.40091,52.68795],[-1.40149,52.68677],[-1.40185,52.68637],[-1.40352,52.68546],[-1.40449,52.68449],[-1.40411,52.68278],[-1.4039,52.68244],[-1.40371,52.68104],[-1.40314,52.67881],[-1.4024,52.6777],[-1.40155,52.67664],[-1.39902,52.67367],[-1.39849,52.67313],[-1.39605,52.67177],[-1.39581,52.67155],[-1.39553,52.67174],[-1.39488,52.67188],[-1.39406,52.67202],[-1.39301,52.67207],[-1.39155,52.67194],[-1.39086,52.67176],[-1.38918,52.67167],[-1.38627,52.67177],[-1.38477,52.67188],[-1.3833,52.67209],[-1.38241,52.67214],[-1.37841,52.67166],[-1.37625,52.66979],[-1.37588,52.66907],[-1.37526,52.66839],[-1.37475,52.66741],[-1.37453,52.66626],[-1.37399,52.66478],[-1.37332,52.6652],[-1.3721,52.66504],[-1.37137,52.66474],[-1.3702,52.66423],[-1.36893,52.66265],[-1.36747,52.66235],[-1.365,52.66174],[-1.36216,52.6609],[-1.35934,52.66023],[-1.35572,52.65918],[-1.35442,52.65891],[-1.35346,52.65879],[-1.35197,52.65822],[-1.35013,52.65735],[-1.34953,52.65684],[-1.34834,52.6562],[-1.34748,52.65559],[-1.34578,52.65464],[-1.34522,52.65477],[-1.34433,52.65481],[-1.34374,52.6549],[-1.3418,52.65493],[-1.3413,52.65503],[-1.34064,52.65508],[-1.33849,52.65484],[-1.33634,52.65478],[-1.33551,52.6546],[-1.33343,52.65395],[-1.33193,52.65372],[-1.33038,52.65357],[-1.32686,52.65255],[-1.32186,52.65101],[-1.32079,52.65054],[-1.31539,52.64775],[-1.30971,52.64783],[-1.30755,52.64779],[-1.30658,52.64787],[-1.3023,52.64736],[-1.30119,52.64738],[-1.29904,52.64762],[-1.29612,52.64813],[-1.29267,52.6494],[-1.29155,52.6506],[-1.29202,52.65133],[-1.29233,52.65209],[-1.29214,52.65285],[-1.29157,52.6537],[-1.29117,52.65465],[-1.29093,52.65681],[-1.29133,52.65768],[-1.29126,52.65963],[-1.29065,52.66073],[-1.28997,52.66176],[-1.2886,52.66506],[-1.28807,52.6673],[-1.28631,52.67064],[-1.28588,52.6713],[-1.28507,52.67176],[-1.28332,52.67238],[-1.28527,52.67437],[-1.28674,52.67632],[-1.2881,52.67856],[-1.28913,52.68132],[-1.28957,52.68429],[-1.28968,52.68613],[-1.2899,52.68802],[-1.29063,52.69042],[-1.29137,52.69204],[-1.29205,52.69276],[-1.29292,52.69537],[-1.29125,52.70963],[-1.28982,52.71351],[-1.29358,52.71554],[-1.30323,52.71972],[-1.305282,52.720729],[-1.31478,52.72518],[-1.31612,52.72648],[-1.31931,52.72727],[-1.32491,52.72972],[-1.32733,52.7314],[-1.32816,52.73155],[-1.32925,52.73161],[-1.33137,52.73068],[-1.33225,52.73049],[-1.33726,52.72829],[-1.34037,52.72686],[-1.34221,52.72608],[-1.343,52.72561],[-1.34385,52.72487],[-1.34443,52.7242],[-1.34537,52.72358],[-1.34599,52.72346],[-1.34717,52.72336],[-1.34814,52.72322],[-1.35101,52.72252],[-1.35515,52.72218],[-1.35589,52.72389],[-1.35652,52.72452],[-1.35694,52.72504],[-1.35791,52.72575],[-1.36426,52.73003],[-1.36493,52.73042],[-1.36613,52.73086],[-1.36658,52.73109],[-1.36743,52.73128],[-1.36776,52.73126],[-1.37136,52.73228],[-1.37359,52.73262],[-1.38021,52.73265],[-1.38127,52.73271],[-1.38545,52.73251],[-1.38836,52.73224],[-1.39366,52.73156],[-1.39448,52.73159],[-1.39478,52.73138],[-1.3956,52.73016],[-1.39612,52.72882],[-1.39655,52.72713],[-1.39653,52.72552],[-1.39672,52.72391],[-1.39688,52.72374],[-1.39714,52.72311],[-1.39745,52.72214],[-1.39782,52.71983],[-1.39798,52.71923],[-1.39833,52.7183],[-1.39867,52.71762],[-1.39872,52.71731],[-1.39836,52.71593],[-1.39945,52.71387],[-1.40015,52.71229],[-1.40065,52.71011],[-1.40064,52.70972],[-1.4008,52.70934],[-1.401,52.70838],[-1.401,52.70774],[-1.40115,52.70673],[-1.40115,52.70622],[-1.40127,52.70582],[-1.40112,52.70537],[-1.40112,52.70511],[-1.4009,52.70481],[-1.40073,52.70436],[-1.40064,52.7032],[-1.40102,52.70252],[-1.40131,52.70156],[-1.4013,52.70102],[-1.40112,52.7005],[-1.40127,52.70003],[-1.4013,52.69959],[-1.40148,52.69917],[-1.40251,52.69813],[-1.40315,52.69761],[-1.40369,52.69699],[-1.403799,52.696529],[-1.402808,52.695651],[-1.40246,52.69547],[-1.40215,52.69523],[-1.40203,52.69507],[-1.40213,52.69418],[-1.4023,52.694],[-1.40227,52.69198],[-1.40155,52.68971],[-1.400932,52.688546],[-1.40091,52.68863],[-1.400834,52.688223]]]},"properties":{"code":"C82096","name":"HUGGLESCOTE SURGERY","icb":"QK1"}}]}