{"type":"FeatureCollection","features":[{"type":"Feature","geometry":{"type":"Polygon","coordinates":[[[-1.17746,52.66452],[-1.17793,52.66428],[-1.1804,52.66106],[-1.18194,52.66107],[-1.18346,52.66051],[-1.18366,52.66016],[-1.18402,52.65949],[-1.18402,52.65815],[-1.18369,52.65658],[-1.1839,52.65653],[-1.18419,52.65626],[-1.18439,52.65588],[-1.18441,52.65549],[-1.1842,52.65447],[-1.18438,52.65405],[-1.18286,52.65224],[-1.18292,52.65193],[-1.18334,52.65164],[-1.18365,52.65118],[-1.18441,52.6491],[-1.18483,52.64898],[-1.18528,52.64856],[-1.18537,52.64838],[-1.18704,52.6466],[-1.18704,52.6462],[-1.1874,52.64535],[-1.18772,52.64515],[-1.18833,52.64492],[-1.18926,52.64333],[-1.19009,52.64208],[-1.19222,52.64037],[-1.19598,52.6408],[-1.19633,52.63983],[-1.19973,52.6403],[-1.19987,52.64047],[-1.20083,52.63882],[-1.20177,52.63797],[-1.20365,52.6371],[-1.20998,52.63509],[-1.21528,52.63366],[-1.2124,52.63186],[-1.21038,52.63087],[-1.2047,52.62874],[-1.20099,52.62701],[-1.19529,52.62534],[-1.19119,52.62387],[-1.18813,52.62255],[-1.18742,52.62199],[-1.18721,52.62173],[-1.18671,52.62162],[-1.18267,52.61997],[-1.18211,52.6197],[-1.18111,52.61937],[-1.17857,52.61838],[-1.17752,52.61808],[-1.1769,52.61815],[-1.17555,52.61801],[-1.17312,52.61675],[-1.17233,52.61606],[-1.16792,52.61416],[-1.16654,52.61315],[-1.16597,52.61246],[-1.16514,52.61087],[-1.1614,52.60618],[-1.15998,52.60494],[-1.1595,52.60472],[-1.15684,52.6055],[-1.15597,52.60603],[-1.15521,52.60657],[-1.15445,52.60688],[-1.15267,52.60779],[-1.15159,52.60785],[-1.15113,52.60801],[-1.15079,52.6082],[-1.15024,52.60881],[-1.14833,52.60955],[-1.14688,52.61017],[-1.14541,52.61089],[-1.14498,52.61123],[-1.14461,52.61166],[-1.14454,52.61258],[-1.14459,52.6132],[-1.14494,52.61347],[-1.14559,52.61367],[-1.14589,52.61439],[-1.14698,52.61464],[-1.14743,52.61487],[-1.14779,52.61518],[-1.14859,52.6163],[-1.14874,52.61641],[-1.1499,52.61781],[-1.15086,52.61866],[-1.15069,52.61968],[-1.1505,52.62025],[-1.14935,52.62166],[-1.14865,52.62295],[-1.14792,52.62406],[-1.14722,52.6253],[-1.14676,52.62575],[-1.14252,52.62549],[-1.14252,52.62593],[-1.14288,52.6261],[-1.14352,52.62613],[-1.14393,52.62584],[-1.14515,52.6258],[-1.14567,52.62585],[-1.14671,52.62664],[-1.14671,52.62701],[-1.14646,52.62732],[-1.14641,52.62768],[-1.14667,52.62907],[-1.14644,52.62953],[-1.14603,52.62986],[-1.145,52.63047],[-1.14429,52.63108],[-1.14412,52.63151],[-1.1446,52.63221],[-1.14464,52.6332],[-1.14451,52.63359],[-1.14136,52.63356],[-1.14016,52.6337],[-1.1397,52.63382],[-1.1395,52.63394],[-1.13943,52.63423],[-1.13977,52.63483],[-1.1399,52.6348],[-1.14047,52.63561],[-1.14067,52.63564],[-1.14058,52.63613],[-1.14022,52.63663],[-1.14006,52.63728],[-1.14447,52.64321],[-1.14523,52.64349],[-1.14596,52.64365],[-1.1481,52.64388],[-1.14819,52.64404],[-1.14852,52.64429],[-1.14878,52.64461],[-1.14802,52.64586],[-1.14771,52.64623],[-1.1467,52.64721],[-1.14683,52.64741],[-1.15004,52.64787],[-1.15309,52.64841],[-1.15456,52.64879],[-1.1557,52.64931],[-1.15625,52.64978],[-1.15707,52.65071],[-1.15725,52.65085],[-1.15757,52.65092],[-1.15764,52.6511],[-1.1578,52.65125],[-1.15949,52.65229],[-1.16059,52.65326],[-1.16261,52.65488],[-1.16374,52.65555],[-1.16773,52.65728],[-1.16891,52.65794],[-1.16997,52.65876],[-1.17124,52.65995],[-1.17145,52.66039],[-1.17308,52.66188],[-1.17493,52.66308],[-1.1759,52.66395],[-1.17688,52.66437],[-1.17746,52.66452]]]},"properties":{"code":"C82073","name":"MERRIDALE MEDICAL CENTRE (RP TEW)","icb":"QK1"}}]}