{"type":"FeatureCollection","features":[{"type":"Feature","geometry":{"type":"Polygon","coordinates":[[[-1.09237,52.64453],[-1.09331,52.64524],[-1.09621,52.64664],[-1.09569,52.64754],[-1.09401,52.64988],[-1.09251,52.65177],[-1.08893,52.65463],[-1.08707,52.65592],[-1.08248,52.65646],[-1.07981,52.65785],[-1.08508,52.66104],[-1.0887,52.66227],[-1.09872,52.66505],[-1.10772,52.66761],[-1.11234,52.6678],[-1.11824,52.66663],[-1.11767,52.66592],[-1.11804,52.66524],[-1.12109,52.66485],[-1.1225,52.66474],[-1.12391,52.66357],[-1.12521,52.66359],[-1.12615,52.66342],[-1.12722,52.66269],[-1.12817,52.66167],[-1.12858,52.66093],[-1.12817,52.66031],[-1.12724,52.6598],[-1.12681,52.65904],[-1.12583,52.6579],[-1.12505,52.6565],[-1.12535,52.65563],[-1.12738,52.65468],[-1.13005,52.65279],[-1.13005,52.65164],[-1.13025,52.65033],[-1.12941,52.6495],[-1.12918,52.64858],[-1.12801,52.64691],[-1.12818,52.64616],[-1.13028,52.64507],[-1.13177,52.64407],[-1.13265,52.6437],[-1.13464,52.64338],[-1.13626,52.64296],[-1.13909,52.64213],[-1.13805,52.64119],[-1.1371,52.64045],[-1.13596,52.63938],[-1.13158,52.64119],[-1.13038,52.64141],[-1.12936,52.6412],[-1.12645,52.63984],[-1.12366,52.63809],[-1.12269,52.63774],[-1.12208,52.63781],[-1.12015,52.63889],[-1.1183,52.63974],[-1.11771,52.63986],[-1.11566,52.64006],[-1.11354,52.64053],[-1.10835,52.64183],[-1.10597,52.64213],[-1.10388,52.6423],[-1.10144,52.64205],[-1.0981,52.64211],[-1.09578,52.64221],[-1.09542,52.64218],[-1.09394,52.64225],[-1.09224,52.64219],[-1.09171,52.64223],[-1.0917,52.64296],[-1.09237,52.64453]]]},"properties":{"code":"C82084","name":"DR B MODI","icb":"QK1"}}]}