{"type":"FeatureCollection","features":[{"type":"Feature","geometry":{"type":"Polygon","coordinates":[[[-1.410818,52.533981],[-1.41055,52.53388],[-1.40973,52.53328],[-1.40361,52.53105],[-1.38617,52.52571],[-1.38022,52.52379],[-1.37388,52.52117],[-1.36897,52.51891],[-1.364771,52.517114],[-1.360691,52.517002],[-1.359322,52.517224],[-1.35925,52.51734],[-1.359102,52.51726],[-1.355898,52.51778],[-1.353068,52.518631],[-1.35271,52.51888],[-1.350756,52.519429],[-1.34608,52.52086],[-1.347319,52.520394],[-1.34539,52.52095],[-1.345067,52.520901],[-1.342481,52.521803],[-1.34166,52.52217],[-1.34084,52.52397],[-1.34052,52.52423],[-1.3403,52.52471],[-1.34063,52.5242],[-1.34055,52.52449],[-1.340787,52.526191],[-1.34039,52.52688],[-1.34023,52.52888],[-1.33998,52.53546],[-1.32561,52.54056],[-1.32554,52.54122],[-1.32507,52.54189],[-1.32381,52.54295],[-1.285275,52.530187],[-1.269355,52.532769],[-1.269519,52.540901],[-1.269859,52.557826],[-1.30715,52.55833],[-1.30914,52.56007],[-1.31304,52.56185],[-1.31754,52.56311],[-1.31879,52.56358],[-1.32365,52.56447],[-1.32169,52.56485],[-1.32178,52.56519],[-1.31253,52.56631],[-1.29988,52.56999],[-1.29553,52.57318],[-1.29509,52.57761],[-1.30364,52.58002],[-1.30956,52.5801],[-1.31092,52.58069],[-1.32228,52.58313],[-1.32821,52.58313],[-1.33931,52.58368],[-1.34133,52.58318],[-1.3418,52.58324],[-1.34193,52.58311],[-1.34228,52.58301],[-1.34615,52.58123],[-1.35014,52.582],[-1.35193,52.58162],[-1.3596,52.58113],[-1.3669,52.57852],[-1.37741,52.57833],[-1.38282,52.57953],[-1.38231,52.57977],[-1.38422,52.57903],[-1.38419,52.57754],[-1.38438,52.57639],[-1.39222,52.57277],[-1.39491,52.57217],[-1.39178,52.57592],[-1.39441,52.57647],[-1.39632,52.57783],[-1.39975,52.57824],[-1.40562,52.57983],[-1.41105,52.58192],[-1.41357,52.58034],[-1.41763,52.57174],[-1.41958,52.57113],[-1.42192,52.56785],[-1.42206,52.56543],[-1.41627,52.56558],[-1.41611,52.5649],[-1.41692,52.56308],[-1.41622,52.56022],[-1.41714,52.55695],[-1.43373,52.55668],[-1.43406,52.55615],[-1.43565,52.55566],[-1.438,52.55577],[-1.44007,52.55554],[-1.4403,52.55461],[-1.44125,52.55276],[-1.44194,52.55027],[-1.44538,52.54624],[-1.44119,52.54642],[-1.43951,52.54513],[-1.4365,52.54414],[-1.43838,52.54455],[-1.43741,52.54357],[-1.43683,52.5437],[-1.43067,52.54166],[-1.42234,52.53816],[-1.42112,52.53787],[-1.41102,52.5336],[-1.41067,52.53384],[-1.410818,52.533981]]]},"properties":{"code":"C82082","name":"THE CENTRE SURGERY","icb":"QK1"}}]}