{"type":"FeatureCollection","features":[{"type":"Feature","geometry":{"type":"Polygon","coordinates":[[[-1.394244,52.827007],[-1.395414,52.825756],[-1.396165,52.825587],[-1.396809,52.825224],[-1.397956,52.823169],[-1.399448,52.821775],[-1.401207,52.820893],[-1.401572,52.819337],[-1.403203,52.818442],[-1.404877,52.818805],[-1.405209,52.818669],[-1.405628,52.818176],[-1.405773,52.817774],[-1.405799,52.81734],[-1.404625,52.81721],[-1.404635,52.816896],[-1.40411,52.816659],[-1.404909,52.816001],[-1.406153,52.814701],[-1.4075,52.813586],[-1.409962,52.81035],[-1.413331,52.807846],[-1.419253,52.800764],[-1.416292,52.800011],[-1.412172,52.799311],[-1.408138,52.798299],[-1.385436,52.798169],[-1.379213,52.798895],[-1.370888,52.79861],[-1.361189,52.797961],[-1.351447,52.798065],[-1.341491,52.799414],[-1.332564,52.801334],[-1.319904,52.806419],[-1.310163,52.812957],[-1.306407,52.815797],[-1.305335,52.819285],[-1.303489,52.822981],[-1.297932,52.833119],[-1.296043,52.838952],[-1.295593,52.841959],[-1.295657,52.845109],[-1.29952,52.855294],[-1.302309,52.860269],[-1.297116,52.863637],[-1.294112,52.867886],[-1.290722,52.873015],[-1.293554,52.874142],[-1.296397,52.875055],[-1.299466,52.875347],[-1.302427,52.875755],[-1.3038,52.876713],[-1.306129,52.877393],[-1.309175,52.873741],[-1.319304,52.873015],[-1.33338,52.870218],[-1.336513,52.87058],[-1.338401,52.871306],[-1.34295,52.868223],[-1.347928,52.868612],[-1.351318,52.869078],[-1.353593,52.868689],[-1.35591,52.869622],[-1.356983,52.868897],[-1.358335,52.868871],[-1.36076,52.868119],[-1.365781,52.866824],[-1.36282,52.864985],[-1.359429,52.863715],[-1.351876,52.86172],[-1.347542,52.861021],[-1.348529,52.858818],[-1.35252,52.857471],[-1.352177,52.856227],[-1.350417,52.854802],[-1.350203,52.853661],[-1.35179,52.852962],[-1.353593,52.853739],[-1.354408,52.855475],[-1.355824,52.856071],[-1.357756,52.856123],[-1.35973,52.855683],[-1.362605,52.854439],[-1.365309,52.852547],[-1.366081,52.850681],[-1.369901,52.84853],[-1.376252,52.847105],[-1.379771,52.846586],[-1.382389,52.845342],[-1.383119,52.843709],[-1.382689,52.84218],[-1.386509,52.839769],[-1.39183,52.838291],[-1.394405,52.836425],[-1.393118,52.83404],[-1.389513,52.833469],[-1.387711,52.832899],[-1.391573,52.829891],[-1.394244,52.827007]]]},"properties":{"code":"C82007","name":"CASTLE DONINGTON SURGERY","icb":"QK1"}}]}