{"type":"FeatureCollection","features":[{"type":"Feature","geometry":{"type":"Polygon","coordinates":[[[-1.10688,52.65249],[-1.11454,52.64862],[-1.1164,52.64724],[-1.11778,52.64641],[-1.11789,52.64618],[-1.11811,52.64616],[-1.11936,52.64522],[-1.12003,52.64427],[-1.12045,52.64316],[-1.11892,52.64276],[-1.11819,52.64224],[-1.11812,52.64155],[-1.11842,52.6408],[-1.11848,52.64033],[-1.118,52.63967],[-1.11641,52.63868],[-1.11356,52.63667],[-1.109,52.63611],[-1.10936,52.63462],[-1.10959,52.63421],[-1.11059,52.63334],[-1.111,52.63286],[-1.1113,52.63239],[-1.11058,52.63046],[-1.11026,52.63002],[-1.10958,52.62949],[-1.10956,52.62926],[-1.10755,52.62916],[-1.10372,52.62805],[-1.10074,52.62737],[-1.1015,52.62627],[-1.10228,52.6241],[-1.09997,52.62403],[-1.09899,52.62389],[-1.09735,52.62354],[-1.0954,52.62295],[-1.09369,52.62223],[-1.09217,52.62168],[-1.09104,52.62147],[-1.08798,52.62131],[-1.08687,52.62145],[-1.08542,52.62144],[-1.08218,52.62086],[-1.08059,52.62076],[-1.07823,52.62078],[-1.07738,52.62097],[-1.07651,52.62108],[-1.07584,52.62103],[-1.0761,52.62037],[-1.07628,52.62012],[-1.07562,52.61964],[-1.07388,52.61892],[-1.07149,52.61899],[-1.07144,52.62021],[-1.07124,52.62132],[-1.07128,52.62166],[-1.07137,52.62181],[-1.07052,52.62184],[-1.06651,52.62176],[-1.06567,52.62216],[-1.06507,52.62232],[-1.0645,52.6227],[-1.06236,52.62274],[-1.06087,52.62247],[-1.05981,52.62219],[-1.05882,52.62244],[-1.05498,52.62508],[-1.05371,52.62708],[-1.05065,52.63131],[-1.04887,52.63132],[-1.04766,52.63142],[-1.04719,52.63267],[-1.04694,52.63357],[-1.04587,52.63891],[-1.04514,52.64155],[-1.04477,52.64243],[-1.04461,52.6435],[-1.04659,52.64354],[-1.04735,52.6437],[-1.0469,52.64484],[-1.04693,52.64535],[-1.04837,52.64588],[-1.0485,52.64619],[-1.04819,52.6481],[-1.04837,52.65227],[-1.04935,52.65195],[-1.05081,52.65178],[-1.05649,52.65205],[-1.05863,52.652],[-1.06036,52.65162],[-1.06146,52.65146],[-1.06338,52.65133],[-1.06519,52.6509],[-1.06645,52.65044],[-1.06878,52.64993],[-1.07028,52.64982],[-1.07068,52.65006],[-1.07142,52.64982],[-1.07359,52.64944],[-1.0761,52.64878],[-1.0792,52.64787],[-1.08079,52.64841],[-1.08159,52.64876],[-1.09267,52.65149],[-1.09577,52.6522],[-1.09744,52.65234],[-1.09847,52.6526],[-1.09977,52.65309],[-1.10287,52.65452],[-1.10688,52.65249]]]},"properties":{"code":"C82667","name":"THE CHARNWOOD PRACTICE","icb":"QK1"}}]}