{"type":"FeatureCollection","features":[{"type":"Feature","geometry":{"type":"Polygon","coordinates":[[[-1.163285,52.623025],[-1.16294,52.6219],[-1.16195,52.62063],[-1.15988,52.61918],[-1.15922,52.61888],[-1.15695,52.61812],[-1.15541,52.61778],[-1.15414,52.6176],[-1.1512,52.61695],[-1.149,52.61692],[-1.14787,52.61828],[-1.14712,52.61886],[-1.14692,52.61957],[-1.1464,52.61984],[-1.14494,52.62097],[-1.14362,52.62251],[-1.14316,52.62495],[-1.14235,52.63087],[-1.14202,52.63271],[-1.14211,52.63381],[-1.14299,52.63384],[-1.14472,52.6341],[-1.14631,52.63393],[-1.14977,52.63407],[-1.15225,52.63402],[-1.15417,52.63385],[-1.15802,52.63298],[-1.15818,52.63258],[-1.15897,52.63151],[-1.15907,52.63],[-1.15996,52.62772],[-1.16034,52.62752],[-1.16079,52.62681],[-1.16151,52.626],[-1.16233,52.62529],[-1.16286,52.62474],[-1.16313,52.62431],[-1.163285,52.623025]]]},"properties":{"code":"C82620","name":"DR S SHAFI","icb":"QK1"}}]}