{"type":"FeatureCollection","features":[{"type":"Feature","geometry":{"type":"Polygon","coordinates":[[[-1.12239,52.65788],[-1.1223,52.65555],[-1.12257,52.65555],[-1.12271,52.65547],[-1.12364,52.65519],[-1.12517,52.65504],[-1.12603,52.65361],[-1.12642,52.64997],[-1.12951,52.65019],[-1.12901,52.64943],[-1.12835,52.64822],[-1.12692,52.64818],[-1.1243,52.6476],[-1.12416,52.6479],[-1.12104,52.64718],[-1.12089,52.64763],[-1.11717,52.6467],[-1.116,52.64762],[-1.11455,52.64859],[-1.10392,52.65404],[-1.1069,52.65496],[-1.10907,52.65506],[-1.11095,52.65574],[-1.1164,52.65758],[-1.11869,52.65846],[-1.11956,52.65864],[-1.12186,52.65891],[-1.12283,52.65875],[-1.12239,52.65788]]]},"properties":{"code":"C82671","name":"BRANDON SURGERY DR R KAPUR & PARTNER","icb":"QK1"}}]}