{"type":"FeatureCollection","features":[{"type":"Feature","geometry":{"type":"Polygon","coordinates":[[[-1.15356,52.623747],[-1.15125,52.62608],[-1.14928,52.62875],[-1.14727,52.63119],[-1.14656,52.63262],[-1.14635,52.63345],[-1.14644,52.63372],[-1.14957,52.63413],[-1.15242,52.63397],[-1.15245,52.63737],[-1.15274,52.63791],[-1.15251,52.63931],[-1.15181,52.64],[-1.1515,52.64098],[-1.15099,52.64211],[-1.14963,52.64395],[-1.14889,52.64406],[-1.14752,52.64614],[-1.14647,52.64736],[-1.14488,52.64833],[-1.14412,52.64934],[-1.14346,52.65086],[-1.14426,52.65227],[-1.14612,52.65267],[-1.14642,52.65228],[-1.14672,52.65208],[-1.14746,52.65217],[-1.14824,52.65218],[-1.14847,52.6528],[-1.14901,52.65299],[-1.14955,52.65293],[-1.1499,52.6524],[-1.14986,52.65198],[-1.15089,52.65196],[-1.15373,52.65245],[-1.15452,52.6524],[-1.15595,52.65208],[-1.15739,52.65108],[-1.15672,52.65027],[-1.16118,52.64812],[-1.165367,52.649205],[-1.165802,52.648404],[-1.165893,52.648235],[-1.165987,52.648063],[-1.166024,52.647994],[-1.166081,52.647922],[-1.166218,52.647815],[-1.166407,52.647641],[-1.166845,52.647278],[-1.167086,52.647101],[-1.16737,52.646928],[-1.167708,52.646434],[-1.167951,52.646445],[-1.168212,52.646458],[-1.16798,52.645885],[-1.167808,52.644677],[-1.167789,52.644485],[-1.167721,52.644358],[-1.167488,52.644115],[-1.169087,52.64195],[-1.170705,52.640354],[-1.173143,52.638428],[-1.175023,52.638833],[-1.177447,52.639815],[-1.179943,52.640826],[-1.183172,52.642035],[-1.18407,52.641539],[-1.186414,52.63884],[-1.188201,52.637078],[-1.189296,52.63527],[-1.189767,52.633782],[-1.189398,52.632675],[-1.189007,52.631501],[-1.188907,52.631253],[-1.188986,52.631077],[-1.189257,52.63091],[-1.189717,52.630859],[-1.190149,52.630733],[-1.190656,52.630658],[-1.191828,52.630244],[-1.192174,52.629938],[-1.193303,52.62935],[-1.201022,52.627051],[-1.200894,52.626992],[-1.200679,52.626896],[-1.200538,52.626818],[-1.200436,52.626722],[-1.20033,52.626709],[-1.199466,52.626507],[-1.196377,52.625714],[-1.194529,52.625078],[-1.193608,52.624751],[-1.192755,52.624405],[-1.188019,52.622631],[-1.187127,52.621552],[-1.185719,52.621534],[-1.184772,52.620647],[-1.183765,52.620473],[-1.183342,52.620301],[-1.183085,52.620202],[-1.182997,52.620161],[-1.182921,52.62012],[-1.182862,52.620082],[-1.182802,52.620043],[-1.182742,52.620004],[-1.182659,52.619945],[-1.182572,52.619883],[-1.182114,52.619605],[-1.181938,52.619527],[-1.18173,52.619462],[-1.181245,52.619348],[-1.180848,52.619212],[-1.180141,52.618925],[-1.178972,52.618451],[-1.178709,52.61832],[-1.178431,52.618213],[-1.178114,52.618119],[-1.177883,52.61805],[-1.176256,52.618044],[-1.17544,52.618006],[-1.174707,52.617917],[-1.174432,52.617852],[-1.174105,52.617654],[-1.173795,52.61741],[-1.173594,52.617166],[-1.173394,52.616924],[-1.17292,52.616351],[-1.172326,52.615867],[-1.171911,52.615682],[-1.170775,52.615282],[-1.169955,52.614993],[-1.169548,52.614853],[-1.169345,52.614783],[-1.169222,52.614735],[-1.168601,52.614491],[-1.168155,52.614351],[-1.167875,52.614197],[-1.167317,52.613833],[-1.166708,52.613406],[-1.166432,52.613189],[-1.166241,52.613073],[-1.16615,52.613001],[-1.166042,52.613039],[-1.159282,52.618997],[-1.15356,52.623747]]]},"properties":{"code":"C82639","name":"WESTEND MEDICAL PRACTICE","icb":"QK1"}}]}