{"type":"FeatureCollection","features":[{"type":"Feature","geometry":{"type":"Polygon","coordinates":[[[-0.152416,52.879],[-0.173978,52.882472],[-0.204056,52.881622],[-0.227689,52.868368],[-0.235659,52.859105],[-0.239562,52.853618],[-0.247735,52.845066],[-0.258733,52.835857],[-0.26562,52.82809],[-0.28498,52.81738],[-0.29997,52.80708],[-0.306573,52.795163],[-0.315982,52.781916],[-0.316086,52.775183],[-0.310616,52.76415],[-0.312144,52.753478],[-0.31467,52.74278],[-0.31295,52.73655],[-0.30705,52.72619],[-0.29966,52.7139],[-0.28641,52.70057],[-0.28536,52.69721],[-0.27559,52.69563],[-0.2632,52.69067],[-0.250438,52.682476],[-0.238636,52.681304],[-0.227554,52.679512],[-0.21469,52.678926],[-0.199671,52.678243],[-0.189998,52.677152],[-0.155973,52.672367],[-0.140194,52.673728],[-0.120667,52.67695],[-0.109479,52.679574],[-0.100089,52.681777],[-0.094736,52.681929],[-0.08872,52.684443],[-0.084826,52.685507],[-0.081977,52.686025],[-0.079076,52.687078],[-0.074653,52.688286],[-0.066385,52.690543],[-0.0617,52.69448],[-0.05557,52.69963],[-0.04942,52.70527],[-0.03703,52.71844],[-0.02637,52.72806],[-0.01889,52.73678],[-0.01582,52.74366],[-0.01321,52.74911],[-0.00921,52.75908],[-0.00805,52.76718],[-0.00882,52.77627],[-0.0104,52.7849],[-0.01272,52.7945],[-0.01858,52.80439],[-0.02017,52.81278],[-0.02344,52.81881],[-0.03064,52.82538],[-0.04061,52.83176],[-0.05172,52.83911],[-0.0637,52.8448],[-0.07682,52.85146],[-0.08417,52.85493],[-0.09426,52.85891],[-0.10669,52.86341],[-0.107913,52.864295],[-0.114684,52.872385],[-0.121012,52.874907],[-0.132356,52.877016],[-0.152416,52.879]]]},"properties":{"code":"C83003","name":"BEECHFIELD MEDICAL CENTRE","icb":"QJM"}}]}