{"type":"FeatureCollection","features":[{"type":"Feature","geometry":{"type":"Polygon","coordinates":[[[-0.421086,53.234297],[-0.420444,53.234585],[-0.419712,53.236265],[-0.419712,53.239332],[-0.42037,53.241694],[-0.426974,53.246112],[-0.4266,53.24749],[-0.4269,53.24851],[-0.4274,53.24936],[-0.42958,53.25258],[-0.43147,53.25441],[-0.43121,53.26135],[-0.43064,53.26139],[-0.438535,53.273905],[-0.44463,53.27894],[-0.45286,53.27798],[-0.45554,53.2752],[-0.46434,53.27433],[-0.47848,53.27176],[-0.47956,53.27211],[-0.48061,53.27252],[-0.48171,53.27278],[-0.48294,53.27304],[-0.48472,53.27333],[-0.48692,53.27357],[-0.48895,53.27396],[-0.49176,53.27458],[-0.49493,53.27549],[-0.49607,53.27607],[-0.49764,53.27664],[-0.49914,53.277],[-0.5001,53.27422],[-0.50048,53.2734],[-0.50086,53.27226],[-0.50114,53.27171],[-0.50285,53.26894],[-0.50342,53.26825],[-0.50371,53.26772],[-0.50445,53.26667],[-0.50518,53.26526],[-0.50569,53.26458],[-0.50678,53.26345],[-0.50686,53.26332],[-0.50823,53.26202],[-0.5109,53.25882],[-0.5119,53.25631],[-0.51342,53.25457],[-0.51379,53.25451],[-0.5295,53.2547],[-0.53669,53.25424],[-0.53924,53.2543],[-0.54293,53.25476],[-0.54576,53.25479],[-0.55103,53.25426],[-0.55519,53.25288],[-0.55323,53.24993],[-0.54287,53.2364],[-0.54055,53.23599],[-0.53855,53.23572],[-0.53849,53.23492],[-0.53679,53.23523],[-0.5323,53.2354],[-0.52697,53.23519],[-0.52236,53.23516],[-0.52255,53.23074],[-0.51663,53.23034],[-0.511,53.23065],[-0.51077,53.22977],[-0.50598,53.23003],[-0.505,53.23002],[-0.50381,53.23011],[-0.50319,53.2301],[-0.50252,53.2302],[-0.49946,53.23032],[-0.49648,53.23055],[-0.49382,53.23084],[-0.49137,53.23115],[-0.48928,53.2315],[-0.48688,53.23155],[-0.48324,53.23182],[-0.48186,53.23199],[-0.48067,53.23224],[-0.47911,53.23266],[-0.47589,53.23322],[-0.47296,53.2334],[-0.46482,53.23376],[-0.46009,53.23455],[-0.45645,53.2348],[-0.439905,53.234332],[-0.425205,53.232345],[-0.42057,53.234297],[-0.420482,53.234498],[-0.421086,53.234297]]]},"properties":{"code":"C83079","name":"GLEBE PARK SURGERY","icb":"QJM"}}]}