{"type":"FeatureCollection","features":[{"type":"Feature","geometry":{"type":"Polygon","coordinates":[[[-0.558117,53.543489],[-0.577128,53.535551],[-0.577645,53.52855],[-0.580393,53.521713],[-0.580049,53.517427],[-0.580564,53.514466],[-0.581937,53.510996],[-0.582967,53.507831],[-0.582281,53.50436],[-0.582796,53.500174],[-0.583654,53.4966],[-0.583825,53.492004],[-0.584684,53.485876],[-0.586572,53.48179],[-0.587602,53.477704],[-0.588289,53.474639],[-0.585714,53.472391],[-0.583826,53.471472],[-0.583311,53.464523],[-0.581258,53.45714],[-0.581258,53.449167],[-0.582974,53.441397],[-0.586064,53.434034],[-0.591213,53.42708],[-0.594989,53.420738],[-0.597392,53.412144],[-0.56151,53.394668],[-0.557906,53.395077],[-0.55001,53.394156],[-0.547951,53.393337],[-0.53113,53.394975],[-0.526667,53.395896],[-0.519115,53.395589],[-0.511907,53.398148],[-0.495773,53.399683],[-0.488221,53.400297],[-0.483415,53.401014],[-0.468311,53.402856],[-0.456639,53.403879],[-0.449259,53.406745],[-0.418266,53.452219],[-0.415599,53.470187],[-0.412338,53.503128],[-0.429373,53.511933],[-0.471813,53.521221],[-0.496404,53.524078],[-0.522582,53.524053],[-0.521681,53.527625],[-0.520823,53.530635],[-0.519965,53.536884],[-0.521595,53.540046],[-0.521381,53.543336],[-0.52048,53.545759],[-0.520608,53.549915],[-0.523955,53.550195],[-0.534125,53.548002],[-0.541336,53.545759],[-0.546399,53.544866],[-0.558117,53.543489]]]},"properties":{"code":"C83033","name":"HIBALDSTOW MEDICAL PRACTICE","icb":"QOQ"}}]}