{"type":"FeatureCollection","features":[{"type":"Feature","geometry":{"type":"Polygon","coordinates":[[[-0.8492,53.02902],[-0.85783,53.03048],[-0.86467,53.03082],[-0.87458,53.02705],[-0.87692,53.0246],[-0.87747,53.02102],[-0.86337,52.98458],[-0.86138,52.97356],[-0.86002,52.96491],[-0.85957,52.96002],[-0.85903,52.95892],[-0.8578,52.95822],[-0.85249,52.95652],[-0.84455,52.95541],[-0.83696,52.95382],[-0.82487,52.95026],[-0.81996,52.94666],[-0.81662,52.94401],[-0.81606,52.93946],[-0.81256,52.9342],[-0.80741,52.93097],[-0.79657,52.92811],[-0.78074,52.92437],[-0.76879,52.92026],[-0.75775,52.91629],[-0.75207,52.91625],[-0.73515,52.91869],[-0.72667,52.92093],[-0.69535,52.9331],[-0.68339,52.93711],[-0.66998,52.94397],[-0.66377,52.94569],[-0.61569,52.95408],[-0.61266,52.95597],[-0.60706,52.96031],[-0.60442,52.96427],[-0.60478,52.96744],[-0.60789,52.96995],[-0.63366,52.99803],[-0.65123,53.02684],[-0.66961,53.03008],[-0.68456,53.03368],[-0.694842,53.037678],[-0.696774,53.036826],[-0.698576,53.03502],[-0.703125,53.032388],[-0.707502,53.031872],[-0.717115,53.031407],[-0.726814,53.034039],[-0.73308,53.035639],[-0.735655,53.035897],[-0.739603,53.034452],[-0.744324,53.030375],[-0.74604,53.029549],[-0.745525,53.027277],[-0.745525,53.022838],[-0.746899,53.020153],[-0.751705,53.014267],[-0.75634,53.014783],[-0.760632,53.014887],[-0.764065,53.015403],[-0.76561,53.016023],[-0.76767,53.022218],[-0.76973,53.027174],[-0.77076,53.031613],[-0.774536,53.035433],[-0.775566,53.036672],[-0.78032,53.03616],[-0.82801,53.02798],[-0.84374,53.02846],[-0.84988,53.0292],[-0.8492,53.02902]]]},"properties":{"code":"C83067","name":"LONG BENNINGTON MEDICAL CENTRE","icb":"QJM"}}]}