{"type":"FeatureCollection","features":[{"type":"Feature","geometry":{"type":"Polygon","coordinates":[[[-0.36882,52.68496],[-0.36291,52.68512],[-0.35419,52.68921],[-0.347883,52.692592],[-0.322441,52.69335],[-0.31183,52.69357],[-0.30185,52.6947],[-0.2954,52.69569],[-0.292059,52.697807],[-0.285315,52.69857],[-0.27001,52.69878],[-0.26805,52.70351],[-0.26722,52.70652],[-0.26624,52.71321],[-0.26637,52.718842],[-0.26599,52.72856],[-0.26638,52.736574],[-0.264423,52.768065],[-0.264369,52.768142],[-0.26003,52.77085],[-0.2603,52.77302],[-0.26122,52.776718],[-0.26133,52.782978],[-0.26121,52.78601],[-0.263583,52.789298],[-0.2653,52.79969],[-0.26941,52.822021],[-0.271101,52.83323],[-0.27102,52.833338],[-0.27067,52.83354],[-0.270885,52.833676],[-0.27576,52.84969],[-0.34085,52.87406],[-0.39359,52.87406],[-0.393345,52.873979],[-0.393571,52.873614],[-0.39497,52.8738],[-0.39494,52.873751],[-0.395082,52.873578],[-0.395476,52.873505],[-0.39565,52.87352],[-0.40139,52.87273],[-0.40822,52.871312],[-0.41255,52.87072],[-0.41582,52.86904],[-0.415888,52.867363],[-0.415957,52.867276],[-0.4188,52.86583],[-0.417911,52.860637],[-0.418003,52.858241],[-0.420008,52.852017],[-0.42269,52.84707],[-0.424344,52.840635],[-0.43173,52.834],[-0.43473,52.83015],[-0.43626,52.82736],[-0.43784,52.82306],[-0.438006,52.818507],[-0.440716,52.81229],[-0.44521,52.80651],[-0.447487,52.802235],[-0.45188,52.79946],[-0.451632,52.799302],[-0.451832,52.799028],[-0.4576,52.7991],[-0.46299,52.79809],[-0.46768,52.79664],[-0.48141,52.79162],[-0.490955,52.790751],[-0.493008,52.78604],[-0.494397,52.782887],[-0.495355,52.779907],[-0.495998,52.778155],[-0.49833,52.7767],[-0.499823,52.774351],[-0.50168,52.77264],[-0.50176,52.77026],[-0.502135,52.767703],[-0.503261,52.766539],[-0.502603,52.765992],[-0.502665,52.764465],[-0.500573,52.76225],[-0.49975,52.762034],[-0.499138,52.7608],[-0.498292,52.759095],[-0.497263,52.754955],[-0.493733,52.745542],[-0.489696,52.737398],[-0.487928,52.736476],[-0.488672,52.734683],[-0.487011,52.732379],[-0.485685,52.730934],[-0.483304,52.729693],[-0.48497,52.729465],[-0.481904,52.728482],[-0.481477,52.726319],[-0.48161,52.72417],[-0.482855,52.720775],[-0.481366,52.718422],[-0.4657,52.71099],[-0.465582,52.711033],[-0.465365,52.711028],[-0.46413,52.71051],[-0.46272,52.71012],[-0.46088,52.709968],[-0.45683,52.7093],[-0.44588,52.70767],[-0.439406,52.706843],[-0.43213,52.70451],[-0.410441,52.702126],[-0.405814,52.699713],[-0.402869,52.696591],[-0.40217,52.69272],[-0.39571,52.69102],[-0.386415,52.692115],[-0.386215,52.692067],[-0.38372,52.68999],[-0.36882,52.68496]]]},"properties":{"code":"C83054","name":"BOURNE GALLETLY PRACTICE TEAM","icb":"QJM"}}]}