{"type":"FeatureCollection","features":[{"type":"Feature","geometry":{"type":"Polygon","coordinates":[[[-0.60226,53.2275],[-0.60219,53.22734],[-0.60071,53.22657],[-0.59951,53.22629],[-0.59843,53.22561],[-0.59566,53.22419],[-0.58897,53.22007],[-0.59063,53.21841],[-0.58916,53.2173],[-0.589,53.21604],[-0.58903,53.21513],[-0.58966,53.21424],[-0.59071,53.21298],[-0.59167,53.21112],[-0.59398,53.20802],[-0.59463,53.20664],[-0.59568,53.2052],[-0.598883,53.203848],[-0.595494,53.202922],[-0.593262,53.202434],[-0.591717,53.202074],[-0.588797,53.20138],[-0.586868,53.200917],[-0.58528,53.200531],[-0.583221,53.200017],[-0.580989,53.199426],[-0.580173,53.199246],[-0.578499,53.199118],[-0.576783,53.199143],[-0.573392,53.198886],[-0.570947,53.198732],[-0.567514,53.200197],[-0.56511,53.200763],[-0.562063,53.201406],[-0.558372,53.201971],[-0.55733,53.20209],[-0.55553,53.20207],[-0.55492,53.20212],[-0.55486,53.20309],[-0.55447,53.20375],[-0.55443,53.20471],[-0.55384,53.20591],[-0.55283,53.20665],[-0.55293,53.20722],[-0.55297,53.20871],[-0.55378,53.20922],[-0.55365,53.21001],[-0.55297,53.21057],[-0.55115,53.21134],[-0.54997,53.21192],[-0.5498,53.21254],[-0.55003,53.2131],[-0.55034,53.21427],[-0.55037,53.21508],[-0.55017,53.2157],[-0.54976,53.21625],[-0.5495,53.21713],[-0.54918,53.21764],[-0.54916,53.2183],[-0.54951,53.21945],[-0.54977,53.22087],[-0.55038,53.22088],[-0.5518,53.2214],[-0.55364,53.2223],[-0.55592,53.22318],[-0.58851,53.23707],[-0.59533,53.23426],[-0.5986,53.23266],[-0.60016,53.23106],[-0.60198,53.22776],[-0.60226,53.2275]]]},"properties":{"code":"C83014","name":"BOULTHAM PARK MEDICAL PRACTICE","icb":"QJM"}}]}