{"type":"FeatureCollection","features":[{"type":"Feature","geometry":{"type":"Polygon","coordinates":[[[-0.174641,53.120044],[-0.17459,53.12],[-0.16106,53.12458],[-0.15678,53.12627],[-0.14125,53.1395],[-0.13428,53.14904],[-0.13092,53.15434],[-0.1295,53.15767],[-0.12825,53.1663],[-0.12834,53.17548],[-0.12747,53.18646],[-0.12857,53.1903],[-0.13072,53.19722],[-0.13456,53.20575],[-0.137119,53.212883],[-0.14271,53.21797],[-0.14765,53.22145],[-0.15513,53.22534],[-0.15911,53.22857],[-0.16547,53.23114],[-0.17492,53.23482],[-0.18595,53.23942],[-0.19674,53.24406],[-0.20979,53.24855],[-0.21773,53.25079],[-0.23027,53.25356],[-0.24308,53.25463],[-0.26267,53.25768],[-0.27702,53.25936],[-0.3041,53.26181],[-0.30645,53.26184],[-0.32025,53.26274],[-0.32495,53.26281],[-0.32927,53.26275],[-0.33407,53.26282],[-0.33702,53.2628],[-0.34115,53.26263],[-0.34255,53.26188],[-0.34554,53.25798],[-0.34996,53.25281],[-0.35221,53.25037],[-0.35595,53.24507],[-0.35712,53.2425],[-0.36038,53.23413],[-0.36236,53.23104],[-0.36287,53.23052],[-0.36283,53.22916],[-0.37644,53.22423],[-0.41807,53.20897],[-0.41919,53.20798],[-0.41882,53.20733],[-0.42171,53.19808],[-0.42525,53.18953],[-0.42787,53.18228],[-0.42784,53.18039],[-0.42751,53.17586],[-0.42427,53.16558],[-0.42315,53.1641],[-0.42223,53.1625],[-0.41818,53.1608],[-0.41207,53.15924],[-0.39726,53.15222],[-0.39263,53.15045],[-0.37963,53.14492],[-0.3746,53.14333],[-0.37213,53.14135],[-0.37199,53.13994],[-0.36897,53.13719],[-0.36661,53.13486],[-0.36392,53.131],[-0.3552,53.12124],[-0.34561,53.11105],[-0.33917,53.10566],[-0.33525,53.10343],[-0.33172,53.10132],[-0.32894,53.09999],[-0.32562,53.09971],[-0.32126,53.09894],[-0.31845,53.09831],[-0.31522,53.09839],[-0.30644,53.09791],[-0.30272,53.09821],[-0.29653,53.09888],[-0.28288,53.10051],[-0.26501,53.10255],[-0.23356,53.10685],[-0.2123,53.11041],[-0.197,53.11401],[-0.19205,53.1154],[-0.17852,53.11878],[-0.174641,53.120044]]]},"properties":{"code":"C83635","name":"WOODHALL SPA NEW SURGERY","icb":"QJM"}}]}