{"type":"FeatureCollection","features":[{"type":"Feature","geometry":{"type":"Polygon","coordinates":[[[-1.24206,53.17204],[-1.23743,53.16564],[-1.23898,53.1617],[-1.23332,53.15219],[-1.23835,53.14879],[-1.2384,53.14612],[-1.24188,53.1434],[-1.24296,53.14036],[-1.24401,53.13869],[-1.24301,53.13661],[-1.23757,53.1343],[-1.23351,53.13209],[-1.23562,53.12865],[-1.2227,53.12639],[-1.21047,53.1229],[-1.19927,53.11921],[-1.18635,53.11788],[-1.17343,53.11847],[-1.16086,53.12113],[-1.1491,53.12756],[-1.13839,53.1406],[-1.133566,53.156241],[-1.13373,53.156341],[-1.13397,53.15647],[-1.13375,53.15648],[-1.13361,53.15655],[-1.13401,53.15647],[-1.124983,53.163549],[-1.121207,53.165247],[-1.122408,53.167768],[-1.116911,53.171319],[-1.121636,53.173119],[-1.126785,53.169878],[-1.13875,53.179],[-1.16569,53.19194],[-1.17837,53.18987],[-1.19123,53.1841],[-1.2221,53.17934],[-1.24206,53.17204]]]},"properties":{"code":"C84036","name":"FOREST MEDICAL","icb":"QT1"}}]}