{"type":"FeatureCollection","features":[{"type":"Feature","geometry":{"type":"Polygon","coordinates":[[[-1.14481,52.955356],[-1.151247,52.955098],[-1.155281,52.954426],[-1.161375,52.955822],[-1.168076,52.956251],[-1.174394,52.955653],[-1.181976,52.955347],[-1.191163,52.955349],[-1.191158,52.959648],[-1.212444,52.960579],[-1.217508,52.960423],[-1.221371,52.959855],[-1.225147,52.958924],[-1.227894,52.95789],[-1.23234,52.955666],[-1.234874,52.955425],[-1.240219,52.955206],[-1.24628,52.955205],[-1.246864,52.9532],[-1.247534,52.950901],[-1.242142,52.94791],[-1.23888,52.9461],[-1.235189,52.944652],[-1.234074,52.943514],[-1.225147,52.9416],[-1.220856,52.940876],[-1.218109,52.940669],[-1.216822,52.939221],[-1.213131,52.939572],[-1.209356,52.940561],[-1.206129,52.941769],[-1.202466,52.942433],[-1.19731,52.944744],[-1.194322,52.944836],[-1.190495,52.944014],[-1.187687,52.942453],[-1.189909,52.940325],[-1.18721,52.937565],[-1.185322,52.936427],[-1.18412,52.935186],[-1.183262,52.933479],[-1.181974,52.933065],[-1.180429,52.93322],[-1.180687,52.934203],[-1.179743,52.935548],[-1.178284,52.936945],[-1.177769,52.938703],[-1.174765,52.940048],[-1.169786,52.94191],[-1.162663,52.943772],[-1.160088,52.944238],[-1.159064,52.947728],[-1.151075,52.948737],[-1.148844,52.948686],[-1.143522,52.949358],[-1.141462,52.949927],[-1.13863,52.951013],[-1.138973,52.953185],[-1.141376,52.955046],[-1.143007,52.955305],[-1.14481,52.955356]]]},"properties":{"code":"C84039","name":"DERBY ROAD HEALTH CENTRE","icb":"QT1"}}]}