{"type":"FeatureCollection","features":[{"type":"Feature","geometry":{"type":"Polygon","coordinates":[[[-1.15356,53.06577],[-1.159289,53.07307],[-1.168136,53.079242],[-1.186725,53.056007],[-1.200419,53.057185],[-1.220525,53.055328],[-1.227205,53.051261],[-1.234499,53.047952],[-1.241604,53.043625],[-1.24651,53.039768],[-1.246729,53.038095],[-1.247352,53.033348],[-1.245487,53.026713],[-1.244596,53.023543],[-1.243737,53.021945],[-1.24283,53.02026],[-1.242839,53.020065],[-1.242698,53.018463],[-1.24257,53.017],[-1.242827,53.015041],[-1.240156,53.015289],[-1.236704,53.016218],[-1.232333,53.016155],[-1.227981,53.016767],[-1.222885,53.021973],[-1.215251,53.027972],[-1.210865,53.024913],[-1.205789,53.022567],[-1.200396,53.021214],[-1.194244,53.019381],[-1.191118,53.018721],[-1.188112,53.019142],[-1.179243,53.017645],[-1.171419,53.019746],[-1.170325,53.024353],[-1.171665,53.02915],[-1.169923,53.030517],[-1.169427,53.032606],[-1.166908,53.035173],[-1.16449,53.0372],[-1.16352,53.03946],[-1.159714,53.045307],[-1.157765,53.048301],[-1.153247,53.052086],[-1.15356,53.06577]]]},"properties":{"code":"C84053","name":"TORKARD HILL MEDICAL CTRE","icb":"QT1"}}]}