{"type":"FeatureCollection","features":[{"type":"Feature","geometry":{"type":"Polygon","coordinates":[[[-1.195387,52.982142],[-1.195306,52.982032],[-1.193784,52.982399],[-1.191804,52.982995],[-1.189822,52.983355],[-1.188213,52.983259],[-1.186871,52.983337],[-1.186929,52.983679],[-1.186151,52.984471],[-1.185212,52.984874],[-1.183978,52.9846],[-1.182342,52.984503],[-1.181698,52.984777],[-1.18041,52.98665],[-1.179176,52.987619],[-1.177433,52.988507],[-1.174991,52.989412],[-1.17255,52.989944],[-1.169921,52.991075],[-1.172523,52.992076],[-1.176145,52.993674],[-1.177781,52.994562],[-1.178854,52.995756],[-1.179284,52.997451],[-1.179603,53.000393],[-1.181079,53.004008],[-1.181159,53.004847],[-1.181884,53.005913],[-1.182876,53.006784],[-1.183654,53.007559],[-1.184754,53.008785],[-1.185103,53.009479],[-1.185505,53.010787],[-1.185612,53.011513],[-1.186095,53.012239],[-1.185451,53.012691],[-1.184942,53.013611],[-1.184003,53.014514],[-1.18352,53.015402],[-1.182769,53.016531],[-1.182393,53.017403],[-1.180757,53.018613],[-1.178691,53.019936],[-1.17676,53.020388],[-1.175633,53.020807],[-1.175392,53.02121],[-1.175821,53.022033],[-1.175284,53.022178],[-1.174158,53.022243],[-1.173031,53.022695],[-1.171797,53.023324],[-1.169704,53.024034],[-1.167827,53.024453],[-1.169275,53.025099],[-1.169329,53.025179],[-1.170858,53.025534],[-1.171609,53.025937],[-1.172789,53.027309],[-1.173889,53.028454],[-1.174399,53.028873],[-1.175901,53.029325],[-1.177618,53.02968],[-1.178208,53.029519],[-1.179308,53.028131],[-1.179576,53.027212],[-1.180301,53.026712],[-1.181374,53.026212],[-1.182071,53.025728],[-1.182232,53.025002],[-1.181669,53.024373],[-1.180515,53.023872],[-1.182179,53.022775],[-1.18293,53.022388],[-1.184513,53.02113],[-1.185022,53.020662],[-1.185747,53.020194],[-1.186364,53.019242],[-1.186847,53.018705],[-1.187652,53.018189],[-1.18894,53.017769],[-1.190549,53.017092],[-1.193232,53.016511],[-1.195325,53.01564],[-1.196237,53.014187],[-1.197739,53.013348],[-1.199509,53.011896],[-1.200652,53.01079],[-1.202154,53.01079],[-1.203549,53.010467],[-1.203335,53.00866],[-1.204944,53.008272],[-1.207305,53.007562],[-1.209129,53.006852],[-1.211597,53.005044],[-1.212026,53.005044],[-1.212778,53.005755],[-1.214924,53.006271],[-1.216426,53.0064],[-1.217821,53.006336],[-1.21943,53.005303],[-1.220611,53.003689],[-1.219216,53.002397],[-1.217499,53.001235],[-1.216104,53.000073],[-1.216104,52.999104],[-1.217284,52.997361],[-1.218035,52.995424],[-1.219001,52.993745],[-1.220611,52.99226],[-1.222864,52.991162],[-1.221404,52.990322],[-1.21958,52.989854],[-1.217836,52.989483],[-1.215798,52.989144],[-1.214054,52.988772],[-1.212498,52.988578],[-1.211023,52.988126],[-1.209869,52.987626],[-1.208259,52.987335],[-1.204286,52.986893],[-1.202569,52.986473],[-1.202235,52.986198],[-1.201328,52.985652],[-1.197718,52.984245],[-1.19643,52.983558],[-1.195387,52.982142]]]},"properties":{"code":"C84043","name":"LEEN VIEW SURGERY","icb":"QT1"}}]}