{"type":"FeatureCollection","features":[{"type":"Feature","geometry":{"type":"Polygon","coordinates":[[[-1.218688,53.026858],[-1.22299,53.022624],[-1.229702,53.016945],[-1.232797,53.016565],[-1.236811,53.016745],[-1.243513,53.014783],[-1.241787,53.012924],[-1.238549,53.00972],[-1.234761,53.00683],[-1.231664,53.002079],[-1.230989,52.998901],[-1.231312,52.995821],[-1.23926,52.998779],[-1.24317,52.999703],[-1.249337,53.003009],[-1.25397,52.999909],[-1.255,52.996913],[-1.255858,52.99402],[-1.251261,52.99385],[-1.248653,52.993297],[-1.244707,52.991653],[-1.234757,52.990094],[-1.22828,52.98872],[-1.2301,52.98758],[-1.2309,52.98644],[-1.232894,52.984475],[-1.23434,52.982414],[-1.22858,52.97791],[-1.22751,52.97695],[-1.22403,52.97472],[-1.222419,52.973688],[-1.22113,52.97364],[-1.21669,52.97385],[-1.20725,52.97258],[-1.204992,52.972226],[-1.2027,52.97202],[-1.20013,52.97177],[-1.19815,52.97102],[-1.193903,52.968886],[-1.192705,52.96844],[-1.190903,52.968027],[-1.18352,52.974281],[-1.180431,52.976659],[-1.179229,52.977744],[-1.178113,52.978571],[-1.175797,52.979501],[-1.17429,52.98047],[-1.17315,52.98154],[-1.17339,52.98267],[-1.17259,52.98372],[-1.171325,52.984345],[-1.16745,52.98492],[-1.165609,52.985306],[-1.1638,52.98601],[-1.15691,52.99511],[-1.15921,52.99706],[-1.15963,52.99824],[-1.16138,52.99816],[-1.16253,52.99859],[-1.1629,52.99894],[-1.16398,52.99852],[-1.16645,52.99881],[-1.1661,52.99968],[-1.16657,53.00094],[-1.17944,52.99903],[-1.179784,53.000986],[-1.18122,53.00502],[-1.182612,53.006705],[-1.18409,53.00786],[-1.18558,53.01086],[-1.183577,53.016334],[-1.177913,53.030765],[-1.176798,53.035675],[-1.177305,53.038554],[-1.181547,53.043484],[-1.181497,53.047468],[-1.182064,53.048607],[-1.184637,53.048953],[-1.188125,53.047258],[-1.190643,53.045857],[-1.196011,53.040575],[-1.197159,53.038942],[-1.207625,53.033781],[-1.218688,53.026858]]]},"properties":{"code":"C84064","name":"PARKSIDE MEDICAL CENTRE","icb":"QT1"}}]}