{"type":"FeatureCollection","features":[{"type":"Feature","geometry":{"type":"Polygon","coordinates":[[[-1.015185,53.382538],[-1.06136,53.377229],[-1.061393,53.377183],[-1.058348,53.376392],[-1.056175,53.375827],[-1.048969,53.374625],[-1.048046,53.373112],[-1.044156,53.371088],[-1.041036,53.369516],[-1.038819,53.368798],[-1.037006,53.368336],[-1.035053,53.367408],[-1.031666,53.365662],[-1.028577,53.364212],[-1.024956,53.362576],[-1.023429,53.361409],[-1.022616,53.360759],[-1.021113,53.359853],[-1.014672,53.356508],[-1.011673,53.355007],[-1.009601,53.354226],[-1.01961,53.334204],[-1.02767,53.321517],[-1.028675,53.315314],[-1.029709,53.310385],[-1.029672,53.310363],[-1.030243,53.308723],[-1.030292,53.308511],[-1.022876,53.304423],[-0.994817,53.288085],[-0.967977,53.272749],[-0.966656,53.271373],[-0.960918,53.267973],[-0.914011,53.240405],[-0.891731,53.253312],[-0.881693,53.253688],[-0.879669,53.25361],[-0.872145,53.253755],[-0.866078,53.253875],[-0.860001,53.253995],[-0.850436,53.254437],[-0.844811,53.254436],[-0.791979,53.276168],[-0.7912,53.276488],[-0.826496,53.296849],[-0.824776,53.29719],[-0.782262,53.305622],[-0.779582,53.306153],[-0.834424,53.314768],[-0.833689,53.31635],[-0.819698,53.339461],[-0.822122,53.341217],[-0.855371,53.365278],[-0.855404,53.365325],[-0.860484,53.368322],[-0.871904,53.376336],[-0.875672,53.378689],[-0.878435,53.378909],[-0.893914,53.38014],[-0.919473,53.381411],[-1.015185,53.382538]]]},"properties":{"code":"C84035","name":"CROWN HOUSE SURGERY","icb":"QT1"}}]}