{"type":"FeatureCollection","features":[{"type":"Feature","geometry":{"type":"Polygon","coordinates":[[[-1.199145,52.971601],[-1.19918,52.97139],[-1.19854,52.97121],[-1.19687,52.97038],[-1.19481,52.96945],[-1.19335,52.96854],[-1.19039,52.96769],[-1.18876,52.9673],[-1.18678,52.96723],[-1.18425,52.96751],[-1.18292,52.96751],[-1.18223,52.9673],[-1.18202,52.96655],[-1.1812,52.96562],[-1.17979,52.96498],[-1.17717,52.96728],[-1.17356,52.9694],[-1.17451,52.97046],[-1.17446,52.97152],[-1.17228,52.97159],[-1.17232,52.97185],[-1.17103,52.97177],[-1.17125,52.97229],[-1.16635,52.97345],[-1.16558,52.97322],[-1.16215,52.97446],[-1.16086,52.97361],[-1.1558,52.97506],[-1.15798,52.98351],[-1.15923,52.98562],[-1.15949,52.98738],[-1.15974,52.98798],[-1.1615,52.98862],[-1.16524,52.98963],[-1.16846,52.99027],[-1.16979,52.9911],[-1.171961,52.991887],[-1.175457,52.993625],[-1.1783,52.992597],[-1.181182,52.992992],[-1.181124,52.993169],[-1.18017,52.99531],[-1.18223,52.99766],[-1.18339,52.9988],[-1.18781,52.9972],[-1.190498,52.996227],[-1.191511,52.99609],[-1.192531,52.995491],[-1.192945,52.994848],[-1.193834,52.99529],[-1.193774,52.994761],[-1.194175,52.994526],[-1.197956,52.992305],[-1.20326,52.98663],[-1.20532,52.98343],[-1.20661,52.98053],[-1.205773,52.979597],[-1.204439,52.978766],[-1.203767,52.978006],[-1.201586,52.978301],[-1.199558,52.977567],[-1.199386,52.976058],[-1.20024,52.974732],[-1.1994,52.97149],[-1.199145,52.971601]]]},"properties":{"code":"C84034","name":"CHURCHFIELDS MEDICAL PRACTICE","icb":"QT1"}}]}