{"type":"FeatureCollection","features":[{"type":"Feature","geometry":{"type":"Polygon","coordinates":[[[-1.057361,53.095358],[-1.055878,53.110811],[-1.055143,53.118467],[-1.060028,53.126542],[-1.11145,53.130713],[-1.149292,53.144422],[-1.156248,53.144986],[-1.162581,53.143651],[-1.175718,53.142662],[-1.179652,53.140472],[-1.184065,53.136839],[-1.186527,53.132811],[-1.18207,53.124795],[-1.187745,53.120121],[-1.18988,53.113864],[-1.199552,53.096211],[-1.198954,53.084689],[-1.189637,53.07333],[-1.166458,53.063787],[-1.153072,53.064037],[-1.152333,53.049782],[-1.142853,53.038214],[-1.136203,53.02501],[-1.132413,53.020383],[-1.121651,53.020081],[-1.111827,53.028191],[-1.109866,53.032364],[-1.080747,53.045627],[-1.06617,53.069515],[-1.057361,53.095358]]]},"properties":{"code":"C84037","name":"ABBEY MEDICAL GROUP","icb":"QT1"}}]}