{"type":"FeatureCollection","features":[{"type":"Feature","geometry":{"type":"Polygon","coordinates":[[[-1.24969,52.93613],[-1.25154,52.93658],[-1.25319,52.9373],[-1.25476,52.93845],[-1.25675,52.93971],[-1.25896,52.94087],[-1.25667,52.94307],[-1.25412,52.9452],[-1.24993,52.9494],[-1.25507,52.94828],[-1.25775,52.94776],[-1.26051,52.9474],[-1.26476,52.94731],[-1.26896,52.94755],[-1.27142,52.94792],[-1.27375,52.94839],[-1.27588,52.94898],[-1.27765,52.94959],[-1.27963,52.94488],[-1.28079,52.94325],[-1.28022,52.94145],[-1.28111,52.94096],[-1.28105,52.94054],[-1.28058,52.93963],[-1.27976,52.93914],[-1.27886,52.9388],[-1.27954,52.93802],[-1.27876,52.93762],[-1.27917,52.93659],[-1.27788,52.93595],[-1.27779,52.93531],[-1.27838,52.93421],[-1.27799,52.93293],[-1.27983,52.93108],[-1.28099,52.93021],[-1.28107,52.9295],[-1.28156,52.92888],[-1.28222,52.92843],[-1.28305,52.92807],[-1.28446,52.92722],[-1.2852,52.92658],[-1.28604,52.92611],[-1.28493,52.92403],[-1.28423,52.92356],[-1.28369,52.92288],[-1.28349,52.92199],[-1.28265,52.92162],[-1.28276,52.9209],[-1.28269,52.91954],[-1.28348,52.91866],[-1.28355,52.91711],[-1.28304,52.91387],[-1.28233,52.91197],[-1.28208,52.9111],[-1.28171,52.91065],[-1.28159,52.9102],[-1.28094,52.90926],[-1.27914,52.90821],[-1.27885,52.90777],[-1.27768,52.90704],[-1.27747,52.90685],[-1.27578,52.90603],[-1.27453,52.90527],[-1.27291,52.90509],[-1.2713,52.90512],[-1.26935,52.90539],[-1.26822,52.90529],[-1.26621,52.9053],[-1.26242,52.90437],[-1.26073,52.9054],[-1.26078,52.90606],[-1.2606,52.90672],[-1.26073,52.90804],[-1.2594,52.90839],[-1.26009,52.90943],[-1.26136,52.9136],[-1.26205,52.91461],[-1.26298,52.91536],[-1.26425,52.91715],[-1.26493,52.91923],[-1.26538,52.92025],[-1.26322,52.92204],[-1.26131,52.92398],[-1.25801,52.92812],[-1.25606,52.93008],[-1.25466,52.93114],[-1.25355,52.93207],[-1.24969,52.93613]]]},"properties":{"code":"C84042","name":"SAXON CROSS SURGERY","icb":"QT1"}}]}