{"type":"FeatureCollection","features":[{"type":"Feature","geometry":{"type":"Polygon","coordinates":[[[-1.101701,52.932034],[-1.103311,52.931685],[-1.105006,52.931568],[-1.108419,52.931315],[-1.10839,52.932365],[-1.107988,52.933146],[-1.107175,52.933854],[-1.10637,52.934585],[-1.106069,52.936183],[-1.10634,52.937078],[-1.106325,52.937596],[-1.106076,52.938029],[-1.105879,52.938372],[-1.105585,52.942354],[-1.10786,52.943414],[-1.109061,52.943854],[-1.110392,52.944113],[-1.113009,52.943983],[-1.115155,52.943388],[-1.117902,52.94269],[-1.120948,52.942173],[-1.124897,52.942819],[-1.127472,52.942949],[-1.130433,52.942716],[-1.13262,52.94194],[-1.1347,52.94005],[-1.13575,52.93801],[-1.136827,52.937],[-1.1376,52.935267],[-1.138673,52.93281],[-1.139488,52.932293],[-1.14275,52.930948],[-1.145152,52.929913],[-1.147297,52.92924],[-1.150731,52.92686],[-1.152276,52.926394],[-1.156139,52.925774],[-1.156547,52.923678],[-1.157062,52.921078],[-1.157578,52.9184],[-1.158307,52.914686],[-1.158586,52.913004],[-1.156838,52.912198],[-1.148931,52.908721],[-1.146462,52.90788],[-1.145196,52.907517],[-1.14393,52.907479],[-1.141891,52.906534],[-1.139231,52.90568],[-1.134939,52.905071],[-1.133008,52.904838],[-1.131248,52.904373],[-1.125777,52.902457],[-1.121142,52.901409],[-1.120026,52.901901],[-1.119297,52.90181],[-1.11258,52.904774],[-1.108696,52.906469],[-1.107066,52.90744],[-1.105564,52.908591],[-1.103675,52.910636],[-1.102045,52.913172],[-1.09962,52.917649],[-1.098611,52.921194],[-1.098461,52.92523],[-1.098826,52.927106],[-1.099448,52.928852],[-1.100307,52.930598],[-1.100864,52.931465],[-1.101701,52.932034]]]},"properties":{"code":"C84086","name":"ST GEORGES MED PRACTICE","icb":"QT1"}}]}