{"type":"FeatureCollection","features":[{"type":"Feature","geometry":{"type":"Polygon","coordinates":[[[-1.145325,52.957997],[-1.140625,52.952297],[-1.139746,52.94375],[-1.135025,52.943906],[-1.13258,52.94409],[-1.123095,52.944345],[-1.109705,52.945147],[-1.097689,52.951172],[-1.090651,52.954843],[-1.08168,52.95792],[-1.072197,52.959639],[-1.070738,52.960932],[-1.069933,52.961972],[-1.068517,52.963458],[-1.06808,52.96389],[-1.06885,52.965119],[-1.07003,52.966269],[-1.07212,52.96862],[-1.07521,52.97139],[-1.079836,52.976245],[-1.086144,52.980431],[-1.088247,52.977692],[-1.089492,52.97454],[-1.096272,52.978545],[-1.103783,52.980431],[-1.110177,52.982834],[-1.11434,52.983971],[-1.119533,52.985443],[-1.121721,52.984048],[-1.125841,52.981542],[-1.127558,52.981491],[-1.129317,52.980974],[-1.132536,52.980044],[-1.13451,52.978829],[-1.135712,52.977666],[-1.135926,52.976374],[-1.139102,52.973247],[-1.140003,52.972537],[-1.140647,52.971619],[-1.141891,52.96981],[-1.14378,52.966579],[-1.145754,52.962961],[-1.146784,52.961358],[-1.14687,52.960479],[-1.146784,52.959652],[-1.145926,52.958825],[-1.144981,52.958153],[-1.145046,52.958114],[-1.145225,52.958039],[-1.145239,52.958036],[-1.145244,52.958031],[-1.145282,52.958015],[-1.145325,52.957997]]]},"properties":{"code":"C84063","name":"GREENDALE PRIMARY CARE CENTRE","icb":"QT1"}}]}