{"type":"FeatureCollection","features":[{"type":"Feature","geometry":{"type":"Polygon","coordinates":[[[-1.125642,52.94364],[-1.121464,52.942949],[-1.118546,52.943052],[-1.113911,52.944707],[-1.108246,52.94419],[-1.104641,52.946052],[-1.108246,52.950706],[-1.107817,52.950913],[-1.102324,52.952671],[-1.096058,52.95474],[-1.091251,52.954947],[-1.079149,52.958463],[-1.07082,52.96012],[-1.06739,52.96281],[-1.07014,52.96673],[-1.07374,52.97004],[-1.0722,52.97211],[-1.0746,52.9748],[-1.07821,52.97573],[-1.09829,52.9872],[-1.109378,52.991913],[-1.110821,52.990714],[-1.112623,52.989784],[-1.115112,52.988544],[-1.117172,52.987149],[-1.119576,52.985961],[-1.120863,52.984875],[-1.121421,52.984204],[-1.122837,52.983377],[-1.123867,52.982912],[-1.125669,52.981569],[-1.128588,52.981258],[-1.130991,52.98069],[-1.13245,52.980277],[-1.134338,52.980018],[-1.136312,52.979501],[-1.138029,52.979346],[-1.140604,52.979295],[-1.142578,52.978623],[-1.147985,52.977951],[-1.15219,52.97283],[-1.15408,52.96798],[-1.153564,52.966424],[-1.152792,52.965184],[-1.150475,52.963529],[-1.152878,52.961255],[-1.151161,52.962702],[-1.153221,52.960634],[-1.152191,52.960427],[-1.152878,52.959187],[-1.152191,52.95898],[-1.149487,52.958489],[-1.148973,52.957325],[-1.148028,52.9558],[-1.14953,52.948664],[-1.153221,52.944811],[-1.153564,52.943466],[-1.171331,52.941811],[-1.169958,52.940569],[-1.169271,52.940931],[-1.168499,52.941087],[-1.166954,52.9415],[-1.165066,52.941811],[-1.163263,52.941604],[-1.155968,52.943156],[-1.159058,52.94119],[-1.159658,52.938397],[-1.156225,52.937673],[-1.155024,52.937931],[-1.153994,52.937828],[-1.152371,52.937295],[-1.147556,52.934155],[-1.145711,52.932758],[-1.143608,52.932551],[-1.142235,52.932603],[-1.141248,52.932913],[-1.139188,52.933457],[-1.137686,52.937725],[-1.136055,52.939638],[-1.133695,52.941682],[-1.131377,52.943001],[-1.128073,52.943492],[-1.125642,52.94364]]]},"properties":{"code":"C84018","name":"THE FAMILY MEDICAL CENTRE","icb":"QT1"}}]}