{"type":"FeatureCollection","features":[{"type":"Feature","geometry":{"type":"Polygon","coordinates":[[[-0.726327,53.03194],[-0.717155,53.080014],[-0.739491,53.087137],[-0.76698,53.10145],[-0.793003,53.110067],[-0.794702,53.123448],[-0.79994,53.12617],[-0.891593,53.135908],[-0.895604,53.132488],[-0.874083,53.122078],[-0.872055,53.114439],[-0.882233,53.092685],[-0.891717,53.08459],[-0.894108,53.076054],[-0.869918,53.072113],[-0.870929,53.065882],[-0.88307,53.059731],[-0.883407,53.05956],[-0.884274,53.059859],[-0.876518,53.050885],[-0.884236,53.047704],[-0.891533,53.039024],[-0.880485,53.015573],[-0.838214,53.008258],[-0.820274,53.005148],[-0.800104,53.001845],[-0.763439,53.016255],[-0.735568,53.019951],[-0.726327,53.03194]]]},"properties":{"code":"C84029","name":"LOMBARD MEDICAL CENTRE","icb":"QT1"}}]}