{"type":"FeatureCollection","features":[{"type":"Feature","geometry":{"type":"Polygon","coordinates":[[[-0.776891,53.276987],[-0.78243,53.30853],[-0.8147,53.37679],[-0.81985,53.38602],[-0.8947,53.40733],[-0.96542,53.39715],[-1.02139,53.40784],[-1.0437,53.40155],[-1.047228,53.39582],[-1.04636,53.39582],[-1.05145,53.39058],[-1.06195,53.37593],[-1.00535,53.35194],[-1.02743,53.32154],[-1.05717,53.31201],[-1.06789,53.27569],[-0.96711,53.27241],[-0.98527,53.2449],[-0.90075,53.23301],[-0.88689,53.25156],[-0.885944,53.251453],[-0.837536,53.253301],[-0.836849,53.253917],[-0.778556,53.2759],[-0.77677,53.2763],[-0.776815,53.276556],[-0.773678,53.277737],[-0.776891,53.276987]]]},"properties":{"code":"C84013","name":"KINGFISHER FAMILY PRACTICE","icb":"QT1"}}]}