{"type":"FeatureCollection","features":[{"type":"Feature","geometry":{"type":"Polygon","coordinates":[[[-1.030225,53.29713],[-1.028259,53.294963],[-1.026482,53.293004],[-0.99435,53.223191],[-0.895836,53.234884],[-0.871646,53.236455],[-0.826026,53.245077],[-0.790398,53.254474],[-0.78279,53.255366],[-0.776547,53.256541],[-0.772718,53.25755],[-0.773165,53.260853],[-0.76416,53.27233],[-0.76501,53.27375],[-0.77411,53.27818],[-0.77531,53.28027],[-0.7784,53.28347],[-0.77291,53.28789],[-0.7675,53.29123],[-0.76514,53.29346],[-0.76464,53.29735],[-0.76431,53.29919],[-0.76213,53.29962],[-0.75958,53.29912],[-0.75873,53.2961],[-0.75848,53.29326],[-0.75627,53.2926],[-0.75406,53.29286],[-0.75082,53.29374],[-0.74843,53.30218],[-0.74698,53.30399],[-0.74857,53.30567],[-0.75271,53.30937],[-0.75401,53.315],[-0.75423,53.32006],[-0.75308,53.32123],[-0.75091,53.32219],[-0.74959,53.32392],[-0.75151,53.32514],[-0.754306,53.325119],[-0.757462,53.324324],[-0.759865,53.324488],[-0.76097,53.3253],[-0.76398,53.32839],[-0.76651,53.33025],[-0.76563,53.33169],[-0.7627,53.33251],[-0.76155,53.332934],[-0.76064,53.33364],[-0.76012,53.33661],[-0.75737,53.33856],[-0.75651,53.34041],[-0.75831,53.34205],[-0.759796,53.342993],[-0.76319,53.344278],[-0.76454,53.34527],[-0.764807,53.346543],[-0.764317,53.347987],[-0.762861,53.350176],[-0.761322,53.35102],[-0.759291,53.351594],[-0.75858,53.35244],[-0.758442,53.353511],[-0.759354,53.354325],[-0.763074,53.355018],[-0.765387,53.355871],[-0.767124,53.357261],[-0.768792,53.358973],[-0.771045,53.361583],[-0.773312,53.363926],[-0.77446,53.36443],[-0.775876,53.364458],[-0.778008,53.36377],[-0.779197,53.361629],[-0.781071,53.361201],[-0.783518,53.36168],[-0.786421,53.362705],[-0.789861,53.362915],[-0.790963,53.363485],[-0.790174,53.36518],[-0.790368,53.366605],[-0.790624,53.368483],[-0.789644,53.369243],[-0.786014,53.374408],[-0.78448,53.375597],[-0.780082,53.37679],[-0.775485,53.377252],[-0.775155,53.378059],[-0.780193,53.381759],[-0.78455,53.383875],[-0.787618,53.385364],[-0.788835,53.386292],[-0.789657,53.386384],[-0.804989,53.396064],[-0.83287,53.489859],[-0.906957,53.485089],[-0.906896,53.446614],[-1.005711,53.445809],[-1.095322,53.432548],[-1.10913,53.4328],[-1.109833,53.430248],[-1.109818,53.427895],[-1.113673,53.427564],[-1.117933,53.424917],[-1.114473,53.419003],[-1.115204,53.416218],[-1.115863,53.408344],[-1.115287,53.397271],[-1.117239,53.391877],[-1.099184,53.388924],[-1.085341,53.381305],[-1.075634,53.380673],[-1.071939,53.376817],[-1.066756,53.376679],[-1.062758,53.377604],[-1.063208,53.374993],[-1.064551,53.374159],[-1.066609,53.371197],[-1.066592,53.367974],[-1.064799,53.362717],[-1.10174,53.326202],[-1.09861,53.30436],[-1.109247,53.303749],[-1.114171,53.301547],[-1.114113,53.292449],[-1.07257,53.294746],[-1.064335,53.292413],[-1.054502,53.290894],[-1.041158,53.293122],[-1.030225,53.29713]]]},"properties":{"code":"C84094","name":"RIVERSIDE HEALTH PARTNERSHIP","icb":"QT1"}}]}