{"type":"FeatureCollection","features":[{"type":"Feature","geometry":{"type":"Polygon","coordinates":[[[-1.19236,53.09578],[-1.175459,53.104593],[-1.175259,53.104616],[-1.1721,53.10392],[-1.186296,53.118323],[-1.186081,53.11855],[-1.17828,53.11855],[-1.16953,53.11876],[-1.159738,53.12051],[-1.1479,53.12247],[-1.14721,53.1269],[-1.150657,53.128033],[-1.15631,53.13029],[-1.157901,53.130771],[-1.158013,53.130896],[-1.157,53.13606],[-1.15837,53.14451],[-1.159785,53.147139],[-1.159734,53.147256],[-1.15985,53.147331],[-1.159887,53.147463],[-1.15981,53.14757],[-1.15983,53.14784],[-1.16031,53.148813],[-1.160222,53.14896],[-1.15942,53.14925],[-1.158735,53.149602],[-1.157236,53.150078],[-1.156039,53.150392],[-1.152819,53.151018],[-1.15058,53.15134],[-1.146554,53.152072],[-1.14307,53.15261],[-1.14281,53.15274],[-1.14308,53.152943],[-1.14631,53.15669],[-1.147386,53.15782],[-1.147288,53.158],[-1.14715,53.15804],[-1.14711,53.15816],[-1.1473,53.15827],[-1.14781,53.15843],[-1.14824,53.158468],[-1.14865,53.15856],[-1.149848,53.158562],[-1.151188,53.158709],[-1.15204,53.15888],[-1.155528,53.159351],[-1.156891,53.159646],[-1.15809,53.16009],[-1.15889,53.16031],[-1.15944,53.16038],[-1.15987,53.1604],[-1.160564,53.160351],[-1.16406,53.16053],[-1.16522,53.16055],[-1.16584,53.16053],[-1.166436,53.160401],[-1.166728,53.160472],[-1.1673,53.16125],[-1.168638,53.162035],[-1.169488,53.162599],[-1.170101,53.163024],[-1.17064,53.16348],[-1.17107,53.16368],[-1.17157,53.16357],[-1.172833,53.163066],[-1.173305,53.162979],[-1.174107,53.162961],[-1.17605,53.16336],[-1.17758,53.16351],[-1.17863,53.16354],[-1.180173,53.16347],[-1.181925,53.163462],[-1.18243,53.163518],[-1.18288,53.16363],[-1.184282,53.163863],[-1.18567,53.16428],[-1.186254,53.164402],[-1.18704,53.16489],[-1.193364,53.162838],[-1.19991,53.16211],[-1.206471,53.159014],[-1.217557,53.156767],[-1.231154,53.15706],[-1.23476,53.15727],[-1.233571,53.154824],[-1.234064,53.152666],[-1.23682,53.15017],[-1.23837,53.14842],[-1.238703,53.146198],[-1.238771,53.146119],[-1.24094,53.14502],[-1.24283,53.14245],[-1.24369,53.13864],[-1.24352,53.13719],[-1.234058,53.13211],[-1.233574,53.130448],[-1.233606,53.13036],[-1.23871,53.12607],[-1.231522,53.12289],[-1.226365,53.118772],[-1.22292,53.11371],[-1.21811,53.10917],[-1.21038,53.10485],[-1.19579,53.09743],[-1.19236,53.09578]]]},"properties":{"code":"C84051","name":"ORCHARD MEDICAL PRACTICE","icb":"QT1"}}]}