{"type":"FeatureCollection","features":[{"type":"Feature","geometry":{"type":"Polygon","coordinates":[[[-1.15871,53.0327],[-1.16232,53.0295],[-1.16249,53.02532],[-1.161457,53.024182],[-1.158558,53.021471],[-1.156296,53.020145],[-1.15348,53.01928],[-1.153246,53.018319],[-1.153967,53.017261],[-1.1552,53.01545],[-1.15974,53.01292],[-1.157929,53.010711],[-1.159689,53.008749],[-1.159749,53.007282],[-1.16043,53.00549],[-1.158732,53.003076],[-1.16035,53.002851],[-1.161447,53.001931],[-1.1627,53.001176],[-1.163217,53.000224],[-1.16287,52.9988],[-1.16043,52.99805],[-1.158668,52.996584],[-1.156961,52.995165],[-1.153665,52.99618],[-1.14944,52.98916],[-1.144917,52.991051],[-1.139928,52.992419],[-1.139915,52.990578],[-1.14041,52.988909],[-1.142568,52.98625],[-1.13965,52.986017],[-1.135785,52.986555],[-1.132994,52.986519],[-1.130392,52.985931],[-1.126781,52.984987],[-1.124691,52.984084],[-1.123952,52.983707],[-1.123222,52.983301],[-1.116017,52.987714],[-1.112406,52.989888],[-1.108843,52.992031],[-1.106096,52.993238],[-1.104213,52.994548],[-1.103379,52.996081],[-1.102591,52.998145],[-1.10258,52.99841],[-1.10138,53.00115],[-1.10035,53.00445],[-1.10013,53.00763],[-1.100143,53.009749],[-1.100527,53.010917],[-1.10045,53.01203],[-1.09932,53.01499],[-1.106136,53.018608],[-1.11012,53.020329],[-1.114492,53.021319],[-1.121743,53.023751],[-1.129848,53.026577],[-1.13605,53.02759],[-1.14824,53.03285],[-1.15296,53.0335],[-1.15871,53.0327]]]},"properties":{"code":"C84066","name":"DAYBROOK MEDICAL PRACTICE","icb":"QT1"}}]}