{"type":"FeatureCollection","features":[{"type":"Feature","geometry":{"type":"Polygon","coordinates":[[[-1.109962,53.020205],[-1.113618,53.021114],[-1.131436,53.018368],[-1.132357,53.014107],[-1.136008,53.010218],[-1.138581,53.005988],[-1.13915,53.004487],[-1.13927,53.00372],[-1.13941,53.00329],[-1.13943,53.0028],[-1.13893,53.00168],[-1.13835,53.00069],[-1.13791,52.99909],[-1.13799,52.9958],[-1.13814,52.99514],[-1.13852,52.99453],[-1.13931,52.99355],[-1.13992,52.99256],[-1.14008,52.99208],[-1.13998,52.99068],[-1.14028,52.98929],[-1.14054,52.98883],[-1.14259,52.98627],[-1.13963,52.98598],[-1.13777,52.98619],[-1.13699,52.98639],[-1.1362,52.98649],[-1.13456,52.98646],[-1.13283,52.98651],[-1.12941,52.98566],[-1.12863,52.9854],[-1.12624,52.9848],[-1.12322,52.98321],[-1.12086,52.98458],[-1.12021,52.98509],[-1.11797,52.98634],[-1.11416,52.98894],[-1.11028,52.99113],[-1.1074,52.9926],[-1.10589,52.9933],[-1.10456,52.99409],[-1.10394,52.99461],[-1.10361,52.99532],[-1.10327,52.99652],[-1.10219,52.99901],[-1.10132,53.00129],[-1.10057,53.00296],[-1.10038,53.00377],[-1.10018,53.00528],[-1.10011,53.00697],[-1.099749,53.00869],[-1.099834,53.009877],[-1.100779,53.010807],[-1.100435,53.011582],[-1.100349,53.013079],[-1.09992,53.013441],[-1.098804,53.014628],[-1.102581,53.017055],[-1.104898,53.017985],[-1.106615,53.018966],[-1.109962,53.020205]]]},"properties":{"code":"C84026","name":"STENHOUSE MEDICAL CENTRE","icb":"QT1"}}]}