{"type":"FeatureCollection","features":[{"type":"Feature","geometry":{"type":"Polygon","coordinates":[[[-0.816233,53.112451],[-0.80489,53.110293],[-0.801653,53.116451],[-0.802623,53.118195],[-0.806822,53.11933],[-0.808403,53.122172],[-0.806439,53.125057],[-0.80348,53.130384],[-0.801327,53.134477],[-0.79239,53.14018],[-0.791002,53.144045],[-0.792711,53.14712],[-0.795545,53.149542],[-0.797429,53.151822],[-0.796668,53.152938],[-0.791058,53.154263],[-0.787035,53.156829],[-0.787227,53.159626],[-0.789035,53.160519],[-0.791547,53.160448],[-0.799538,53.157666],[-0.800327,53.160198],[-0.797989,53.164344],[-0.798176,53.166028],[-0.800144,53.168935],[-0.799181,53.170184],[-0.79699,53.170947],[-0.791925,53.17039],[-0.78855,53.168038],[-0.78507,53.168859],[-0.784198,53.170404],[-0.786472,53.17199],[-0.785034,53.175977],[-0.787217,53.179202],[-0.79204,53.179437],[-0.795101,53.181224],[-0.79069,53.183181],[-0.79128,53.185072],[-0.792772,53.187407],[-0.790519,53.190708],[-0.783598,53.190371],[-0.781195,53.191902],[-0.781878,53.194098],[-0.778963,53.198048],[-0.777286,53.200218],[-0.779855,53.202412],[-0.779174,53.205212],[-0.775698,53.207158],[-0.777179,53.209474],[-0.77866,53.21179],[-0.777431,53.21338],[-0.775782,53.21459],[-0.777265,53.21678],[-0.77729,53.218928],[-0.780267,53.221705],[-0.783245,53.224482],[-0.78218,53.229747],[-0.77866,53.23317],[-0.778368,53.236771],[-0.778075,53.240372],[-0.778571,53.243671],[-0.777491,53.247574],[-0.778193,53.252253],[-0.770006,53.253059],[-0.772849,53.255485],[-0.772328,53.261892],[-0.768342,53.267041],[-0.764355,53.27219],[-0.76525,53.273796],[-0.770096,53.276185],[-0.774012,53.278534],[-0.778035,53.28339],[-0.771568,53.288666],[-0.766781,53.29257],[-0.765171,53.294133],[-0.765344,53.296681],[-0.761571,53.299757],[-0.758593,53.295364],[-0.754907,53.293547],[-0.750572,53.293995],[-0.748984,53.298374],[-0.747465,53.304583],[-0.753339,53.311094],[-0.752538,53.320877],[-0.816107,53.321471],[-0.816561,53.315828],[-0.855941,53.30461],[-0.930622,53.301559],[-0.92972,53.28903],[-0.96268,53.28574],[-0.98671,53.28004],[-1.000462,53.266591],[-0.99814,53.251646],[-1.008946,53.232061],[-1.001599,53.221315],[-0.993057,53.21301],[-0.998015,53.20935],[-0.996478,53.204493],[-0.999428,53.192106],[-1.002692,53.188907],[-1.002158,53.185464],[-0.999328,53.182067],[-0.994456,53.180012],[-0.984074,53.180324],[-0.96336,53.17477],[-0.947199,53.166826],[-0.934629,53.16345],[-0.924721,53.154238],[-0.911074,53.142614],[-0.895695,53.131917],[-0.88687,53.126771],[-0.87547,53.1237],[-0.816233,53.112451]]]},"properties":{"code":"C84008","name":"TUXFORD MEDICAL CENTRE","icb":"QT1"}}]}