{"type":"FeatureCollection","features":[{"type":"Feature","geometry":{"type":"Polygon","coordinates":[[[-1.197094,52.983999],[-1.19706,52.983968],[-1.19533,52.9821],[-1.19046,52.983571],[-1.190429,52.983579],[-1.190397,52.983586],[-1.18632,52.9843],[-1.182262,52.986086],[-1.182229,52.986099],[-1.182194,52.98611],[-1.178073,52.987209],[-1.178067,52.987211],[-1.14661,52.99523],[-1.13992,53.00337],[-1.1461,53.00895],[-1.148696,53.01115],[-1.148718,53.011171],[-1.148736,53.011193],[-1.15034,53.01348],[-1.15608,53.01491],[-1.157794,53.014995],[-1.157834,53.014998],[-1.157873,53.015004],[-1.15791,53.015012],[-1.157946,53.015023],[-1.15798,53.015036],[-1.158012,53.015051],[-1.15804,53.015068],[-1.158065,53.015087],[-1.158087,53.015108],[-1.158105,53.015129],[-1.158119,53.015152],[-1.158129,53.015175],[-1.158135,53.0152],[-1.158136,53.015224],[-1.158133,53.015248],[-1.158125,53.015272],[-1.156826,53.018497],[-1.163435,53.025054],[-1.172104,53.026912],[-1.197166,53.024379],[-1.222572,53.017039],[-1.221716,53.010405],[-1.221715,53.010375],[-1.223516,52.991175],[-1.223471,52.991165],[-1.223429,52.991152],[-1.22339,52.991136],[-1.223355,52.991118],[-1.223323,52.991096],[-1.223297,52.991072],[-1.223276,52.991047],[-1.22326,52.99102],[-1.21862,52.98945],[-1.21315,52.988603],[-1.213111,52.988596],[-1.20824,52.98748],[-1.203209,52.986472],[-1.203152,52.986457],[-1.203101,52.986437],[-1.19961,52.98483],[-1.197379,52.984179],[-1.197342,52.984167],[-1.197308,52.984152],[-1.197277,52.984135],[-1.197249,52.984117],[-1.197094,52.983999]]]},"properties":{"code":"C84004","name":"ST ALBANS MEDICAL CENTRE","icb":"QT1"}}]}