{"type":"FeatureCollection","features":[{"type":"Feature","geometry":{"type":"Polygon","coordinates":[[[-1.23764,52.92458],[-1.23352,52.92464],[-1.22691,52.91951],[-1.22583,52.91892],[-1.2243,52.91799],[-1.22088,52.91946],[-1.215687,52.920268],[-1.213088,52.917476],[-1.209153,52.919836],[-1.205,52.91651],[-1.20853,52.91475],[-1.2078,52.9132],[-1.20418,52.91341],[-1.2009,52.91392],[-1.19936,52.91454],[-1.19434,52.91733],[-1.19848,52.92152],[-1.20287,52.92378],[-1.19893,52.92621],[-1.1886,52.9324],[-1.17841,52.9384],[-1.17828,52.94129],[-1.17391,52.94487],[-1.17211,52.9454],[-1.1711,52.94469],[-1.16893,52.9439],[-1.16677,52.94342],[-1.163197,52.943461],[-1.152582,52.946051],[-1.153112,52.9453],[-1.148107,52.945005],[-1.147159,52.946435],[-1.14028,52.946535],[-1.140315,52.948019],[-1.141769,52.948006],[-1.142091,52.949676],[-1.140381,52.950179],[-1.13844,52.95086],[-1.13893,52.9534],[-1.14404,52.95676],[-1.15174,52.96339],[-1.15352,52.96826],[-1.15558,52.96847],[-1.1588,52.97154],[-1.17096,52.9714],[-1.17471,52.97115],[-1.17405,52.96946],[-1.17814,52.96686],[-1.18015,52.96492],[-1.18347,52.96771],[-1.18719,52.96739],[-1.19138,52.9681],[-1.19118,52.9598],[-1.19712,52.96015],[-1.21491,52.96051],[-1.22056,52.96003],[-1.22721,52.95813],[-1.23279,52.95526],[-1.23881,52.9524],[-1.24578,52.95017],[-1.24672,52.94535],[-1.24615,52.94104],[-1.24449,52.93809],[-1.24993,52.93633],[-1.24415,52.93189],[-1.24617,52.93065],[-1.23764,52.92458]]]},"properties":{"code":"C84023","name":"THE UNIV OF NOTTINGHAM HEALTH SERV","icb":"QT1"}}]}