{"type":"FeatureCollection","features":[{"type":"Feature","geometry":{"type":"Polygon","coordinates":[[[-1.230348,53.12472],[-1.230322,53.124976],[-1.235449,53.128845],[-1.235476,53.128575],[-1.235581,53.12868],[-1.245204,53.124754],[-1.254535,53.129347],[-1.266406,53.123613],[-1.266442,53.123253],[-1.26777,53.122876],[-1.268106,53.12313],[-1.273705,53.121537],[-1.27451,53.121679],[-1.280472,53.113438],[-1.273122,53.113634],[-1.272209,53.101255],[-1.272903,53.094297],[-1.271582,53.093123],[-1.268776,53.084349],[-1.262905,53.079126],[-1.262301,53.078155],[-1.261843,53.077854],[-1.261203,53.077329],[-1.261348,53.077097],[-1.260212,53.076736],[-1.258513,53.076526],[-1.257199,53.075878],[-1.244463,53.078515],[-1.242381,53.071513],[-1.241057,53.066027],[-1.217974,53.068282],[-1.220737,53.07402],[-1.237416,53.086643],[-1.229591,53.092638],[-1.229378,53.092979],[-1.227153,53.094684],[-1.213567,53.106759],[-1.213982,53.106927],[-1.2136,53.107253],[-1.213769,53.107604],[-1.227701,53.121683],[-1.230348,53.12472]]]},"properties":{"code":"C84076","name":"KIRKBY HEALTH CENTRE","icb":"QT1"}}]}