{"type":"FeatureCollection","features":[{"type":"Feature","geometry":{"type":"Polygon","coordinates":[[[-1.18824,53.01902],[-1.17554,53.02005],[-1.16901,53.02408],[-1.1776,53.028],[-1.17657,53.03554],[-1.17262,53.03667],[-1.17365,53.0375],[-1.17605,53.03657],[-1.18206,53.05318],[-1.16266,53.05153],[-1.16266,53.05277],[-1.18292,53.05411],[-1.18297,53.054426],[-1.19785,53.05628],[-1.21828,53.04978],[-1.23613,53.04513],[-1.24334,53.03182],[-1.22738,53.01757],[-1.21691,53.02841],[-1.18824,53.01902]]]},"properties":{"code":"C84095","name":"OAKENHALL MEDICAL PRACT","icb":"QT1"}}]}