{"type":"FeatureCollection","features":[{"type":"Feature","geometry":{"type":"Polygon","coordinates":[[[-1.256429,52.905721],[-1.251883,52.903236],[-1.247811,52.903797],[-1.243785,52.904045],[-1.243135,52.903365],[-1.241555,52.902724],[-1.238591,52.901682],[-1.234462,52.900398],[-1.231011,52.897723],[-1.229437,52.896921],[-1.226382,52.89672],[-1.220969,52.896481],[-1.221611,52.899573],[-1.221847,52.90246],[-1.218146,52.90394],[-1.215807,52.904477],[-1.214905,52.905679],[-1.214258,52.909246],[-1.21374,52.910839],[-1.21232,52.9119],[-1.210312,52.91283],[-1.205479,52.913219],[-1.201798,52.913881],[-1.198378,52.914785],[-1.19601,52.9162],[-1.195612,52.916719],[-1.197236,52.920467],[-1.19695,52.925227],[-1.200163,52.930294],[-1.202328,52.928878],[-1.202804,52.930806],[-1.20296,52.93265],[-1.20455,52.93346],[-1.20541,52.93397],[-1.20798,52.93514],[-1.20888,52.93542],[-1.214553,52.936649],[-1.216568,52.938947],[-1.22244,52.93814],[-1.22618,52.93785],[-1.23068,52.93765],[-1.23506,52.93767],[-1.23781,52.93801],[-1.23948,52.93816],[-1.24171,52.93798],[-1.2436,52.93772],[-1.24922,52.93643],[-1.25004,52.93599],[-1.25154,52.93403],[-1.25321,52.93253],[-1.25399,52.93165],[-1.2551,52.93082],[-1.25888,52.92727],[-1.25922,52.92645],[-1.25987,52.92575],[-1.26021,52.92505],[-1.2615,52.92368],[-1.26403,52.92138],[-1.26489,52.92068],[-1.26484,52.92026],[-1.26527,52.91967],[-1.26351,52.91615],[-1.26197,52.91454],[-1.26115,52.91325],[-1.26081,52.91162],[-1.26072,52.91053],[-1.25957,52.90854],[-1.258309,52.90799],[-1.256867,52.907484],[-1.256429,52.905721]]]},"properties":{"code":"C84080","name":"THE MANOR SURGERY","icb":"QT1"}}]}