{"type":"FeatureCollection","features":[{"type":"Feature","geometry":{"type":"Polygon","coordinates":[[[-1.118671,52.975452],[-1.114394,52.979354],[-1.110983,52.982464],[-1.110759,52.982606],[-1.110513,52.982858],[-1.114825,52.984084],[-1.117249,52.984774],[-1.118757,52.985173],[-1.11975,52.98537],[-1.123101,52.983252],[-1.125389,52.981805],[-1.126313,52.981549],[-1.127376,52.98152],[-1.129905,52.98082],[-1.131711,52.98032],[-1.133205,52.980453],[-1.136426,52.979561],[-1.137726,52.979622],[-1.138935,52.979421],[-1.141925,52.978923],[-1.145102,52.978394],[-1.148532,52.977995],[-1.153734,52.970444],[-1.153505,52.966626],[-1.151916,52.963704],[-1.148899,52.960646],[-1.145543,52.957754],[-1.143756,52.956215],[-1.142613,52.956699],[-1.138879,52.955958],[-1.137698,52.954761],[-1.13684,52.953891],[-1.135581,52.954859],[-1.133964,52.955711],[-1.127397,52.95806],[-1.125265,52.958823],[-1.12373,52.959794],[-1.119295,52.962599],[-1.116648,52.964273],[-1.113511,52.9656],[-1.111242,52.965777],[-1.112106,52.967371],[-1.113343,52.96886],[-1.114872,52.970177],[-1.116632,52.971694],[-1.117447,52.973197],[-1.117891,52.974015],[-1.119433,52.97467],[-1.118671,52.975452]]]},"properties":{"code":"C84072","name":"THE WELLSPRING SURGERY","icb":"QT1"}}]}