{"type":"FeatureCollection","features":[{"type":"Feature","geometry":{"type":"Polygon","coordinates":[[[-1.263795,52.90819],[-1.260401,52.908428],[-1.257727,52.910787],[-1.258937,52.913844],[-1.26444,52.918826],[-1.265127,52.919805],[-1.265268,52.919859],[-1.265358,52.919995],[-1.265069,52.920688],[-1.262246,52.922499],[-1.255795,52.930577],[-1.252381,52.933591],[-1.252099,52.933631],[-1.24691,52.93187],[-1.24651,52.93198],[-1.245281,52.932563],[-1.242916,52.933441],[-1.242616,52.933398],[-1.240405,52.931222],[-1.237757,52.931468],[-1.232898,52.932801],[-1.23022,52.933323],[-1.22865,52.93348],[-1.2273,52.93381],[-1.22502,52.9346],[-1.22453,52.93501],[-1.224922,52.935655],[-1.22527,52.93642],[-1.225969,52.937531],[-1.225799,52.937714],[-1.22302,52.93803],[-1.220422,52.938531],[-1.21785,52.93871],[-1.21508,52.93908],[-1.21327,52.93935],[-1.21159,52.93974],[-1.209534,52.940628],[-1.207805,52.941304],[-1.20317,52.94243],[-1.20157,52.94292],[-1.196799,52.944723],[-1.194683,52.944884],[-1.192157,52.944451],[-1.19058,52.9441],[-1.18974,52.9444],[-1.189047,52.944815],[-1.1876,52.94543],[-1.186656,52.946175],[-1.185728,52.946768],[-1.18433,52.94727],[-1.18472,52.94771],[-1.18639,52.94807],[-1.18742,52.948185],[-1.18758,52.948278],[-1.188066,52.949529],[-1.18811,52.95047],[-1.188547,52.950908],[-1.189097,52.952304],[-1.18929,52.95328],[-1.18959,52.95374],[-1.189974,52.953932],[-1.189958,52.954155],[-1.188889,52.954601],[-1.191075,52.956084],[-1.194213,52.958639],[-1.196373,52.959733],[-1.197676,52.961251],[-1.198853,52.961351],[-1.20069,52.96171],[-1.20294,52.961491],[-1.204973,52.96156],[-1.206933,52.961719],[-1.2096,52.962238],[-1.21073,52.96255],[-1.218363,52.9607],[-1.218603,52.960738],[-1.221285,52.962789],[-1.22099,52.96306],[-1.219258,52.962781],[-1.217681,52.96278],[-1.214191,52.963989],[-1.21729,52.96514],[-1.220611,52.965753],[-1.223757,52.96663],[-1.22444,52.96712],[-1.225331,52.967548],[-1.226187,52.968136],[-1.227544,52.969364],[-1.228271,52.97024],[-1.22867,52.97113],[-1.229305,52.971499],[-1.22967,52.97196],[-1.23051,52.97232],[-1.2333,52.97196],[-1.234207,52.971799],[-1.24103,52.97092],[-1.247042,52.968408],[-1.2636,52.96038],[-1.2739,52.9551],[-1.27441,52.95448],[-1.275696,52.952107],[-1.27673,52.95081],[-1.27742,52.94941],[-1.278099,52.947093],[-1.278782,52.945351],[-1.27939,52.94481],[-1.28094,52.94274],[-1.277578,52.940173],[-1.277691,52.939947],[-1.281766,52.939156],[-1.2866,52.93798],[-1.285744,52.935411],[-1.28574,52.934027],[-1.285856,52.933917],[-1.288362,52.93322],[-1.29192,52.93322],[-1.294956,52.932414],[-1.29776,52.93271],[-1.29896,52.93157],[-1.29982,52.9295],[-1.30051,52.9265],[-1.299833,52.921601],[-1.300472,52.920276],[-1.300779,52.920191],[-1.307125,52.921931],[-1.30355,52.917845],[-1.302756,52.916732],[-1.30151,52.91525],[-1.29746,52.914601],[-1.29735,52.914554],[-1.295779,52.913133],[-1.29403,52.91254],[-1.29028,52.91289],[-1.290015,52.913574],[-1.289775,52.913673],[-1.28884,52.91359],[-1.28817,52.91382],[-1.287624,52.91423],[-1.286964,52.91454],[-1.286,52.91461],[-1.285426,52.914823],[-1.280873,52.91484],[-1.281687,52.919433],[-1.281493,52.919578],[-1.266935,52.920494],[-1.26552,52.919955],[-1.26543,52.91982],[-1.265648,52.919297],[-1.264633,52.918378],[-1.264627,52.918249],[-1.266306,52.916526],[-1.269934,52.914665],[-1.269935,52.911961],[-1.26663,52.908969],[-1.263795,52.90819]]]},"properties":{"code":"C84107","name":"THE LINDEN MEDICAL GROUP","icb":"QT1"}}]}