{"type":"FeatureCollection","features":[{"type":"Feature","geometry":{"type":"Polygon","coordinates":[[[-1.17537,52.97966],[-1.18146,52.98472],[-1.182044,52.985264],[-1.182466,52.985556],[-1.183645,52.98637],[-1.192212,52.98917],[-1.192306,52.989648],[-1.192399,52.990118],[-1.194384,52.990859],[-1.195301,52.990912],[-1.195759,52.991062],[-1.196081,52.991312],[-1.196632,52.991605],[-1.196986,52.991926],[-1.197922,52.992372],[-1.198125,52.992015],[-1.198398,52.991837],[-1.199055,52.991406],[-1.200031,52.990309],[-1.201007,52.98921],[-1.202223,52.988288],[-1.203007,52.987183],[-1.204615,52.986923],[-1.206443,52.98706],[-1.208455,52.987242],[-1.210133,52.987868],[-1.213148,52.988661],[-1.216312,52.989222],[-1.218325,52.989404],[-1.219778,52.989946],[-1.222694,52.990163],[-1.223802,52.989801],[-1.226705,52.989375],[-1.228254,52.98887],[-1.229432,52.988002],[-1.231405,52.985972],[-1.233193,52.983961],[-1.233933,52.982917],[-1.234553,52.98183],[-1.234934,52.981206],[-1.235278,52.979992],[-1.236906,52.981646],[-1.239911,52.981465],[-1.239826,52.979501],[-1.238796,52.978364],[-1.238794,52.977486],[-1.239395,52.977072],[-1.237826,52.975677],[-1.237117,52.975121],[-1.236516,52.973596],[-1.233705,52.973105],[-1.233855,52.972847],[-1.233748,52.972162],[-1.233878,52.971994],[-1.233904,52.971775],[-1.229869,52.972498],[-1.225919,52.973222],[-1.222815,52.97358],[-1.216524,52.973871],[-1.216977,52.973232],[-1.217235,52.972616],[-1.217115,52.972005],[-1.216322,52.971347],[-1.215245,52.970774],[-1.213028,52.969886],[-1.208375,52.96802],[-1.207061,52.967338],[-1.205768,52.966668],[-1.203901,52.964969],[-1.202568,52.963039],[-1.20191,52.962168],[-1.200844,52.961441],[-1.190881,52.961019],[-1.190847,52.967323],[-1.184215,52.967182],[-1.1773,52.976937],[-1.17537,52.97966]]]},"properties":{"code":"C84116","name":"MELBOURNE PARK MEDICAL CENTRE","icb":"QT1"}}]}