{"type":"FeatureCollection","features":[{"type":"Feature","geometry":{"type":"Polygon","coordinates":[[[-1.308869,53.082025],[-1.321365,53.08105],[-1.326024,53.073314],[-1.321365,53.068014],[-1.309078,53.062444],[-1.301168,53.061099],[-1.291396,53.061632],[-1.285502,53.060629],[-1.280629,53.060405],[-1.274734,53.064497],[-1.274632,53.067364],[-1.278344,53.069899],[-1.281784,53.071699],[-1.286097,53.074137],[-1.291493,53.07696],[-1.295183,53.080014],[-1.300458,53.081707],[-1.301305,53.082091],[-1.304633,53.081704],[-1.308869,53.082025]]]},"properties":{"code":"C84142","name":"SELSTON SURGERY","icb":"QT1"}}]}