{"type":"FeatureCollection","features":[{"type":"Feature","geometry":{"type":"Polygon","coordinates":[[[-1.2454,52.95526],[-1.2406,52.95505],[-1.2346,52.95558],[-1.22843,52.95528],[-1.21994,52.95151],[-1.20124,52.95263],[-1.19987,52.9475],[-1.19944,52.9465],[-1.1989,52.94585],[-1.19777,52.94551],[-1.19644,52.94541],[-1.19304,52.94539],[-1.18989,52.94382],[-1.19751,52.9384],[-1.19421,52.93762],[-1.19002,52.93946],[-1.18705,52.93741],[-1.17807,52.93635],[-1.17198,52.94039],[-1.17338,52.94485],[-1.16586,52.9461],[-1.16773,52.95062],[-1.16701,52.95357],[-1.16624,52.95521],[-1.16677,52.95612],[-1.16921,52.95628],[-1.17786,52.96033],[-1.18778,52.96078],[-1.18565,52.96478],[-1.1838,52.96719],[-1.18726,52.96727],[-1.19124,52.96787],[-1.19978,52.97159],[-1.21107,52.97366],[-1.21622,52.97366],[-1.22755,52.97294],[-1.2339,52.97208],[-1.24094,52.96317],[-1.2454,52.95526]]]},"properties":{"code":"C84122","name":"WOLLATON PARK MEDICAL CENTRE","icb":"QT1"}}]}