{"type":"FeatureCollection","features":[{"type":"Feature","geometry":{"type":"Polygon","coordinates":[[[-1.167275,52.959389],[-1.166712,52.959928],[-1.165368,52.961215],[-1.162108,52.962926],[-1.159329,52.96371],[-1.156556,52.96407],[-1.152572,52.964763],[-1.153004,52.965494],[-1.15337,52.966113],[-1.153665,52.967849],[-1.153879,52.968212],[-1.154562,52.968202],[-1.155581,52.968397],[-1.156671,52.969168],[-1.157945,52.97037],[-1.158784,52.97133],[-1.159337,52.972162],[-1.160281,52.973002],[-1.162233,52.974669],[-1.167684,52.977537],[-1.17382,52.980431],[-1.174829,52.979889],[-1.176717,52.979139],[-1.176567,52.977847],[-1.176996,52.976155],[-1.178219,52.974204],[-1.179571,52.972317],[-1.181721,52.972861],[-1.183984,52.97402],[-1.185426,52.97264],[-1.184873,52.971706],[-1.184625,52.970932],[-1.184506,52.968751],[-1.184077,52.967949],[-1.183412,52.967407],[-1.18309,52.966722],[-1.183648,52.965378],[-1.184206,52.961358],[-1.184421,52.955516],[-1.181417,52.955361],[-1.180483,52.95538],[-1.179646,52.955464],[-1.178734,52.955541],[-1.177822,52.955554],[-1.175591,52.955638],[-1.176981,52.963826],[-1.17574,52.963393],[-1.174258,52.962876],[-1.170748,52.961325],[-1.169748,52.960923],[-1.169285,52.960481],[-1.168766,52.960048],[-1.167275,52.959389]]]},"properties":{"code":"C84105","name":"FAIRFIELDS PRACTICE","icb":"QT1"}}]}