{"type":"FeatureCollection","features":[{"type":"Feature","geometry":{"type":"Polygon","coordinates":[[[-1.162727,52.956563],[-1.157983,52.959755],[-1.160624,52.961604],[-1.161525,52.962483],[-1.162105,52.962883],[-1.159037,52.963762],[-1.156011,52.96415],[-1.1532,52.964718],[-1.1532,52.964977],[-1.155131,52.968182],[-1.155303,52.968311],[-1.15526,52.96826],[-1.155517,52.968285],[-1.156805,52.969306],[-1.157985,52.970495],[-1.160044,52.972782],[-1.161246,52.973739],[-1.161793,52.97432],[-1.162662,52.97485],[-1.164433,52.975832],[-1.166353,52.976762],[-1.167952,52.975715],[-1.169829,52.974872],[-1.17183,52.97423],[-1.17397,52.973777],[-1.183991,52.973868],[-1.185451,52.972524],[-1.184646,52.970973],[-1.184753,52.969313],[-1.183734,52.967277],[-1.184379,52.957248],[-1.184206,52.955076],[-1.182897,52.952995],[-1.180902,52.951094],[-1.17867,52.949233],[-1.171845,52.952129],[-1.168134,52.954326],[-1.162834,52.955503],[-1.163049,52.955942],[-1.16262,52.95611],[-1.162727,52.956563]]]},"properties":{"code":"C84691","name":"HIGH GREEN MEDICAL PRACTICE","icb":"QT1"}}]}