{"type":"FeatureCollection","features":[{"type":"Feature","geometry":{"type":"Polygon","coordinates":[[[-1.33484,53.01953],[-1.346618,53.001547],[-1.322059,52.992715],[-1.319908,52.992031],[-1.319458,52.991779],[-1.318482,52.991578],[-1.317293,52.991294],[-1.316043,52.990802],[-1.314019,52.990378],[-1.313178,52.990432],[-1.30119,52.98792],[-1.28162,52.97035],[-1.22086,52.98978],[-1.219723,52.989852],[-1.219167,52.997118],[-1.218684,53.003426],[-1.219612,53.009139],[-1.220929,53.017244],[-1.223141,53.027102],[-1.253052,53.035784],[-1.261828,53.038504],[-1.30154,53.05081],[-1.31699,53.03807],[-1.31493,53.03306],[-1.33484,53.01953]]]},"properties":{"code":"C84624","name":"HAMA MEDICAL CENTRE","icb":"QT1"}}]}