{"type":"FeatureCollection","features":[{"type":"Feature","geometry":{"type":"Polygon","coordinates":[[[-1.573448,53.536839],[-1.563492,53.532146],[-1.548386,53.530105],[-1.528473,53.531942],[-1.537399,53.52235],[-1.52195,53.516838],[-1.508904,53.511531],[-1.50238,53.51199],[-1.503754,53.503159],[-1.498947,53.493765],[-1.485214,53.491722],[-1.462555,53.48682],[-1.426849,53.483143],[-1.405563,53.486003],[-1.389771,53.485594],[-1.366425,53.488454],[-1.350632,53.489271],[-1.333466,53.492948],[-1.306686,53.500709],[-1.36608,53.53582],[-1.405563,53.551731],[-1.42625,53.56014],[-1.43028,53.57335],[-1.435089,53.585168],[-1.45535,53.59067],[-1.47273,53.59513],[-1.49629,53.59307],[-1.52967,53.58731],[-1.551132,53.58313],[-1.562119,53.581907],[-1.568298,53.576608],[-1.567612,53.567638],[-1.572418,53.565191],[-1.575851,53.562336],[-1.577225,53.560297],[-1.578598,53.553771],[-1.573792,53.548671],[-1.574821,53.544796],[-1.573448,53.536839]]]},"properties":{"code":"C85019","name":"THE GROVE MEDICAL PRACTICE","icb":"QF7"}}]}