{"type":"FeatureCollection","features":[{"type":"Feature","geometry":{"type":"Polygon","coordinates":[[[-1.484621,53.53636],[-1.48075,53.53602],[-1.471996,53.537221],[-1.46659,53.54403],[-1.45586,53.546377],[-1.450152,53.548799],[-1.433415,53.553924],[-1.3678,53.56906],[-1.36574,53.57844],[-1.363249,53.586595],[-1.36436,53.59291],[-1.375351,53.597828],[-1.390114,53.60091],[-1.412129,53.600859],[-1.442986,53.592505],[-1.449466,53.591104],[-1.457019,53.588658],[-1.48418,53.58904],[-1.489849,53.581755],[-1.49483,53.57355],[-1.494527,53.569243],[-1.49487,53.564146],[-1.484285,53.555109],[-1.486502,53.548926],[-1.496201,53.544566],[-1.494827,53.537834],[-1.487703,53.536609],[-1.484621,53.53636]]]},"properties":{"code":"C85014","name":"THE ROSE TREE PMS PRACTICE","icb":"QF7"}}]}