{"type":"FeatureCollection","features":[{"type":"Feature","geometry":{"type":"Polygon","coordinates":[[[-1.57036,53.58537],[-1.56933,53.56499],[-1.51749,53.56601],[-1.49963,53.56519],[-1.478256,53.57462],[-1.471478,53.561062],[-1.457486,53.557085],[-1.449595,53.556167],[-1.440496,53.554943],[-1.435219,53.562514],[-1.436888,53.586289],[-1.436632,53.601164],[-1.455174,53.606206],[-1.464362,53.604627],[-1.466846,53.60478],[-1.47182,53.60758],[-1.49551,53.61145],[-1.53809,53.61532],[-1.57036,53.58537]]]},"properties":{"code":"C85010","name":"HILL BROW SURGERY PMS PRACTICE","icb":"QF7"}}]}