{"type":"FeatureCollection","features":[{"type":"Feature","geometry":{"type":"Polygon","coordinates":[[[-1.51817,53.56723],[-1.52435,53.55601],[-1.51165,53.54888],[-1.50684,53.5397],[-1.49448,53.53235],[-1.48487,53.51888],[-1.48727,53.50888],[-1.47697,53.50275],[-1.45947,53.50867],[-1.4447,53.52602],[-1.42136,53.53684],[-1.40831,53.54541],[-1.42857,53.57253],[-1.46599,53.5711],[-1.47285,53.56947],[-1.51817,53.56723]]]},"properties":{"code":"C85003","name":"ASHVILLE MEDICAL CENTRE PMS PRACTICE","icb":"QF7"}}]}