{"type":"FeatureCollection","features":[{"type":"Feature","geometry":{"type":"Polygon","coordinates":[[[-1.453167,53.59901],[-1.484272,53.587612],[-1.488244,53.58459],[-1.507614,53.586008],[-1.486229,53.581969],[-1.479595,53.579633],[-1.474601,53.575897],[-1.471345,53.568574],[-1.460933,53.557183],[-1.446757,53.554498],[-1.43955,53.55499],[-1.428347,53.569624],[-1.414614,53.566912],[-1.402149,53.56251],[-1.410363,53.578972],[-1.410432,53.589297],[-1.408234,53.597157],[-1.453167,53.59901]]]},"properties":{"code":"C85622","name":"MONK BRETTON HEALTH CENTRE PRACTICE","icb":"QF7"}}]}