{"type":"FeatureCollection","features":[{"type":"Feature","geometry":{"type":"Polygon","coordinates":[[[-0.988512,53.533576],[-0.98851,53.53342],[-0.988205,53.533501],[-0.98808,53.53347],[-0.98808,53.533534],[-0.9686,53.53868],[-0.969754,53.551678],[-0.966239,53.554076],[-0.96577,53.55408],[-0.96379,53.56927],[-0.964257,53.569267],[-0.94843,53.58354],[-0.949165,53.583599],[-0.94259,53.59459],[-0.94268,53.59485],[-0.94886,53.59877],[-0.96156,53.59892],[-0.96233,53.6029],[-0.96731,53.60147],[-0.9662,53.59969],[-0.97572,53.59933],[-0.976192,53.597541],[-0.97615,53.59938],[-0.99847,53.59923],[-1.03349,53.58823],[-1.03289,53.58797],[-1.03641,53.58252],[-1.035802,53.582514],[-1.03589,53.57498],[-1.035466,53.574978],[-1.03666,53.5452],[-1.036392,53.545294],[-0.988512,53.533576]]]},"properties":{"code":"C86003","name":"HATFIELD HEALTH CENTRE","icb":"QF7"}}]}