{"type":"FeatureCollection","features":[{"type":"Feature","geometry":{"type":"Polygon","coordinates":[[[-1.11254,53.55535],[-1.10327,53.55803],[-1.079061,53.560705],[-1.094175,53.564987],[-1.10696,53.56759],[-1.14322,53.57429],[-1.17798,53.58834],[-1.18948,53.5925],[-1.19738,53.5989],[-1.23,53.60646],[-1.25606,53.58634],[-1.24059,53.57586],[-1.24126,53.55946],[-1.20172,53.53755],[-1.18715,53.52854],[-1.17773,53.53025],[-1.17003,53.52891],[-1.16922,53.51913],[-1.14683,53.52998],[-1.13631,53.54276],[-1.13571,53.54286],[-1.11254,53.55535]]]},"properties":{"code":"C86002","name":"THE RANSOME PRACTICE","icb":"QF7"}}]}