{"type":"FeatureCollection","features":[{"type":"Feature","geometry":{"type":"Polygon","coordinates":[[[-1.33072,53.4762],[-1.32604,53.47632],[-1.324541,53.480278],[-1.32321,53.48335],[-1.324473,53.483808],[-1.324542,53.483995],[-1.322829,53.485538],[-1.32269,53.48559],[-1.320534,53.486958],[-1.319809,53.487185],[-1.321413,53.489933],[-1.321144,53.490175],[-1.319644,53.491113],[-1.31707,53.49231],[-1.314909,53.49413],[-1.30956,53.4967],[-1.315919,53.502005],[-1.315954,53.502082],[-1.315612,53.504574],[-1.314262,53.506696],[-1.31218,53.50755],[-1.311636,53.508788],[-1.30943,53.51051],[-1.31149,53.51276],[-1.31287,53.51388],[-1.316872,53.51297],[-1.318645,53.513261],[-1.3199,53.51408],[-1.322849,53.513157],[-1.326514,53.512769],[-1.326669,53.512792],[-1.33055,53.51459],[-1.34222,53.5151],[-1.34465,53.514387],[-1.359999,53.513066],[-1.36013,53.513083],[-1.36866,53.51628],[-1.37376,53.51589],[-1.3787,53.51526],[-1.38458,53.51258],[-1.389415,53.509508],[-1.389549,53.509471],[-1.39166,53.50941],[-1.39741,53.50581],[-1.390832,53.503156],[-1.383991,53.499671],[-1.383923,53.499592],[-1.38222,53.48733],[-1.365806,53.478585],[-1.36574,53.478497],[-1.36574,53.47763],[-1.362941,53.477817],[-1.35921,53.47681],[-1.355437,53.47701],[-1.335065,53.477628],[-1.33072,53.4762]]]},"properties":{"code":"C87029","name":"MARKET SURGERY","icb":"QF7"}}]}