{"type":"FeatureCollection","features":[{"type":"Feature","geometry":{"type":"Polygon","coordinates":[[[-1.2854,53.3993],[-1.26712,53.40252],[-1.259838,53.409822],[-1.259819,53.409839],[-1.259796,53.409856],[-1.24111,53.42242],[-1.25381,53.44083],[-1.32145,53.43695],[-1.35372,53.42631],[-1.3345,53.40687],[-1.285674,53.399592],[-1.285641,53.399586],[-1.28561,53.399578],[-1.28558,53.399569],[-1.285551,53.399559],[-1.285524,53.399546],[-1.2855,53.399533],[-1.285477,53.399518],[-1.285456,53.399502],[-1.285438,53.399485],[-1.285423,53.399467],[-1.28541,53.399448],[-1.2854,53.399429],[-1.285394,53.399409],[-1.28539,53.399389],[-1.285389,53.399369],[-1.285391,53.399349],[-1.2854,53.3993]]]},"properties":{"code":"C87015","name":"WICKERSLEY HEALTH CENTRE","icb":"QF7"}}]}