{"type":"FeatureCollection","features":[{"type":"Feature","geometry":{"type":"Polygon","coordinates":[[[-1.3036,53.43981],[-1.304447,53.431542],[-1.304002,53.428319],[-1.305823,53.426006],[-1.307479,53.423904],[-1.307367,53.421798],[-1.306521,53.420039],[-1.306632,53.419952],[-1.307425,53.419856],[-1.307182,53.419861],[-1.307153,53.419363],[-1.307195,53.419073],[-1.308814,53.418162],[-1.30849,53.417925],[-1.308265,53.417665],[-1.308092,53.417073],[-1.307662,53.416272],[-1.307411,53.415654],[-1.30748,53.41421],[-1.3069,53.41286],[-1.30214,53.41025],[-1.30171,53.40841],[-1.304009,53.407194],[-1.30059,53.40626],[-1.293733,53.403362],[-1.29072,53.40362],[-1.28633,53.403996],[-1.283912,53.403942],[-1.281446,53.403721],[-1.276961,53.403697],[-1.27466,53.40349],[-1.2713,53.40227],[-1.26493,53.40053],[-1.263495,53.400009],[-1.262566,53.399228],[-1.262206,53.398885],[-1.26174,53.398442],[-1.260605,53.397715],[-1.257262,53.396669],[-1.254774,53.396655],[-1.25212,53.396641],[-1.248476,53.39656],[-1.239004,53.400285],[-1.23066,53.4047],[-1.21446,53.41327],[-1.208032,53.42219],[-1.206006,53.42269],[-1.204004,53.423015],[-1.202411,53.423274],[-1.201134,53.423398],[-1.198455,53.423658],[-1.19699,53.42365],[-1.19459,53.42999],[-1.1927,53.43674],[-1.188836,53.442095],[-1.187298,53.445205],[-1.18352,53.45093],[-1.185711,53.452689],[-1.188514,53.455048],[-1.19289,53.46022],[-1.195505,53.462704],[-1.20132,53.46335],[-1.20428,53.4639],[-1.21448,53.46529],[-1.21892,53.46491],[-1.22784,53.45916],[-1.2347,53.45677],[-1.241206,53.454507],[-1.254391,53.451701],[-1.257721,53.451042],[-1.259717,53.453342],[-1.26223,53.45573],[-1.268324,53.453551],[-1.270639,53.452727],[-1.272117,53.452212],[-1.273705,53.451897],[-1.275197,53.451452],[-1.276993,53.450916],[-1.280234,53.449971],[-1.283491,53.448564],[-1.285253,53.447728],[-1.289121,53.44638],[-1.290541,53.445736],[-1.290649,53.446002],[-1.291944,53.445011],[-1.29278,53.44472],[-1.3036,53.43981]]]},"properties":{"code":"C87016","name":"MORTHEN ROAD SURGERY","icb":"QF7"}}]}