{"type":"FeatureCollection","features":[{"type":"Feature","geometry":{"type":"Polygon","coordinates":[[[-1.3678,53.47385],[-1.3484,53.46291],[-1.353083,53.460942],[-1.357945,53.459549],[-1.362371,53.457896],[-1.365889,53.45729],[-1.373635,53.459438],[-1.382561,53.45862],[-1.39183,53.455962],[-1.399384,53.452691],[-1.42445,53.46628],[-1.43921,53.46373],[-1.44779,53.45412],[-1.44264,53.44451],[-1.42033,53.42948],[-1.41603,53.42457],[-1.39629,53.40738],[-1.37192,53.39602],[-1.37003,53.38845],[-1.35027,53.386221],[-1.341151,53.385192],[-1.320859,53.385547],[-1.303229,53.385852],[-1.285744,53.388857],[-1.279907,53.395204],[-1.272692,53.394385],[-1.264454,53.399912],[-1.259986,53.40462],[-1.254497,53.414648],[-1.252437,53.420582],[-1.249691,53.425083],[-1.249004,53.426105],[-1.245226,53.42856],[-1.244882,53.429378],[-1.25261,53.44114],[-1.27047,53.45351],[-1.30033,53.453],[-1.304364,53.456521],[-1.314535,53.459347],[-1.31836,53.46853],[-1.34171,53.4764],[-1.36557,53.47579],[-1.3678,53.47385]]]},"properties":{"code":"C87005","name":"ST ANN'S MEDICAL CENTRE","icb":"QF7"}}]}