{"type":"FeatureCollection","features":[{"type":"Feature","geometry":{"type":"Polygon","coordinates":[[[-1.2188,53.46414],[-1.22498,53.46496],[-1.2297,53.46204],[-1.23373,53.4575],[-1.23493,53.44431],[-1.2466,53.43756],[-1.25072,53.42447],[-1.25139,53.42132],[-1.25197,53.42232],[-1.24602,53.4056],[-1.22449,53.39676],[-1.21362,53.39969],[-1.20056,53.39139],[-1.18106,53.39389],[-1.16225,53.39598],[-1.14985,53.39795],[-1.14087,53.40156],[-1.12018,53.40385],[-1.12252,53.41464],[-1.13687,53.41866],[-1.13537,53.43367],[-1.14247,53.43837],[-1.14957,53.44101],[-1.15693,53.44626],[-1.16704,53.44988],[-1.18667,53.46019],[-1.20631,53.46069],[-1.2188,53.46414]]]},"properties":{"code":"C87031","name":"DR RAOLU'S PRACTICE","icb":"QF7"}}]}