{"type":"FeatureCollection","features":[{"type":"Feature","geometry":{"type":"Polygon","coordinates":[[[-1.33295,53.4846],[-1.332577,53.484619],[-1.332522,53.484619],[-1.332468,53.484615],[-1.332416,53.484606],[-1.332366,53.484593],[-1.33232,53.484575],[-1.332279,53.484554],[-1.332243,53.484529],[-1.332214,53.484502],[-1.32763,53.47947],[-1.32309,53.479571],[-1.323036,53.47957],[-1.322983,53.479565],[-1.322932,53.479555],[-1.322884,53.47954],[-1.32284,53.479522],[-1.3228,53.4795],[-1.322766,53.479475],[-1.322739,53.479447],[-1.322718,53.479418],[-1.322705,53.479386],[-1.322699,53.479355],[-1.322701,53.479322],[-1.322711,53.479291],[-1.322728,53.47926],[-1.322753,53.479232],[-1.322783,53.479205],[-1.3266,53.4764],[-1.323193,53.4764],[-1.323147,53.476398],[-1.320553,53.47621],[-1.32049,53.476202],[-1.32043,53.476188],[-1.320375,53.476168],[-1.320327,53.476143],[-1.31848,53.475],[-1.31615,53.47386],[-1.31243,53.47302],[-1.310906,53.472963],[-1.310869,53.47296],[-1.310832,53.472956],[-1.310796,53.472949],[-1.310762,53.47294],[-1.310178,53.472767],[-1.310123,53.472747],[-1.310075,53.472722],[-1.309393,53.472301],[-1.309362,53.472279],[-1.309336,53.472255],[-1.308312,53.471173],[-1.308291,53.471146],[-1.30694,53.46915],[-1.30342,53.46884],[-1.30108,53.46977],[-1.299723,53.471183],[-1.299705,53.471201],[-1.299683,53.471218],[-1.299659,53.471233],[-1.299633,53.471247],[-1.299604,53.471259],[-1.299574,53.47127],[-1.299542,53.471279],[-1.299509,53.471286],[-1.29906,53.47137],[-1.297804,53.47183],[-1.297748,53.471847],[-1.297688,53.471858],[-1.295846,53.472103],[-1.295798,53.472107],[-1.29575,53.472108],[-1.295703,53.472105],[-1.295656,53.472099],[-1.295611,53.472089],[-1.295568,53.472075],[-1.295529,53.472059],[-1.295493,53.47204],[-1.29171,53.46971],[-1.291569,53.470926],[-1.29156,53.470961],[-1.291542,53.470995],[-1.291515,53.471027],[-1.291479,53.471056],[-1.28973,53.47228],[-1.28682,53.47461],[-1.28036,53.48026],[-1.279209,53.482922],[-1.279191,53.482954],[-1.279165,53.482984],[-1.279131,53.483012],[-1.279091,53.483036],[-1.27381,53.485759],[-1.273769,53.485777],[-1.273724,53.485792],[-1.273676,53.485803],[-1.273625,53.48581],[-1.27128,53.48604],[-1.268452,53.487578],[-1.268405,53.4876],[-1.263171,53.489645],[-1.263125,53.48966],[-1.263075,53.489671],[-1.263024,53.489678],[-1.262972,53.489681],[-1.26225,53.48969],[-1.26146,53.48983],[-1.261066,53.490912],[-1.261018,53.491195],[-1.261008,53.491228],[-1.26099,53.49126],[-1.26041,53.49272],[-1.26369,53.49992],[-1.26373,53.499931],[-1.263768,53.499944],[-1.263803,53.49996],[-1.263834,53.499978],[-1.263862,53.499999],[-1.263885,53.500021],[-1.263904,53.500044],[-1.263919,53.500069],[-1.264171,53.500603],[-1.264181,53.500632],[-1.264185,53.500661],[-1.264182,53.50069],[-1.264173,53.500719],[-1.26407,53.50096],[-1.27012,53.50347],[-1.27173,53.50398],[-1.27347,53.50438],[-1.276899,53.503809],[-1.276951,53.503802],[-1.277003,53.5038],[-1.286238,53.503849],[-1.286289,53.503851],[-1.286339,53.503857],[-1.286388,53.503868],[-1.286433,53.503882],[-1.29272,53.50621],[-1.29276,53.50622],[-1.292799,53.506232],[-1.292834,53.506247],[-1.292866,53.506264],[-1.292895,53.506284],[-1.29292,53.506305],[-1.292941,53.506328],[-1.292957,53.506352],[-1.292968,53.506377],[-1.292975,53.506402],[-1.292976,53.506428],[-1.292973,53.506454],[-1.292964,53.50648],[-1.292951,53.506504],[-1.292933,53.506528],[-1.29291,53.50655],[-1.29463,53.50763],[-1.29581,53.50789],[-1.29711,53.50805],[-1.30112,53.50834],[-1.30279,53.50839],[-1.305272,53.508016],[-1.30531,53.508011],[-1.305349,53.508009],[-1.31201,53.50784],[-1.31323,53.50747],[-1.31416,53.50695],[-1.3149,53.50637],[-1.31623,53.50509],[-1.31678,53.50433],[-1.31704,53.50271],[-1.317034,53.501795],[-1.317036,53.501769],[-1.317044,53.501743],[-1.317056,53.501719],[-1.317073,53.501695],[-1.317094,53.501672],[-1.31712,53.501651],[-1.31715,53.501632],[-1.317183,53.501615],[-1.317219,53.501601],[-1.317258,53.501589],[-1.317298,53.50158],[-1.317341,53.501573],[-1.317384,53.50157],[-1.317427,53.50157],[-1.317471,53.501572],[-1.317513,53.501578],[-1.32085,53.50214],[-1.323415,53.501954],[-1.32347,53.501952],[-1.323524,53.501956],[-1.327602,53.502369],[-1.327618,53.502371],[-1.33239,53.50298],[-1.33512,53.5032],[-1.33609,53.50314],[-1.336867,53.502979],[-1.336911,53.502972],[-1.336956,53.502967],[-1.337724,53.502925],[-1.337771,53.502924],[-1.337818,53.502927],[-1.337864,53.502933],[-1.337909,53.502943],[-1.33913,53.50326],[-1.34012,53.50236],[-1.34043,53.50047],[-1.34046,53.492955],[-1.34046,53.492945],[-1.34055,53.49182],[-1.34016,53.49091],[-1.338196,53.487441],[-1.338186,53.487418],[-1.33776,53.48628],[-1.33679,53.48571],[-1.33571,53.48519],[-1.333818,53.485069],[-1.333753,53.485061],[-1.333691,53.485047],[-1.333634,53.485026],[-1.333585,53.485],[-1.33295,53.4846]]]},"properties":{"code":"C87030","name":"CROWN STREET SURGERY","icb":"QF7"}}]}