{"type":"FeatureCollection","features":[{"type":"Feature","geometry":{"type":"Polygon","coordinates":[[[-1.34012,53.41905],[-1.33574,53.42025],[-1.337753,53.421919],[-1.337257,53.422189],[-1.33634,53.42171],[-1.33407,53.42104],[-1.33149,53.42038],[-1.32896,53.42056],[-1.32411,53.42206],[-1.324369,53.424083],[-1.324409,53.425836],[-1.32321,53.42774],[-1.32205,53.4302],[-1.323537,53.430757],[-1.323656,53.430971],[-1.322084,53.433426],[-1.321969,53.433494],[-1.321654,53.433521],[-1.32008,53.43301],[-1.31793,53.43293],[-1.314881,53.432954],[-1.31149,53.43232],[-1.312106,53.435976],[-1.31205,53.436099],[-1.312127,53.436168],[-1.312101,53.436328],[-1.307909,53.438845],[-1.313414,53.440011],[-1.313552,53.440126],[-1.313629,53.443591],[-1.325793,53.441238],[-1.336537,53.43954],[-1.341557,53.439763],[-1.341709,53.439701],[-1.34505,53.43935],[-1.348398,53.438519],[-1.35966,53.438427],[-1.370129,53.4358],[-1.379802,53.429979],[-1.379799,53.429862],[-1.373381,53.428645],[-1.373249,53.42857],[-1.352937,53.425674],[-1.350974,53.424996],[-1.34926,53.4237],[-1.347407,53.424572],[-1.347104,53.424553],[-1.343262,53.421819],[-1.34012,53.41905]]]},"properties":{"code":"C87608","name":"SHAKESPEARE ROAD SURGERY","icb":"QF7"}}]}