{"type":"FeatureCollection","features":[{"type":"Feature","geometry":{"type":"Polygon","coordinates":[[[-1.26416,53.4236],[-1.26369,53.422318],[-1.261712,53.418148],[-1.254934,53.416965],[-1.251897,53.421483],[-1.24034,53.42045],[-1.21918,53.41529],[-1.20193,53.41894],[-1.1791,53.39702],[-1.16095,53.40012],[-1.1482,53.4091],[-1.14769,53.40731],[-1.14593,53.42651],[-1.16764,53.44712],[-1.186429,53.452617],[-1.201328,53.448397],[-1.20189,53.458404],[-1.2265,53.449999],[-1.229295,53.448734],[-1.266882,53.438019],[-1.266908,53.432522],[-1.266916,53.430842],[-1.26654,53.429817],[-1.266579,53.42916],[-1.267723,53.42723],[-1.267467,53.427168],[-1.267267,53.426977],[-1.267038,53.426537],[-1.266487,53.426014],[-1.264759,53.425234],[-1.26416,53.4236]]]},"properties":{"code":"C87616","name":"BLYTH ROAD MEDICAL CENTRE","icb":"QF7"}}]}