{"type":"FeatureCollection","features":[{"type":"Feature","geometry":{"type":"Polygon","coordinates":[[[-1.493111,53.412625],[-1.496243,53.41613],[-1.499805,53.419506],[-1.505899,53.421987],[-1.51268,53.424339],[-1.52504,53.436381],[-1.528387,53.439244],[-1.532679,53.438784],[-1.538172,53.441596],[-1.544867,53.444128],[-1.546826,53.448692],[-1.546674,53.450934],[-1.548082,53.454214],[-1.549097,53.457514],[-1.554184,53.457507],[-1.55481,53.457631],[-1.555388,53.457595],[-1.556219,53.457411],[-1.559247,53.457968],[-1.560488,53.458306],[-1.563388,53.458972],[-1.564423,53.459278],[-1.565426,53.459439],[-1.568158,53.459761],[-1.571349,53.460393],[-1.572588,53.46077],[-1.573602,53.461833],[-1.574772,53.462832],[-1.57798,53.464472],[-1.579704,53.464727],[-1.580997,53.464833],[-1.582755,53.464715],[-1.586019,53.465006],[-1.587635,53.465445],[-1.589982,53.465671],[-1.591389,53.465978],[-1.593092,53.466705],[-1.593763,53.466429],[-1.594637,53.466097],[-1.594854,53.465409],[-1.595356,53.465152],[-1.595214,53.464877],[-1.595218,53.463988],[-1.596819,53.462955],[-1.599003,53.462637],[-1.600004,53.462521],[-1.602346,53.462746],[-1.605744,53.462083],[-1.60928,53.461767],[-1.611662,53.461888],[-1.612934,53.461975],[-1.617325,53.462843],[-1.617991,53.462694],[-1.618568,53.462457],[-1.619599,53.46146],[-1.620612,53.46048],[-1.622877,53.459777],[-1.623921,53.459573],[-1.62646,53.458606],[-1.627077,53.458118],[-1.62696,53.457772],[-1.628646,53.457442],[-1.630234,53.456629],[-1.632045,53.456067],[-1.635051,53.456407],[-1.651136,53.454523],[-1.685037,53.430853],[-1.696283,53.41855],[-1.693227,53.409527],[-1.682227,53.400155],[-1.664938,53.393494],[-1.662207,53.391945],[-1.661894,53.391344],[-1.661768,53.390101],[-1.662167,53.388829],[-1.662671,53.38562],[-1.65431,53.387259],[-1.646439,53.389708],[-1.640439,53.390081],[-1.631453,53.387471],[-1.623627,53.386033],[-1.622991,53.386011],[-1.621586,53.386253],[-1.62008,53.386496],[-1.61809,53.386631],[-1.616191,53.386659],[-1.614238,53.386668],[-1.613058,53.386287],[-1.612093,53.385797],[-1.61082,53.385016],[-1.60794,53.383784],[-1.606283,53.383422],[-1.604091,53.383455],[-1.602449,53.383063],[-1.600178,53.382728],[-1.598726,53.382225],[-1.597911,53.381098],[-1.595844,53.380535],[-1.593402,53.380141],[-1.589198,53.379574],[-1.587707,53.379025],[-1.586097,53.378629],[-1.583132,53.378343],[-1.575815,53.378232],[-1.572259,53.37855],[-1.568863,53.379044],[-1.564979,53.380642],[-1.561506,53.380855],[-1.558748,53.380866],[-1.557445,53.380204],[-1.548849,53.37991],[-1.546221,53.379425],[-1.540293,53.380324],[-1.535339,53.381075],[-1.533982,53.380981],[-1.532216,53.380559],[-1.529627,53.380379],[-1.525363,53.380686],[-1.524071,53.380779],[-1.522786,53.380797],[-1.518996,53.37964],[-1.51722,53.379646],[-1.515153,53.380704],[-1.514446,53.380766],[-1.511767,53.38058],[-1.509603,53.380724],[-1.507344,53.380608],[-1.505076,53.380851],[-1.502389,53.380758],[-1.500388,53.380688],[-1.497794,53.38351],[-1.489905,53.38766],[-1.486552,53.389992],[-1.485476,53.389663],[-1.481733,53.392073],[-1.480313,53.391198],[-1.47534,53.393812],[-1.482854,53.398094],[-1.484442,53.401395],[-1.484098,53.404439],[-1.485429,53.407074],[-1.488647,53.408712],[-1.493111,53.412625]]]},"properties":{"code":"C88043","name":"TRAMWAYS AND MIDDLEWOOD MEDICAL CENTRES","icb":"QF7"}}]}