{"type":"FeatureCollection","features":[{"type":"Feature","geometry":{"type":"Polygon","coordinates":[[[-1.503539,53.457058],[-1.50496,53.45796],[-1.534138,53.484522],[-1.55079,53.47247],[-1.55903,53.47231],[-1.56435,53.47528],[-1.57989,53.47093],[-1.59207,53.47093],[-1.60709,53.46588],[-1.63602,53.46623],[-1.63928,53.46245],[-1.64658,53.46043],[-1.66855,53.44508],[-1.67241,53.44042],[-1.67353,53.43101],[-1.66821,53.42498],[-1.66966,53.41378],[-1.66726,53.39623],[-1.6616,53.39546],[-1.62769,53.39756],[-1.62186,53.39684],[-1.60701,53.40365],[-1.5986,53.40912],[-1.5774,53.4102],[-1.55027,53.40431],[-1.54409,53.4059],[-1.52427,53.40375],[-1.51088,53.39976],[-1.49543,53.40426],[-1.49732,53.40907],[-1.50298,53.41096],[-1.51182,53.41731],[-1.52083,53.42253],[-1.50002,53.42337],[-1.49929,53.423241],[-1.499634,53.423344],[-1.49929,53.42948],[-1.47929,53.44318],[-1.48545,53.446499],[-1.493282,53.450545],[-1.497326,53.453113],[-1.503668,53.456729],[-1.50362,53.45672],[-1.503539,53.457058]]]},"properties":{"code":"C88040","name":"OUGHTIBRIDGE SURGERY","icb":"QF7"}}]}