{"type":"FeatureCollection","features":[{"type":"Feature","geometry":{"type":"Polygon","coordinates":[[[-1.42848,53.36085],[-1.42633,53.36367],[-1.42024,53.36525],[-1.41904,53.36848],[-1.4187,53.37186],[-1.41543,53.37488],[-1.42573,53.37872],[-1.46067,53.37821],[-1.4629,53.37442],[-1.46773,53.37109],[-1.46981,53.36566],[-1.46341,53.35985],[-1.45161,53.35701],[-1.44118,53.35795],[-1.43264,53.35834],[-1.42839,53.35926],[-1.42848,53.36085]]]},"properties":{"code":"C88006","name":"NORFOLK PARK HEALTH CENTRE","icb":"QF7"}}]}