{"type":"FeatureCollection","features":[{"type":"Feature","geometry":{"type":"Polygon","coordinates":[[[-1.43629,53.43705],[-1.441831,53.43794],[-1.447108,53.438561],[-1.450289,53.439351],[-1.452775,53.438373],[-1.454865,53.437279],[-1.456245,53.435506],[-1.463082,53.43472],[-1.463082,53.434941],[-1.462968,53.435053],[-1.463165,53.435542],[-1.463432,53.436004],[-1.463524,53.436198],[-1.463945,53.436478],[-1.463374,53.437038],[-1.463562,53.437321],[-1.463144,53.437793],[-1.462943,53.438264],[-1.463043,53.438275],[-1.463331,53.437958],[-1.468558,53.437641],[-1.468616,53.439761],[-1.466588,53.440087],[-1.466931,53.440461],[-1.466971,53.440896],[-1.468394,53.441629],[-1.470467,53.441116],[-1.47192,53.44019],[-1.472798,53.43977],[-1.473121,53.439564],[-1.473084,53.439385],[-1.473793,53.438087],[-1.474142,53.437361],[-1.474446,53.436902],[-1.474974,53.436964],[-1.475174,53.436813],[-1.475242,53.436741],[-1.475354,53.436477],[-1.475844,53.436105],[-1.476662,53.435737],[-1.477282,53.435457],[-1.479635,53.434848],[-1.480365,53.434731],[-1.480604,53.434549],[-1.480737,53.434378],[-1.482682,53.434034],[-1.484066,53.433864],[-1.485058,53.43363],[-1.485423,53.434098],[-1.491632,53.433383],[-1.491414,53.432024],[-1.491805,53.430153],[-1.492251,53.427192],[-1.492632,53.424662],[-1.492368,53.423389],[-1.492181,53.422485],[-1.49224,53.421508],[-1.493234,53.420662],[-1.496028,53.419792],[-1.498537,53.41866],[-1.499791,53.417335],[-1.500671,53.416201],[-1.49982,53.414088],[-1.497916,53.410936],[-1.496109,53.41042],[-1.494649,53.408909],[-1.493624,53.409502],[-1.492858,53.409526],[-1.49262,53.409707],[-1.489274,53.408434],[-1.478097,53.408323],[-1.484737,53.401024],[-1.485392,53.398744],[-1.486364,53.397718],[-1.486951,53.396737],[-1.486828,53.39597],[-1.485845,53.395318],[-1.484468,53.394355],[-1.479588,53.390639],[-1.47829,53.389671],[-1.476711,53.38893],[-1.479124,53.387095],[-1.481315,53.385369],[-1.483315,53.384002],[-1.483848,53.383316],[-1.483925,53.382556],[-1.483759,53.382144],[-1.482984,53.382072],[-1.48215,53.382098],[-1.481392,53.382201],[-1.481646,53.382833],[-1.481744,53.383445],[-1.480369,53.384528],[-1.479215,53.385316],[-1.478271,53.385863],[-1.476591,53.386134],[-1.47432,53.385529],[-1.471748,53.38489],[-1.469843,53.386106],[-1.470022,53.385484],[-1.467183,53.385344],[-1.464165,53.385438],[-1.461387,53.384992],[-1.46087,53.384931],[-1.458875,53.386447],[-1.458013,53.386716],[-1.454957,53.386159],[-1.451713,53.386923],[-1.449339,53.387764],[-1.447365,53.387666],[-1.442683,53.388242],[-1.440188,53.389636],[-1.441896,53.39097],[-1.444475,53.393792],[-1.432203,53.40512],[-1.431603,53.407973],[-1.430605,53.408423],[-1.427123,53.410089],[-1.428692,53.41126],[-1.429455,53.411282],[-1.430627,53.410867],[-1.430826,53.410643],[-1.430909,53.40983],[-1.431942,53.409926],[-1.432477,53.410012],[-1.432927,53.409872],[-1.43556,53.408474],[-1.437248,53.407916],[-1.438452,53.409732],[-1.435059,53.41484],[-1.431522,53.416194],[-1.430882,53.416249],[-1.430233,53.416504],[-1.430344,53.41678],[-1.430547,53.417025],[-1.430979,53.416944],[-1.431479,53.417108],[-1.431366,53.417297],[-1.431417,53.417425],[-1.432941,53.417958],[-1.433411,53.4182],[-1.429441,53.419392],[-1.427924,53.421674],[-1.427856,53.422763],[-1.430603,53.42355],[-1.430604,53.424724],[-1.421911,53.426116],[-1.424291,53.429175],[-1.429274,53.432663],[-1.433482,53.435042],[-1.435053,53.436085],[-1.43629,53.43705]]]},"properties":{"code":"C88048","name":"BURNGREAVE SURGERY","icb":"QF7"}}]}