{"type":"FeatureCollection","features":[{"type":"Feature","geometry":{"type":"Polygon","coordinates":[[[-1.45502,53.420976],[-1.455108,53.422007],[-1.455705,53.421905],[-1.456966,53.421827],[-1.459298,53.421519],[-1.461521,53.421207],[-1.462739,53.420978],[-1.463983,53.420884],[-1.47294,53.42033],[-1.4871,53.41956],[-1.488573,53.416394],[-1.489335,53.414461],[-1.490836,53.413375],[-1.491123,53.41276],[-1.48919,53.410801],[-1.487258,53.410095],[-1.484129,53.409896],[-1.477998,53.406817],[-1.474958,53.403008],[-1.46864,53.398521],[-1.467583,53.398991],[-1.4668,53.398884],[-1.466498,53.399531],[-1.464895,53.400907],[-1.463008,53.40198],[-1.461873,53.402626],[-1.460582,53.403143],[-1.459775,53.403417],[-1.458527,53.403917],[-1.455895,53.405127],[-1.454786,53.405758],[-1.453717,53.406366],[-1.453479,53.406475],[-1.453898,53.407252],[-1.453544,53.407415],[-1.452518,53.407518],[-1.452658,53.407777],[-1.45346,53.41172],[-1.45775,53.41554],[-1.456594,53.416754],[-1.456561,53.417508],[-1.4565,53.417962],[-1.456528,53.418284],[-1.45502,53.420976]]]},"properties":{"code":"C88014","name":"NORWOOD MEDICAL CENTRE","icb":"QF7"}}]}