{"type":"FeatureCollection","features":[{"type":"Feature","geometry":{"type":"Polygon","coordinates":[[[-1.455692,53.41918],[-1.456808,53.426757],[-1.458139,53.430444],[-1.45791,53.434229],[-1.476917,53.437201],[-1.491722,53.433528],[-1.493018,53.425104],[-1.492593,53.420861],[-1.496744,53.419425],[-1.498712,53.418166],[-1.500872,53.416783],[-1.488632,53.409106],[-1.471353,53.403162],[-1.460752,53.402906],[-1.452448,53.407063],[-1.45493,53.41305],[-1.45617,53.416085],[-1.455692,53.41918]]]},"properties":{"code":"C88086","name":"SOUTHEY GREEN MEDICAL CTR","icb":"QF7"}}]}