{"type":"FeatureCollection","features":[{"type":"Feature","geometry":{"type":"Polygon","coordinates":[[[-1.474022,53.362835],[-1.476297,53.361458],[-1.478289,53.360761],[-1.480071,53.358976],[-1.478887,53.357439],[-1.480028,53.355668],[-1.479862,53.354022],[-1.480135,53.352202],[-1.479011,53.345566],[-1.473004,53.341631],[-1.453317,53.338436],[-1.448342,53.350521],[-1.441822,53.354466],[-1.457309,53.36625],[-1.45891,53.367537],[-1.464312,53.370132],[-1.468139,53.367001],[-1.470236,53.365499],[-1.472581,53.363708],[-1.474022,53.362835]]]},"properties":{"code":"C88082","name":"CARRFIELD MEDICAL CENTRE","icb":"QF7"}}]}