{"type":"FeatureCollection","features":[{"type":"Feature","geometry":{"type":"Polygon","coordinates":[[[-1.503328,53.463379],[-1.503769,53.444035],[-1.505182,53.443731],[-1.506657,53.442499],[-1.507082,53.442297],[-1.507122,53.441611],[-1.510482,53.43856],[-1.508506,53.437581],[-1.503845,53.436845],[-1.498868,53.436577],[-1.495795,53.436411],[-1.494393,53.437177],[-1.492628,53.435144],[-1.491973,53.43328],[-1.491928,53.432275],[-1.491868,53.431792],[-1.492,53.431359],[-1.492867,53.427775],[-1.490877,53.427667],[-1.487369,53.428609],[-1.485726,53.42795],[-1.484875,53.428021],[-1.482535,53.427651],[-1.480131,53.427377],[-1.473697,53.427135],[-1.470443,53.42709],[-1.467259,53.427128],[-1.462278,53.42754],[-1.457512,53.42816],[-1.455487,53.428746],[-1.453626,53.429458],[-1.452715,53.42989],[-1.451937,53.430481],[-1.451551,53.430804],[-1.451286,53.431045],[-1.450771,53.431734],[-1.450417,53.43236],[-1.45022,53.433007],[-1.450094,53.433747],[-1.45013,53.434561],[-1.450054,53.435885],[-1.449545,53.436497],[-1.448935,53.437051],[-1.447958,53.437394],[-1.446555,53.437611],[-1.445363,53.43774],[-1.445358,53.438011],[-1.447431,53.438537],[-1.448932,53.438918],[-1.450376,53.43943],[-1.451915,53.440221],[-1.452841,53.440698],[-1.453783,53.441098],[-1.450878,53.441583],[-1.447986,53.441427],[-1.447103,53.441531],[-1.445817,53.441261],[-1.445783,53.441854],[-1.445754,53.442353],[-1.445715,53.443031],[-1.44572,53.443063],[-1.445896,53.443678],[-1.445861,53.444303],[-1.445733,53.445021],[-1.44557,53.445556],[-1.444785,53.446196],[-1.443111,53.446645],[-1.443889,53.447907],[-1.444362,53.448786],[-1.444629,53.449378],[-1.445921,53.454772],[-1.446326,53.455344],[-1.446636,53.456033],[-1.449214,53.456621],[-1.450504,53.456949],[-1.451151,53.456984],[-1.451649,53.456991],[-1.452419,53.45698],[-1.45388,53.456558],[-1.454136,53.456537],[-1.455555,53.458069],[-1.456521,53.45882],[-1.457121,53.459205],[-1.457674,53.459505],[-1.459564,53.460588],[-1.462368,53.459778],[-1.464229,53.461955],[-1.464124,53.463782],[-1.464225,53.46407],[-1.464046,53.467176],[-1.465693,53.467992],[-1.46725,53.468884],[-1.469921,53.470596],[-1.471199,53.471415],[-1.471845,53.471829],[-1.472264,53.47233],[-1.478633,53.472868],[-1.48239,53.472401],[-1.482056,53.47186],[-1.484187,53.471046],[-1.485382,53.470552],[-1.486405,53.469994],[-1.486605,53.469831],[-1.486841,53.469648],[-1.488178,53.468614],[-1.489315,53.467734],[-1.489621,53.467548],[-1.49073,53.465335],[-1.490858,53.464806],[-1.491125,53.464394],[-1.491416,53.463967],[-1.492786,53.461832],[-1.496545,53.463018],[-1.500694,53.46271],[-1.503328,53.463379]]]},"properties":{"code":"C88039","name":"ECCLESFIELD GROUP PRACT","icb":"QF7"}}]}