{"type":"FeatureCollection","features":[{"type":"Feature","geometry":{"type":"Polygon","coordinates":[[[-1.38102,53.33482],[-1.38402,53.33336],[-1.37192,53.32626],[-1.37312,53.32318],[-1.36179,53.31959],[-1.35715,53.31898],[-1.3472,53.31888],[-1.34256,53.31786],[-1.3378,53.31693],[-1.33623,53.32106],[-1.33904,53.32728],[-1.3387,53.32995],[-1.3384,53.33123],[-1.339,53.33223],[-1.33437,53.33262],[-1.33244,53.33391],[-1.33214,53.3343],[-1.33214,53.33497],[-1.34711,53.33477],[-1.35205,53.33405],[-1.35607,53.33431],[-1.3581,53.33395],[-1.37389,53.33292],[-1.37956,53.33362],[-1.38102,53.33482]]]},"properties":{"code":"C88078","name":"MOSBOROUGH HEALTH CENTRE","icb":"QF7"}}]}