{"type":"FeatureCollection","features":[{"type":"Feature","geometry":{"type":"Polygon","coordinates":[[[-1.452137,53.336352],[-1.45449,53.34154],[-1.466331,53.341814],[-1.475203,53.342195],[-1.50513,53.34348],[-1.540552,53.333428],[-1.55032,53.3253],[-1.5483,53.31157],[-1.525835,53.293816],[-1.47749,53.29595],[-1.452337,53.30263],[-1.452385,53.305253],[-1.449712,53.307107],[-1.446053,53.308432],[-1.44633,53.32354],[-1.450226,53.332135],[-1.4514,53.3361],[-1.452137,53.336352]]]},"properties":{"code":"C88015","name":"MEADOWGREEN HEALTH CENTRE","icb":"QF7"}}]}