{"type":"FeatureCollection","features":[{"type":"Feature","geometry":{"type":"Polygon","coordinates":[[[-1.479333,53.371728],[-1.486672,53.368427],[-1.48886,53.3673],[-1.491942,53.364621],[-1.492995,53.363878],[-1.494678,53.358243],[-1.49569,53.35655],[-1.49169,53.35473],[-1.47959,53.33994],[-1.474745,53.32081],[-1.474056,53.316192],[-1.472511,53.317013],[-1.463243,53.318142],[-1.45861,53.318963],[-1.450374,53.321015],[-1.445051,53.331585],[-1.449969,53.337941],[-1.44779,53.33746],[-1.44753,53.33746],[-1.443205,53.337689],[-1.440248,53.339054],[-1.419993,53.329634],[-1.415358,53.333736],[-1.414153,53.339376],[-1.403859,53.3444],[-1.42427,53.35147],[-1.427828,53.358346],[-1.42874,53.36082],[-1.452657,53.373715],[-1.457686,53.374046],[-1.461357,53.37452],[-1.46281,53.37475],[-1.465752,53.374157],[-1.47612,53.37317],[-1.479333,53.371728]]]},"properties":{"code":"C88073","name":"HEELEY GREEN SURGERY","icb":"QF7"}}]}