{"type":"FeatureCollection","features":[{"type":"Feature","geometry":{"type":"Polygon","coordinates":[[[-1.46992,53.385893],[-1.469986,53.385987],[-1.469868,53.38616],[-1.44981,53.39114],[-1.450394,53.394016],[-1.450239,53.394148],[-1.450097,53.394171],[-1.44642,53.39467],[-1.44565,53.39994],[-1.445639,53.402997],[-1.445504,53.403102],[-1.445365,53.403132],[-1.44204,53.40367],[-1.43912,53.40493],[-1.438428,53.405781],[-1.437291,53.4069],[-1.43706,53.407],[-1.440831,53.409603],[-1.44105,53.41027],[-1.441427,53.410279],[-1.44202,53.410446],[-1.444372,53.412046],[-1.44436,53.41224],[-1.445391,53.414714],[-1.44573,53.41721],[-1.44805,53.41802],[-1.45183,53.4191],[-1.45535,53.41941],[-1.456311,53.418217],[-1.459256,53.41639],[-1.461195,53.414579],[-1.462869,53.413707],[-1.463851,53.412079],[-1.463713,53.41141],[-1.462699,53.408992],[-1.461851,53.408879],[-1.461684,53.408722],[-1.46183,53.40833],[-1.46195,53.40743],[-1.46187,53.40575],[-1.461651,53.405272],[-1.461693,53.405157],[-1.462808,53.403781],[-1.463001,53.403721],[-1.46367,53.40378],[-1.46457,53.40352],[-1.465199,53.402937],[-1.465927,53.402745],[-1.46753,53.40268],[-1.46805,53.40242],[-1.468933,53.401542],[-1.46981,53.40124],[-1.46985,53.40071],[-1.46938,53.39991],[-1.468988,53.399471],[-1.468748,53.399087],[-1.468694,53.398677],[-1.468851,53.398378],[-1.46942,53.3981],[-1.470718,53.397117],[-1.47213,53.39638],[-1.472865,53.395761],[-1.4738,53.39518],[-1.474784,53.394466],[-1.476072,53.393592],[-1.480278,53.391596],[-1.46992,53.385893]]]},"properties":{"code":"C88622","name":"SHEFFIELD MEDICAL CENTRE","icb":"QF7"}}]}