{"type":"FeatureCollection","features":[{"type":"Feature","geometry":{"type":"Polygon","coordinates":[[[-0.460181,52.372298],[-0.464001,52.367215],[-0.467606,52.367739],[-0.467863,52.366507],[-0.466704,52.365171],[-0.467777,52.36352],[-0.47121,52.360506],[-0.475416,52.361764],[-0.479879,52.362393],[-0.486574,52.359929],[-0.490866,52.359458],[-0.494642,52.358042],[-0.505886,52.350808],[-0.516443,52.343258],[-0.508718,52.340426],[-0.502024,52.336388],[-0.490952,52.330619],[-0.48902,52.329491],[-0.486059,52.326134],[-0.484042,52.325557],[-0.483356,52.325295],[-0.482669,52.325268],[-0.483098,52.325006],[-0.480051,52.324219],[-0.481853,52.321176],[-0.478249,52.319288],[-0.475159,52.317451],[-0.474215,52.314618],[-0.474472,52.311575],[-0.480137,52.31105],[-0.482798,52.309843],[-0.484257,52.308531],[-0.48254,52.307482],[-0.483398,52.307324],[-0.483356,52.307272],[-0.484214,52.306537],[-0.485845,52.30596],[-0.489664,52.303598],[-0.498762,52.300344],[-0.506015,52.297536],[-0.512838,52.295725],[-0.514598,52.2931],[-0.505714,52.287798],[-0.488892,52.283702],[-0.47224,52.280762],[-0.471382,52.277191],[-0.464687,52.27362],[-0.461769,52.264901],[-0.464945,52.26301],[-0.467777,52.258912],[-0.471382,52.255917],[-0.473871,52.254709],[-0.475845,52.253238],[-0.479965,52.251346],[-0.483098,52.248298],[-0.485287,52.246722],[-0.487475,52.245408],[-0.486746,52.242412],[-0.488634,52.239469],[-0.490608,52.236841],[-0.492067,52.234003],[-0.495415,52.23006],[-0.495243,52.227484],[-0.498676,52.224435],[-0.499363,52.219808],[-0.49387,52.220018],[-0.490265,52.214654],[-0.491209,52.210079],[-0.48151,52.208659],[-0.467777,52.211551],[-0.464859,52.212498],[-0.464044,52.214654],[-0.461426,52.214786],[-0.460396,52.214549],[-0.459881,52.214943],[-0.458722,52.214943],[-0.456104,52.214312],[-0.451512,52.214312],[-0.448809,52.213786],[-0.446191,52.213497],[-0.439732,52.214076],[-0.437372,52.214339],[-0.435719,52.214207],[-0.434389,52.214575],[-0.433166,52.214667],[-0.431299,52.214654],[-0.429153,52.215311],[-0.428209,52.216153],[-0.428596,52.217047],[-0.426106,52.216705],[-0.423532,52.217441],[-0.415077,52.216337],[-0.411901,52.217389],[-0.408983,52.216915],[-0.408897,52.213497],[-0.392332,52.207423],[-0.383835,52.204924],[-0.375166,52.20382],[-0.367999,52.202426],[-0.361648,52.202241],[-0.360317,52.202873],[-0.357485,52.202136],[-0.355425,52.200716],[-0.353065,52.201636],[-0.352077,52.20303],[-0.33946,52.203741],[-0.337315,52.203136],[-0.334611,52.202689],[-0.329118,52.202005],[-0.32547,52.200716],[-0.318389,52.201242],[-0.318131,52.199848],[-0.315728,52.199453],[-0.311694,52.198875],[-0.304613,52.197402],[-0.298347,52.195008],[-0.292597,52.194166],[-0.280881,52.191562],[-0.272942,52.198664],[-0.268822,52.204503],[-0.267105,52.206239],[-0.267534,52.209132],[-0.257964,52.209842],[-0.252943,52.210815],[-0.248652,52.213523],[-0.236506,52.22291],[-0.233631,52.223988],[-0.230584,52.224619],[-0.228481,52.237892],[-0.245047,52.236683],[-0.240498,52.247457],[-0.233974,52.257966],[-0.227966,52.269208],[-0.215263,52.291158],[-0.208311,52.303493],[-0.192904,52.329609],[-0.19475,52.329386],[-0.19681,52.328888],[-0.199127,52.32915],[-0.197539,52.331484],[-0.195394,52.33311],[-0.196981,52.334972],[-0.200329,52.33665],[-0.206938,52.339535],[-0.219383,52.346876],[-0.2317,52.35681],[-0.251913,52.352564],[-0.268049,52.354216],[-0.269938,52.360978],[-0.267878,52.361345],[-0.282812,52.372036],[-0.28779,52.374866],[-0.288992,52.376962],[-0.296631,52.380786],[-0.302811,52.382358],[-0.307016,52.382725],[-0.311565,52.383668],[-0.316801,52.384401],[-0.32547,52.385449],[-0.334053,52.387125],[-0.335426,52.387178],[-0.336628,52.386863],[-0.345297,52.388173],[-0.381346,52.390687],[-0.400829,52.399591],[-0.433617,52.394642],[-0.460181,52.372298]]]},"properties":{"code":"D81038","name":"KIMBOLTON MEDICAL CENTRE","icb":"S1Y5D"}}]}