{"type":"FeatureCollection","features":[{"type":"Feature","geometry":{"type":"Polygon","coordinates":[[[-0.195638,52.591841],[-0.17921,52.60805],[-0.17784,52.61347],[-0.27088,52.62764],[-0.28839,52.62285],[-0.28702,52.61847],[-0.27878,52.61243],[-0.27157,52.60576],[-0.26505,52.60096],[-0.26505,52.59742],[-0.26951,52.597],[-0.27637,52.59533],[-0.2877,52.5922],[-0.29526,52.58157],[-0.29594,52.57489],[-0.29972,52.56946],[-0.30762,52.56487],[-0.31311,52.56216],[-0.31757,52.55715],[-0.31963,52.55151],[-0.30144,52.54838],[-0.2774,52.54964],[-0.26648,52.550643],[-0.266247,52.550466],[-0.256846,52.551528],[-0.25475,52.55172],[-0.254687,52.551771],[-0.25423,52.551823],[-0.250776,52.554942],[-0.24857,52.55673],[-0.24719,52.56133],[-0.238444,52.564986],[-0.237064,52.565495],[-0.236833,52.56566],[-0.23621,52.56592],[-0.223484,52.574461],[-0.212962,52.571403],[-0.21149,52.57093],[-0.20462,52.57635],[-0.20256,52.58469],[-0.199607,52.587742],[-0.195522,52.591782],[-0.195638,52.591841]]]},"properties":{"code":"D81065","name":"NIGHTINGALE MEDICAL CENTRE","icb":"S1Y5D"}}]}