{"type":"FeatureCollection","features":[{"type":"Feature","geometry":{"type":"MultiPolygon","coordinates":[[[[-0.065231,52.135806],[-0.064869,52.135582],[-0.063858,52.134752],[-0.06283,52.134963],[-0.064888,52.13686],[-0.065231,52.135806]]],[[[-0.03648,52.1308],[-0.03244,52.12964],[-0.02824,52.1307],[-0.0327,52.13185],[-0.03648,52.1308]]],[[[-0.011322,52.132803],[-0.01073,52.13254],[-0.00463,52.13596],[-0.01124,52.13744],[-0.01725,52.13544],[-0.011322,52.132803]]],[[[-0.05665,52.07149],[-0.04395,52.07761],[-0.05562,52.08204],[-0.0769,52.07761],[-0.05665,52.07149]]],[[[-0.02712,52.04426],[-0.01339,52.04806],[-0.012553,52.048616],[-0.012209,52.048744],[-0.004713,52.049996],[0.01202,52.05033],[0.040248,52.063549],[0.042079,52.064056],[0.103,52.0833],[0.097498,52.090017],[0.093135,52.095487],[0.093173,52.096314],[0.093278,52.096469],[0.093574,52.096657],[0.093842,52.096728],[0.095596,52.096743],[0.095818,52.0967],[0.0975,52.09596],[0.10351,52.09981],[0.095791,52.10313],[0.091947,52.100698],[0.090742,52.100373],[0.090512,52.100359],[0.089861,52.100464],[0.088576,52.101028],[0.06866,52.12548],[0.03296,52.13433],[-0.05184,52.11536],[-0.036385,52.080342],[-0.027531,52.062792],[-0.027566,52.062604],[-0.028214,52.061919],[-0.028433,52.061813],[-0.040173,52.059668],[-0.03708,52.0489],[-0.02712,52.04426]]]]},"properties":{"code":"D81018","name":"ORCHARD SURGERY,MELBOURN","icb":"S1Y5D"}}]}