{"type":"FeatureCollection","features":[{"type":"Feature","geometry":{"type":"Polygon","coordinates":[[[-0.30556,52.24651],[-0.31088,52.23032],[-0.32032,52.21749],[-0.31775,52.20561],[-0.31714,52.19735],[-0.310278,52.194666],[-0.278091,52.195981],[-0.20428,52.18888],[-0.17673,52.19635],[-0.16497,52.20487],[-0.15218,52.22075],[-0.14557,52.24378],[-0.16239,52.26522],[-0.21544,52.28958],[-0.21973,52.29],[-0.22711,52.28906],[-0.23174,52.28895],[-0.23209,52.28958],[-0.25801,52.28675],[-0.27294,52.26711],[-0.30556,52.24651]]]},"properties":{"code":"D81057","name":"LAKESIDE HEALTHCARE ST NEOTS","icb":"S1Y5D"}}]}