{"type":"FeatureCollection","features":[{"type":"Feature","geometry":{"type":"Polygon","coordinates":[[[-0.164447,52.003287],[-0.146002,52.00825],[-0.12887,52.016954],[-0.109363,52.029951],[-0.074489,52.042874],[-0.075764,52.044651],[-0.068919,52.044616],[-0.061708,52.045743],[-0.029745,52.061927],[-0.054852,52.123001],[-0.14145,52.10946],[-0.204467,52.077469],[-0.220679,52.054058],[-0.218713,52.038081],[-0.198528,52.010088],[-0.164447,52.003287]]]},"properties":{"code":"D81047","name":"ASHWELL SURGERY","icb":"S1Y5D"}}]}