{"type":"FeatureCollection","features":[{"type":"Feature","geometry":{"type":"Polygon","coordinates":[[[0.096509,52.175472],[0.101537,52.174746],[0.102172,52.174248],[0.103383,52.17417],[0.105076,52.173425],[0.106689,52.174428],[0.108305,52.174323],[0.109634,52.17352],[0.111239,52.17486],[0.1125,52.175314],[0.113756,52.177773],[0.115029,52.179611],[0.116704,52.180939],[0.118781,52.183597],[0.126887,52.183017],[0.127339,52.185399],[0.127339,52.186618],[0.127338,52.187932],[0.126793,52.191656],[0.13367,52.192236],[0.131253,52.195012],[0.131735,52.195053],[0.134445,52.194684],[0.135324,52.197122],[0.135231,52.197759],[0.136879,52.200167],[0.134036,52.201364],[0.125545,52.204686],[0.123288,52.205459],[0.122318,52.204811],[0.121624,52.205355],[0.121363,52.207135],[0.121994,52.207361],[0.121899,52.208615],[0.119234,52.207839],[0.116219,52.210092],[0.114976,52.210735],[0.116649,52.211773],[0.11783,52.212172],[0.118646,52.212448],[0.119213,52.212718],[0.12032,52.213191],[0.122556,52.213694],[0.123656,52.213876],[0.124587,52.21415],[0.124447,52.214373],[0.125269,52.214612],[0.126332,52.216516],[0.118839,52.22104],[0.112331,52.221979],[0.111743,52.219809],[0.108136,52.221154],[0.104365,52.223215],[0.096614,52.229279],[0.093165,52.226975],[0.088079,52.229357],[0.086389,52.229466],[0.087958,52.227668],[0.08643,52.225714],[0.069035,52.218845],[0.057359,52.215263],[0.050335,52.213679],[0.051237,52.207597],[0.056335,52.201012],[0.069929,52.195041],[0.074374,52.193384],[0.075645,52.19239],[0.073718,52.191101],[0.078733,52.18088],[0.086094,52.171356],[0.096509,52.175472]]]},"properties":{"code":"D81005","name":"NEWNHAM WALK SURGERY","icb":"S1Y5D"}}]}