{"type":"FeatureCollection","features":[{"type":"Feature","geometry":{"type":"Polygon","coordinates":[[[0.138554,52.171471],[0.147372,52.175146],[0.151858,52.174608],[0.156598,52.176235],[0.159581,52.176612],[0.160573,52.180611],[0.168809,52.182942],[0.171812,52.183853],[0.18462,52.18288],[0.18878,52.19177],[0.18537,52.20453],[0.201,52.2148],[0.18668,52.22151],[0.18157,52.22671],[0.17813,52.22938],[0.17177,52.23196],[0.16221,52.23468],[0.1573,52.23597],[0.15231,52.23697],[0.15006,52.2316],[0.14542,52.2276],[0.14026,52.23088],[0.13416,52.23417],[0.13032,52.23463],[0.12591,52.23414],[0.12382,52.23352],[0.12204,52.23265],[0.1187,52.23126],[0.11545,52.23186],[0.11204,52.23272],[0.11244,52.23433],[0.11027,52.23459],[0.08238,52.23216],[0.07763,52.23156],[0.07439,52.23097],[0.07316,52.2304],[0.07287,52.2294],[0.07944,52.21718],[0.07699,52.20634],[0.0754,52.19698],[0.07907,52.19135],[0.08562,52.18348],[0.08358,52.17871],[0.10097,52.17466],[0.11297,52.17151],[0.11549,52.16951],[0.13167,52.17151],[0.138554,52.171471]]]},"properties":{"code":"D81070","name":"WOODLANDS SURGERY","icb":"S1Y5D"}}]}