{"type":"FeatureCollection","features":[{"type":"Feature","geometry":{"type":"Polygon","coordinates":[[[-0.376453,52.579789],[-0.392246,52.567322],[-0.372849,52.561006],[-0.349503,52.55704],[-0.333023,52.546498],[-0.300407,52.556205],[-0.286503,52.55464],[-0.256634,52.563615],[-0.242558,52.566954],[-0.231743,52.569243],[-0.22831,52.572999],[-0.214577,52.571329],[-0.20462,52.580092],[-0.20462,52.590731],[-0.20874,52.599073],[-0.229683,52.605328],[-0.226936,52.624923],[-0.281868,52.633467],[-0.376453,52.579789]]]},"properties":{"code":"D81618","name":"AILSWORTH MEDICAL CENTRE","icb":"S1Y5D"}}]}