{"type":"FeatureCollection","features":[{"type":"Feature","geometry":{"type":"Polygon","coordinates":[[[-0.05158,52.20913],[-0.04695,52.22028],[-0.05691,52.22265],[-0.06317,52.2237],[-0.07038,52.22407],[-0.072497,52.224179],[-0.07716,52.22496],[-0.079957,52.226071],[-0.082755,52.227182],[-0.085703,52.227976],[-0.088651,52.22877],[-0.092074,52.228946],[-0.095497,52.229122],[-0.098887,52.228751],[-0.101023,52.228325],[-0.101738,52.227243],[-0.101552,52.227074],[-0.101366,52.226906],[-0.100851,52.226327],[-0.100079,52.223961],[-0.097675,52.21965],[-0.095458,52.218709],[-0.093018,52.217778],[-0.090807,52.216935],[-0.087652,52.216407],[-0.08368,52.2135],[-0.083243,52.213433],[-0.07493,52.21013],[-0.0703,52.20987],[-0.066805,52.211171],[-0.066665,52.211185],[-0.05158,52.20913]]]},"properties":{"code":"D81637","name":"MONKFIELD MEDICAL PRACTICE","icb":"S1Y5D"}}]}