{"type":"FeatureCollection","features":[{"type":"Feature","geometry":{"type":"Polygon","coordinates":[[[0.05836,52.60367],[0.162384,52.614719],[0.2005,52.61722],[0.2429,52.64405],[0.27843,52.67409],[0.22581,52.683889],[0.226007,52.684312],[0.278672,52.675987],[0.28084,52.67513],[0.278575,52.676235],[0.22797,52.7417],[0.07622,52.71217],[0.076377,52.712161],[0.076573,52.712001],[0.076475,52.711703],[0.076194,52.7116],[0.06969,52.7128],[0.02094,52.67971],[0.01682,52.67576],[0.040865,52.65532],[0.04498,52.63015],[0.05836,52.60367]]]},"properties":{"code":"D81622","name":"TRINITY SURGERY","icb":"S1Y5D"}}]}