{"type":"FeatureCollection","features":[{"type":"Feature","geometry":{"type":"Polygon","coordinates":[[[1.268781,52.647184],[1.26944,52.64707],[1.26884,52.64655],[1.26853,52.64614],[1.26879,52.64554],[1.26926,52.64509],[1.27008,52.64478],[1.268406,52.642608],[1.272655,52.642569],[1.274521,52.642647],[1.275444,52.642595],[1.276023,52.642647],[1.276731,52.64253],[1.277869,52.642406],[1.279306,52.642204],[1.279864,52.642491],[1.279961,52.64404],[1.28102,52.64374],[1.28222,52.64319],[1.28364,52.64278],[1.28523,52.64397],[1.28497,52.64439],[1.28561,52.6447],[1.28686,52.64569],[1.28802,52.6465],[1.28905,52.64739],[1.28986,52.64793],[1.29098,52.64811],[1.297945,52.649039],[1.299734,52.650172],[1.30026,52.6515],[1.300544,52.6519],[1.302481,52.660962],[1.298892,52.662404],[1.295941,52.662918],[1.295287,52.662749],[1.294954,52.662248],[1.294136,52.661429],[1.29233,52.65994],[1.292245,52.659957],[1.29216,52.659973],[1.292653,52.66026],[1.294659,52.66199],[1.29467,52.66199],[1.29304,52.66272],[1.29171,52.6635],[1.29004,52.66399],[1.2878,52.6642],[1.283507,52.664754],[1.283485,52.664751],[1.283464,52.664741],[1.28347,52.66475],[1.27587,52.66618],[1.27317,52.66673],[1.27227,52.66668],[1.27197,52.66691],[1.27067,52.668988],[1.26884,52.668156],[1.268041,52.667541],[1.267505,52.667287],[1.267145,52.667134],[1.266405,52.666701],[1.265858,52.666444],[1.265477,52.666249],[1.26449,52.665647],[1.263943,52.665416],[1.263776,52.665172],[1.263903,52.664867],[1.2639,52.664858],[1.262779,52.664375],[1.262199,52.664421],[1.261824,52.664203],[1.26074,52.663647],[1.260107,52.663373],[1.259367,52.663022],[1.257736,52.661916],[1.256052,52.660998],[1.255193,52.660471],[1.254619,52.660178],[1.254297,52.659993],[1.2533,52.659453],[1.254555,52.658379],[1.25648,52.65671],[1.258091,52.655109],[1.25806,52.65504],[1.25849,52.65462],[1.26107,52.65259],[1.26158,52.65199],[1.26223,52.65142],[1.26459,52.6497],[1.26617,52.6491],[1.26733,52.64843],[1.267719,52.647568],[1.268781,52.647184]]]},"properties":{"code":"D82096","name":"WOODCOCK RD SURGERY","icb":"T6Y0W"}}]}