{"type":"FeatureCollection","features":[{"type":"Feature","geometry":{"type":"Polygon","coordinates":[[[1.175777,52.612883],[1.213651,52.619798],[1.213997,52.619861],[1.213998,52.619861],[1.21881,52.62074],[1.224627,52.621474],[1.228834,52.622112],[1.22872,52.62199],[1.224627,52.621474],[1.213998,52.619861],[1.213651,52.619798],[1.199482,52.617211],[1.175777,52.612883],[1.174333,52.608134],[1.160137,52.604722],[1.157086,52.599811],[1.165527,52.590755],[1.178561,52.59343],[1.220769,52.602094],[1.23328,52.59717],[1.24149,52.59424],[1.24894,52.59004],[1.25561,52.5865],[1.26305,52.58525],[1.26735,52.58572],[1.28113,52.59019],[1.30785,52.60082],[1.32284,52.60747],[1.32842,52.61056],[1.32826,52.62056],[1.32227,52.62365],[1.3289,52.62687],[1.32812,52.64039],[1.32668,52.643],[1.31375,52.64945],[1.31081,52.65163],[1.30257,52.65331],[1.29807,52.6535],[1.29153,52.65534],[1.28445,52.65765],[1.27718,52.65672],[1.24842,52.64766],[1.23256,52.65381],[1.20509,52.65439],[1.182802,52.651012],[1.176615,52.641062],[1.175805,52.632086],[1.177882,52.620517],[1.175777,52.612883]],[[1.228834,52.622112],[1.23196,52.62546],[1.23463,52.62893],[1.232538,52.625564],[1.228834,52.622112]]]},"properties":{"code":"D82088","name":"UEA MEDICAL CENTRE","icb":"T6Y0W"}}]}