{"type":"FeatureCollection","features":[{"type":"Feature","geometry":{"type":"Polygon","coordinates":[[[0.97504,52.49292],[0.94992,52.51547],[0.91587,52.52631],[0.89007,52.53381],[0.86908,52.53755],[0.79333,52.49736],[0.79402,52.39283],[0.87393,52.39215],[0.91427,52.39063],[0.95186,52.37225],[0.97864,52.36779],[1.03057,52.37921],[1.05555,52.38681],[1.07074,52.38655],[1.1073,52.40823],[1.12507,52.44115],[1.08825,52.47426],[1.06001,52.48905],[0.97504,52.49292]]]},"properties":{"code":"D82042","name":"E HARLING & KENNINGHALL MEDICAL PRACTICE","icb":"T6Y0W"}}]}