{"type":"FeatureCollection","features":[{"type":"Feature","geometry":{"type":"Polygon","coordinates":[[[1.72292,52.61993],[1.72171,52.61649],[1.71613,52.61253],[1.71217,52.60633],[1.71289,52.59932],[1.710997,52.593932],[1.707329,52.591789],[1.703629,52.589683],[1.711749,52.589747],[1.712983,52.587955],[1.709936,52.586062],[1.710313,52.57874],[1.708569,52.578547],[1.70826,52.575175],[1.707772,52.572985],[1.702252,52.572587],[1.702201,52.571431],[1.70542,52.56738],[1.70842,52.56391],[1.71215,52.56075],[1.71103,52.55825],[1.71756,52.55606],[1.72467,52.55553],[1.7299,52.54894],[1.72719,52.55587],[1.73086,52.55553],[1.73258,52.55572],[1.7312,52.55938],[1.73127,52.55963],[1.73112,52.55963],[1.73052,52.56495],[1.73007,52.56785],[1.73181,52.5698],[1.7335,52.57085],[1.73277,52.57476],[1.73706,52.57313],[1.7355,52.59043],[1.73584,52.59262],[1.7391,52.60982],[1.74605,52.62723],[1.73095,52.62759],[1.73146,52.63061],[1.73043,52.63159],[1.72747,52.6319],[1.72648,52.62117],[1.72292,52.61993]]]},"properties":{"code":"D82067","name":"THE PARK SURGERY","icb":"T6Y0W"}}]}