{"type":"FeatureCollection","features":[{"type":"Feature","geometry":{"type":"Polygon","coordinates":[[[1.27682,52.6566],[1.26137,52.65202],[1.25965,52.62243],[1.2727,52.6166],[1.28918,52.60993],[1.29639,52.60909],[1.306,52.61201],[1.31046,52.61618],[1.30634,52.61806],[1.306,52.6216],[1.31012,52.62327],[1.31699,52.62494],[1.32832,52.62702],[1.34342,52.62619],[1.35098,52.62702],[1.36093,52.6291],[1.35166,52.63202],[1.34377,52.63494],[1.32797,52.63681],[1.32763,52.64286],[1.31424,52.65015],[1.31046,52.65265],[1.30257,52.65348],[1.29604,52.6541],[1.28506,52.65764],[1.27682,52.6566]]]},"properties":{"code":"D82047","name":"OAK STREET MEDICAL PRACT.","icb":"T6Y0W"}}]}