{"type":"FeatureCollection","features":[{"type":"Feature","geometry":{"type":"MultiPolygon","coordinates":[[[[1.25553,52.61128],[1.27441,52.61629],[1.28128,52.61894],[1.28763,52.62202],[1.29072,52.62441],[1.290426,52.624247],[1.290104,52.624264],[1.287734,52.62602],[1.28592,52.62817],[1.283865,52.628291],[1.283698,52.628545],[1.28478,52.62931],[1.284806,52.630164],[1.28574,52.63223],[1.272868,52.63463],[1.25896,52.63744],[1.25999,52.624],[1.26386,52.62165],[1.267863,52.619715],[1.26788,52.619513],[1.259496,52.61452],[1.25596,52.61326],[1.25553,52.61128]]],[[[1.21297,52.62407],[1.21659,52.6243],[1.21982,52.62506],[1.22057,52.62531],[1.221245,52.625692],[1.2251,52.62759],[1.2251,52.62768],[1.22485,52.62783],[1.22252,52.62884],[1.219987,52.629315],[1.219841,52.629466],[1.220127,52.63026],[1.220743,52.631123],[1.221207,52.63167],[1.22137,52.63174],[1.22148,52.63194],[1.220438,52.634154],[1.220467,52.636379],[1.220647,52.636504],[1.222014,52.636625],[1.225158,52.637074],[1.226422,52.637461],[1.226787,52.637299],[1.226596,52.63654],[1.227529,52.63652],[1.227829,52.636618],[1.229093,52.637205],[1.230404,52.637614],[1.2321,52.63835],[1.23295,52.63896],[1.233492,52.639764],[1.233658,52.639886],[1.234406,52.639935],[1.234561,52.640274],[1.233125,52.640768],[1.23266,52.64114],[1.22837,52.64259],[1.22403,52.64348],[1.22184,52.64365],[1.219692,52.643493],[1.21604,52.64446],[1.212076,52.645215],[1.20461,52.64756],[1.19997,52.64874],[1.19531,52.64966],[1.18616,52.65091],[1.18633,52.65002],[1.186944,52.649375],[1.190189,52.645212],[1.194254,52.6396],[1.195877,52.635481],[1.19528,52.6314],[1.1953,52.62818],[1.19715,52.62589],[1.19785,52.6253],[1.209168,52.624611],[1.21297,52.62407]]]]},"properties":{"code":"D82017","name":"TRINITY & BOWTHORPE MEDICAL PRACTICE","icb":"T6Y0W"}}]}