{"type":"FeatureCollection","features":[{"type":"Feature","geometry":{"type":"Polygon","coordinates":[[[1.3084,52.63348],[1.32866,52.63619],[1.34265,52.64119],[1.3405,52.64968],[1.3396,52.65551],[1.3381,52.65658],[1.33153,52.66173],[1.33338,52.66334],[1.32531,52.66683],[1.32896,52.67097],[1.32776,52.67503],[1.330043,52.680333],[1.324555,52.679025],[1.304235,52.678167],[1.298477,52.67985],[1.298136,52.680455],[1.297876,52.680567],[1.297378,52.679409],[1.29763,52.67734],[1.29064,52.66769],[1.28643,52.66837],[1.28205,52.66842],[1.28334,52.65785],[1.27699,52.6566],[1.28145,52.64869],[1.29278,52.63786],[1.29175,52.63546],[1.30154,52.63681],[1.3084,52.63348]]]},"properties":{"code":"D82012","name":"MAGDALEN MEDICAL PRACTICE","icb":"T6Y0W"}}]}