{"type":"FeatureCollection","features":[{"type":"Feature","geometry":{"type":"Polygon","coordinates":[[[0.21904,52.82673],[0.21202,52.80634],[0.20672,52.78553],[0.17404,52.74097],[0.16996,52.73495],[0.16863,52.72664],[0.15978,52.71438],[0.18002,52.70453],[0.20232,52.6877],[0.22702,52.67003],[0.2338,52.6615],[0.26402,52.66254],[0.28564,52.66222],[0.30109,52.65952],[0.31225,52.6617],[0.35826,52.65941],[0.36873,52.68159],[0.37199,52.68731],[0.37062,52.69012],[0.37165,52.6923],[0.3677,52.69574],[0.36341,52.69719],[0.36135,52.69907],[0.35688,52.70364],[0.35311,52.70853],[0.35242,52.71332],[0.35414,52.71789],[0.39242,52.7471],[0.39104,52.75011],[0.38864,52.7578],[0.37594,52.77785],[0.3562,52.80463],[0.35173,52.80629],[0.3471,52.8122],[0.32856,52.80909],[0.32272,52.81314],[0.29577,52.81698],[0.28255,52.81241],[0.22453,52.82165],[0.21904,52.82673]]]},"properties":{"code":"D82105","name":"ST CLEMENTS SURGERY","icb":"T6Y0W"}}]}