{"type":"FeatureCollection","features":[{"type":"Feature","geometry":{"type":"Polygon","coordinates":[[[1.132228,52.125525],[1.098661,52.121882],[1.088248,52.120154],[1.077837,52.118424],[1.03418,52.093806],[1.037897,52.079653],[1.047008,52.060574],[1.078138,52.043041],[1.080365,52.043772],[1.082973,52.044206],[1.083976,52.04413],[1.085735,52.044197],[1.087131,52.044655],[1.089249,52.045626],[1.093193,52.045776],[1.095548,52.045125],[1.095269,52.04265],[1.096178,52.039168],[1.103656,52.036423],[1.105822,52.039071],[1.108289,52.038674],[1.109807,52.037663],[1.110356,52.036867],[1.111566,52.036775],[1.112779,52.036848],[1.113842,52.036983],[1.114826,52.037188],[1.115664,52.037435],[1.116549,52.037695],[1.116709,52.037084],[1.117512,52.036154],[1.117549,52.035609],[1.117751,52.035077],[1.118386,52.033954],[1.118747,52.033264],[1.119529,52.031308],[1.121488,52.031425],[1.122811,52.031814],[1.123667,52.033005],[1.122033,52.033452],[1.124666,52.034393],[1.125321,52.034476],[1.126066,52.034356],[1.126759,52.033894],[1.127053,52.033374],[1.127554,52.032973],[1.129487,52.031586],[1.130995,52.031343],[1.132477,52.031653],[1.133547,52.032255],[1.133988,52.033016],[1.135492,52.032464],[1.139493,52.032816],[1.143029,52.033855],[1.148306,52.03417],[1.156786,52.035241],[1.159277,52.034824],[1.164097,52.034518],[1.173671,52.034629],[1.175604,52.035986],[1.178868,52.03618],[1.17661,52.036352],[1.174435,52.036832],[1.172621,52.037549],[1.170964,52.038288],[1.168752,52.040193],[1.167925,52.040745],[1.167927,52.042382],[1.16793,52.0445],[1.170795,52.044533],[1.172908,52.044973],[1.172575,52.045852],[1.173222,52.046966],[1.174302,52.047574],[1.175466,52.048992],[1.179497,52.048392],[1.184277,52.046796],[1.187384,52.045759],[1.190193,52.044506],[1.193197,52.043672],[1.198229,52.041991],[1.200273,52.046059],[1.202028,52.054253],[1.20203,52.055201],[1.199128,52.06133],[1.20314,52.062052],[1.205791,52.062829],[1.209182,52.064037],[1.215675,52.067347],[1.218738,52.069068],[1.227831,52.072037],[1.228029,52.072955],[1.229641,52.076604],[1.230597,52.078544],[1.230936,52.08012],[1.231833,52.081902],[1.228921,52.085285],[1.226243,52.092359],[1.22572,52.095286],[1.222537,52.098331],[1.217704,52.100732],[1.20531,52.119965],[1.132228,52.125525]]]},"properties":{"code":"D83050","name":"CARDINAL MEDICAL PRACTICE","icb":"T6Y0W"}}]}