{"type":"FeatureCollection","features":[{"type":"Feature","geometry":{"type":"Polygon","coordinates":[[[1.70837,52.45862],[1.71953,52.44848],[1.73206,52.44251],[1.7518,52.47436],[1.75673,52.47092],[1.76097,52.47416],[1.76211,52.47866],[1.76312,52.48081],[1.7624,52.48295],[1.75961,52.49237],[1.75798,52.49583],[1.75537,52.5008],[1.75406,52.50381],[1.75292,52.5052],[1.75129,52.50786],[1.75069,52.51142],[1.74803,52.51136],[1.7373,52.50974],[1.73153,52.50852],[1.730946,52.507814],[1.73344,52.50295],[1.73236,52.50271],[1.72889,52.50017],[1.72657,52.49918],[1.72524,52.49778],[1.72597,52.49638],[1.7264,52.49358],[1.71936,52.49279],[1.71782,52.48897],[1.71867,52.48494],[1.71558,52.47813],[1.71189,52.47378],[1.70717,52.4688],[1.70837,52.45862]]]},"properties":{"code":"D83030","name":"KIRKLEY MILL HEALTH CENTRE","icb":"T6Y0W"}}]}