{"type":"FeatureCollection","features":[{"type":"Feature","geometry":{"type":"MultiPolygon","coordinates":[[[[0.530434,52.062201],[0.53421,52.069377],[0.534554,52.085203],[0.535927,52.099968],[0.532494,52.115782],[0.509491,52.140653],[0.492325,52.148448],[0.454559,52.150765],[0.430527,52.148237],[0.403061,52.148237],[0.381088,52.138546],[0.361176,52.127376],[0.367355,52.058507],[0.416794,52.038132],[0.507088,52.042144],[0.526314,52.053968],[0.530434,52.062201]]],[[[0.65494,52.099785],[0.659091,52.071895],[0.668992,52.056061],[0.684706,52.05332],[0.696818,52.05539],[0.700276,52.055981],[0.704482,52.056358],[0.718247,52.060356],[0.71348,52.054452],[0.765903,52.060745],[0.779981,52.047287],[0.831025,52.062955],[0.823697,52.0821],[0.83312,52.087021],[0.839307,52.096649],[0.83296,52.103771],[0.863067,52.112987],[0.85347,52.123759],[0.847749,52.132966],[0.853536,52.141955],[0.854706,52.157934],[0.84627,52.171501],[0.839436,52.171615],[0.828404,52.174644],[0.813586,52.170111],[0.804454,52.173523],[0.765828,52.175814],[0.760088,52.157537],[0.73032,52.158012],[0.737915,52.175416],[0.723087,52.174094],[0.711463,52.172117],[0.701187,52.181895],[0.688688,52.166448],[0.664378,52.160689],[0.671477,52.149356],[0.649392,52.149693],[0.646381,52.133207],[0.65494,52.099785]]]]},"properties":{"code":"D83012","name":"UNITY HEALTHCARE","icb":"T6Y0W"}}]}