{"type":"FeatureCollection","features":[{"type":"Feature","geometry":{"type":"Polygon","coordinates":[[[0.713197,52.005732],[0.768958,52.001993],[0.779939,51.995665],[0.794532,51.992517],[0.809426,51.994489],[0.817002,52.000685],[0.82107,52.007797],[0.823673,52.008832],[0.828427,52.011493],[0.834116,52.014677],[0.834528,52.018033],[0.832369,52.021477],[0.817787,52.025658],[0.822942,52.029872],[0.824162,52.032975],[0.822358,52.040205],[0.820019,52.048357],[0.806614,52.053351],[0.802028,52.057895],[0.799601,52.06535],[0.790676,52.068397],[0.790828,52.070159],[0.791617,52.072165],[0.791298,52.07382],[0.790915,52.075805],[0.790973,52.077906],[0.791021,52.079671],[0.791277,52.081755],[0.801965,52.085472],[0.804731,52.091057],[0.800165,52.09029],[0.799626,52.09039],[0.794038,52.090393],[0.784719,52.090941],[0.779113,52.091978],[0.77296,52.096434],[0.768022,52.105033],[0.761371,52.124109],[0.744819,52.113348],[0.742104,52.107868],[0.738756,52.105795],[0.731616,52.101374],[0.707518,52.110342],[0.70534,52.105315],[0.683064,52.087136],[0.678641,52.080269],[0.667641,52.064987],[0.667104,52.045335],[0.676044,52.028089],[0.68261,52.020587],[0.689022,52.014683],[0.695685,52.012011],[0.713197,52.005732]]]},"properties":{"code":"D83075","name":"SIAM SURGERY","icb":"T6Y0W"}}]}