{"type":"FeatureCollection","features":[{"type":"Feature","geometry":{"type":"Polygon","coordinates":[[[0.77436,52.10904],[0.769039,52.10055],[0.777002,52.091259],[0.782864,52.073509],[0.794449,52.065176],[0.805165,52.052651],[0.834983,52.045457],[0.85951,52.02451],[0.911155,52.03427],[0.95444,52.02313],[0.979053,52.040551],[0.975807,52.050527],[0.980339,52.061603],[1.041866,52.077411],[1.07357,52.0968],[1.083882,52.104064],[1.047947,52.106102],[1.025256,52.113807],[1.01967,52.13581],[1.007852,52.137916],[0.998085,52.143129],[0.965831,52.148865],[0.912336,52.175346],[0.897632,52.19517],[0.853165,52.180982],[0.839511,52.165312],[0.793448,52.174323],[0.78295,52.15761],[0.793304,52.126278],[0.77436,52.10904]]]},"properties":{"code":"D83006","name":"BILDESTON HEALTH CENTRE","icb":"T6Y0W"}}]}