{"type":"FeatureCollection","features":[{"type":"Feature","geometry":{"type":"Polygon","coordinates":[[[0.75775,52.13902],[0.762358,52.144645],[0.82489,52.17739],[0.828199,52.18015],[0.83305,52.18058],[0.89104,52.18572],[0.91011,52.20162],[0.8636,52.237117],[0.85365,52.27311],[0.81932,52.29831],[0.76172,52.32471],[0.65948,52.32191],[0.5809,52.29719],[0.56626,52.25387],[0.58228,52.21088],[0.584802,52.210668],[0.582938,52.209114],[0.58228,52.2092],[0.60211,52.16804],[0.67993,52.14557],[0.75775,52.13902]]]},"properties":{"code":"D83005","name":"ANGEL HILL SURGERY","icb":"T6Y0W"}}]}