{"type":"FeatureCollection","features":[{"type":"Feature","geometry":{"type":"Polygon","coordinates":[[[1.340323,52.03074],[1.390456,52.081616],[1.39146,52.082459],[1.39173,52.082495],[1.39183,52.08246],[1.407294,52.090055],[1.408066,52.090315],[1.408446,52.090127],[1.40831,52.08984],[1.416401,52.093127],[1.42857,52.09723],[1.427276,52.097509],[1.427144,52.097674],[1.44093,52.12358],[1.440868,52.1236],[1.440795,52.1238],[1.4423,52.12506],[1.363729,52.173795],[1.36368,52.17393],[1.358264,52.172699],[1.29536,52.16382],[1.22154,52.1415],[1.221924,52.141588],[1.222233,52.141463],[1.228664,52.06753],[1.24592,52.03729],[1.340323,52.03074]]]},"properties":{"code":"D83057","name":"FRAMFIELD HOUSE SURGERY","icb":"T6Y0W"}}]}