{"type":"FeatureCollection","features":[{"type":"Feature","geometry":{"type":"Polygon","coordinates":[[[1.35561,52.37969],[1.356036,52.379452],[1.35666,52.37993],[1.34372,52.39763],[1.30653,52.39311],[1.27812,52.39127],[1.26205,52.38272],[1.25781,52.37969],[1.25081,52.3756],[1.24467,52.37371],[1.23785,52.37308],[1.23749,52.37073],[1.23231,52.36921],[1.22731,52.36685],[1.22231,52.36596],[1.21777,52.36596],[1.18481,52.34918],[1.18584,52.32107],[1.20326,52.30433],[1.20249,52.28549],[1.22292,52.2742],[1.24781,52.26501],[1.32883,52.27246],[1.348246,52.279879],[1.357072,52.280688],[1.370396,52.277835],[1.381137,52.281935],[1.377319,52.290239],[1.373917,52.297637],[1.40608,52.32346],[1.42925,52.35018],[1.40955,52.35699],[1.38797,52.36161],[1.356036,52.379452],[1.35449,52.37827],[1.35561,52.37969]]]},"properties":{"code":"D83069","name":"FRESSINGFIELD MEDICAL CENTRE","icb":"T6Y0W"}}]}