{"type":"FeatureCollection","features":[{"type":"Feature","geometry":{"type":"Polygon","coordinates":[[[1.329,52.0947],[1.31939,52.08742],[1.3139,52.07998],[1.33106,52.06866],[1.33793,52.05942],[1.33415,52.05184],[1.3496,52.04341],[1.34462,52.03116],[1.361015,52.016478],[1.366206,52.005545],[1.377411,52.001792],[1.39458,51.98509],[1.42273,52.0001],[1.432355,52.004214],[1.43406,52.012252],[1.44539,52.0244],[1.46891,52.04605],[1.50135,52.06178],[1.53997,52.07223],[1.57572,52.08349],[1.583527,52.089405],[1.58538,52.09812],[1.59948,52.140788],[1.62529,52.185721],[1.601944,52.193508],[1.601601,52.20424],[1.593361,52.205082],[1.557999,52.20929],[1.514397,52.209921],[1.496201,52.210552],[1.485558,52.206976],[1.485558,52.200453],[1.480751,52.185931],[1.468391,52.180669],[1.459122,52.176037],[1.431656,52.170773],[1.411743,52.160665],[1.387367,52.150765],[1.372,52.12532],[1.329,52.0947]]]},"properties":{"code":"D83054","name":"THE PENINSULA PRACTICE","icb":"T6Y0W"}}]}