{"type":"FeatureCollection","features":[{"type":"Feature","geometry":{"type":"Polygon","coordinates":[[[1.73515,52.44931],[1.71327,52.45298],[1.69962,52.44806],[1.67143,52.45298],[1.66039,52.4513],[1.64542,52.44246],[1.62357,52.44094],[1.59714,52.40786],[1.54684,52.40891],[1.515,52.39142],[1.52161,52.3691],[1.54272,52.35526],[1.56298,52.34289],[1.64761,52.33891],[1.6888,52.3431],[1.707,52.37057],[1.72657,52.39572],[1.73378,52.4175],[1.72932,52.43111],[1.73515,52.44931]]]},"properties":{"code":"D83010","name":"LONGSHORE SURGERIES","icb":"T6Y0W"}}]}