{"type":"FeatureCollection","features":[{"type":"Feature","geometry":{"type":"Polygon","coordinates":[[[0.30933,52.27572],[0.34006,52.25003],[0.3574,52.22617],[0.32719,52.20642],[0.29951,52.18477],[0.38409,52.16351],[0.40491,52.17677],[0.43911,52.19409],[0.44641,52.21642],[0.48992,52.22275],[0.50597,52.23558],[0.52657,52.24793],[0.51692,52.2571],[0.50966,52.26763],[0.5052,52.28838],[0.5028,52.31194],[0.47078,52.30822],[0.43817,52.30727],[0.37285,52.31997],[0.36281,52.30336],[0.33959,52.28813],[0.32684,52.28853],[0.30933,52.27572]]]},"properties":{"code":"D83027","name":"ORCHARD HOUSE SURGERY","icb":"T6Y0W"}}]}