{"type":"FeatureCollection","features":[{"type":"Feature","geometry":{"type":"Polygon","coordinates":[[[-0.45937,52.01468],[-0.494472,51.967867],[-0.495062,51.959424],[-0.484113,51.955735],[-0.447007,51.9447],[-0.454079,51.931577],[-0.45685,51.928125],[-0.452475,51.923082],[-0.455343,51.922135],[-0.454013,51.919847],[-0.449562,51.915227],[-0.454431,51.909754],[-0.424157,51.911689],[-0.389405,51.935757],[-0.369048,51.961048],[-0.367323,51.970393],[-0.365886,51.978183],[-0.367739,51.985526],[-0.358844,51.990215],[-0.358429,51.991582],[-0.35724,51.992469],[-0.356901,51.993716],[-0.355554,51.995513],[-0.354585,51.99828],[-0.36119,52.005486],[-0.378575,52.017507],[-0.38212,52.00581],[-0.45937,52.01468]]]},"properties":{"code":"E81046","name":"DR A SULAKSHANA & PARTNERS","icb":"S1Y5D"}}]}