{"type":"FeatureCollection","features":[{"type":"Feature","geometry":{"type":"Polygon","coordinates":[[[-0.41521,51.85966],[-0.41207,51.86051],[-0.40761,51.863],[-0.40336,51.86754],[-0.40109,51.86905],[-0.39752,51.86973],[-0.39332,51.86968],[-0.39092,51.87042],[-0.384178,51.870344],[-0.373878,51.871828],[-0.359116,51.876067],[-0.351219,51.875431],[-0.342979,51.87967],[-0.342979,51.883909],[-0.343323,51.886875],[-0.344009,51.88963],[-0.343444,51.890153],[-0.342979,51.89302],[-0.344353,51.891749],[-0.341263,51.896622],[-0.340919,51.899376],[-0.341606,51.902977],[-0.341606,51.905731],[-0.343323,51.907637],[-0.348816,51.90912],[-0.352249,51.909544],[-0.352936,51.912297],[-0.362206,51.912085],[-0.367012,51.912085],[-0.372505,51.911873],[-0.380347,51.911706],[-0.385551,51.909967],[-0.387268,51.907849],[-0.394135,51.904672],[-0.40186,51.90168],[-0.40594,51.90197],[-0.41057,51.9016],[-0.41611,51.90157],[-0.41692,51.90491],[-0.4228,51.90332],[-0.42465,51.90986],[-0.422973,51.902766],[-0.429668,51.901813],[-0.434819,51.901177],[-0.434774,51.904819],[-0.434647,51.904884],[-0.43559,51.90631],[-0.4389,51.90356],[-0.446665,51.898423],[-0.44632,51.89871],[-0.45228,51.89482],[-0.4525,51.89217],[-0.45482,51.89183],[-0.45713,51.88778],[-0.46001,51.88425],[-0.45739,51.8828],[-0.43426,51.86661],[-0.43422,51.86528],[-0.42812,51.86155],[-0.42714,51.85948],[-0.42473,51.85754],[-0.41915,51.85632],[-0.41521,51.85966]]]},"properties":{"code":"E81013","name":"CASTLE MEDICAL GROUP PRACTICE","icb":"S1Y5D"}}]}