{"type":"FeatureCollection","features":[{"type":"Feature","geometry":{"type":"Polygon","coordinates":[[[-0.65721,52.10904],[-0.67639,52.10018],[-0.68527,52.08351],[-0.69961,52.06083],[-0.6945,52.05729],[-0.66347,52.047],[-0.64897,52.04015],[-0.64111,52.03694],[-0.63549,52.03515],[-0.61901,52.03109],[-0.60047,52.04102],[-0.59017,52.04188],[-0.54794,52.03634],[-0.54374,52.05713],[-0.53477,52.07724],[-0.54093,52.08228],[-0.56186,52.08168],[-0.57155,52.08826],[-0.61043,52.12295],[-0.63716,52.12053],[-0.65721,52.10904]]]},"properties":{"code":"E81043","name":"MARSTON FOREST HEALTHCARE","icb":"S1Y5D"}}]}