{"type":"FeatureCollection","features":[{"type":"Feature","geometry":{"type":"Polygon","coordinates":[[[-0.458508,52.007816],[-0.458679,52.00771],[-0.464859,52.008133],[-0.470592,52.013895],[-0.478949,52.016588],[-0.484717,52.017343],[-0.503657,52.016635],[-0.521795,52.008966],[-0.53581,52.004029],[-0.54039,52.000524],[-0.547085,51.998305],[-0.55069,51.996719],[-0.552406,51.9945],[-0.557213,51.991329],[-0.575204,51.994499],[-0.581074,51.993865],[-0.582962,51.992174],[-0.585709,51.9908],[-0.609231,51.992714],[-0.619547,51.988337],[-0.632733,51.985009],[-0.635662,51.982871],[-0.638065,51.980334],[-0.639782,51.97621],[-0.642357,51.972509],[-0.643477,51.968296],[-0.6427,51.963202],[-0.642872,51.959288],[-0.645103,51.95548],[-0.647507,51.953999],[-0.650253,51.952729],[-0.65506,51.949767],[-0.658321,51.946487],[-0.660725,51.943418],[-0.65609,51.941619],[-0.65609,51.939609],[-0.656948,51.937915],[-0.644417,51.936487],[-0.640554,51.935693],[-0.636778,51.934582],[-0.630341,51.931565],[-0.617981,51.92098],[-0.602875,51.908696],[-0.594635,51.895987],[-0.582962,51.88963],[-0.572662,51.882426],[-0.55687,51.877127],[-0.54966,51.872676],[-0.543137,51.878505],[-0.539703,51.881154],[-0.534639,51.882425],[-0.53112,51.883485],[-0.527859,51.884121],[-0.523911,51.884809],[-0.520906,51.886081],[-0.515757,51.886664],[-0.50992,51.886981],[-0.504084,51.887723],[-0.492239,51.889789],[-0.481167,51.89212],[-0.475073,51.892755],[-0.468979,51.893762],[-0.471897,51.899376],[-0.474901,51.901865],[-0.476618,51.903216],[-0.47739,51.903851],[-0.478163,51.904513],[-0.482304,51.909411],[-0.48151,51.910603],[-0.480309,51.911979],[-0.483055,51.91452],[-0.479794,51.915897],[-0.478249,51.918332],[-0.47327,51.919709],[-0.477922,51.929007],[-0.476955,51.931653],[-0.475846,51.931904],[-0.474599,51.931741],[-0.471397,51.93271],[-0.468577,51.935631],[-0.437924,51.945676],[-0.435333,51.953153],[-0.428123,51.963519],[-0.42778,51.9705],[-0.427094,51.973038],[-0.42572,51.978113],[-0.425935,51.979739],[-0.42653,51.97953],[-0.432125,51.983482],[-0.435824,51.986903],[-0.440058,51.989893],[-0.445643,51.993026],[-0.449751,51.99424],[-0.451821,51.999215],[-0.452839,52.000355],[-0.452967,52.003351],[-0.456791,52.007816],[-0.458508,52.007816]]]},"properties":{"code":"E81034","name":"TODDINGTON MEDICAL CENTRE","icb":"S1Y5D"}}]}