{"type":"FeatureCollection","features":[{"type":"Feature","geometry":{"type":"Polygon","coordinates":[[[-0.448873,51.845261],[-0.475149,51.868788],[-0.47788,51.892944],[-0.487434,51.89698],[-0.497477,51.902926],[-0.505596,51.900559],[-0.523263,51.90643],[-0.533717,51.92355],[-0.536882,51.932386],[-0.587178,51.933148],[-0.604413,51.924595],[-0.607485,51.921669],[-0.615572,51.918438],[-0.616264,51.910756],[-0.618972,51.900257],[-0.6221,51.86547],[-0.572822,51.836347],[-0.54454,51.826948],[-0.518416,51.825593],[-0.49712,51.827041],[-0.478126,51.824452],[-0.471741,51.838594],[-0.448873,51.845261]]]},"properties":{"code":"E81009","name":"WEST STREET SURGERY","icb":"S1Y5D"}}]}