{"type":"FeatureCollection","features":[{"type":"Feature","geometry":{"type":"Polygon","coordinates":[[[-0.69489,51.99038],[-0.7148,51.97727],[-0.73059,51.97135],[-0.72647,51.95865],[-0.72922,51.9358],[-0.7663,51.93157],[-0.76012,51.9214],[-0.78003,51.89344],[-0.77385,51.88031],[-0.75737,51.86886],[-0.72372,51.84935],[-0.66673,51.84193],[-0.5912,51.8625],[-0.59189,51.87649],[-0.58228,51.90361],[-0.56477,51.91611],[-0.56442,51.91611],[-0.56477,51.91738],[-0.61541,51.94966],[-0.66948,51.97981],[-0.67703,51.98742],[-0.69489,51.99038]]]},"properties":{"code":"E81003","name":"DR JL HENDERSON & PARTNERS","icb":"S1Y5D"}}]}