{"type":"FeatureCollection","features":[{"type":"Feature","geometry":{"type":"Polygon","coordinates":[[[-0.419614,52.002103],[-0.388389,51.990075],[-0.38829,51.98995],[-0.383372,51.990522],[-0.320835,51.995028],[-0.276321,52.016487],[-0.274597,52.022087],[-0.269414,52.053122],[-0.269349,52.053236],[-0.26917,52.05333],[-0.269309,52.053331],[-0.269509,52.053434],[-0.26968,52.053968],[-0.29075,52.07119],[-0.29284,52.071743],[-0.3265,52.082038],[-0.329463,52.081462],[-0.32976,52.08151],[-0.387924,52.073741],[-0.42932,52.05756],[-0.429407,52.057431],[-0.440677,52.052004],[-0.436795,52.043738],[-0.416852,52.014869],[-0.420645,52.002545],[-0.419614,52.002103]]]},"properties":{"code":"E81033","name":"SHEFFORD HEALTH CENTRE","icb":"S1Y5D"}}]}