{"type":"FeatureCollection","features":[{"type":"Feature","geometry":{"type":"Polygon","coordinates":[[[-0.323067,52.096165],[-0.296974,52.097009],[-0.314413,52.101764],[-0.314125,52.102173],[-0.29594,52.09744],[-0.27672,52.09912],[-0.282026,52.114157],[-0.284618,52.128305],[-0.285074,52.128526],[-0.24719,52.14634],[-0.29766,52.17077],[-0.316478,52.148266],[-0.37903,52.13791],[-0.391738,52.12294],[-0.392011,52.122881],[-0.393791,52.123365],[-0.323067,52.096165]]]},"properties":{"code":"E81035","name":"SANDY HEALTH CENTRE","icb":"S1Y5D"}}]}