{"type":"FeatureCollection","features":[{"type":"Feature","geometry":{"type":"Polygon","coordinates":[[[-0.32581,51.88253],[-0.32633,51.89726],[-0.32684,51.90277],[-0.33354,51.93421],[-0.39001,51.93675],[-0.43096,51.92696],[-0.42864,51.92183],[-0.42675,51.91653],[-0.42349,51.9069],[-0.42109,51.89652],[-0.4216,51.88921],[-0.42057,51.88412],[-0.41731,51.88348],[-0.4101,51.88253],[-0.40615,51.88115],[-0.39877,51.87819],[-0.38795,51.88264],[-0.37113,51.88751],[-0.36804,51.88762],[-0.35963,51.88709],[-0.32581,51.88253]]]},"properties":{"code":"E81006","name":"STOPSLEY VILLAGE PRACTICE","icb":"S1Y5D"}}]}