{"type":"FeatureCollection","features":[{"type":"Feature","geometry":{"type":"Polygon","coordinates":[[[-0.590858,52.024402],[-0.599957,52.035809],[-0.630169,52.044889],[-0.64064,52.044995],[-0.654974,52.042091],[-0.644331,52.037076],[-0.644503,52.033697],[-0.646734,52.032641],[-0.651112,52.031848],[-0.655146,52.031743],[-0.657291,52.031479],[-0.660725,52.030634],[-0.663729,52.030053],[-0.666218,52.028786],[-0.668106,52.029815],[-0.668836,52.028363],[-0.672054,52.028733],[-0.675874,52.030713],[-0.678062,52.023716],[-0.675058,52.022659],[-0.672913,52.020388],[-0.671711,52.01574],[-0.671883,52.014314],[-0.687246,52.008872],[-0.6954,52.004381],[-0.696087,51.998886],[-0.699348,51.994605],[-0.700207,51.993601],[-0.58022,51.9286],[-0.4985,51.97008],[-0.566568,52.019015],[-0.590858,52.024402]]]},"properties":{"code":"E81050","name":"ASPLANDS MEDICAL CENTRE","icb":"S1Y5D"}}]}