{"type":"FeatureCollection","features":[{"type":"Feature","geometry":{"type":"Polygon","coordinates":[[[-0.45516,51.90555],[-0.44443,51.89742],[-0.44325,51.89663],[-0.43753,51.8944],[-0.4363,51.89535],[-0.43315,51.89624],[-0.42089,51.8966],[-0.42104,51.89736],[-0.42122,51.89779],[-0.42113,51.89806],[-0.42134,51.89841],[-0.42138,51.89911],[-0.42185,51.90008],[-0.42207,51.90139],[-0.42362,51.90626],[-0.43067,51.91024],[-0.43119,51.91063],[-0.43291,51.91134],[-0.4368,51.91395],[-0.43782,51.91443],[-0.43919,51.91447],[-0.44205,51.91439],[-0.44542,51.91398],[-0.44675,51.91357],[-0.44796,51.91283],[-0.44904,51.91205],[-0.45444,51.90974],[-0.4548,51.90932],[-0.45657,51.90795],[-0.45822,51.90738],[-0.45901,51.90688],[-0.45715,51.90648],[-0.45516,51.90555]]]},"properties":{"code":"E81633","name":"NEVILLE ROAD SURGERY","icb":"S1Y5D"}}]}