{"type":"FeatureCollection","features":[{"type":"Feature","geometry":{"type":"Polygon","coordinates":[[[-0.2314,51.73192],[-0.2005,51.73681],[-0.13836,51.76019],[-0.14145,51.78223],[-0.168829,51.78648],[-0.171329,51.786487],[-0.173169,51.786772],[-0.180828,51.791745],[-0.189674,51.797489],[-0.197375,51.797747],[-0.201898,51.800647],[-0.211897,51.802199],[-0.218717,51.798491],[-0.223658,51.79499],[-0.226593,51.795664],[-0.226765,51.798159],[-0.24857,51.79726],[-0.26161,51.78802],[-0.29097,51.77018],[-0.313103,51.766524],[-0.312904,51.763626],[-0.306914,51.75876],[-0.304679,51.758321],[-0.307193,51.758217],[-0.302727,51.75194],[-0.291129,51.753774],[-0.288275,51.751455],[-0.281738,51.746142],[-0.279453,51.744657],[-0.2751,51.74373],[-0.274059,51.741206],[-0.269719,51.74106],[-0.265903,51.742496],[-0.266925,51.740502],[-0.266333,51.74041],[-0.265453,51.739175],[-0.2314,51.73192]]]},"properties":{"code":"E82018","name":"LISTER HOUSE SURGERY","icb":"S1Y5D"}}]}