{"type":"FeatureCollection","features":[{"type":"Feature","geometry":{"type":"Polygon","coordinates":[[[-0.59772,51.70852],[-0.59,51.69874],[-0.57781,51.69044],[-0.54794,51.67766],[-0.53198,51.66883],[-0.51395,51.6617],[-0.50211,51.65839],[-0.48683,51.65552],[-0.47499,51.65339],[-0.45937,51.65105],[-0.40443,51.65509],[-0.38538,51.66052],[-0.3786,51.66367],[-0.37388,51.66851],[-0.36787,51.68011],[-0.36598,51.69342],[-0.36736,51.71001],[-0.373182,51.725475],[-0.394686,51.76177],[-0.41473,51.79142],[-0.44374,51.79752],[-0.47344,51.79853],[-0.49971,51.78956],[-0.51009,51.78295],[-0.51773,51.77952],[-0.53181,51.77018],[-0.54434,51.76263],[-0.55653,51.75679],[-0.58468,51.73702],[-0.59361,51.72256],[-0.59772,51.70852]]]},"properties":{"code":"E82066","name":"HAVERFIELD SURGERY","icb":"S1Y5D"}}]}