{"type":"FeatureCollection","features":[{"type":"Feature","geometry":{"type":"Polygon","coordinates":[[[-0.31165,51.61828],[-0.29303,51.62217],[-0.29529,51.627173],[-0.298497,51.637553],[-0.29843,51.63767],[-0.294407,51.639716],[-0.29294,51.64002],[-0.277064,51.643788],[-0.266558,51.643463],[-0.263443,51.643324],[-0.255604,51.642311],[-0.255301,51.642865],[-0.25509,51.64295],[-0.248394,51.655519],[-0.251795,51.66477],[-0.25234,51.66659],[-0.252546,51.666813],[-0.252857,51.667658],[-0.26432,51.678883],[-0.27517,51.69001],[-0.281227,51.689664],[-0.322895,51.688734],[-0.322895,51.68862],[-0.32305,51.688498],[-0.352148,51.68408],[-0.358,51.68394],[-0.360086,51.669494],[-0.360579,51.667614],[-0.361466,51.666736],[-0.361691,51.666593],[-0.38109,51.64732],[-0.375037,51.644216],[-0.361051,51.636585],[-0.359923,51.633292],[-0.35869,51.62835],[-0.357154,51.624928],[-0.355854,51.621001],[-0.355519,51.620986],[-0.35534,51.62089],[-0.351829,51.620818],[-0.341778,51.620361],[-0.336049,51.63082],[-0.335682,51.630884],[-0.31165,51.61828]]]},"properties":{"code":"E82043","name":"SCHOPWICK SURGERY","icb":"S1Y5D"}}]}