{"type":"FeatureCollection","features":[{"type":"Feature","geometry":{"type":"Polygon","coordinates":[[[-0.418167,51.655306],[-0.414883,51.656703],[-0.408211,51.656797],[-0.405121,51.657862],[-0.404824,51.659154],[-0.404263,51.659566],[-0.404742,51.65947],[-0.405045,51.659751],[-0.403851,51.66064],[-0.403598,51.66067],[-0.402203,51.660204],[-0.40151,51.661275],[-0.399692,51.663281],[-0.395995,51.664892],[-0.395592,51.664738],[-0.395782,51.66391],[-0.395892,51.663818],[-0.39697,51.66351],[-0.395161,51.662249],[-0.395114,51.662156],[-0.395164,51.661908],[-0.393448,51.661056],[-0.395046,51.662169],[-0.395093,51.662262],[-0.394821,51.663612],[-0.395255,51.663612],[-0.39538,51.663965],[-0.39456,51.6642],[-0.392037,51.666651],[-0.391899,51.666707],[-0.389965,51.666848],[-0.38813,51.66638],[-0.386124,51.66602],[-0.38478,51.66505],[-0.38401,51.66532],[-0.383413,51.666903],[-0.382594,51.668209],[-0.378722,51.670248],[-0.375187,51.670529],[-0.37165,51.67037],[-0.37127,51.67114],[-0.37019,51.67186],[-0.371827,51.673361],[-0.373787,51.676385],[-0.375939,51.680958],[-0.376971,51.683583],[-0.37705,51.687656],[-0.37585,51.6907],[-0.375429,51.692992],[-0.375359,51.69307],[-0.37208,51.69469],[-0.370012,51.696937],[-0.362984,51.702457],[-0.35912,51.70512],[-0.35809,51.70592],[-0.3562,51.70831],[-0.355,51.71028],[-0.361163,51.711546],[-0.36521,51.71299],[-0.37285,51.71522],[-0.37757,51.71554],[-0.382686,51.715381],[-0.38504,51.71586],[-0.38924,51.71538],[-0.393201,51.714529],[-0.39849,51.713843],[-0.40993,51.714],[-0.41782,51.71358],[-0.42272,51.71241],[-0.42864,51.71044],[-0.435749,51.705498],[-0.43988,51.70352],[-0.441426,51.701615],[-0.44254,51.70054],[-0.439975,51.697306],[-0.43851,51.69469],[-0.436097,51.692676],[-0.434861,51.689638],[-0.43387,51.68825],[-0.431714,51.686863],[-0.43121,51.68597],[-0.429616,51.684478],[-0.429673,51.684297],[-0.43143,51.683554],[-0.431806,51.683667],[-0.431821,51.683796],[-0.432128,51.683259],[-0.433228,51.682793],[-0.433595,51.682893],[-0.433617,51.682987],[-0.43338,51.678767],[-0.435674,51.672445],[-0.435774,51.672365],[-0.438595,51.671491],[-0.437569,51.669158],[-0.437222,51.666593],[-0.436192,51.663186],[-0.4357,51.662424],[-0.43602,51.661056],[-0.434566,51.660544],[-0.434473,51.660463],[-0.43396,51.658714],[-0.433126,51.658534],[-0.432994,51.658423],[-0.43293,51.657436],[-0.427837,51.65712],[-0.427692,51.657063],[-0.427437,51.656797],[-0.425442,51.656876],[-0.418167,51.655306]]]},"properties":{"code":"E82017","name":"GARSTON MEDICAL CENTRE","icb":"S1Y5D"}}]}