{"type":"FeatureCollection","features":[{"type":"Feature","geometry":{"type":"Polygon","coordinates":[[[-0.26711,51.84978],[-0.27054,51.8502],[-0.2774,51.84978],[-0.28084,51.84341],[-0.27946,51.83811],[-0.27328,51.83599],[-0.26642,51.83557],[-0.25818,51.83238],[-0.24273,51.82114],[-0.24548,51.81732],[-0.24822,51.81413],[-0.25372,51.80798],[-0.26093,51.80437],[-0.26539,51.80288],[-0.26676,51.79927],[-0.26505,51.79566],[-0.25715,51.79312],[-0.25028,51.79227],[-0.24273,51.79078],[-0.23861,51.78887],[-0.23106,51.7825],[-0.22694,51.7825],[-0.21801,51.78292],[-0.21114,51.78441],[-0.2084,51.78313],[-0.20153,51.7791],[-0.18951,51.77761],[-0.18093,51.77761],[-0.172,51.77867],[-0.16445,51.7808],[-0.15965,51.7825],[-0.15793,51.78398],[-0.15484,51.78759],[-0.15347,51.78951],[-0.14523,51.79566],[-0.14179,51.80012],[-0.13905,51.80628],[-0.13767,51.81053],[-0.13767,51.81647],[-0.13561,51.81965],[-0.13493,51.82283],[-0.13527,51.82856],[-0.13527,51.83132],[-0.13561,51.83726],[-0.13699,51.83896],[-0.136003,51.840906],[-0.13564,51.840984],[-0.13767,51.844491],[-0.138474,51.845261],[-0.14076,51.84575],[-0.15106,51.84617],[-0.16068,51.84681],[-0.16582,51.84744],[-0.17475,51.84935],[-0.17887,51.84956],[-0.18677,51.85253],[-0.19123,51.85614],[-0.194833,51.857573],[-0.212809,51.857489],[-0.21904,51.85614],[-0.22556,51.85359],[-0.23174,51.84872],[-0.23483,51.84426],[-0.24342,51.84299],[-0.24822,51.8449],[-0.25543,51.84914],[-0.26711,51.84978]]]},"properties":{"code":"E82041","name":"THE GARDEN CITY PRACTICE","icb":"S1Y5D"}}]}