{"type":"FeatureCollection","features":[{"type":"Feature","geometry":{"type":"Polygon","coordinates":[[[-0.29672,51.78005],[-0.30144,51.78505],[-0.32925,51.78144],[-0.33371,51.78462],[-0.33852,51.77931],[-0.35843,51.76805],[-0.36993,51.759234],[-0.369844,51.752859],[-0.370531,51.748289],[-0.37328,51.73761],[-0.36212,51.73729],[-0.36324,51.7342],[-0.36444,51.7283],[-0.36272,51.72852],[-0.361,51.72517],[-0.36667,51.72139],[-0.36684,51.71927],[-0.37113,51.71506],[-0.3501,51.70969],[-0.33208,51.71033],[-0.327873,51.711289],[-0.329247,51.712778],[-0.298347,51.711714],[-0.298004,51.71448],[-0.293541,51.713416],[-0.292511,51.71448],[-0.294914,51.716181],[-0.277405,51.719372],[-0.272942,51.724902],[-0.266418,51.726178],[-0.259895,51.727028],[-0.241699,51.738085],[-0.247192,51.748076],[-0.248909,51.749139],[-0.249252,51.749777],[-0.248566,51.750839],[-0.250969,51.75339],[-0.253029,51.75339],[-0.251656,51.754453],[-0.252342,51.755303],[-0.253121,51.755782],[-0.249609,51.75694],[-0.251138,51.759263],[-0.260925,51.759553],[-0.262299,51.76104],[-0.268993,51.762156],[-0.267706,51.765556],[-0.280409,51.773682],[-0.29181,51.774998],[-0.291788,51.774985],[-0.291395,51.774904],[-0.291309,51.774691],[-0.291788,51.774985],[-0.29191,51.77501],[-0.29181,51.774998],[-0.29672,51.78005]]]},"properties":{"code":"E82084","name":"HARVEY GROUP PRACTICE","icb":"S1Y5D"}}]}