{"type":"FeatureCollection","features":[{"type":"Feature","geometry":{"type":"Polygon","coordinates":[[[-0.212171,51.785471],[-0.194998,51.819227],[-0.173378,51.810631],[-0.149687,51.804581],[-0.147799,51.813285],[-0.147113,51.81859],[-0.146769,51.823259],[-0.147112,51.825912],[-0.146769,51.832701],[-0.14574,51.836838],[-0.145911,51.836838],[-0.142142,51.865468],[-0.21209,51.87172],[-0.211487,51.890478],[-0.239468,51.89016],[-0.245134,51.890478],[-0.25801,51.896834],[-0.287015,51.912509],[-0.303841,51.901283],[-0.318949,51.891961],[-0.354309,51.861228],[-0.345805,51.857517],[-0.27191,51.81456],[-0.226249,51.785312],[-0.212171,51.785471]]]},"properties":{"code":"E82019","name":"BRIDGE COTTAGE SURGERY","icb":"S1Y5D"}}]}