{"type":"FeatureCollection","features":[{"type":"Feature","geometry":{"type":"Polygon","coordinates":[[[-0.071969,51.797336],[-0.073085,51.796673],[-0.070338,51.795001],[-0.071669,51.793222],[-0.069265,51.788949],[-0.067334,51.784356],[-0.06712,51.779683],[-0.065575,51.779789],[-0.064502,51.778011],[-0.065231,51.774452],[-0.064716,51.773151],[-0.064974,51.772222],[-0.061111,51.771478],[-0.060897,51.769008],[-0.061927,51.764839],[-0.05918,51.76375],[-0.057292,51.763644],[-0.056605,51.763086],[-0.056305,51.761837],[-0.054631,51.761412],[-0.053172,51.761572],[-0.051284,51.761226],[-0.04892,51.76133],[-0.033131,51.75254],[-0.025406,51.753284],[-0.01605,51.75172],[-0.00536,51.74717],[0.00421,51.75336],[0.002232,51.754506],[0.003948,51.755754],[0.010171,51.755568],[0.013647,51.757906],[0.013073,51.759593],[0.01251,51.760197],[0.012102,51.760539],[0.011952,51.760868],[0.011984,51.76105],[0.012403,51.761678],[0.01296,51.763378],[0.012789,51.763272],[0.013282,51.764201],[0.013411,51.765064],[0.013175,51.765104],[0.011458,51.766592],[0.00854,51.768637],[0.006223,51.769832],[0.005064,51.772222],[0.002575,51.774266],[0.005836,51.780241],[0.011415,51.778701],[0.016522,51.778409],[0.023775,51.78125],[0.02139,51.7829],[0.01938,51.78404],[0.01727,51.78506],[0.01033,51.79065],[0.00575,51.79371],[0.0027,51.79618],[-0.01167,51.80466],[-0.023003,51.802087],[-0.027122,51.805961],[-0.029783,51.808084],[-0.034161,51.808774],[-0.039825,51.807394],[-0.042572,51.805059],[-0.058365,51.800548],[-0.05991,51.800388],[-0.06094,51.801981],[-0.073299,51.799274],[-0.071969,51.797336]]]},"properties":{"code":"E82088","name":"HAILEY VIEW SURGERY","icb":"S1Y5D"}}]}