{"type":"FeatureCollection","features":[{"type":"Feature","geometry":{"type":"Polygon","coordinates":[[[0.119579,51.880533],[0.117874,51.872482],[0.120277,51.864279],[0.124821,51.857263],[0.141632,51.848681],[0.15381,51.847349],[0.163172,51.845768],[0.171729,51.841399],[0.181179,51.84018],[0.19701,51.840403],[0.212316,51.840618],[0.219542,51.841208],[0.238683,51.85037],[0.243759,51.856028],[0.250136,51.86827],[0.251657,51.87119],[0.252842,51.874218],[0.252707,51.876357],[0.252508,51.879497],[0.248999,51.883104],[0.240702,51.887336],[0.22765,51.892001],[0.220741,51.89477],[0.212539,51.896899],[0.19677,51.900071],[0.183337,51.902391],[0.162745,51.902102],[0.144956,51.896402],[0.128148,51.890078],[0.119579,51.880533]]]},"properties":{"code":"E82067","name":"CHURCH STREET PARTNERSHIP","icb":"S1Y5D"}}]}