{"type":"FeatureCollection","features":[{"type":"Feature","geometry":{"type":"Polygon","coordinates":[[[0.009434,51.805332],[0.030611,51.788933],[0.048835,51.788183],[0.071301,51.790096],[0.082397,51.800123],[0.13818,51.845592],[0.138903,51.846915],[0.128403,51.875219],[0.127029,51.877763],[0.107803,51.89641],[0.098877,51.911662],[0.027466,51.908696],[0.025188,51.895529],[0.025125,51.890195],[0.004807,51.825169],[0.009434,51.805332]]]},"properties":{"code":"E82021","name":"MUCH HADHAM HEALTH CENTRE","icb":"S1Y5D"}}]}