{"type":"FeatureCollection","features":[{"type":"Feature","geometry":{"type":"Polygon","coordinates":[[[-0.094482,51.73712],[-0.0951,51.73553],[0.06103,51.7248],[0.059673,51.726745],[0.0618,51.7266],[0.06935,51.76572],[0.04326,51.80777],[0.028062,51.799244],[0.027981,51.799935],[0.04257,51.80861],[0.01854,51.81456],[-0.074666,51.808992],[-0.08102,51.80946],[-0.081035,51.808597],[-0.11467,51.78016],[-0.09613,51.73723],[-0.094482,51.73712]]]},"properties":{"code":"E82006","name":"THE LIMES SURGERY","icb":"S1Y5D"}}]}