{"type":"FeatureCollection","features":[{"type":"Feature","geometry":{"type":"Polygon","coordinates":[[[-0.426975,51.725261],[-0.428541,51.724634],[-0.432112,51.723823],[-0.446025,51.720666],[-0.44194,51.71041],[-0.4304,51.69057],[-0.42062,51.68463],[-0.41156,51.68788],[-0.40669,51.6907],[-0.40397,51.69179],[-0.40525,51.69391],[-0.40427,51.69275],[-0.40363,51.69282],[-0.4032,51.69174],[-0.40295,51.69229],[-0.40257,51.69254],[-0.39962,51.69237],[-0.39783,51.69198],[-0.39323,51.69181],[-0.39132,51.69212],[-0.39017,51.69212],[-0.38903,51.69236],[-0.38825,51.69309],[-0.38841,51.69413],[-0.38594,51.6939],[-0.38536,51.6949],[-0.38512,51.69589],[-0.38349,51.70427],[-0.39276,51.73155],[-0.417157,51.732372],[-0.415743,51.729759],[-0.420775,51.727743],[-0.423945,51.726474],[-0.426975,51.725261]]]},"properties":{"code":"E82046","name":"VINE HOUSE HEALTH CENTRE","icb":"S1Y5D"}}]}