{"type":"FeatureCollection","features":[{"type":"Feature","geometry":{"type":"Polygon","coordinates":[[[-0.25535,51.73335],[-0.25665,51.73004],[-0.24353,51.72162],[-0.23419,51.71575],[-0.22211,51.71244],[-0.21338,51.71155],[-0.20328,51.71194],[-0.17696,51.70371],[-0.17348,51.71239],[-0.17823,51.72086],[-0.1478,51.74792],[-0.14222,51.76284],[-0.15403,51.77076],[-0.206,51.76912],[-0.24165,51.76135],[-0.26942,51.74212],[-0.25775,51.73612],[-0.25535,51.73335]]]},"properties":{"code":"E82058","name":"POTTERELLS MEDICAL CENTRE","icb":"S1Y5D"}}]}