{"type":"FeatureCollection","features":[{"type":"Feature","geometry":{"type":"Polygon","coordinates":[[[-0.39795,51.61711],[-0.39825,51.61639],[-0.39813,51.6161],[-0.39684,51.6157],[-0.39478,51.61559],[-0.393109,51.61564],[-0.393091,51.61564],[-0.39001,51.61564],[-0.387454,51.616038],[-0.387426,51.616041],[-0.38637,51.61615],[-0.384626,51.616517],[-0.384594,51.616522],[-0.38353,51.61668],[-0.38224,51.617688],[-0.382196,51.617717],[-0.382145,51.617741],[-0.38135,51.61804],[-0.3801,51.61882],[-0.38075,51.619584],[-0.380767,51.619607],[-0.38078,51.61963],[-0.380788,51.619655],[-0.380792,51.61968],[-0.380792,51.619705],[-0.380786,51.61973],[-0.380777,51.619754],[-0.380763,51.619778],[-0.380745,51.6198],[-0.380724,51.619821],[-0.380698,51.61984],[-0.380669,51.619858],[-0.380638,51.619873],[-0.380604,51.619887],[-0.380567,51.619897],[-0.380529,51.619905],[-0.379788,51.620035],[-0.379731,51.620042],[-0.37791,51.62017],[-0.37675,51.62044],[-0.375455,51.620859],[-0.375419,51.620869],[-0.375382,51.620876],[-0.37435,51.62105],[-0.373266,51.621544],[-0.373229,51.621559],[-0.373189,51.62157],[-0.3707,51.6222],[-0.369906,51.62272],[-0.369872,51.622739],[-0.369721,51.622816],[-0.369681,51.622833],[-0.369638,51.622847],[-0.369592,51.622858],[-0.369545,51.622864],[-0.369496,51.622866],[-0.369448,51.622865],[-0.3694,51.622859],[-0.369354,51.622849],[-0.36931,51.622836],[-0.36927,51.622819],[-0.369234,51.622799],[-0.369203,51.622776],[-0.369176,51.62275],[-0.369156,51.622723],[-0.369141,51.622694],[-0.369133,51.622664],[-0.3689,51.62121],[-0.3686,51.62049],[-0.36817,51.61991],[-0.367834,51.619744],[-0.3678,51.619725],[-0.36777,51.619703],[-0.367744,51.619679],[-0.367724,51.619653],[-0.367709,51.619626],[-0.3677,51.619597],[-0.367697,51.619569],[-0.3677,51.61954],[-0.36736,51.61903],[-0.3668,51.61844],[-0.36594,51.61802],[-0.36534,51.6178],[-0.363486,51.617243],[-0.36345,51.61723],[-0.363416,51.617215],[-0.363385,51.617198],[-0.363358,51.617178],[-0.362829,51.616755],[-0.362795,51.616723],[-0.36233,51.61618],[-0.36109,51.61668],[-0.360783,51.617069],[-0.360765,51.617089],[-0.360744,51.617107],[-0.36072,51.617124],[-0.360694,51.61714],[-0.35976,51.61764],[-0.359155,51.618321],[-0.359136,51.61834],[-0.359115,51.618357],[-0.35909,51.618373],[-0.359064,51.618388],[-0.35809,51.61887],[-0.357107,51.619694],[-0.357093,51.619705],[-0.355859,51.620614],[-0.355833,51.620631],[-0.355805,51.620646],[-0.355775,51.620659],[-0.355742,51.620671],[-0.354114,51.62117],[-0.354082,51.621179],[-0.354048,51.621186],[-0.354014,51.62119],[-0.353979,51.621193],[-0.35289,51.62124],[-0.351354,51.621736],[-0.351309,51.621748],[-0.351261,51.621756],[-0.35053,51.62185],[-0.34877,51.62252],[-0.347728,51.623017],[-0.347699,51.623029],[-0.347669,51.62304],[-0.34624,51.62348],[-0.34513,51.62406],[-0.344117,51.624768],[-0.344081,51.62479],[-0.34298,51.62537],[-0.342272,51.626224],[-0.342247,51.626249],[-0.342218,51.626272],[-0.34096,51.62713],[-0.339568,51.628473],[-0.339528,51.628505],[-0.338607,51.629119],[-0.338583,51.629134],[-0.338556,51.629147],[-0.338528,51.629158],[-0.338498,51.629168],[-0.33792,51.62934],[-0.33714,51.62982],[-0.336487,51.630464],[-0.336457,51.630489],[-0.336423,51.630511],[-0.33603,51.63073],[-0.33586,51.63118],[-0.33654,51.63158],[-0.33727,51.631855],[-0.337308,51.631871],[-0.337343,51.631891],[-0.3383,51.63251],[-0.338982,51.632837],[-0.339026,51.632862],[-0.339063,51.632892],[-0.33959,51.63339],[-0.340183,51.633612],[-0.340227,51.633632],[-0.340267,51.633656],[-0.340686,51.633949],[-0.340715,51.633973],[-0.34074,51.633999],[-0.340758,51.634027],[-0.340771,51.634057],[-0.340776,51.634087],[-0.340775,51.634118],[-0.340768,51.634148],[-0.340754,51.634177],[-0.34066,51.634334],[-0.340637,51.634365],[-0.340606,51.634393],[-0.340569,51.634419],[-0.340526,51.63444],[-0.340082,51.634631],[-0.340036,51.634647],[-0.33937,51.63485],[-0.337467,51.635639],[-0.337411,51.635658],[-0.33663,51.63587],[-0.335656,51.63644],[-0.335622,51.636458],[-0.33487,51.6368],[-0.33421,51.637182],[-0.334179,51.637199],[-0.334144,51.637213],[-0.333658,51.637387],[-0.333628,51.637397],[-0.333597,51.637404],[-0.333565,51.63741],[-0.333532,51.637414],[-0.333498,51.637417],[-0.333465,51.637417],[-0.333431,51.637415],[-0.333398,51.637411],[-0.333366,51.637406],[-0.333335,51.637399],[-0.333305,51.637389],[-0.333276,51.637379],[-0.333249,51.637366],[-0.333224,51.637352],[-0.333201,51.637337],[-0.333181,51.63732],[-0.33298,51.63714],[-0.332692,51.63703],[-0.332643,51.637008],[-0.332602,51.636981],[-0.33148,51.63613],[-0.33088,51.63584],[-0.33088,51.636347],[-0.330878,51.63637],[-0.330872,51.636393],[-0.330714,51.636869],[-0.330704,51.636891],[-0.32972,51.63882],[-0.32955,51.63946],[-0.329674,51.640025],[-0.329678,51.64005],[-0.329676,51.640075],[-0.329555,51.640918],[-0.329547,51.640949],[-0.329531,51.64098],[-0.32925,51.64143],[-0.32933,51.64231],[-0.3298,51.64335],[-0.33053,51.64436],[-0.332005,51.645474],[-0.332038,51.645502],[-0.332063,51.645534],[-0.332079,51.645568],[-0.332087,51.645603],[-0.33216,51.64636],[-0.33272,51.6471],[-0.334294,51.647714],[-0.334325,51.647727],[-0.335543,51.648321],[-0.335576,51.64834],[-0.336832,51.649125],[-0.336847,51.649135],[-0.33993,51.65131],[-0.342108,51.652553],[-0.342131,51.652568],[-0.346366,51.655467],[-0.346374,51.655473],[-0.34822,51.65682],[-0.349843,51.657756],[-0.349856,51.657764],[-0.351368,51.658726],[-0.351408,51.658756],[-0.35195,51.65925],[-0.352927,51.659822],[-0.352952,51.659839],[-0.35379,51.66044],[-0.354768,51.660993],[-0.354791,51.661008],[-0.35744,51.66281],[-0.358148,51.663198],[-0.358189,51.663224],[-0.35916,51.66396],[-0.360074,51.664446],[-0.360099,51.664461],[-0.360121,51.664477],[-0.363327,51.665176],[-0.367528,51.665418],[-0.368119,51.665353],[-0.36815,51.665494],[-0.368366,51.665731],[-0.368661,51.665951],[-0.369372,51.66652],[-0.369553,51.666713],[-0.370191,51.667133],[-0.370993,51.668192],[-0.378512,51.669935],[-0.379393,51.670139],[-0.380218,51.670196],[-0.380587,51.67023],[-0.381051,51.670348],[-0.381516,51.670457],[-0.381839,51.670538],[-0.382157,51.670615],[-0.382791,51.670768],[-0.382992,51.670787],[-0.383107,51.670797],[-0.383233,51.670804],[-0.383134,51.670977],[-0.382854,51.671344],[-0.382978,51.671732],[-0.381778,51.672564],[-0.380704,51.673621],[-0.379092,51.674807],[-0.378095,51.675363],[-0.377435,51.675516],[-0.376875,51.675756],[-0.374183,51.677516],[-0.37619,51.681908],[-0.376461,51.682757],[-0.376677,51.68355],[-0.376796,51.684292],[-0.376868,51.68533],[-0.376868,51.686086],[-0.376738,51.687227],[-0.377,51.687704],[-0.376833,51.688207],[-0.376524,51.688993],[-0.376407,51.689431],[-0.376315,51.689878],[-0.376214,51.690375],[-0.375991,51.691238],[-0.375938,51.691616],[-0.37677,51.69092],[-0.377694,51.689882],[-0.379416,51.688366],[-0.380125,51.68808],[-0.38082,51.687954],[-0.380488,51.688354],[-0.380202,51.688714],[-0.379883,51.689167],[-0.379716,51.689569],[-0.379842,51.690143],[-0.380004,51.690739],[-0.380526,51.691206],[-0.382857,51.691367],[-0.385189,51.691004],[-0.38565,51.690102],[-0.387835,51.688178],[-0.38936,51.687241],[-0.390365,51.686456],[-0.398827,51.682182],[-0.403966,51.68302],[-0.410079,51.683956],[-0.410703,51.683999],[-0.41354,51.684613],[-0.416484,51.684891],[-0.418859,51.685045],[-0.424057,51.684132],[-0.427409,51.683636],[-0.429528,51.68283],[-0.428405,51.681036],[-0.427665,51.679926],[-0.426305,51.678968],[-0.423602,51.676919],[-0.42678,51.676116],[-0.425867,51.675045],[-0.42531,51.674477],[-0.4247,51.673766],[-0.44744,51.64934],[-0.409006,51.636909],[-0.408959,51.636891],[-0.408045,51.636473],[-0.408002,51.63645],[-0.407965,51.636423],[-0.407936,51.636393],[-0.407914,51.636361],[-0.407566,51.635684],[-0.407556,51.63566],[-0.40755,51.635634],[-0.407549,51.635609],[-0.407552,51.635584],[-0.40756,51.635559],[-0.407572,51.635535],[-0.407589,51.635512],[-0.40761,51.63549],[-0.407107,51.634977],[-0.407078,51.634941],[-0.40679,51.63448],[-0.40628,51.634],[-0.40559,51.63371],[-0.40461,51.63355],[-0.40409,51.63379],[-0.40431,51.63416],[-0.405052,51.634651],[-0.405078,51.634671],[-0.405101,51.634692],[-0.405354,51.634962],[-0.405377,51.634991],[-0.405393,51.635021],[-0.405505,51.635298],[-0.405513,51.635324],[-0.405516,51.635351],[-0.405513,51.635377],[-0.405506,51.635404],[-0.405494,51.635429],[-0.405477,51.635454],[-0.405456,51.635477],[-0.40543,51.635498],[-0.405413,51.63551],[-0.405386,51.63553],[-0.405356,51.635548],[-0.405323,51.635563],[-0.405287,51.635576],[-0.405249,51.635586],[-0.40521,51.635594],[-0.405169,51.635598],[-0.405127,51.6356],[-0.405086,51.635599],[-0.405045,51.635595],[-0.405005,51.635588],[-0.404967,51.635578],[-0.404931,51.635565],[-0.404897,51.63555],[-0.404867,51.635533],[-0.404839,51.635513],[-0.40461,51.63533],[-0.403002,51.6346],[-0.402961,51.634578],[-0.402236,51.634132],[-0.402203,51.634109],[-0.402175,51.634083],[-0.40169,51.63355],[-0.40083,51.6332],[-0.39984,51.63315],[-0.39868,51.63318],[-0.398679,51.63318],[-0.397716,51.633356],[-0.397665,51.633362],[-0.397613,51.633365],[-0.397562,51.633362],[-0.397511,51.633355],[-0.397463,51.633344],[-0.397417,51.633328],[-0.397376,51.633309],[-0.39734,51.633286],[-0.397309,51.63326],[-0.397284,51.633231],[-0.397267,51.633201],[-0.397256,51.633169],[-0.397253,51.633137],[-0.397257,51.633105],[-0.397269,51.633074],[-0.397288,51.633044],[-0.399165,51.630578],[-0.399189,51.630551],[-0.399218,51.630527],[-0.399253,51.630505],[-0.399292,51.630487],[-0.399334,51.630472],[-0.39938,51.63046],[-0.399427,51.630453],[-0.399476,51.63045],[-0.400908,51.630411],[-0.40096,51.630412],[-0.40101,51.630418],[-0.40233,51.63062],[-0.40306,51.63051],[-0.403567,51.63029],[-0.403614,51.630273],[-0.403665,51.63026],[-0.403719,51.630253],[-0.403773,51.63025],[-0.40413,51.63025],[-0.405192,51.630063],[-0.405228,51.630058],[-0.40594,51.62998],[-0.406848,51.629768],[-0.406908,51.629758],[-0.40697,51.629754],[-0.407033,51.629757],[-0.407093,51.629767],[-0.40757,51.62987],[-0.41079,51.62934],[-0.411435,51.629188],[-0.41147,51.629181],[-0.411507,51.629176],[-0.412255,51.629103],[-0.41229,51.629101],[-0.412325,51.629101],[-0.41353,51.62913],[-0.41426,51.62905],[-0.41426,51.62841],[-0.406558,51.625113],[-0.406525,51.625098],[-0.406496,51.625079],[-0.406469,51.625059],[-0.406447,51.625037],[-0.406429,51.625014],[-0.406415,51.624989],[-0.406406,51.624964],[-0.406402,51.624938],[-0.40624,51.622605],[-0.40624,51.622595],[-0.40624,51.621332],[-0.406242,51.621307],[-0.406249,51.621282],[-0.40626,51.621258],[-0.406275,51.621235],[-0.40688,51.62044],[-0.40628,51.62041],[-0.404944,51.620541],[-0.404904,51.620544],[-0.404863,51.620543],[-0.404822,51.62054],[-0.404782,51.620534],[-0.404744,51.620525],[-0.404708,51.620514],[-0.404673,51.6205],[-0.404642,51.620483],[-0.404614,51.620465],[-0.404589,51.620445],[-0.404568,51.620423],[-0.404551,51.6204],[-0.404539,51.620375],[-0.404531,51.62035],[-0.404527,51.620325],[-0.404528,51.6203],[-0.40465,51.61943],[-0.40388,51.61938],[-0.40192,51.61938],[-0.40188,51.619379],[-0.399684,51.619227],[-0.399634,51.619221],[-0.399586,51.619211],[-0.39954,51.619197],[-0.399498,51.619179],[-0.399008,51.618934],[-0.398976,51.618916],[-0.398948,51.618896],[-0.398924,51.618874],[-0.398904,51.61885],[-0.39808,51.6177],[-0.397793,51.617475],[-0.397773,51.617457],[-0.397755,51.617438],[-0.39774,51.617418],[-0.397729,51.617397],[-0.397721,51.617376],[-0.397716,51.617354],[-0.397715,51.617332],[-0.397717,51.61731],[-0.397723,51.617289],[-0.397732,51.617267],[-0.397744,51.617247],[-0.39776,51.617227],[-0.397778,51.617208],[-0.397799,51.617191],[-0.397823,51.617175],[-0.39785,51.61716],[-0.39795,51.61711]]]},"properties":{"code":"E82124","name":"ATTENBOROUGH SURGERY","icb":"S1Y5D"}}]}