{"type":"FeatureCollection","features":[{"type":"Feature","geometry":{"type":"Polygon","coordinates":[[[0.031929,51.841293],[0.031881,51.841296],[0.031845,51.841299],[0.03181,51.841305],[0.031775,51.841312],[0.031743,51.841322],[0.031712,51.841333],[0.031683,51.841347],[0.031656,51.841362],[0.031632,51.841379],[0.031611,51.841397],[0.031592,51.841417],[0.031577,51.841437],[0.031566,51.841458],[0.031558,51.84148],[0.031553,51.841503],[0.031552,51.841525],[0.031555,51.841548],[0.03159,51.84172],[0.018345,51.842093],[0.018327,51.842094],[0.003194,51.842984],[0.003144,51.842989],[0.003095,51.842999],[0.003049,51.843012],[0.003007,51.84303],[-0.069008,51.877339],[-0.069134,51.876861],[-0.069145,51.876833],[-0.069161,51.876806],[-0.069183,51.87678],[-0.06921,51.876756],[-0.069242,51.876735],[-0.069278,51.876716],[-0.069317,51.8767],[-0.069359,51.876688],[-0.069404,51.876679],[-0.06945,51.876674],[-0.069497,51.876673],[-0.069544,51.876675],[-0.06959,51.876681],[-0.069634,51.87669],[-0.069676,51.876703],[-0.069715,51.87672],[-0.07278,51.87819],[-0.074102,51.859296],[-0.074105,51.859276],[-0.074111,51.859256],[-0.074119,51.859236],[-0.074131,51.859217],[-0.074146,51.859198],[-0.074163,51.859181],[-0.074183,51.859164],[-0.074205,51.859149],[-0.074229,51.859135],[-0.074255,51.859122],[-0.074283,51.859111],[-0.074313,51.859102],[-0.074343,51.859094],[-0.074375,51.859088],[-0.074408,51.859084],[-0.074441,51.859082],[-0.088976,51.858495],[-0.089022,51.858495],[-0.093899,51.858683],[-0.105228,51.858471],[-0.111162,51.857599],[-0.111223,51.857593],[-0.115871,51.857411],[-0.11576,51.856727],[-0.115759,51.856693],[-0.11873,51.820447],[-0.118732,51.820434],[-0.123942,51.791339],[-0.123953,51.791303],[-0.123973,51.791269],[-0.14205,51.76699],[-0.142021,51.766968],[-0.141996,51.766944],[-0.141977,51.766918],[-0.141963,51.766891],[-0.141954,51.766863],[-0.141952,51.766834],[-0.141955,51.766806],[-0.141964,51.766778],[-0.142125,51.766355],[-0.142134,51.766334],[-0.142147,51.766314],[-0.142163,51.766295],[-0.142182,51.766277],[-0.142204,51.76626],[-0.142228,51.766244],[-0.142255,51.76623],[-0.142283,51.766217],[-0.142479,51.76614],[-0.142355,51.766],[-0.142341,51.765981],[-0.142329,51.765962],[-0.14232,51.765942],[-0.142314,51.765922],[-0.142311,51.765901],[-0.142311,51.765881],[-0.142314,51.76586],[-0.142321,51.76584],[-0.144711,51.759553],[-0.143681,51.758278],[-0.136814,51.75679],[-0.129612,51.756578],[-0.129596,51.756578],[-0.118618,51.75594],[-0.107288,51.756578],[-0.098052,51.757636],[-0.098019,51.757639],[-0.097986,51.75764],[-0.091839,51.75764],[-0.073299,51.758278],[-0.053043,51.759128],[-0.047207,51.760403],[-0.044179,51.761784],[-0.04414,51.7618],[-0.040169,51.763165],[-0.033302,51.769115],[-0.028501,51.778878],[-0.02849,51.778896],[-0.02442,51.785191],[-0.024395,51.785223],[-0.024362,51.785251],[-0.024322,51.785277],[-0.024276,51.785298],[-0.023405,51.785635],[-0.023374,51.785645],[-0.023342,51.785654],[-0.023308,51.785661],[-0.023273,51.785666],[-0.023238,51.785668],[-0.023203,51.785669],[-0.023167,51.785667],[-0.023133,51.785663],[-0.023098,51.785657],[-0.023065,51.785649],[-0.023034,51.785639],[-0.023004,51.785628],[-0.022976,51.785614],[-0.022951,51.785599],[-0.022927,51.785582],[-0.022907,51.785564],[-0.02129,51.78398],[0.017706,51.801527],[0.017727,51.801536],[0.025063,51.804369],[0.031929,51.841293]]]},"properties":{"code":"E82102","name":"NEW RIVER HEALTH","icb":"S1Y5D"}}]}