{"type":"FeatureCollection","features":[{"type":"Feature","geometry":{"type":"Polygon","coordinates":[[[-0.10918,52.02799],[-0.07755,52.01254],[-0.07392,52.00825],[-0.05945,52.00552],[-0.04463,51.99899],[-0.03991,52.00034],[-0.03689,52.00398],[-0.0249,52.00067],[-0.01884,52.00228],[-0.01416,52.00491],[-0.01064,52.00824],[-0.00064,52.00985],[0.01139,52.0086],[0.02738,52.01093],[0.03098,52.01187],[0.03428,52.01287],[0.03527,52.01392],[0.03745,52.0152],[0.03835,52.01636],[0.047228,52.017789],[0.051005,52.023025],[0.05627,52.028004],[0.07419,52.039645],[0.078015,52.078422],[0.042339,52.106735],[0.036724,52.113355],[0.006412,52.121702],[-0.08693,52.104634],[-0.10918,52.02799]]]},"properties":{"code":"E82132","name":"ROYSIA SURGERY","icb":"S1Y5D"}}]}