{"type":"FeatureCollection","features":[{"type":"Feature","geometry":{"type":"Polygon","coordinates":[[[-0.358833,51.668467],[-0.35894,51.66851],[-0.36358,51.66542],[-0.36444,51.66159],[-0.36916,51.65749],[-0.37169,51.65544],[-0.37525,51.65424],[-0.37894,51.65046],[-0.3816,51.64668],[-0.38263,51.64577],[-0.38418,51.64551],[-0.38263,51.6422],[-0.38298,51.6405],[-0.38435,51.6388],[-0.37439,51.63294],[-0.37371,51.62889],[-0.36933,51.62468],[-0.36804,51.62047],[-0.36581,51.61818],[-0.36289,51.61716],[-0.35534,51.60992],[-0.34693,51.60981],[-0.33937,51.6113],[-0.3362,51.61162],[-0.33234,51.61343],[-0.32633,51.61471],[-0.32264,51.61535],[-0.31912,51.61663],[-0.31792,51.61631],[-0.31036,51.61759],[-0.29251,51.62164],[-0.30573,51.63283],[-0.3047,51.63667],[-0.31483,51.63949],[-0.32255,51.64338],[-0.32684,51.64535],[-0.33216,51.64647],[-0.333527,51.648056],[-0.33525,51.65062],[-0.338223,51.653507],[-0.34032,51.65594],[-0.35294,51.66542],[-0.35508,51.66697],[-0.3587,51.668414],[-0.35894,51.66856],[-0.358833,51.668467]]]},"properties":{"code":"E82657","name":"LITTLE BUSHEY SURGERY","icb":"S1Y5D"}}]}