{"type":"FeatureCollection","features":[{"type":"Feature","geometry":{"type":"Polygon","coordinates":[[[-0.238612,52.032571],[-0.260344,52.03042],[-0.26459,52.02582],[-0.267325,52.021147],[-0.267701,52.012184],[-0.266077,52.009867],[-0.271504,52.006277],[-0.282645,51.999389],[-0.291791,51.989472],[-0.290421,51.981665],[-0.300579,51.960346],[-0.291996,51.945746],[-0.295086,51.942149],[-0.280151,51.936011],[-0.269508,51.935799],[-0.261612,51.934529],[-0.256119,51.93347],[-0.238646,51.931865],[-0.220014,51.929767],[-0.211137,51.94994],[-0.195538,51.966867],[-0.176965,51.974374],[-0.169957,51.990284],[-0.200302,52.011698],[-0.213711,52.027017],[-0.226191,52.029801],[-0.238612,52.032571]]]},"properties":{"code":"E82661","name":"THE GARDEN CITY SURGERY","icb":"S1Y5D"}}]}