{"type":"FeatureCollection","features":[{"type":"Feature","geometry":{"type":"Polygon","coordinates":[[[-0.158579,51.667259],[-0.15759,51.66764],[-0.16121,51.67166],[-0.17727,51.67303],[-0.1796,51.66977],[-0.20239,51.66849],[-0.20593,51.66063],[-0.24928,51.65428],[-0.255232,51.641559],[-0.25543,51.64151],[-0.2429,51.63752],[-0.18042,51.64002],[-0.17428,51.6388],[-0.16889,51.64023],[-0.17234,51.64625],[-0.17606,51.66084],[-0.175318,51.661113],[-0.17021,51.66236],[-0.158579,51.667259]]]},"properties":{"code":"E83017","name":"LONGROVE SURGERY","icb":"Z9B2Z"}}]}