{"type":"FeatureCollection","features":[{"type":"Feature","geometry":{"type":"Polygon","coordinates":[[[-0.2656,51.60923],[-0.2624,51.60962],[-0.25737,51.61034],[-0.25533,51.61021],[-0.25321,51.60996],[-0.252,51.60995],[-0.25029,51.60865],[-0.24707,51.60986],[-0.24479,51.60942],[-0.24239,51.6093],[-0.24193,51.614412],[-0.2444,51.61653],[-0.24291,51.6209],[-0.2422,51.62145],[-0.24551,51.62236],[-0.24496,51.62373],[-0.24604,51.62481],[-0.24768,51.6296],[-0.25007,51.63029],[-0.26194,51.63198],[-0.26873,51.63338],[-0.2753,51.63331],[-0.28715,51.63293],[-0.28708,51.62389],[-0.30736,51.61802],[-0.30075,51.6073],[-0.29517,51.59909],[-0.28047,51.60445],[-0.27488,51.60692],[-0.27297,51.60764],[-0.27097,51.60821],[-0.2656,51.60923]]]},"properties":{"code":"E83030","name":"PENSHURST GARDENS SURGERY","icb":"Z9B2Z"}}]}