{"type":"FeatureCollection","features":[{"type":"Feature","geometry":{"type":"Polygon","coordinates":[[[-0.29264,51.62175],[-0.28756,51.61726],[-0.28565,51.61527],[-0.245233,51.56304],[-0.216514,51.568013],[-0.207376,51.567497],[-0.204226,51.56732],[-0.195453,51.570881],[-0.24963,51.61367],[-0.25659,51.62024],[-0.26178,51.62609],[-0.26246,51.6267],[-0.26742,51.63249],[-0.2723,51.63153],[-0.27673,51.62973],[-0.28152,51.62816],[-0.29264,51.62175]]]},"properties":{"code":"E83038","name":"JAI MEDICAL CENTRE","icb":"Z9B2Z"}}]}