{"type":"FeatureCollection","features":[{"type":"Feature","geometry":{"type":"Polygon","coordinates":[[[-0.24942,51.61311],[-0.25406,51.61514],[-0.25921,51.61674],[-0.26058,51.61695],[-0.26196,51.6177],[-0.2635,51.6177],[-0.26642,51.6178],[-0.26917,51.61844],[-0.2726,51.61796],[-0.27964,51.61066],[-0.25217,51.58784],[-0.24376,51.58689],[-0.23869,51.58701],[-0.23765,51.58985],[-0.23533,51.59447],[-0.23762,51.60083],[-0.23982,51.60297],[-0.24942,51.61311]]]},"properties":{"code":"E83011","name":"THE EVERGLADE MEDICAL PRACTICE","icb":"Z9B2Z"}}]}