{"type":"FeatureCollection","features":[{"type":"Feature","geometry":{"type":"Polygon","coordinates":[[[-0.26743,51.631982],[-0.270142,51.631958],[-0.272464,51.631487],[-0.277621,51.630441],[-0.279955,51.630366],[-0.28087,51.630215],[-0.283045,51.628217],[-0.287954,51.623707],[-0.288234,51.623483],[-0.2889,51.62324],[-0.29009,51.62279],[-0.29239,51.62176],[-0.29775,51.62081],[-0.303237,51.619926],[-0.305014,51.619565],[-0.306434,51.618896],[-0.307514,51.618387],[-0.308169,51.618079],[-0.30778,51.617263],[-0.307242,51.616457],[-0.306301,51.614809],[-0.304214,51.611677],[-0.303535,51.610726],[-0.302417,51.60984],[-0.301952,51.60875],[-0.301316,51.607256],[-0.300232,51.605701],[-0.299382,51.604424],[-0.298491,51.603554],[-0.296863,51.601111],[-0.295797,51.598607],[-0.293314,51.599017],[-0.291254,51.599335],[-0.289839,51.599969],[-0.287732,51.601657],[-0.284384,51.602878],[-0.279267,51.604912],[-0.274218,51.607159],[-0.269972,51.608249],[-0.26539,51.60906],[-0.264899,51.611964],[-0.258332,51.612582],[-0.252259,51.612634],[-0.249919,51.613514],[-0.247789,51.614091],[-0.245108,51.615282],[-0.244349,51.61688],[-0.24412,51.619522],[-0.244821,51.619719],[-0.248077,51.6223],[-0.247831,51.622979],[-0.249802,51.62435],[-0.253155,51.622484],[-0.2548,51.622825],[-0.254457,51.626784],[-0.257449,51.627405],[-0.260424,51.626802],[-0.26219,51.626676],[-0.26743,51.631982]]]},"properties":{"code":"E83053","name":"LANE END MEDICAL GROUP","icb":"Z9B2Z"}}]}