{"type":"FeatureCollection","features":[{"type":"Feature","geometry":{"type":"Polygon","coordinates":[[[-0.265142,51.626596],[-0.266526,51.624278],[-0.266536,51.622473],[-0.266601,51.621867],[-0.267406,51.621674],[-0.26792,51.619269],[-0.267856,51.618303],[-0.269669,51.618276],[-0.271268,51.61843],[-0.272652,51.61809],[-0.273864,51.616884],[-0.275656,51.615745],[-0.275935,51.614099],[-0.276707,51.613293],[-0.27528,51.612953],[-0.272437,51.612034],[-0.271472,51.610402],[-0.270367,51.60819],[-0.257556,51.610255],[-0.253083,51.609882],[-0.252289,51.607657],[-0.251189,51.605328],[-0.250314,51.605701],[-0.248582,51.606028],[-0.248153,51.606061],[-0.247697,51.606041],[-0.247251,51.606031],[-0.246806,51.605998],[-0.245798,51.605864],[-0.24488,51.606151],[-0.24428,51.605654],[-0.244038,51.605434],[-0.243883,51.605211],[-0.243877,51.604495],[-0.243904,51.603745],[-0.243893,51.602922],[-0.243748,51.602726],[-0.243448,51.602566],[-0.242933,51.602476],[-0.242391,51.602499],[-0.242177,51.601213],[-0.242311,51.60122],[-0.242482,51.601226],[-0.242858,51.60121],[-0.243523,51.60108],[-0.244172,51.60089],[-0.244516,51.600866],[-0.244805,51.60083],[-0.24568,51.600747],[-0.245969,51.600963],[-0.246146,51.601026],[-0.246334,51.601066],[-0.247697,51.601136],[-0.249048,51.60115],[-0.251538,51.60122],[-0.252809,51.601256],[-0.253415,51.601426],[-0.253866,51.601666],[-0.254767,51.602413],[-0.254998,51.602566],[-0.255293,51.602686],[-0.255872,51.602872],[-0.256269,51.602412],[-0.256827,51.601786],[-0.257674,51.600863],[-0.257927,51.600577],[-0.256677,51.600113],[-0.255378,51.59958],[-0.254703,51.599247],[-0.25408,51.598871],[-0.253072,51.598174],[-0.255572,51.596595],[-0.259713,51.594199],[-0.25775,51.592456],[-0.256698,51.591629],[-0.255593,51.590848],[-0.255577,51.590951],[-0.25551,51.591059],[-0.255303,51.591264],[-0.254818,51.591589],[-0.25419,51.591867],[-0.253458,51.592092],[-0.25312,51.592102],[-0.252769,51.592052],[-0.252444,51.591971],[-0.252112,51.591854],[-0.251473,51.591632],[-0.250787,51.591562],[-0.250242,51.591504],[-0.249166,51.591393],[-0.247031,51.591154],[-0.246503,51.591101],[-0.245975,51.591046],[-0.244913,51.590963],[-0.244274,51.590948],[-0.243625,51.590948],[-0.24307,51.590874],[-0.24252,51.590719],[-0.242233,51.590604],[-0.241949,51.590461],[-0.24142,51.590059],[-0.240959,51.589676],[-0.24068,51.589453],[-0.240401,51.589233],[-0.239822,51.588763],[-0.239693,51.588633],[-0.239543,51.58853],[-0.239393,51.588416],[-0.239242,51.588323],[-0.238969,51.58821],[-0.238695,51.588096],[-0.238309,51.587976],[-0.237923,51.587896],[-0.236013,51.593275],[-0.234532,51.592962],[-0.233696,51.592576],[-0.229211,51.591189],[-0.228932,51.591976],[-0.228524,51.592762],[-0.228803,51.596375],[-0.227323,51.596868],[-0.224447,51.598987],[-0.218697,51.601066],[-0.215864,51.603998],[-0.211004,51.604492],[-0.210285,51.605824],[-0.210843,51.606217],[-0.210811,51.60675],[-0.211294,51.606764],[-0.211229,51.607857],[-0.210972,51.608303],[-0.209759,51.60819],[-0.206648,51.607064],[-0.201917,51.605065],[-0.200801,51.607277],[-0.197883,51.609169],[-0.195179,51.611008],[-0.192261,51.612314],[-0.189772,51.615032],[-0.189128,51.616125],[-0.188956,51.61767],[-0.188484,51.619749],[-0.188012,51.621161],[-0.185566,51.624065],[-0.184193,51.62521],[-0.183592,51.626409],[-0.181961,51.628248],[-0.182562,51.629127],[-0.182562,51.629739],[-0.182219,51.630139],[-0.180802,51.630752],[-0.180545,51.631711],[-0.20153,51.636266],[-0.206938,51.636825],[-0.233116,51.636772],[-0.234168,51.63797],[-0.241184,51.642724],[-0.243137,51.642378],[-0.260357,51.631444],[-0.262717,51.628647],[-0.264444,51.628134],[-0.265142,51.626596]]]},"properties":{"code":"E83016","name":"MILLWAY MEDICAL PRACTICE","icb":"Z9B2Z"}}]}