{"type":"FeatureCollection","features":[{"type":"Feature","geometry":{"type":"Polygon","coordinates":[[[-0.19587,51.55882],[-0.196383,51.559516],[-0.19647,51.564252],[-0.19449,51.56832],[-0.195212,51.56954],[-0.19578,51.57232],[-0.196808,51.575994],[-0.19698,51.57755],[-0.19981,51.583276],[-0.19999,51.58982],[-0.20617,51.58875],[-0.20953,51.586448],[-0.209703,51.586411],[-0.21526,51.58699],[-0.214967,51.586118],[-0.215144,51.585959],[-0.21835,51.58566],[-0.221402,51.583832],[-0.22556,51.58304],[-0.21784,51.57686],[-0.211307,51.572684],[-0.205988,51.565967],[-0.202683,51.56114],[-0.202633,51.561033],[-0.20273,51.56074],[-0.19587,51.55882]]]},"properties":{"code":"E83600","name":"DRS ADLER AND ROSENBERG","icb":"Z9B2Z"}}]}