{"type":"FeatureCollection","features":[{"type":"Feature","geometry":{"type":"Polygon","coordinates":[[[-0.16982,51.65544],[-0.17308,51.65544],[-0.17475,51.6552],[-0.18454,51.65531],[-0.18501,51.64758],[-0.18314,51.64625],[-0.18458,51.64435],[-0.18312,51.63925],[-0.17394,51.63304],[-0.16029,51.62857],[-0.15029,51.63195],[-0.14982,51.63515],[-0.15123,51.63637],[-0.15239,51.64537],[-0.15025,51.65065],[-0.15454,51.65509],[-0.15849,51.65547],[-0.16982,51.65544]]]},"properties":{"code":"E83613","name":"EAST BARNET HEALTH CENTRE","icb":"Z9B2Z"}}]}