{"type":"FeatureCollection","features":[{"type":"Feature","geometry":{"type":"Polygon","coordinates":[[[-0.283941,51.551062],[-0.277998,51.548004],[-0.275726,51.547516],[-0.271138,51.548499],[-0.26967,51.549608],[-0.266501,51.551034],[-0.260054,51.552872],[-0.256468,51.554027],[-0.25481,51.555279],[-0.253358,51.55553],[-0.254468,51.556645],[-0.255548,51.55801],[-0.254166,51.558776],[-0.254003,51.559038],[-0.25474,51.558904],[-0.254483,51.559318],[-0.255155,51.559243],[-0.258336,51.56184],[-0.258076,51.562257],[-0.25682,51.562092],[-0.264453,51.565323],[-0.268868,51.568262],[-0.272267,51.57068],[-0.274861,51.574793],[-0.27783,51.57971],[-0.278587,51.580697],[-0.279119,51.581539],[-0.283585,51.590503],[-0.284666,51.591057],[-0.28685,51.59238],[-0.288735,51.593138],[-0.295258,51.596475],[-0.303841,51.594982],[-0.299619,51.588612],[-0.299652,51.587618],[-0.299763,51.587513],[-0.300956,51.587178],[-0.30335,51.58738],[-0.30647,51.58684],[-0.315242,51.582897],[-0.316544,51.582507],[-0.304111,51.563453],[-0.304268,51.563268],[-0.306543,51.562969],[-0.31294,51.56293],[-0.31946,51.56174],[-0.31912,51.55906],[-0.316618,51.555897],[-0.30666,51.554163],[-0.284434,51.551318],[-0.283941,51.551062]]]},"properties":{"code":"E84030","name":"PRESTON HILL SURGERY","icb":"Z9B2Z"}}]}