{"type":"FeatureCollection","features":[{"type":"Feature","geometry":{"type":"Polygon","coordinates":[[[-0.37937,51.61525],[-0.37933,51.61523],[-0.38293,51.61414],[-0.38871,51.61024],[-0.39057,51.60649],[-0.38755,51.60225],[-0.38589,51.59948],[-0.38386,51.59981],[-0.37641,51.60145],[-0.36884,51.60632],[-0.36796,51.6091],[-0.36525,51.60909],[-0.35987,51.60868],[-0.35534,51.60977],[-0.36191,51.61615],[-0.36229,51.61707],[-0.36489,51.61795],[-0.37937,51.61525]]]},"properties":{"code":"E84053","name":"HATCH END MEDICAL CENTRE","icb":"Z9B2Z"}}]}