{"type":"FeatureCollection","features":[{"type":"Feature","geometry":{"type":"Polygon","coordinates":[[[-0.305532,51.613591],[-0.305182,51.612746],[-0.306572,51.612527],[-0.311337,51.612269],[-0.307373,51.603281],[-0.307458,51.603154],[-0.3081,51.60289],[-0.30804,51.60273],[-0.304778,51.597425],[-0.3044,51.594239],[-0.30414,51.59032],[-0.300752,51.590503],[-0.30056,51.590436],[-0.299487,51.589085],[-0.29989,51.58696],[-0.279636,51.584857],[-0.279636,51.589443],[-0.280666,51.591043],[-0.282555,51.592429],[-0.283756,51.592856],[-0.281353,51.593389],[-0.281696,51.593922],[-0.282211,51.594455],[-0.286031,51.593149],[-0.285687,51.593309],[-0.28592,51.593324],[-0.285882,51.593333],[-0.285845,51.593342],[-0.28577,51.59336],[-0.281911,51.594562],[-0.283241,51.594349],[-0.282211,51.594668],[-0.282211,51.594695],[-0.282469,51.595308],[-0.282726,51.595948],[-0.282383,51.596268],[-0.283756,51.596855],[-0.285487,51.596645],[-0.28381,51.59691],[-0.287506,51.601865],[-0.287511,51.601956],[-0.28637,51.60379],[-0.285038,51.607215],[-0.284957,51.607285],[-0.28273,51.60818],[-0.2813,51.60952],[-0.28269,51.60966],[-0.285698,51.609196],[-0.286578,51.609076],[-0.287511,51.608923],[-0.28881,51.608749],[-0.290043,51.608563],[-0.291224,51.608376],[-0.291964,51.608283],[-0.29279,51.608136],[-0.294815,51.607815],[-0.292511,51.60821],[-0.282683,51.609662],[-0.283928,51.609596],[-0.287018,51.61386],[-0.292854,51.619615],[-0.302335,51.618342],[-0.305058,51.617385],[-0.306756,51.61738],[-0.307502,51.617149],[-0.305532,51.613591]]]},"properties":{"code":"E84039","name":"HONEYPOT MEDICAL CENTRE","icb":"Z9B2Z"}}]}