{"type":"FeatureCollection","features":[{"type":"Feature","geometry":{"type":"Polygon","coordinates":[[[-0.202931,51.503845],[-0.19804,51.504753],[-0.196379,51.50566],[-0.193365,51.507168],[-0.188353,51.509675],[-0.180805,51.511818],[-0.174182,51.513698],[-0.170852,51.515413],[-0.166459,51.517675],[-0.161953,51.518747],[-0.158155,51.521103],[-0.155715,51.526188],[-0.155754,51.532093],[-0.158141,51.537855],[-0.159837,51.540146],[-0.161674,51.542627],[-0.164616,51.546197],[-0.167233,51.549085],[-0.17408,51.553635],[-0.181714,51.555417],[-0.186534,51.557488],[-0.19112,51.558798],[-0.196704,51.560714],[-0.204238,51.564627],[-0.211436,51.567197],[-0.220335,51.56927],[-0.227171,51.569221],[-0.232826,51.568346],[-0.242859,51.568087],[-0.248009,51.567289],[-0.254249,51.566656],[-0.263518,51.566329],[-0.276882,51.562013],[-0.280267,51.555561],[-0.28083,51.549155],[-0.277178,51.542831],[-0.273741,51.538523],[-0.271952,51.535424],[-0.26687,51.532055],[-0.264229,51.528501],[-0.262173,51.524936],[-0.26163,51.52288],[-0.257609,51.520213],[-0.254265,51.517095],[-0.249746,51.514748],[-0.245716,51.513993],[-0.241564,51.512056],[-0.235649,51.510523],[-0.228665,51.508711],[-0.220735,51.506447],[-0.215821,51.505301],[-0.205462,51.504321],[-0.202931,51.503845]]]},"properties":{"code":"E84025","name":"THE LONSDALE MEDICAL CENTRE","icb":"Z9B2Z"}}]}