{"type":"FeatureCollection","features":[{"type":"Feature","geometry":{"type":"Polygon","coordinates":[[[-0.26728,51.60019],[-0.28708,51.59316],[-0.29724,51.59466],[-0.31049,51.59274],[-0.30751,51.58501],[-0.30625,51.57685],[-0.29547,51.57458],[-0.29162,51.57238],[-0.28915,51.56997],[-0.28429,51.5668],[-0.27805,51.56555],[-0.26341,51.56608],[-0.25288,51.57107],[-0.24766,51.57541],[-0.248007,51.584137],[-0.251999,51.58791],[-0.256142,51.591256],[-0.255421,51.591349],[-0.255196,51.591549],[-0.253801,51.592109],[-0.253168,51.592216],[-0.252267,51.592029],[-0.251345,51.591722],[-0.247396,51.591316],[-0.244564,51.591056],[-0.24392,51.591083],[-0.243276,51.591043],[-0.242193,51.590709],[-0.241517,51.591003],[-0.240379,51.592202],[-0.239012,51.593855],[-0.240009,51.594149],[-0.240933,51.594507],[-0.241868,51.594855],[-0.242075,51.594935],[-0.24234,51.595015],[-0.242842,51.595163],[-0.243998,51.59542],[-0.245157,51.595675],[-0.246238,51.595921],[-0.24635,51.595958],[-0.246522,51.595993],[-0.246865,51.596111],[-0.247031,51.596198],[-0.247238,51.59627],[-0.247308,51.596401],[-0.247324,51.596453],[-0.24742,51.596425],[-0.247804,51.596268],[-0.248652,51.595841],[-0.250057,51.595182],[-0.252771,51.593909],[-0.253629,51.593862],[-0.257363,51.592216],[-0.26728,51.60019]]]},"properties":{"code":"E84015","name":"WILLOW TREE FAMILY DOCTORS","icb":"Z9B2Z"}}]}