{"type":"FeatureCollection","features":[{"type":"Feature","geometry":{"type":"Polygon","coordinates":[[[-0.224328,51.259594],[-0.194516,51.261216],[-0.167122,51.270449],[-0.102906,51.259038],[-0.077151,51.259865],[-0.045885,51.259039],[0.011502,51.269832],[0.074678,51.276396],[0.138112,51.293527],[0.157969,51.30835],[0.158268,51.364836],[0.180569,51.376991],[0.186672,51.38321],[0.187671,51.386731],[0.196689,51.393441],[0.203304,51.400148],[0.224915,51.414423],[0.232532,51.425679],[0.260307,51.47173],[0.256809,51.480209],[0.258958,51.487718],[0.264937,51.497614],[0.288558,51.553979],[0.262531,51.604253],[0.243034,51.618653],[0.21556,51.632639],[0.199449,51.643265],[0.194458,51.655277],[0.1487,51.665971],[0.106118,51.684989],[0.083529,51.689016],[0.048904,51.682594],[0.045317,51.677289],[0.002809,51.681735],[-0.034853,51.680563],[-0.061658,51.679721],[-0.075471,51.685855],[-0.086197,51.686967],[-0.105037,51.691319],[-0.128547,51.685617],[-0.16917,51.683453],[-0.198344,51.684863],[-0.220492,51.680699],[-0.266132,51.713884],[-0.333493,51.708841],[-0.391159,51.714933],[-0.433298,51.706937],[-0.451401,51.683995],[-0.489211,51.665905],[-0.521851,51.644447],[-0.526246,51.615282],[-0.543824,51.597549],[-0.558931,51.583045],[-0.557558,51.581343],[-0.557559,51.578785],[-0.557559,51.578786],[-0.5658,51.554025],[-0.605629,51.536088],[-0.641337,51.498479],[-0.589148,51.465116],[-0.568548,51.453136],[-0.524112,51.449571],[-0.539913,51.429366],[-0.538738,51.40345],[-0.535066,51.400902],[-0.530095,51.391616],[-0.505336,51.373628],[-0.499246,51.36223],[-0.490494,51.353281],[-0.488217,51.351219],[-0.486193,51.348777],[-0.485368,51.345689],[-0.485348,51.343388],[-0.485283,51.341925],[-0.483884,51.335149],[-0.480198,51.33067],[-0.474143,51.326725],[-0.466607,51.324998],[-0.457109,51.324038],[-0.446549,51.321262],[-0.431319,51.31401],[-0.419771,51.309543],[-0.405814,51.305998],[-0.397679,51.30609],[-0.391016,51.307366],[-0.371169,51.312274],[-0.354533,51.313541],[-0.34561,51.315426],[-0.337707,51.315864],[-0.329777,51.313472],[-0.318737,51.301627],[-0.313493,51.297789],[-0.310513,51.296258],[-0.304251,51.293826],[-0.291842,51.292497],[-0.272434,51.287225],[-0.253611,51.272647],[-0.224328,51.259594]]]},"properties":{"code":"E84066","name":"GP PATHFINDER CLINICS","icb":"Z9B2Z"}}]}