{"type":"FeatureCollection","features":[{"type":"Feature","geometry":{"type":"Polygon","coordinates":[[[-0.25213,51.58862],[-0.25552,51.59011],[-0.2641,51.59142],[-0.26711,51.59131],[-0.27046,51.59062],[-0.27736,51.58888],[-0.28144,51.5855],[-0.28456,51.58163],[-0.28631,51.57574],[-0.28552,51.5727],[-0.28246,51.56845],[-0.27837,51.56485],[-0.27124,51.56301],[-0.2641,51.56203],[-0.26069,51.56194],[-0.25741,51.56207],[-0.25123,51.56312],[-0.24844,51.56457],[-0.24586,51.56609],[-0.24316,51.56914],[-0.24239,51.57099],[-0.24098,51.57268],[-0.24104,51.57473],[-0.2409,51.57709],[-0.24232,51.58016],[-0.2447,51.58323],[-0.24859,51.58648],[-0.24993,51.5874],[-0.25213,51.58862]]]},"properties":{"code":"E84067","name":"CHURCH LANE SURGERY","icb":"Z9B2Z"}}]}