{"type":"FeatureCollection","features":[{"type":"Feature","geometry":{"type":"Polygon","coordinates":[[[-0.251906,51.530768],[-0.24985,51.52909],[-0.24496,51.5277],[-0.24376,51.52781],[-0.24084,51.52599],[-0.22968,51.52626],[-0.2205,51.5277],[-0.21887,51.5276],[-0.21621,51.52685],[-0.21604,51.52941],[-0.21732,51.53187],[-0.22616,51.54126],[-0.22582,51.54281],[-0.2223,51.5442],[-0.22161,51.54564],[-0.22676,51.54575],[-0.22891,51.54687],[-0.23492,51.54719],[-0.23698,51.54762],[-0.2387,51.54852],[-0.24024,51.54804],[-0.24204,51.54858],[-0.2435,51.54884],[-0.24771,51.54874],[-0.24839,51.54868],[-0.248403,51.548616],[-0.24908,51.54858],[-0.25397,51.54847],[-0.25715,51.54735],[-0.25801,51.54762],[-0.25972,51.54703],[-0.26676,51.54548],[-0.26753,51.54372],[-0.26367,51.5418],[-0.26187,51.54142],[-0.26299,51.53913],[-0.26247,51.53854],[-0.26359,51.53512],[-0.25397,51.53262],[-0.251906,51.530768]]]},"properties":{"code":"E84074","name":"FREUCHEN MEDICAL CENTRE","icb":"Z9B2Z"}}]}