{"type":"FeatureCollection","features":[{"type":"Feature","geometry":{"type":"Polygon","coordinates":[[[-0.253029,51.572429],[-0.251269,51.573149],[-0.254532,51.580003],[-0.254317,51.581683],[-0.252557,51.58291],[-0.250325,51.583737],[-0.248135,51.584217],[-0.253327,51.58883],[-0.266979,51.6004],[-0.270838,51.598534],[-0.273413,51.598294],[-0.27891,51.596135],[-0.281825,51.595948],[-0.284786,51.595388],[-0.29054,51.593629],[-0.288477,51.592749],[-0.286245,51.592162],[-0.283541,51.589896],[-0.282167,51.584963],[-0.293241,51.586483],[-0.29839,51.586803],[-0.300794,51.587176],[-0.303454,51.587203],[-0.305901,51.586776],[-0.30826,51.58595],[-0.311222,51.585017],[-0.314226,51.58371],[-0.319848,51.58035],[-0.326673,51.578696],[-0.325427,51.576189],[-0.325041,51.573682],[-0.322123,51.569655],[-0.325298,51.568214],[-0.327401,51.567787],[-0.329633,51.567067],[-0.329719,51.56616],[-0.328689,51.565867],[-0.328345,51.563386],[-0.328259,51.562505],[-0.330234,51.562345],[-0.33135,51.561571],[-0.330963,51.561385],[-0.333045,51.559691],[-0.33401,51.558743],[-0.333946,51.557716],[-0.334873,51.55785],[-0.33562,51.556569],[-0.334032,51.556262],[-0.331178,51.555768],[-0.328324,51.555502],[-0.312681,51.549324],[-0.30693,51.545134],[-0.308905,51.545214],[-0.307746,51.544307],[-0.308519,51.543239],[-0.305557,51.540196],[-0.30487,51.539903],[-0.305643,51.539636],[-0.3059,51.539129],[-0.30625,51.533923],[-0.307489,51.533122],[-0.302854,51.531948],[-0.299292,51.533309],[-0.296072,51.535312],[-0.294056,51.534858],[-0.287661,51.536326],[-0.282208,51.538541],[-0.278434,51.535338],[-0.283713,51.533763],[-0.288605,51.531894],[-0.280668,51.52853],[-0.2738,51.529678],[-0.268951,51.529785],[-0.266161,51.530666],[-0.263415,51.532615],[-0.260582,51.534377],[-0.257749,51.535365],[-0.255625,51.534017],[-0.254252,51.534057],[-0.253007,51.53411],[-0.24582,51.5316],[-0.240884,51.531854],[-0.237536,51.532001],[-0.234339,51.532548],[-0.23391,51.532348],[-0.232816,51.531734],[-0.230134,51.530746],[-0.22264,51.52957],[-0.219029,51.528838],[-0.21595,51.52776],[-0.21544,51.52893],[-0.215563,51.530212],[-0.21535,51.531334],[-0.211654,51.532081],[-0.207667,51.532909],[-0.203032,51.532936],[-0.199899,51.531494],[-0.197925,51.530186],[-0.197968,51.52789],[-0.196465,51.527756],[-0.195435,51.529305],[-0.193288,51.531334],[-0.191574,51.534003],[-0.189426,51.535178],[-0.199464,51.542972],[-0.20805,51.550605],[-0.221354,51.562452],[-0.227537,51.567467],[-0.231142,51.570188],[-0.233331,51.571975],[-0.235391,51.572349],[-0.236721,51.572455],[-0.237408,51.572509],[-0.238051,51.571815],[-0.241442,51.572589],[-0.242085,51.572722],[-0.244059,51.572455],[-0.245948,51.572242],[-0.246721,51.571628],[-0.245948,51.570988],[-0.246849,51.568695],[-0.249509,51.568908],[-0.253029,51.572429]]]},"properties":{"code":"E84011","name":"ST ANDREWS MEDICAL CENTRE","icb":"Z9B2Z"}}]}