{"type":"FeatureCollection","features":[{"type":"Feature","geometry":{"type":"Polygon","coordinates":[[[-0.332309,51.524402],[-0.328435,51.523824],[-0.322067,51.52336],[-0.290691,51.52761],[-0.283158,51.531503],[-0.269349,51.534879],[-0.257981,51.538409],[-0.262313,51.560179],[-0.293525,51.572842],[-0.299486,51.572815],[-0.306182,51.574767],[-0.326282,51.577853],[-0.341702,51.578839],[-0.403322,51.578555],[-0.431162,51.55132],[-0.386347,51.540464],[-0.34941,51.527031],[-0.332309,51.524402]]]},"properties":{"code":"E84059","name":"THE ALLENDALE ROAD SURGERY","icb":"Z9B2Z"}}]}