{"type":"FeatureCollection","features":[{"type":"Feature","geometry":{"type":"Polygon","coordinates":[[[-0.33307,51.59211],[-0.3326,51.58961],[-0.33184,51.5878],[-0.33211,51.58592],[-0.33067,51.5822],[-0.32656,51.57962],[-0.3247,51.57659],[-0.32398,51.57388],[-0.32274,51.57255],[-0.32028,51.56904],[-0.31946,51.5616],[-0.31665,51.55766],[-0.31384,51.55426],[-0.31189,51.55214],[-0.30971,51.55193],[-0.31131,51.55194],[-0.30953,51.55174],[-0.30534,51.55229],[-0.29979,51.55251],[-0.29423,51.55381],[-0.28979,51.55427],[-0.2862,51.55227],[-0.27884,51.54793],[-0.27389,51.54529],[-0.27367,51.54573],[-0.2738,51.54607],[-0.27011,51.54647],[-0.26603,51.54838],[-0.26299,51.55093],[-0.25582,51.55355],[-0.25414,51.55576],[-0.25286,51.56293],[-0.24556,51.56808],[-0.23346,51.57024],[-0.23861,51.57584],[-0.24616,51.58166],[-0.25166,51.5864],[-0.25749,51.59222],[-0.26338,51.59689],[-0.26753,51.59568],[-0.27185,51.59516],[-0.28509,51.59432],[-0.28783,51.59483],[-0.29101,51.59512],[-0.29667,51.59556],[-0.29788,51.59547],[-0.30646,51.59398],[-0.31367,51.59222],[-0.31839,51.59171],[-0.32277,51.59075],[-0.32824,51.59075],[-0.33048,51.59151],[-0.33307,51.59211]]]},"properties":{"code":"E84002","name":"FORTY WILLOWS SURGERY","icb":"Z9B2Z"}}]}