{"type":"FeatureCollection","features":[{"type":"Feature","geometry":{"type":"Polygon","coordinates":[[[-0.357036,51.589327],[-0.357468,51.589773],[-0.358227,51.589964],[-0.359702,51.590488],[-0.363102,51.591524],[-0.364218,51.590392],[-0.366287,51.589557],[-0.369629,51.588359],[-0.371035,51.587792],[-0.372119,51.588414],[-0.3735,51.588905],[-0.374758,51.588592],[-0.376095,51.588112],[-0.375564,51.587272],[-0.375442,51.586596],[-0.376912,51.586069],[-0.378161,51.585797],[-0.3786,51.584938],[-0.3784,51.58474],[-0.377924,51.584571],[-0.376316,51.584298],[-0.373842,51.583729],[-0.378303,51.581114],[-0.381836,51.578179],[-0.381402,51.57382],[-0.385622,51.571524],[-0.3889,51.5688],[-0.38018,51.55953],[-0.38053,51.55913],[-0.38025,51.55875],[-0.37932,51.55684],[-0.37847,51.55562],[-0.37795,51.55572],[-0.36988,51.5565],[-0.36834,51.55679],[-0.36323,51.55756],[-0.36284,51.55754],[-0.36237,51.55655],[-0.36113,51.55543],[-0.35963,51.55468],[-0.35589,51.55354],[-0.35121,51.55236],[-0.34589,51.55215],[-0.33868,51.55386],[-0.33774,51.5537],[-0.33697,51.55434],[-0.33474,51.55871],[-0.331945,51.561547],[-0.331011,51.561741],[-0.327284,51.563725],[-0.327567,51.564283],[-0.327891,51.566178],[-0.327967,51.56694],[-0.330454,51.573474],[-0.332316,51.576574],[-0.333858,51.577965],[-0.333759,51.579444],[-0.33366,51.58092],[-0.33293,51.581981],[-0.335073,51.581928],[-0.33723,51.581906],[-0.338411,51.581966],[-0.339424,51.581881],[-0.340336,51.581793],[-0.341268,51.584549],[-0.342609,51.587303],[-0.343218,51.587902],[-0.340782,51.588479],[-0.339636,51.58979],[-0.337663,51.590295],[-0.333158,51.590815],[-0.33318,51.592445],[-0.333108,51.593514],[-0.334069,51.593563],[-0.334172,51.594596],[-0.335261,51.59449],[-0.337264,51.594054],[-0.339135,51.593641],[-0.340819,51.59327],[-0.342581,51.593122],[-0.346135,51.592587],[-0.351092,51.592015],[-0.355859,51.589953],[-0.357036,51.589327]]]},"properties":{"code":"E84058","name":"GP DIRECT","icb":"Z9B2Z"}}]}