{"type":"FeatureCollection","features":[{"type":"Feature","geometry":{"type":"Polygon","coordinates":[[[-0.242214,51.539449],[-0.243244,51.541558],[-0.246162,51.544627],[-0.249209,51.547696],[-0.255179,51.549849],[-0.265287,51.54751],[-0.269041,51.545966],[-0.272303,51.544255],[-0.273468,51.543643],[-0.274547,51.542848],[-0.275421,51.541975],[-0.278082,51.539315],[-0.274234,51.535672],[-0.267337,51.536487],[-0.254092,51.532174],[-0.249596,51.533656],[-0.24672,51.535285],[-0.243158,51.536459],[-0.240713,51.537025],[-0.242214,51.539449]]]},"properties":{"code":"E84028","name":"THE STONEBRIDGE PRACTICE","icb":"Z9B2Z"}}]}