{"type":"FeatureCollection","features":[{"type":"Feature","geometry":{"type":"Polygon","coordinates":[[[-0.24539,51.53625],[-0.244032,51.536758],[-0.242748,51.537066],[-0.242425,51.537028],[-0.23975,51.53638],[-0.239846,51.536432],[-0.239903,51.536564],[-0.237681,51.54066],[-0.23758,51.540726],[-0.237837,51.555324],[-0.23758,51.55546],[-0.242294,51.556783],[-0.242408,51.556887],[-0.24264,51.55957],[-0.25354,51.55994],[-0.253302,51.559873],[-0.253186,51.559742],[-0.254689,51.553213],[-0.254852,51.553015],[-0.254963,51.552959],[-0.259301,51.552175],[-0.26067,51.55199],[-0.26088,51.55189],[-0.26024,51.548114],[-0.259976,51.545842],[-0.25977,51.543],[-0.25882,51.54158],[-0.257779,51.541343],[-0.255886,51.540742],[-0.25578,51.540634],[-0.25578,51.53956],[-0.254949,51.539261],[-0.2544,51.53897],[-0.25414,51.53897],[-0.252955,51.539612],[-0.252752,51.539632],[-0.250022,51.538812],[-0.249905,51.538839],[-0.248905,51.538597],[-0.24747,51.537649],[-0.24565,51.5363],[-0.24539,51.53625]]]},"properties":{"code":"E84013","name":"CHURCH END MEDICAL CENTRE","icb":"Z9B2Z"}}]}