{"type":"FeatureCollection","features":[{"type":"Feature","geometry":{"type":"Polygon","coordinates":[[[-0.305085,51.568428],[-0.299892,51.570081],[-0.294356,51.573842],[-0.292811,51.577256],[-0.292983,51.581603],[-0.293713,51.583977],[-0.29573,51.58675],[-0.304055,51.589923],[-0.311093,51.592029],[-0.322037,51.590989],[-0.326929,51.588963],[-0.332294,51.585203],[-0.333967,51.580697],[-0.333967,51.57899],[-0.333195,51.577336],[-0.328774,51.573229],[-0.322251,51.570055],[-0.308433,51.568641],[-0.305085,51.568428]]]},"properties":{"code":"E84663","name":"KENTON BRIDGE MEDICAL CENTRE - DR RAJA","icb":"Z9B2Z"}}]}