{"type":"FeatureCollection","features":[{"type":"Feature","geometry":{"type":"Polygon","coordinates":[[[-0.350773,51.585239],[-0.353193,51.582614],[-0.34891,51.581082],[-0.344731,51.581432],[-0.342053,51.580474],[-0.340491,51.576733],[-0.33807,51.57215],[-0.33403,51.5747],[-0.333069,51.577258],[-0.326462,51.578592],[-0.328025,51.579671],[-0.330777,51.582013],[-0.331312,51.583294],[-0.33188,51.584656],[-0.332261,51.587317],[-0.332874,51.589507],[-0.33567,51.588934],[-0.3366,51.590694],[-0.339449,51.590007],[-0.343924,51.588929],[-0.346225,51.592632],[-0.35135,51.59202],[-0.350548,51.5901],[-0.349705,51.588083],[-0.350773,51.585239]]]},"properties":{"code":"E84680","name":"HEADSTONE ROAD SURGERY","icb":"Z9B2Z"}}]}