{"type":"FeatureCollection","features":[{"type":"Feature","geometry":{"type":"Polygon","coordinates":[[[-0.22882,51.54692],[-0.228739,51.546976],[-0.22908,51.54719],[-0.22398,51.54762],[-0.2217,51.54858],[-0.24947,51.55378],[-0.24878,51.55199],[-0.24981,51.55125],[-0.24891,51.54892],[-0.25509,51.54241],[-0.25414,51.54084],[-0.25226,51.53937],[-0.24895,51.53892],[-0.24702,51.53739],[-0.2405,51.5332],[-0.2399,51.53355],[-0.23891,51.53323],[-0.22576,51.53372],[-0.21973,51.53507],[-0.21973,51.53512],[-0.22707,51.54356],[-0.22882,51.54692]]]},"properties":{"code":"E84656","name":"ROUNDWOOD PARK MEDICAL CENTRE","icb":"Z9B2Z"}}]}