{"type":"FeatureCollection","features":[{"type":"Feature","geometry":{"type":"MultiPolygon","coordinates":[[[[-0.323753,51.579296],[-0.226382,51.547726],[-0.226722,51.532989],[-0.224876,51.530533],[-0.21934,51.531334],[-0.213376,51.532802],[-0.192684,51.537047],[-0.206335,51.549004],[-0.216212,51.557329],[-0.218443,51.559197],[-0.220074,51.561118],[-0.222563,51.562932],[-0.223421,51.563999],[-0.224792,51.565173],[-0.226423,51.5664],[-0.229084,51.568321],[-0.232174,51.570562],[-0.235734,51.572295],[-0.238695,51.572189],[-0.241399,51.572669],[-0.24406,51.572482],[-0.246291,51.571869],[-0.24612,51.570695],[-0.247105,51.568507],[-0.248436,51.568454],[-0.250024,51.569308],[-0.253073,51.572482],[-0.254319,51.581336],[-0.250111,51.58355],[-0.24788,51.584057],[-0.25093,51.587096],[-0.267664,51.601066],[-0.272813,51.598934],[-0.280278,51.596614],[-0.289287,51.594935],[-0.283541,51.589923],[-0.282812,51.58715],[-0.282168,51.58579],[-0.280751,51.584643],[-0.305321,51.586883],[-0.310085,51.585323],[-0.31251,51.584403],[-0.314291,51.583563],[-0.31766,51.581697],[-0.320686,51.580177],[-0.323753,51.579296]]],[[[-0.23982,51.5327],[-0.226763,51.53395],[-0.226677,51.535952],[-0.226764,51.542065],[-0.226464,51.544814],[-0.226635,51.547589],[-0.245731,51.553914],[-0.294321,51.569654],[-0.320631,51.57827],[-0.321436,51.57853],[-0.323769,51.5793],[-0.324161,51.579246],[-0.326736,51.57889],[-0.324934,51.574616],[-0.324784,51.573522],[-0.322187,51.569681],[-0.325169,51.568467],[-0.324998,51.568254],[-0.327573,51.567801],[-0.327551,51.567561],[-0.329826,51.567094],[-0.329783,51.566574],[-0.329611,51.566147],[-0.329139,51.56596],[-0.328624,51.566013],[-0.328538,51.564213],[-0.328281,51.563226],[-0.328496,51.562959],[-0.328238,51.562519],[-0.329262,51.562445],[-0.329853,51.562322],[-0.330577,51.561965],[-0.331435,51.561535],[-0.331237,51.561365],[-0.33202,51.560905],[-0.331821,51.560788],[-0.332149,51.560458],[-0.333774,51.55893],[-0.334063,51.557609],[-0.335308,51.557689],[-0.335758,51.556802],[-0.333055,51.556222],[-0.329536,51.555782],[-0.327015,51.555121],[-0.3162,51.551085],[-0.313818,51.549804],[-0.31266,51.549244],[-0.311952,51.548684],[-0.311179,51.54775],[-0.309935,51.547269],[-0.308046,51.546522],[-0.306587,51.545641],[-0.30895,51.545374],[-0.308518,51.544253],[-0.308089,51.543653],[-0.308712,51.543332],[-0.304892,51.539836],[-0.305965,51.539302],[-0.305945,51.53702],[-0.306158,51.534591],[-0.306888,51.533576],[-0.308393,51.533229],[-0.303373,51.532055],[-0.302124,51.532161],[-0.300922,51.532642],[-0.298648,51.53387],[-0.296502,51.535365],[-0.294914,51.534884],[-0.293927,51.535018],[-0.28985,51.535899],[-0.28191,51.538515],[-0.27882,51.536406],[-0.279465,51.535125],[-0.283112,51.533843],[-0.289595,51.531601],[-0.285348,51.528584],[-0.277963,51.52805],[-0.273628,51.528477],[-0.269637,51.529358],[-0.257919,51.53371],[-0.252084,51.532108],[-0.24725,51.53298],[-0.243085,51.533766],[-0.242941,51.533757],[-0.23982,51.5327]]]]},"properties":{"code":"E84665","name":"NEASDEN MEDICAL CENTRE","icb":"Z9B2Z"}}]}