{"type":"FeatureCollection","features":[{"type":"Feature","geometry":{"type":"Polygon","coordinates":[[[-0.30367,51.56277],[-0.30333,51.5616],[-0.30281,51.56042],[-0.30161,51.55872],[-0.30092,51.55722],[-0.29955,51.55594],[-0.29886,51.55445],[-0.29799,51.553218],[-0.296693,51.552328],[-0.29509,51.55135],[-0.29371,51.54996],[-0.29148,51.54847],[-0.28891,51.54708],[-0.28599,51.54591],[-0.28238,51.54409],[-0.27912,51.54303],[-0.27689,51.54185],[-0.27157,51.54559],[-0.27105,51.5474],[-0.26951,51.54815],[-0.26934,51.54986],[-0.26848,51.55103],[-0.26642,51.55242],[-0.26608,51.5537],[-0.26693,51.55626],[-0.26745,51.55744],[-0.26899,51.56021],[-0.26985,51.56106],[-0.27758,51.56277],[-0.28118,51.56459],[-0.2841,51.56576],[-0.28839,51.56469],[-0.29028,51.56277],[-0.29251,51.56224],[-0.29629,51.56213],[-0.30024,51.56267],[-0.30367,51.56277]]]},"properties":{"code":"E84635","name":"THE SURGERY","icb":"Z9B2Z"}}]}