{"type":"FeatureCollection","features":[{"type":"Feature","geometry":{"type":"Polygon","coordinates":[[[-0.34749,51.47609],[-0.34809,51.47612],[-0.35336,51.47604],[-0.35555,51.47644],[-0.35714,51.47684],[-0.35834,51.47729],[-0.35937,51.47719],[-0.36066,51.477],[-0.3616,51.477],[-0.36255,51.47783],[-0.36328,51.47807],[-0.36431,51.47622],[-0.36512,51.47502],[-0.36585,51.47379],[-0.36727,51.47262],[-0.36714,51.47117],[-0.36663,51.46919],[-0.36607,51.46802],[-0.36233,51.46879],[-0.36075,51.46724],[-0.35903,51.46794],[-0.35843,51.46778],[-0.3583,51.46874],[-0.35688,51.46877],[-0.35435,51.46919],[-0.35298,51.46973],[-0.35251,51.46962],[-0.34856,51.47042],[-0.349116,51.47097],[-0.35002,51.47176],[-0.35216,51.47115],[-0.35345,51.47246],[-0.35113,51.47334],[-0.3495,51.47411],[-0.3477,51.47508],[-0.34749,51.47609]]]},"properties":{"code":"E85096","name":"MEDICAL CENTRE","icb":"Z9B2Z"}}]}