{"type":"FeatureCollection","features":[{"type":"Feature","geometry":{"type":"Polygon","coordinates":[[[-0.32545,51.542382],[-0.324386,51.541097],[-0.324031,51.539487],[-0.323954,51.536214],[-0.323884,51.533248],[-0.329919,51.53355],[-0.329864,51.531227],[-0.326929,51.529385],[-0.326157,51.52781],[-0.325212,51.526368],[-0.32371,51.524553],[-0.323231,51.521264],[-0.315807,51.521916],[-0.311522,51.521481],[-0.310493,51.518971],[-0.310167,51.518305],[-0.309638,51.517666],[-0.308094,51.516697],[-0.304701,51.515966],[-0.303496,51.51619],[-0.301898,51.516252],[-0.300554,51.515962],[-0.299014,51.515939],[-0.2952,51.516649],[-0.29379,51.516868],[-0.291867,51.516942],[-0.281297,51.517871],[-0.274534,51.522639],[-0.270836,51.525245],[-0.272086,51.525615],[-0.27451,51.526138],[-0.27703,51.526519],[-0.279641,51.526649],[-0.28071,51.528831],[-0.277954,51.535115],[-0.279678,51.536376],[-0.280943,51.537421],[-0.282274,51.538479],[-0.283442,51.539578],[-0.284339,51.540265],[-0.284975,51.540454],[-0.2864,51.540598],[-0.287882,51.540555],[-0.289028,51.540289],[-0.290072,51.539899],[-0.293496,51.538447],[-0.294209,51.53842],[-0.29483,51.538514],[-0.296511,51.538859],[-0.297991,51.539135],[-0.299582,51.539215],[-0.301166,51.539154],[-0.302747,51.539233],[-0.303439,51.539268],[-0.304173,51.539426],[-0.304646,51.539696],[-0.308096,51.542217],[-0.309501,51.543914],[-0.31037,51.544411],[-0.3116,51.544535],[-0.318204,51.543307],[-0.320357,51.542504],[-0.322428,51.541731],[-0.32545,51.542382]]]},"properties":{"code":"E85091","name":"BRUNSWICK SURGERY","icb":"Z9B2Z"}}]}