{"type":"FeatureCollection","features":[{"type":"Feature","geometry":{"type":"Polygon","coordinates":[[[-0.229204,51.489105],[-0.224225,51.483172],[-0.223667,51.477934],[-0.218258,51.470877],[-0.211819,51.467722],[-0.20246,51.46537],[-0.195463,51.465209],[-0.189067,51.465797],[-0.184259,51.468284],[-0.183229,51.470155],[-0.181168,51.472802],[-0.184431,51.473817],[-0.188766,51.475314],[-0.192115,51.476998],[-0.187135,51.479938],[-0.191728,51.48352],[-0.196322,51.487475],[-0.2005,51.488652],[-0.204478,51.488971],[-0.207011,51.490521],[-0.213235,51.49012],[-0.222293,51.491269],[-0.229204,51.489105]]]},"properties":{"code":"E85029","name":"THE MEDICAL CENTRE, DR JEFFERIES & PARTN","icb":"Z9B2Z"}}]}