{"type":"FeatureCollection","features":[{"type":"Feature","geometry":{"type":"Polygon","coordinates":[[[-0.24951,51.51518],[-0.24912,51.51408],[-0.24912,51.51296],[-0.25213,51.51262],[-0.25359,51.5124],[-0.25479,51.512],[-0.25616,51.51187],[-0.25689,51.51125],[-0.25775,51.51037],[-0.25796,51.50965],[-0.25749,51.5092],[-0.25753,51.50896],[-0.25693,51.50655],[-0.25638,51.50543],[-0.25522,51.50436],[-0.254735,51.504109],[-0.254132,51.503357],[-0.25183,51.50182],[-0.25097,51.50097],[-0.24839,51.49736],[-0.24372,51.49886],[-0.24372,51.4984],[-0.24436,51.49656],[-0.24505,51.49352],[-0.24118,51.49373],[-0.23762,51.49343],[-0.23436,51.49271],[-0.23385,51.49442],[-0.22711,51.49448],[-0.22634,51.49458],[-0.22646,51.49509],[-0.22891,51.50206],[-0.2281,51.50214],[-0.22642,51.50249],[-0.22492,51.50292],[-0.22556,51.50372],[-0.22586,51.50452],[-0.22556,51.5054],[-0.22462,51.50522],[-0.22462,51.50973],[-0.22488,51.51195],[-0.22711,51.517],[-0.22951,51.51667],[-0.23037,51.51659],[-0.23123,51.51614],[-0.23389,51.51609],[-0.23591,51.51574],[-0.23827,51.51574],[-0.24088,51.51566],[-0.24453,51.5155],[-0.24951,51.51518]]]},"properties":{"code":"E85042","name":"THE NEW SURGERY","icb":"Z9B2Z"}}]}