{"type":"FeatureCollection","features":[{"type":"Feature","geometry":{"type":"Polygon","coordinates":[[[-0.2552,51.49285],[-0.25172,51.49294],[-0.248866,51.49321],[-0.245753,51.49341],[-0.241072,51.4936],[-0.239364,51.493568],[-0.237406,51.493309],[-0.23475,51.49287],[-0.23112,51.49261],[-0.22599,51.49289],[-0.2264,51.49473],[-0.227189,51.497018],[-0.22779,51.49905],[-0.228326,51.500101],[-0.22857,51.50113],[-0.228803,51.501695],[-0.228671,51.501849],[-0.22762,51.50208],[-0.227749,51.503284],[-0.22767,51.50436],[-0.22769,51.5057],[-0.22964,51.50599],[-0.23146,51.50619],[-0.23303,51.50631],[-0.234444,51.506356],[-0.234643,51.506491],[-0.234665,51.506685],[-0.23455,51.5073],[-0.23466,51.50941],[-0.23503,51.51208],[-0.2355,51.51422],[-0.24884,51.51391],[-0.248685,51.513827],[-0.248465,51.513536],[-0.248473,51.513424],[-0.254888,51.506691],[-0.255041,51.506633],[-0.256728,51.50657],[-0.262572,51.50643],[-0.26643,51.50659],[-0.265855,51.505301],[-0.265961,51.505154],[-0.26718,51.50478],[-0.26687,51.5042],[-0.26636,51.50357],[-0.265647,51.503076],[-0.265612,51.50258],[-0.26574,51.50194],[-0.26518,51.50053],[-0.264724,51.499776],[-0.264434,51.49907],[-0.26434,51.49826],[-0.263879,51.497309],[-0.26383,51.496774],[-0.26434,51.4962],[-0.264154,51.496334],[-0.263811,51.496326],[-0.26367,51.49621],[-0.26112,51.49551],[-0.2582,51.49567],[-0.25654,51.496031],[-0.25574,51.496147],[-0.255511,51.496077],[-0.255074,51.495459],[-0.2552,51.49456],[-0.25515,51.493385],[-0.2552,51.49285]]]},"properties":{"code":"E85032","name":"ASHCHURCH SURGERY","icb":"Z9B2Z"}}]}