{"type":"FeatureCollection","features":[{"type":"Feature","geometry":{"type":"Polygon","coordinates":[[[-0.45868,51.51045],[-0.45799,51.4878],[-0.40031,51.47411],[-0.36427,51.46748],[-0.34058,51.47625],[-0.31895,51.48053],[-0.30006,51.47668],[-0.27414,51.48331],[-0.25784,51.49164],[-0.25955,51.5143],[-0.25612,51.52797],[-0.28324,51.53929],[-0.29526,51.54634],[-0.33783,51.56512],[-0.36667,51.57366],[-0.41061,51.57472],[-0.45593,51.57152],[-0.47173,51.54975],[-0.45868,51.51045]]]},"properties":{"code":"E85023","name":"CHEPSTOW GARDENS MEDICAL CENTRE","icb":"Z9B2Z"}}]}