{"type":"FeatureCollection","features":[{"type":"Feature","geometry":{"type":"Polygon","coordinates":[[[-0.31928,51.49365],[-0.32177,51.49488],[-0.3246,51.49588],[-0.32726,51.49408],[-0.33021,51.49255],[-0.32973,51.49029],[-0.32975,51.4896],[-0.32998,51.48877],[-0.33001,51.48802],[-0.33064,51.48662],[-0.33203,51.48584],[-0.33311,51.48534],[-0.33314,51.48528],[-0.33263,51.48482],[-0.33168,51.48456],[-0.32964,51.48416],[-0.32767,51.48357],[-0.32418,51.4818],[-0.32366,51.48126],[-0.32347,51.48074],[-0.32361,51.47921],[-0.32295,51.47834],[-0.32235,51.47807],[-0.32112,51.47833],[-0.32028,51.47883],[-0.31738,51.4787],[-0.31412,51.47765],[-0.31258,51.47359],[-0.31003,51.47461],[-0.30747,51.47585],[-0.30701,51.47621],[-0.30637,51.47681],[-0.30576,51.47789],[-0.30475,51.47901],[-0.30276,51.48071],[-0.30181,51.48133],[-0.30127,51.4816],[-0.30009,51.48272],[-0.30002,51.48324],[-0.29963,51.48335],[-0.29954,51.48364],[-0.30018,51.4843],[-0.29989,51.48462],[-0.29974,51.48494],[-0.29917,51.48526],[-0.29687,51.4859],[-0.29598,51.4862],[-0.29531,51.4865],[-0.29417,51.48688],[-0.29301,51.4872],[-0.29105,51.48756],[-0.29026,51.48754],[-0.28948,51.48767],[-0.2887,51.48764],[-0.2868,51.48744],[-0.28535,51.4872],[-0.28478,51.48703],[-0.28363,51.48686],[-0.28177,51.48611],[-0.28158,51.48583],[-0.28089,51.48556],[-0.27916,51.48468],[-0.27731,51.48329],[-0.27623,51.48231],[-0.27467,51.47955],[-0.27452,51.47893],[-0.274,51.47828],[-0.27347,51.4772],[-0.27266,51.47632],[-0.27124,51.47496],[-0.27065,51.47452],[-0.26833,51.47299],[-0.26797,51.4727],[-0.26754,51.47263],[-0.26711,51.4724],[-0.26573,51.4719],[-0.26436,51.47156],[-0.26176,51.47132],[-0.26044,51.47131],[-0.25917,51.47143],[-0.25787,51.47168],[-0.25657,51.47206],[-0.25546,51.47254],[-0.2544,51.47312],[-0.25359,51.47395],[-0.25299,51.47468],[-0.25252,51.47529],[-0.25217,51.47598],[-0.25118,51.47877],[-0.25127,51.47906],[-0.2515,51.48086],[-0.2515,51.48184],[-0.25143,51.48214],[-0.25091,51.48337],[-0.25031,51.48441],[-0.24943,51.48558],[-0.24932,51.48584],[-0.24843,51.48669],[-0.24648,51.48789],[-0.24578,51.48827],[-0.2439,51.48893],[-0.24292,51.48939],[-0.24127,51.48989],[-0.24138,51.49016],[-0.24101,51.4914],[-0.24126,51.49248],[-0.2413,51.49356],[-0.23926,51.49342],[-0.23961,51.49437],[-0.24022,51.49673],[-0.24132,51.49915],[-0.23921,51.49981],[-0.24009,51.50137],[-0.242,51.50186],[-0.24277,51.50231],[-0.2432,51.50295],[-0.24367,51.50422],[-0.24457,51.50545],[-0.24518,51.50677],[-0.24975,51.50663],[-0.25433,51.5067],[-0.25906,51.50643],[-0.26366,51.50659],[-0.26463,51.50487],[-0.26634,51.50287],[-0.26831,51.50098],[-0.2707,51.4993],[-0.2731,51.49784],[-0.27545,51.49881],[-0.27716,51.49991],[-0.27831,51.50156],[-0.27922,51.50257],[-0.28008,51.50338],[-0.28048,51.50305],[-0.28269,51.50193],[-0.28498,51.50109],[-0.28618,51.50076],[-0.28748,51.5008],[-0.28997,51.50116],[-0.29234,51.50163],[-0.29472,51.50146],[-0.2993,51.49979],[-0.30155,51.49914],[-0.30388,51.49866],[-0.30588,51.49834],[-0.30639,51.49818],[-0.30839,51.49789],[-0.30941,51.49779],[-0.31038,51.4975],[-0.3111,51.49714],[-0.31202,51.49683],[-0.31291,51.49706],[-0.31603,51.4953],[-0.31928,51.49365]]]},"properties":{"code":"E85040","name":"WEST4 GPS","icb":"Z9B2Z"}}]}