{"type":"FeatureCollection","features":[{"type":"Feature","geometry":{"type":"Polygon","coordinates":[[[-0.366574,51.539512],[-0.377999,51.541689],[-0.380702,51.532937],[-0.384686,51.525344],[-0.387096,51.520152],[-0.395098,51.512067],[-0.39987,51.504127],[-0.397935,51.497585],[-0.376569,51.49783],[-0.344398,51.502612],[-0.337853,51.512132],[-0.339879,51.521846],[-0.341782,51.526391],[-0.35172,51.527961],[-0.346187,51.536008],[-0.366574,51.539512]]]},"properties":{"code":"E85083","name":"DR SIVANESAN & PARTNER","icb":"Z9B2Z"}}]}