{"type":"FeatureCollection","features":[{"type":"Feature","geometry":{"type":"Polygon","coordinates":[[[-0.26769,51.49423],[-0.2667,51.49482],[-0.266121,51.495865],[-0.266002,51.495939],[-0.265487,51.496046],[-0.263784,51.496167],[-0.26039,51.49524],[-0.25566,51.4966],[-0.25655,51.50024],[-0.25871,51.5024],[-0.2619,51.50242],[-0.26492,51.50232],[-0.267211,51.502401],[-0.26738,51.502669],[-0.26704,51.50289],[-0.266476,51.503454],[-0.266157,51.503488],[-0.26592,51.50337],[-0.26431,51.50539],[-0.26313,51.50736],[-0.261371,51.510668],[-0.26021,51.51262],[-0.25914,51.51468],[-0.262808,51.519598],[-0.26482,51.5226],[-0.26634,51.52351],[-0.268384,51.523891],[-0.292,51.52902],[-0.3023,51.53004],[-0.310985,51.528561],[-0.31943,51.52746],[-0.32303,51.5244],[-0.322522,51.521361],[-0.32276,51.51972],[-0.32231,51.51767],[-0.319698,51.513553],[-0.31922,51.50973],[-0.31867,51.50622],[-0.314691,51.501652],[-0.31146,51.49763],[-0.292098,51.501989],[-0.291814,51.501893],[-0.29173,51.50167],[-0.28758,51.50099],[-0.284597,51.501056],[-0.284396,51.500966],[-0.28431,51.50078],[-0.283746,51.50043],[-0.281796,51.49785],[-0.28148,51.4947],[-0.274172,51.49834],[-0.273919,51.49834],[-0.270652,51.496711],[-0.26953,51.49476],[-0.26769,51.49423]]]},"properties":{"code":"E85028","name":"HILLCREST SURGERY","icb":"Z9B2Z"}}]}