{"type":"FeatureCollection","features":[{"type":"Feature","geometry":{"type":"Polygon","coordinates":[[[-0.29195,51.5112],[-0.29191,51.50955],[-0.29157,51.50817],[-0.29088,51.50671],[-0.28953,51.50423],[-0.28878,51.50317],[-0.28678,51.50212],[-0.28513,51.50097],[-0.28255,51.50193],[-0.28024,51.50324],[-0.27932,51.50275],[-0.27857,51.50193],[-0.27768,51.50041],[-0.27677,51.49959],[-0.27593,51.49905],[-0.27497,51.49858],[-0.27401,51.49832],[-0.27235,51.49736],[-0.272319,51.496908],[-0.271869,51.495773],[-0.271096,51.495238],[-0.270431,51.494971],[-0.26971,51.49479],[-0.26933,51.49456],[-0.26779,51.49416],[-0.26634,51.49506],[-0.26515,51.49612],[-0.26389,51.49616],[-0.26206,51.49561],[-0.26024,51.49533],[-0.25578,51.49624],[-0.25524,51.4957],[-0.25157,51.49643],[-0.249681,51.496855],[-0.250432,51.497857],[-0.251334,51.498899],[-0.252106,51.500034],[-0.252492,51.500328],[-0.252879,51.500368],[-0.253072,51.500809],[-0.253243,51.502519],[-0.253587,51.503053],[-0.254359,51.503667],[-0.255733,51.504896],[-0.25672,51.506472],[-0.26363,51.50647],[-0.26929,51.50669],[-0.2731,51.50772],[-0.27431,51.50837],[-0.27655,51.50834],[-0.27861,51.50844],[-0.28058,51.50846],[-0.28253,51.50858],[-0.2844,51.50912],[-0.2897,51.51087],[-0.29189,51.51153],[-0.29195,51.5112]]]},"properties":{"code":"E85130","name":"CHISWICK FAMILY PRACTICE","icb":"Z9B2Z"}}]}