{"type":"FeatureCollection","features":[{"type":"Feature","geometry":{"type":"Polygon","coordinates":[[[-0.380152,51.487818],[-0.379665,51.48787],[-0.379271,51.487734],[-0.378713,51.487878],[-0.378233,51.487959],[-0.377535,51.488077],[-0.376207,51.488302],[-0.376211,51.488262],[-0.376028,51.487831],[-0.373049,51.488165],[-0.372928,51.488179],[-0.372826,51.487939],[-0.372756,51.48764],[-0.37269,51.48742],[-0.37283,51.48701],[-0.37328,51.48619],[-0.37323,51.48547],[-0.36766,51.48569],[-0.36757,51.48654],[-0.36778,51.48838],[-0.36894,51.49111],[-0.37057,51.49357],[-0.37178,51.49477],[-0.37272,51.4956],[-0.37384,51.49613],[-0.37632,51.4972],[-0.37688,51.49688],[-0.37838,51.49651],[-0.37997,51.49592],[-0.38268,51.49501],[-0.38499,51.49474],[-0.38748,51.49485],[-0.38778,51.49445],[-0.38873,51.49346],[-0.38963,51.49365],[-0.3904,51.49408],[-0.3916,51.49408],[-0.39654,51.49541],[-0.39667,51.49565],[-0.39692,51.49589],[-0.39778,51.49627],[-0.3983,51.49664],[-0.39817,51.49621],[-0.39718,51.49587],[-0.39684,51.49528],[-0.39298,51.49434],[-0.39165,51.49394],[-0.3904,51.49394],[-0.38997,51.49365],[-0.38868,51.49327],[-0.38873,51.49293],[-0.38783,51.49282],[-0.38791,51.49223],[-0.38886,51.49213],[-0.38903,51.49164],[-0.38804,51.49119],[-0.38529,51.49116],[-0.38452,51.4909],[-0.38306,51.49082],[-0.3822,51.4913],[-0.38135,51.4913],[-0.38147,51.49018],[-0.38122,51.48796],[-0.38074,51.487795],[-0.380152,51.487818]]]},"properties":{"code":"E85114","name":"CROSSLANDS SURGERY","icb":"Z9B2Z"}}]}