{"type":"FeatureCollection","features":[{"type":"Feature","geometry":{"type":"Polygon","coordinates":[[[-0.35225,51.52749],[-0.35584,51.52852],[-0.35757,51.52851],[-0.35934,51.52864],[-0.36149,51.5292],[-0.36262,51.52934],[-0.36321,51.52951],[-0.36375,51.53],[-0.36462,51.53104],[-0.36572,51.53167],[-0.36626,51.53181],[-0.36754,51.52864],[-0.36732,51.52804],[-0.36558,51.52624],[-0.36454,51.52548],[-0.36427,51.52472],[-0.36405,51.52362],[-0.36568,51.52129],[-0.36064,51.51943],[-0.35812,51.51913],[-0.35482,51.51932],[-0.35379,51.52338],[-0.35225,51.52749]]]},"properties":{"code":"E85129","name":"THE MANSELL ROAD PRACTICE","icb":"Z9B2Z"}}]}