{"type":"FeatureCollection","features":[{"type":"Feature","geometry":{"type":"Polygon","coordinates":[[[-0.34015,51.54831],[-0.33513,51.5486],[-0.33182,51.54783],[-0.32495,51.54607],[-0.32101,51.54367],[-0.31328,51.5482],[-0.3138,51.55317],[-0.32169,51.56864],[-0.32839,51.56693],[-0.33277,51.56304],[-0.33852,51.56597],[-0.3471,51.56917],[-0.3483,51.56939],[-0.34847,51.56848],[-0.35242,51.56493],[-0.36152,51.55856],[-0.36158,51.55686],[-0.36027,51.55517],[-0.36074,51.55157],[-0.364981,51.547134],[-0.367801,51.544373],[-0.367845,51.544136],[-0.367902,51.544031],[-0.367574,51.543388],[-0.36103,51.541093],[-0.357115,51.540091],[-0.352941,51.540333],[-0.34418,51.54084],[-0.34015,51.54831]]]},"properties":{"code":"E85112","name":"ELMTREES SURGERY","icb":"Z9B2Z"}}]}