{"type":"FeatureCollection","features":[{"type":"Feature","geometry":{"type":"MultiPolygon","coordinates":[[[[-0.375519,51.511272],[-0.375506,51.516038],[-0.382739,51.517329],[-0.383544,51.517473],[-0.384615,51.517614],[-0.386655,51.517884],[-0.390396,51.518695],[-0.396323,51.520831],[-0.399372,51.517986],[-0.401996,51.514897],[-0.407229,51.502823],[-0.399962,51.503191],[-0.396202,51.503607],[-0.392775,51.503987],[-0.378695,51.505981],[-0.378297,51.507333],[-0.3771,51.50903],[-0.376384,51.510045],[-0.375519,51.511272]]],[[[-0.417017,51.521053],[-0.420518,51.522477],[-0.426324,51.523854],[-0.436675,51.525727],[-0.444886,51.529068],[-0.450363,51.531817],[-0.45654,51.534057],[-0.455126,51.53125],[-0.453106,51.528341],[-0.450097,51.525752],[-0.444478,51.519608],[-0.440177,51.517214],[-0.436944,51.514431],[-0.433525,51.512798],[-0.433497,51.510842],[-0.432794,51.509447],[-0.431966,51.507803],[-0.431114,51.50611],[-0.429765,51.504075],[-0.430353,51.50273],[-0.427744,51.502957],[-0.42527,51.501775],[-0.420285,51.499967],[-0.414898,51.498203],[-0.412286,51.498018],[-0.409321,51.498473],[-0.401431,51.516523],[-0.405333,51.517691],[-0.409665,51.518475],[-0.417017,51.521053]]]]},"properties":{"code":"E85121","name":"GURU NANAK MEDICAL CENTRE","icb":"Z9B2Z"}}]}