{"type":"FeatureCollection","features":[{"type":"Feature","geometry":{"type":"Polygon","coordinates":[[[-0.27968,51.53811],[-0.28095,51.53904],[-0.2834,51.5383],[-0.28534,51.53725],[-0.28898,51.53598],[-0.29322,51.535],[-0.29685,51.53502],[-0.29914,51.53358],[-0.30174,51.53232],[-0.305,51.52918],[-0.31139,51.52834],[-0.31779,51.52768],[-0.32058,51.52731],[-0.32257,51.52678],[-0.32362,51.52635],[-0.32403,51.52627],[-0.323775,51.524539],[-0.326973,51.524232],[-0.326608,51.52287],[-0.330622,51.522416],[-0.330257,51.521588],[-0.329935,51.516568],[-0.329721,51.51586],[-0.328519,51.514685],[-0.326029,51.513857],[-0.324055,51.513443],[-0.31977,51.51375],[-0.329075,51.512348],[-0.328133,51.509437],[-0.327575,51.509517],[-0.326545,51.507781],[-0.326416,51.506899],[-0.325085,51.504228],[-0.324656,51.503801],[-0.32221,51.500729],[-0.321652,51.500114],[-0.320064,51.498378],[-0.31481,51.49938],[-0.31268,51.49702],[-0.31209,51.49681],[-0.31137,51.49701],[-0.31074,51.49735],[-0.30949,51.49774],[-0.30711,51.49804],[-0.30105,51.49927],[-0.29747,51.50048],[-0.29544,51.50122],[-0.29432,51.50158],[-0.2937,51.50168],[-0.29318,51.50168],[-0.29149,51.50151],[-0.28718,51.50075],[-0.28599,51.50084],[-0.28476,51.50114],[-0.28229,51.50215],[-0.28123,51.50269],[-0.28018,51.50333],[-0.27909,51.50525],[-0.27816,51.50626],[-0.2771,51.50719],[-0.27617,51.5087],[-0.27606,51.50933],[-0.28129,51.50976],[-0.28186,51.51212],[-0.28251,51.51569],[-0.28232,51.51629],[-0.27587,51.52069],[-0.28137,51.52376],[-0.28349,51.52384],[-0.28427,51.52705],[-0.28609,51.52988],[-0.28946,51.53149],[-0.28335,51.5336],[-0.28078,51.53347],[-0.27949,51.53361],[-0.2791,51.53452],[-0.27933,51.5363],[-0.27927,51.53651],[-0.27941,51.53686],[-0.27937,51.53702],[-0.27943,51.53757],[-0.27968,51.53811]]]},"properties":{"code":"E85123","name":"THE CORFTON ROAD SURGERY","icb":"Z9B2Z"}}]}