{"type":"FeatureCollection","features":[{"type":"Feature","geometry":{"type":"Polygon","coordinates":[[[-0.2844,51.50057],[-0.2833,51.49957],[-0.28255,51.49847],[-0.282,51.4974],[-0.2819,51.49686],[-0.28206,51.49632],[-0.28224,51.49417],[-0.27852,51.49547],[-0.27264,51.49803],[-0.26799,51.50112],[-0.26363,51.50647],[-0.24505,51.50671],[-0.24565,51.50871],[-0.24685,51.51149],[-0.24805,51.51277],[-0.24835,51.51339],[-0.24882,51.51371],[-0.25112,51.51383],[-0.25357,51.51416],[-0.25586,51.5147],[-0.25862,51.51578],[-0.25987,51.51638],[-0.26103,51.51718],[-0.2628,51.51976],[-0.26462,51.52274],[-0.26633,51.52378],[-0.27084,51.52522],[-0.27708,51.52072],[-0.28109,51.51795],[-0.283,51.51643],[-0.28535,51.51526],[-0.28695,51.51499],[-0.28854,51.51494],[-0.28973,51.5157],[-0.29144,51.51614],[-0.29204,51.51462],[-0.2919,51.50964],[-0.29165,51.51076],[-0.29174,51.50884],[-0.29106,51.50724],[-0.28972,51.50468],[-0.28858,51.50313],[-0.28717,51.50233],[-0.2844,51.50057]]]},"properties":{"code":"E85109","name":"THE ACTON HEALTH CENTRE","icb":"Z9B2Z"}}]}