{"type":"FeatureCollection","features":[{"type":"Feature","geometry":{"type":"Polygon","coordinates":[[[-0.37577,51.53726],[-0.37542,51.53737],[-0.38658,51.53491],[-0.3907,51.53673],[-0.396899,51.531043],[-0.401158,51.526666],[-0.410333,51.519179],[-0.413382,51.508103],[-0.412652,51.50469],[-0.411935,51.503679],[-0.410067,51.502347],[-0.410809,51.501388],[-0.410199,51.500993],[-0.408176,51.499431],[-0.406673,51.497049],[-0.394001,51.492268],[-0.384659,51.491628],[-0.373211,51.491716],[-0.36633,51.49506],[-0.35585,51.50404],[-0.351889,51.506392],[-0.351889,51.510238],[-0.350516,51.514084],[-0.35121,51.517716],[-0.349143,51.521989],[-0.325811,51.522416],[-0.32307,51.528183],[-0.35019,51.53139],[-0.355683,51.532241],[-0.36203,51.52957],[-0.36443,51.52808],[-0.36735,51.52925],[-0.36752,51.53064],[-0.36959,51.53246],[-0.37577,51.53726]]]},"properties":{"code":"E85656","name":"SUNRISE MEDICAL CENTRE","icb":"Z9B2Z"}}]}