{"type":"FeatureCollection","features":[{"type":"Feature","geometry":{"type":"Polygon","coordinates":[[[-0.281872,51.497487],[-0.280227,51.500149],[-0.279962,51.501613],[-0.279687,51.503127],[-0.277914,51.500854],[-0.275506,51.498819],[-0.270842,51.496707],[-0.269447,51.494918],[-0.267419,51.493999],[-0.26591,51.494951],[-0.265931,51.495847],[-0.263938,51.496241],[-0.264133,51.497995],[-0.265689,51.502518],[-0.268189,51.506541],[-0.245009,51.506814],[-0.248129,51.513513],[-0.252622,51.513869],[-0.256273,51.514806],[-0.2593,51.516177],[-0.262033,51.518338],[-0.265156,51.523364],[-0.26994,51.52459],[-0.271245,51.523768],[-0.272466,51.522998],[-0.273389,51.522416],[-0.275909,51.520673],[-0.281766,51.516621],[-0.282522,51.515812],[-0.282493,51.514551],[-0.285923,51.51451],[-0.286148,51.514269],[-0.287464,51.513919],[-0.287818,51.511966],[-0.290625,51.512046],[-0.291021,51.511293],[-0.300612,51.514333],[-0.304983,51.513167],[-0.309892,51.512591],[-0.319527,51.510986],[-0.31996,51.505255],[-0.316494,51.502517],[-0.314821,51.498938],[-0.31217,51.496843],[-0.305668,51.497926],[-0.294043,51.50165],[-0.287443,51.500715],[-0.285255,51.500971],[-0.28322,51.499363],[-0.281872,51.497487]]]},"properties":{"code":"E85617","name":"","icb":""}}]}