{"type":"FeatureCollection","features":[{"type":"Feature","geometry":{"type":"Polygon","coordinates":[[[-0.248738,51.513693],[-0.252082,51.5138],[-0.253583,51.513907],[-0.255213,51.514334],[-0.256457,51.514761],[-0.258559,51.515643],[-0.259589,51.514014],[-0.261004,51.511209],[-0.261648,51.510088],[-0.261476,51.509179],[-0.257744,51.509687],[-0.256825,51.50657],[-0.256268,51.505288],[-0.255302,51.504513],[-0.255324,51.50446],[-0.249768,51.504825],[-0.245821,51.504906],[-0.246464,51.506829],[-0.246421,51.506775],[-0.245091,51.506856],[-0.24625,51.510755],[-0.248738,51.513693]]]},"properties":{"code":"E85635","name":"THE VALE SURGERY","icb":"Z9B2Z"}}]}