{"type":"FeatureCollection","features":[{"type":"Feature","geometry":{"type":"Polygon","coordinates":[[[-0.42675,51.54698],[-0.426745,51.546979],[-0.4267,51.546969],[-0.426657,51.546955],[-0.426618,51.546937],[-0.426583,51.546916],[-0.426552,51.546893],[-0.426527,51.546867],[-0.426508,51.54684],[-0.426494,51.546811],[-0.426488,51.546781],[-0.426487,51.546751],[-0.426493,51.546721],[-0.426505,51.546692],[-0.426524,51.546664],[-0.426548,51.546638],[-0.426578,51.546614],[-0.426612,51.546593],[-0.427169,51.546295],[-0.427202,51.54628],[-0.427238,51.546266],[-0.427276,51.546256],[-0.427316,51.546248],[-0.432237,51.545481],[-0.432243,51.54548],[-0.441167,51.544201],[-0.441174,51.5442],[-0.44769,51.54335],[-0.44817,51.542739],[-0.44819,51.542716],[-0.448214,51.542696],[-0.448241,51.542677],[-0.448272,51.54266],[-0.448306,51.542645],[-0.448343,51.542633],[-0.448381,51.542624],[-0.44842,51.542617],[-0.44941,51.54249],[-0.449674,51.540853],[-0.449686,51.540814],[-0.449709,51.540776],[-0.45456,51.53459],[-0.45593,51.52925],[-0.45113,51.52156],[-0.432626,51.505142],[-0.432595,51.505109],[-0.432573,51.505073],[-0.43087,51.50126],[-0.422365,51.495394],[-0.422344,51.495378],[-0.422326,51.495361],[-0.4216,51.49463],[-0.421546,51.494642],[-0.42149,51.494649],[-0.421433,51.494651],[-0.421376,51.494647],[-0.421321,51.494637],[-0.42127,51.494622],[-0.421222,51.494602],[-0.421181,51.494577],[-0.41817,51.4925],[-0.418124,51.492514],[-0.418075,51.492525],[-0.418025,51.492531],[-0.417974,51.492532],[-0.417922,51.492529],[-0.417873,51.492521],[-0.417825,51.492509],[-0.417781,51.492493],[-0.41774,51.492472],[-0.417705,51.492449],[-0.417676,51.492423],[-0.417653,51.492394],[-0.417636,51.492364],[-0.417627,51.492332],[-0.417625,51.4923],[-0.41763,51.492268],[-0.41817,51.49036],[-0.417612,51.490862],[-0.417578,51.490889],[-0.417536,51.490912],[-0.41749,51.490931],[-0.41744,51.490946],[-0.417386,51.490955],[-0.417332,51.490959],[-0.417276,51.490958],[-0.417222,51.490951],[-0.41717,51.49094],[-0.417121,51.490923],[-0.417077,51.490902],[-0.417039,51.490877],[-0.417007,51.490849],[-0.416982,51.490818],[-0.416966,51.490785],[-0.416957,51.490751],[-0.41473,51.47197],[-0.375426,51.46969],[-0.375369,51.469684],[-0.375315,51.469672],[-0.375264,51.469655],[-0.375218,51.469633],[-0.37491,51.46946],[-0.374525,51.469597],[-0.374475,51.469611],[-0.374423,51.469621],[-0.374369,51.469626],[-0.374314,51.469625],[-0.36324,51.46898],[-0.33234,51.47283],[-0.317235,51.478818],[-0.317225,51.478822],[-0.29182,51.48822],[-0.27603,51.49506],[-0.26573,51.50276],[-0.25406,51.51302],[-0.26367,51.52498],[-0.26917,51.53011],[-0.29103,51.537334],[-0.29108,51.537354],[-0.291125,51.537379],[-0.291162,51.537408],[-0.291191,51.537441],[-0.29388,51.54121],[-0.301873,51.540911],[-0.301906,51.54091],[-0.301939,51.540912],[-0.301972,51.540915],[-0.302003,51.540921],[-0.312105,51.542908],[-0.312143,51.542917],[-0.312179,51.542929],[-0.312213,51.542943],[-0.312244,51.542959],[-0.312272,51.542978],[-0.312296,51.542998],[-0.312317,51.54302],[-0.312334,51.543043],[-0.31586,51.54885],[-0.34088,51.548576],[-0.340938,51.548578],[-0.340995,51.548586],[-0.349546,51.550265],[-0.349604,51.55028],[-0.349657,51.550301],[-0.349703,51.550327],[-0.349741,51.550358],[-0.35088,51.55146],[-0.3598,51.55445],[-0.355739,51.551926],[-0.355701,51.551897],[-0.35567,51.551865],[-0.355648,51.55183],[-0.355636,51.551794],[-0.355634,51.551756],[-0.355641,51.551719],[-0.355659,51.551684],[-0.355686,51.55165],[-0.355721,51.55162],[-0.355764,51.551594],[-0.355813,51.551572],[-0.355867,51.551556],[-0.355924,51.551546],[-0.355984,51.551542],[-0.356044,51.551544],[-0.356102,51.551552],[-0.368786,51.554041],[-0.368839,51.554054],[-0.37697,51.55658],[-0.385145,51.551074],[-0.385179,51.551054],[-0.385217,51.551037],[-0.385258,51.551023],[-0.385301,51.551012],[-0.398204,51.548479],[-0.398251,51.548472],[-0.398299,51.548469],[-0.41679,51.54804],[-0.419681,51.547682],[-0.419745,51.547678],[-0.42469,51.54762],[-0.425831,51.54701],[-0.425858,51.546997],[-0.425887,51.546986],[-0.425918,51.546976],[-0.42595,51.546968],[-0.425983,51.546962],[-0.426017,51.546958],[-0.426051,51.546956],[-0.426086,51.546957],[-0.42675,51.54698]]]},"properties":{"code":"E85633","name":"THE SOUTHALL MEDICAL CTR.","icb":"Z9B2Z"}}]}