{"type":"FeatureCollection","features":[{"type":"Feature","geometry":{"type":"Polygon","coordinates":[[[-0.355083,51.514051],[-0.354993,51.513037],[-0.354608,51.511751],[-0.354625,51.510269],[-0.355409,51.509693],[-0.354568,51.509052],[-0.354871,51.508007],[-0.355931,51.505628],[-0.354704,51.503556],[-0.352925,51.501183],[-0.343155,51.497526],[-0.342005,51.496649],[-0.34033,51.494066],[-0.340164,51.492194],[-0.33951,51.49001],[-0.339012,51.48917],[-0.337956,51.488636],[-0.335654,51.487126],[-0.33307,51.485153],[-0.331437,51.484541],[-0.329602,51.484069],[-0.327569,51.483391],[-0.324352,51.481766],[-0.323466,51.480848],[-0.323277,51.478714],[-0.320038,51.479588],[-0.318219,51.479996],[-0.316276,51.481042],[-0.313724,51.481965],[-0.312314,51.482345],[-0.311148,51.482426],[-0.305843,51.483615],[-0.303545,51.484235],[-0.299357,51.485749],[-0.300385,51.486815],[-0.300607,51.48819],[-0.302188,51.489396],[-0.304308,51.491596],[-0.305069,51.494576],[-0.305626,51.495235],[-0.305697,51.496034],[-0.30568,51.497436],[-0.306827,51.501923],[-0.307224,51.502792],[-0.306772,51.503442],[-0.306539,51.504244],[-0.304998,51.505376],[-0.304818,51.506367],[-0.304887,51.507138],[-0.305071,51.507859],[-0.305719,51.507684],[-0.305114,51.508628],[-0.305348,51.509546],[-0.305612,51.510206],[-0.304907,51.51179],[-0.304096,51.513055],[-0.304574,51.516008],[-0.307524,51.516582],[-0.308343,51.516793],[-0.309101,51.517173],[-0.310578,51.518704],[-0.311039,51.520387],[-0.311566,51.521089],[-0.312517,51.521568],[-0.316191,51.52205],[-0.317139,51.523509],[-0.318389,51.52451],[-0.318674,51.52499],[-0.319577,51.525109],[-0.3241,51.52455],[-0.32555,51.526784],[-0.326249,51.528313],[-0.327272,51.528696],[-0.32822,51.52882],[-0.332148,51.528548],[-0.3368,51.52776],[-0.344878,51.526987],[-0.349674,51.527169],[-0.352019,51.527476],[-0.352822,51.526321],[-0.353078,51.524844],[-0.35384,51.523333],[-0.354164,51.52155],[-0.354683,51.520384],[-0.354373,51.519704],[-0.354594,51.52],[-0.354426,51.519274],[-0.354833,51.518975],[-0.354564,51.51808],[-0.354701,51.518131],[-0.354989,51.517339],[-0.3553,51.516269],[-0.355459,51.515395],[-0.355352,51.514737],[-0.355083,51.514051]]]},"properties":{"code":"E85628","name":"ELTHORNE PARK SURGERY","icb":"Z9B2Z"}}]}