{"type":"FeatureCollection","features":[{"type":"Feature","geometry":{"type":"Polygon","coordinates":[[[-0.38903,51.46714],[-0.38811,51.467237],[-0.38805,51.46724],[-0.38723,51.46724],[-0.3865,51.46732],[-0.386075,51.468594],[-0.386061,51.468625],[-0.38534,51.46986],[-0.384753,51.471093],[-0.384737,51.471119],[-0.384717,51.471144],[-0.38431,51.47157],[-0.384083,51.47192],[-0.384067,51.47194],[-0.384049,51.47196],[-0.384027,51.471978],[-0.384003,51.471995],[-0.383976,51.47201],[-0.383946,51.472023],[-0.383915,51.472035],[-0.383882,51.472044],[-0.383848,51.472052],[-0.383813,51.472057],[-0.383777,51.47206],[-0.38374,51.47206],[-0.383704,51.472058],[-0.383669,51.472054],[-0.383634,51.472048],[-0.3836,51.47204],[-0.38288,51.471858],[-0.382823,51.471839],[-0.38158,51.47135],[-0.37871,51.4704],[-0.378387,51.471134],[-0.37837,51.471165],[-0.376176,51.474303],[-0.376158,51.474326],[-0.37534,51.47521],[-0.37519,51.475654],[-0.375178,51.475682],[-0.375159,51.475708],[-0.37465,51.47634],[-0.374494,51.47671],[-0.374472,51.476748],[-0.374441,51.476782],[-0.3744,51.476812],[-0.374352,51.476837],[-0.37414,51.47693],[-0.373975,51.477054],[-0.373937,51.477078],[-0.373895,51.477098],[-0.37313,51.47741],[-0.37298,51.47753],[-0.37268,51.47795],[-0.37244,51.47851],[-0.37229,51.47915],[-0.37229,51.47937],[-0.37236,51.479494],[-0.372375,51.479531],[-0.37238,51.479568],[-0.37238,51.47991],[-0.37263,51.48023],[-0.372939,51.480402],[-0.372966,51.480419],[-0.37299,51.480438],[-0.373011,51.480458],[-0.373028,51.480479],[-0.373042,51.480501],[-0.373052,51.480524],[-0.373058,51.480548],[-0.373059,51.480571],[-0.37302,51.4847],[-0.37323,51.48534],[-0.37735,51.48528],[-0.380329,51.48483],[-0.380362,51.484826],[-0.380396,51.484824],[-0.38043,51.484824],[-0.380464,51.484826],[-0.380498,51.48483],[-0.380531,51.484836],[-0.380562,51.484844],[-0.380593,51.484853],[-0.380621,51.484865],[-0.380648,51.484878],[-0.380673,51.484893],[-0.380695,51.484909],[-0.380715,51.484926],[-0.380733,51.484944],[-0.380747,51.484964],[-0.380758,51.484984],[-0.38147,51.48646],[-0.39302,51.48627],[-0.393197,51.484627],[-0.393202,51.484601],[-0.393212,51.484575],[-0.393227,51.484551],[-0.393246,51.484527],[-0.39327,51.484506],[-0.393297,51.484486],[-0.393328,51.484468],[-0.393362,51.484452],[-0.393399,51.48444],[-0.393438,51.48443],[-0.393478,51.484422],[-0.39352,51.484418],[-0.393562,51.484417],[-0.393604,51.484419],[-0.393645,51.484424],[-0.393685,51.484432],[-0.39568,51.48491],[-0.39752,51.48518],[-0.39993,51.4851],[-0.401791,51.484962],[-0.401849,51.484961],[-0.404059,51.485019],[-0.40412,51.485024],[-0.40564,51.48523],[-0.40761,51.484],[-0.404992,51.482238],[-0.404954,51.482208],[-0.404926,51.482175],[-0.403988,51.480835],[-0.403972,51.480808],[-0.403962,51.480779],[-0.403958,51.48075],[-0.40396,51.48072],[-0.404712,51.476487],[-0.404721,51.476456],[-0.404737,51.476426],[-0.404759,51.476398],[-0.404788,51.476372],[-0.404822,51.476349],[-0.404861,51.476329],[-0.404904,51.476312],[-0.40495,51.4763],[-0.404869,51.47624],[-0.404846,51.476221],[-0.404827,51.476201],[-0.404811,51.47618],[-0.404799,51.476158],[-0.40479,51.476136],[-0.404785,51.476113],[-0.404784,51.476089],[-0.404787,51.476066],[-0.40508,51.47465],[-0.405208,51.473302],[-0.405212,51.47328],[-0.405219,51.473259],[-0.40555,51.47246],[-0.405588,51.471682],[-0.405594,51.47165],[-0.405606,51.47162],[-0.40598,51.4709],[-0.404917,51.470006],[-0.404904,51.469994],[-0.40418,51.4693],[-0.403332,51.468639],[-0.40331,51.46862],[-0.40263,51.46796],[-0.40143,51.46722],[-0.39954,51.46831],[-0.3983,51.46919],[-0.40014,51.4708],[-0.401563,51.471892],[-0.401596,51.471921],[-0.401621,51.471954],[-0.402034,51.472641],[-0.402049,51.47267],[-0.402056,51.472701],[-0.402057,51.472731],[-0.402051,51.472762],[-0.401933,51.47315],[-0.401923,51.473176],[-0.401909,51.4732],[-0.40189,51.473223],[-0.401867,51.473244],[-0.40184,51.473264],[-0.40181,51.473282],[-0.401776,51.473297],[-0.40174,51.47331],[-0.401581,51.473359],[-0.401522,51.473374],[-0.40146,51.473382],[-0.401397,51.473383],[-0.401334,51.473377],[-0.401274,51.473364],[-0.401219,51.473345],[-0.40117,51.47332],[-0.401128,51.47329],[-0.39478,51.4678],[-0.394735,51.467805],[-0.394689,51.467806],[-0.394643,51.467804],[-0.394598,51.467798],[-0.3916,51.46727],[-0.39036,51.46716],[-0.38903,51.46714]]]},"properties":{"code":"E85707","name":"SKYWAYS MEDICAL CENTRE","icb":"Z9B2Z"}}]}