{"type":"FeatureCollection","features":[{"type":"Feature","geometry":{"type":"MultiPolygon","coordinates":[[[[-0.33075,51.512112],[-0.330541,51.511989],[-0.3305,51.512088],[-0.33075,51.512112]]],[[[-0.330617,51.511805],[-0.330524,51.51178],[-0.330451,51.511935],[-0.330541,51.511989],[-0.330617,51.511805]]],[[[-0.3305,51.512088],[-0.330383,51.512077],[-0.32946,51.514021],[-0.32959,51.514298],[-0.3305,51.512088]]],[[[-0.33075,51.512112],[-0.33371,51.513871],[-0.336971,51.514725],[-0.343494,51.514725],[-0.351391,51.515794],[-0.356884,51.515366],[-0.359287,51.514512],[-0.363064,51.513978],[-0.36478,51.512909],[-0.363407,51.512589],[-0.360661,51.512696],[-0.362549,51.510666],[-0.36478,51.509918],[-0.358944,51.507888],[-0.366154,51.507354],[-0.363407,51.47732],[-0.361691,51.475823],[-0.361176,51.475396],[-0.360832,51.475182],[-0.360317,51.473043],[-0.358601,51.471012],[-0.355339,51.469194],[-0.351048,51.469622],[-0.348473,51.470798],[-0.325127,51.476465],[-0.30899,51.491538],[-0.297489,51.49763],[-0.305214,51.50714],[-0.306857,51.508474],[-0.305386,51.506712],[-0.309162,51.510345],[-0.306857,51.508474],[-0.309849,51.512054],[-0.318432,51.510559],[-0.319462,51.5112],[-0.321522,51.511948],[-0.324097,51.510132],[-0.324268,51.512375],[-0.32856,51.515366],[-0.329075,51.514832],[-0.32946,51.514021],[-0.328462,51.511891],[-0.326843,51.511734],[-0.328388,51.511734],[-0.328462,51.511891],[-0.330383,51.512077],[-0.330451,51.511935],[-0.329933,51.511627],[-0.330524,51.51178],[-0.331306,51.510131],[-0.330617,51.511805],[-0.331993,51.512161],[-0.334568,51.512482],[-0.33075,51.512112]]]]},"properties":{"code":"E85726","name":"MATTOCK LANE HEALTH CENTRE","icb":"Z9B2Z"}}]}