{"type":"FeatureCollection","features":[{"type":"Feature","geometry":{"type":"Polygon","coordinates":[[[-0.448723,51.422975],[-0.417824,51.427364],[-0.399651,51.4316],[-0.399374,51.431515],[-0.399113,51.431003],[-0.349503,51.443416],[-0.323067,51.453365],[-0.313454,51.465772],[-0.3265,51.480528],[-0.33577,51.483521],[-0.345052,51.484593],[-0.371819,51.490362],[-0.378474,51.490362],[-0.378685,51.490494],[-0.378685,51.49079],[-0.399288,51.492286],[-0.43087,51.495492],[-0.42244,51.478221],[-0.423122,51.478088],[-0.4319,51.495278],[-0.454903,51.481383],[-0.486305,51.456574],[-0.472069,51.436032],[-0.448723,51.422975]]]},"properties":{"code":"E85718","name":"HATTON MEDICAL PRACTICE","icb":"Z9B2Z"}}]}