{"type":"FeatureCollection","features":[{"type":"Feature","geometry":{"type":"Polygon","coordinates":[[[-0.374887,51.520927],[-0.374866,51.520976],[-0.374848,51.521009],[-0.374821,51.521039],[-0.374788,51.521067],[-0.374748,51.521091],[-0.374703,51.521111],[-0.374653,51.521126],[-0.3746,51.521137],[-0.374545,51.521142],[-0.373868,51.521174],[-0.37293,51.52136],[-0.37199,51.521622],[-0.37144,51.521878],[-0.371409,51.521891],[-0.371377,51.521902],[-0.371343,51.521911],[-0.371307,51.521917],[-0.371271,51.521921],[-0.371235,51.521923],[-0.371198,51.521923],[-0.371161,51.52192],[-0.371125,51.521914],[-0.37109,51.521907],[-0.371057,51.521897],[-0.371025,51.521886],[-0.370996,51.521872],[-0.370969,51.521857],[-0.370944,51.52184],[-0.370922,51.521821],[-0.369844,51.520787],[-0.368772,51.519933],[-0.367785,51.519265],[-0.366816,51.520391],[-0.366795,51.520412],[-0.366771,51.520432],[-0.365912,51.521053],[-0.365869,51.521079],[-0.365819,51.521101],[-0.365765,51.521117],[-0.365706,51.521127],[-0.365646,51.521131],[-0.365586,51.521128],[-0.365527,51.52112],[-0.365472,51.521105],[-0.360188,51.519372],[-0.359498,51.520502],[-0.359484,51.520522],[-0.359467,51.520541],[-0.359447,51.520559],[-0.359425,51.520575],[-0.3594,51.520591],[-0.359373,51.520604],[-0.359344,51.520616],[-0.359313,51.520626],[-0.359281,51.520634],[-0.359247,51.52064],[-0.359213,51.520645],[-0.359179,51.520647],[-0.359144,51.520647],[-0.359109,51.520645],[-0.359075,51.52064],[-0.359042,51.520634],[-0.357184,51.520226],[-0.354695,51.52004],[-0.353538,51.523933],[-0.353535,51.523943],[-0.351656,51.52907],[-0.351646,51.529091],[-0.351634,51.52911],[-0.350455,51.530789],[-0.350437,51.53081],[-0.349073,51.532295],[-0.347056,51.535071],[-0.346885,51.535485],[-0.346949,51.535885],[-0.347185,51.536406],[-0.348318,51.536511],[-0.348369,51.536518],[-0.350054,51.536832],[-0.350066,51.536834],[-0.355657,51.538007],[-0.355665,51.538009],[-0.358751,51.538702],[-0.362678,51.539476],[-0.3658,51.539916],[-0.366433,51.539961],[-0.366475,51.539966],[-0.368429,51.540255],[-0.368449,51.540258],[-0.369648,51.54048],[-0.369675,51.540486],[-0.371699,51.540974],[-0.371723,51.54098],[-0.372667,51.541258],[-0.372708,51.541272],[-0.374093,51.541825],[-0.374093,51.541825],[-0.376496,51.542657],[-0.376538,51.542675],[-0.37678,51.542789],[-0.376825,51.542814],[-0.376863,51.542844],[-0.377333,51.543286],[-0.377827,51.543326],[-0.378363,51.543232],[-0.378481,51.542912],[-0.378453,51.542759],[-0.378451,51.542728],[-0.378456,51.542696],[-0.378468,51.542666],[-0.378487,51.542637],[-0.378512,51.542609],[-0.378542,51.542584],[-0.378578,51.542562],[-0.378619,51.542544],[-0.379447,51.542218],[-0.380108,51.541807],[-0.380139,51.54179],[-0.381787,51.540978],[-0.381815,51.540966],[-0.381845,51.540955],[-0.381877,51.540946],[-0.38191,51.540939],[-0.381944,51.540934],[-0.381978,51.540931],[-0.382013,51.54093],[-0.382048,51.540931],[-0.382082,51.540934],[-0.382116,51.54094],[-0.382149,51.540947],[-0.38218,51.540956],[-0.38221,51.540968],[-0.382238,51.540981],[-0.382264,51.540995],[-0.382288,51.541011],[-0.383802,51.542151],[-0.384922,51.541702],[-0.384951,51.541692],[-0.384981,51.541683],[-0.38557,51.541533],[-0.385609,51.541525],[-0.385649,51.54152],[-0.38569,51.541517],[-0.385731,51.541517],[-0.385772,51.541521],[-0.385812,51.541527],[-0.38585,51.541536],[-0.385887,51.541547],[-0.385921,51.541561],[-0.385953,51.541578],[-0.385981,51.541596],[-0.386006,51.541617],[-0.386026,51.541639],[-0.386043,51.541662],[-0.386056,51.541686],[-0.386063,51.541711],[-0.386237,51.542512],[-0.386527,51.543059],[-0.387149,51.543092],[-0.387589,51.542872],[-0.387551,51.542475],[-0.387552,51.542438],[-0.387563,51.542403],[-0.387583,51.542368],[-0.387611,51.542337],[-0.387647,51.542308],[-0.38769,51.542284],[-0.387739,51.542264],[-0.387792,51.542249],[-0.388211,51.542158],[-0.388862,51.541703],[-0.388886,51.541688],[-0.388912,51.541674],[-0.38894,51.541662],[-0.38897,51.541652],[-0.38964,51.541443],[-0.389681,51.541433],[-0.389723,51.541425],[-0.396495,51.540493],[-0.395693,51.539344],[-0.395673,51.539306],[-0.395664,51.539267],[-0.395666,51.539226],[-0.39568,51.539187],[-0.395705,51.53915],[-0.395739,51.539116],[-0.395783,51.539087],[-0.395835,51.539063],[-0.395892,51.539045],[-0.395954,51.539034],[-0.396018,51.53903],[-0.396082,51.539033],[-0.396145,51.539043],[-0.396203,51.53906],[-0.396256,51.539083],[-0.396301,51.539111],[-0.396563,51.539308],[-0.396589,51.53933],[-0.39661,51.539354],[-0.39702,51.539883],[-0.397267,51.539803],[-0.397299,51.539336],[-0.39723,51.539125],[-0.396601,51.538346],[-0.396587,51.538326],[-0.396577,51.538307],[-0.396569,51.538286],[-0.396564,51.538266],[-0.396562,51.538245],[-0.396564,51.538224],[-0.396569,51.538203],[-0.396576,51.538183],[-0.396587,51.538163],[-0.3966,51.538144],[-0.396617,51.538126],[-0.396636,51.538109],[-0.396657,51.538093],[-0.396681,51.538078],[-0.396707,51.538065],[-0.396734,51.538053],[-0.397118,51.537906],[-0.397161,51.537892],[-0.397206,51.537882],[-0.397253,51.537875],[-0.397301,51.537873],[-0.397889,51.537867],[-0.397852,51.53755],[-0.397342,51.537554],[-0.397305,51.537553],[-0.397269,51.53755],[-0.397052,51.537524],[-0.396999,51.537514],[-0.396948,51.5375],[-0.396902,51.537481],[-0.396861,51.537458],[-0.396816,51.537429],[-0.396794,51.537414],[-0.396775,51.537397],[-0.396758,51.537379],[-0.396744,51.537361],[-0.396732,51.537341],[-0.396724,51.537321],[-0.396718,51.537301],[-0.396716,51.537281],[-0.396698,51.536913],[-0.396205,51.53692],[-0.396181,51.537133],[-0.396173,51.537168],[-0.396155,51.537202],[-0.396129,51.537234],[-0.396095,51.537264],[-0.395801,51.537477],[-0.395756,51.537504],[-0.395704,51.537526],[-0.395647,51.537543],[-0.395586,51.537552],[-0.395524,51.537555],[-0.395461,51.537551],[-0.395401,51.537541],[-0.395344,51.537524],[-0.395036,51.53741],[-0.394812,51.537353],[-0.394777,51.537342],[-0.394743,51.537329],[-0.394712,51.537314],[-0.394683,51.537297],[-0.394658,51.537278],[-0.394636,51.537257],[-0.394619,51.537235],[-0.394605,51.537212],[-0.394595,51.537188],[-0.39459,51.537163],[-0.394589,51.537139],[-0.394592,51.537114],[-0.394599,51.53709],[-0.394611,51.537066],[-0.394627,51.537043],[-0.394647,51.537022],[-0.394674,51.536997],[-0.394713,51.536965],[-0.394761,51.536939],[-0.396163,51.536294],[-0.396184,51.536285],[-0.39672,51.536073],[-0.396775,51.536055],[-0.396835,51.536043],[-0.397331,51.535975],[-0.397366,51.535972],[-0.397403,51.53597],[-0.397439,51.535971],[-0.397475,51.535974],[-0.39751,51.535979],[-0.397544,51.535987],[-0.397577,51.535996],[-0.397608,51.536008],[-0.397637,51.536021],[-0.397664,51.536036],[-0.397688,51.536053],[-0.397709,51.536071],[-0.397728,51.536091],[-0.397743,51.536111],[-0.397755,51.536133],[-0.397763,51.536155],[-0.397949,51.536793],[-0.398083,51.537027],[-0.401521,51.53666],[-0.401443,51.536364],[-0.401439,51.536342],[-0.401439,51.536319],[-0.401442,51.536296],[-0.401449,51.536274],[-0.401459,51.536252],[-0.401473,51.536231],[-0.40149,51.536211],[-0.401511,51.536192],[-0.401534,51.536175],[-0.40156,51.536159],[-0.401589,51.536145],[-0.401619,51.536133],[-0.401652,51.536123],[-0.401686,51.536114],[-0.401721,51.536108],[-0.401757,51.536104],[-0.402029,51.536084],[-0.402063,51.536083],[-0.402097,51.536084],[-0.404818,51.536206],[-0.404853,51.536209],[-0.404887,51.536213],[-0.40492,51.53622],[-0.404953,51.536229],[-0.404983,51.53624],[-0.405012,51.536252],[-0.405039,51.536267],[-0.405063,51.536282],[-0.405085,51.536299],[-0.405104,51.536318],[-0.40512,51.536337],[-0.405133,51.536358],[-0.405143,51.536379],[-0.405149,51.536401],[-0.405152,51.536422],[-0.405151,51.536444],[-0.405126,51.536696],[-0.406167,51.536706],[-0.407224,51.536643],[-0.408313,51.536499],[-0.409348,51.536072],[-0.410332,51.535538],[-0.4097,51.535124],[-0.409661,51.535093],[-0.409631,51.535059],[-0.409611,51.535022],[-0.409602,51.534984],[-0.409603,51.534945],[-0.409615,51.534906],[-0.409638,51.53487],[-0.40967,51.534837],[-0.409723,51.534791],[-0.409747,51.534639],[-0.409751,51.534619],[-0.409759,51.5346],[-0.409769,51.53458],[-0.409782,51.534562],[-0.409797,51.534544],[-0.409815,51.534528],[-0.409835,51.534512],[-0.409858,51.534497],[-0.409882,51.534484],[-0.409909,51.534473],[-0.409936,51.534462],[-0.409966,51.534454],[-0.409996,51.534447],[-0.410027,51.534441],[-0.410059,51.534438],[-0.410091,51.534436],[-0.410185,51.534434],[-0.411354,51.534154],[-0.41115,51.53373],[-0.410953,51.533645],[-0.410913,51.533625],[-0.410878,51.533601],[-0.410849,51.533575],[-0.410826,51.533547],[-0.41081,51.533517],[-0.4108,51.533485],[-0.410798,51.533453],[-0.410803,51.533422],[-0.410829,51.533329],[-0.408902,51.531208],[-0.408884,51.531185],[-0.408807,51.531073],[-0.408793,51.531047],[-0.408783,51.531019],[-0.408704,51.530703],[-0.408543,51.53056],[-0.408252,51.530524],[-0.408195,51.530514],[-0.408141,51.530498],[-0.408091,51.530476],[-0.408049,51.53045],[-0.407132,51.529783],[-0.407122,51.529775],[-0.406151,51.529003],[-0.40613,51.528984],[-0.405201,51.52807],[-0.404322,51.527459],[-0.402385,51.526398],[-0.401757,51.526723],[-0.401736,51.526733],[-0.400156,51.527434],[-0.400127,51.527446],[-0.400097,51.527455],[-0.400066,51.527463],[-0.400033,51.527469],[-0.399859,51.527496],[-0.399815,51.527501],[-0.399769,51.527503],[-0.399229,51.527499],[-0.399169,51.527496],[-0.396683,51.527219],[-0.395794,51.527185],[-0.395759,51.527182],[-0.395725,51.527178],[-0.395691,51.527171],[-0.395659,51.527162],[-0.394701,51.526871],[-0.394664,51.526858],[-0.391988,51.52578],[-0.391608,51.525724],[-0.391053,51.525758],[-0.391004,51.525759],[-0.390955,51.525756],[-0.390908,51.525748],[-0.390862,51.525737],[-0.390838,51.52573],[-0.390787,51.525711],[-0.390742,51.525688],[-0.390703,51.52566],[-0.390672,51.525629],[-0.390631,51.525578],[-0.390616,51.525559],[-0.390605,51.525539],[-0.390597,51.525518],[-0.390593,51.525497],[-0.390573,51.525367],[-0.389575,51.524929],[-0.389393,51.524898],[-0.389352,51.524889],[-0.389313,51.524877],[-0.389276,51.524862],[-0.389242,51.524845],[-0.389212,51.524825],[-0.389187,51.524803],[-0.389165,51.524779],[-0.389149,51.524754],[-0.389135,51.524729],[-0.388517,51.524645],[-0.388466,51.524635],[-0.388418,51.524621],[-0.388374,51.524603],[-0.388334,51.524581],[-0.388132,51.524449],[-0.388097,51.524424],[-0.38807,51.524395],[-0.387526,51.523721],[-0.387354,51.523608],[-0.387188,51.523548],[-0.387143,51.523545],[-0.387098,51.523538],[-0.387056,51.523527],[-0.387016,51.523513],[-0.386979,51.523497],[-0.386945,51.523477],[-0.386916,51.523455],[-0.386892,51.523431],[-0.386571,51.523301],[-0.385187,51.522973],[-0.38487,51.522984],[-0.384325,51.523104],[-0.384279,51.523112],[-0.384233,51.523116],[-0.38384,51.523136],[-0.383796,51.523136],[-0.383752,51.523133],[-0.383709,51.523127],[-0.383667,51.523117],[-0.3828,51.52288],[-0.382446,51.5229],[-0.382392,51.5229],[-0.382339,51.522896],[-0.382211,51.522879],[-0.382177,51.522874],[-0.382143,51.522866],[-0.382111,51.522856],[-0.38208,51.522844],[-0.381314,51.522513],[-0.37773,51.521675],[-0.377492,51.521865],[-0.377465,51.521884],[-0.377436,51.521901],[-0.377404,51.521915],[-0.37737,51.521928],[-0.377334,51.521938],[-0.377296,51.521945],[-0.377257,51.52195],[-0.377217,51.521952],[-0.376819,51.521958],[-0.376771,51.521957],[-0.376723,51.521952],[-0.376677,51.521943],[-0.376634,51.52193],[-0.376393,51.521846],[-0.376361,51.521833],[-0.37633,51.521818],[-0.376303,51.521801],[-0.376279,51.521783],[-0.376169,51.52169],[-0.376143,51.521664],[-0.376122,51.521637],[-0.376108,51.521608],[-0.3761,51.521579],[-0.37603,51.52114],[-0.374887,51.520927]]]},"properties":{"code":"E85715","name":"BROADMEAD SURGERY","icb":"Z9B2Z"}}]}