{"type":"FeatureCollection","features":[{"type":"Feature","geometry":{"type":"Polygon","coordinates":[[[-0.47935,51.51305],[-0.47728,51.51328],[-0.476372,51.514345],[-0.474905,51.515102],[-0.472855,51.516014],[-0.472566,51.515986],[-0.47207,51.51558],[-0.472327,51.516147],[-0.472252,51.516282],[-0.47212,51.51634],[-0.472109,51.516517],[-0.471109,51.517105],[-0.467606,51.517408],[-0.464,51.51713],[-0.46469,51.51967],[-0.46554,51.52117],[-0.4655,51.523675],[-0.462772,51.527155],[-0.462475,51.527209],[-0.4582,51.52566],[-0.45488,51.52551],[-0.45315,51.52563],[-0.45181,51.52613],[-0.44785,51.53012],[-0.45092,51.53196],[-0.452494,51.53271],[-0.452569,51.532815],[-0.45203,51.53689],[-0.452526,51.537768],[-0.452523,51.537851],[-0.45179,51.53895],[-0.45061,51.541],[-0.44885,51.54879],[-0.44883,51.552301],[-0.44781,51.55417],[-0.44816,51.555918],[-0.448115,51.556009],[-0.44546,51.55793],[-0.44571,51.55935],[-0.446192,51.560068],[-0.446195,51.560153],[-0.445707,51.560984],[-0.44295,51.56474],[-0.442926,51.565241],[-0.44276,51.56571],[-0.446445,51.567807],[-0.448972,51.569478],[-0.449023,51.569554],[-0.4491,51.57083],[-0.45032,51.57162],[-0.45248,51.572],[-0.454011,51.568721],[-0.454483,51.568685],[-0.45671,51.57107],[-0.46367,51.564119],[-0.464136,51.564161],[-0.466191,51.568782],[-0.466015,51.568952],[-0.46593,51.56896],[-0.46613,51.56906],[-0.46627,51.56896],[-0.46627,51.568873],[-0.47151,51.56062],[-0.469991,51.559101],[-0.47023,51.558863],[-0.48675,51.55994],[-0.49164,51.55706],[-0.4961,51.55412],[-0.492837,51.551767],[-0.49258,51.55052],[-0.489705,51.553195],[-0.489168,51.553066],[-0.492053,51.540703],[-0.492183,51.540606],[-0.49329,51.54037],[-0.49477,51.53915],[-0.490066,51.52977],[-0.49091,51.52631],[-0.49091,51.51862],[-0.486629,51.518757],[-0.486469,51.518711],[-0.47935,51.51305]]]},"properties":{"code":"E86015","name":"CENTRAL UXBRIDGE SURGERY","icb":"Z9B2Z"}}]}