{"type":"FeatureCollection","features":[{"type":"Feature","geometry":{"type":"Polygon","coordinates":[[[-0.398908,51.560653],[-0.39608,51.56185],[-0.39331,51.56322],[-0.392785,51.562963],[-0.39235,51.56263],[-0.390199,51.563639],[-0.38579,51.56549],[-0.38873,51.56853],[-0.39628,51.57494],[-0.39783,51.57718],[-0.39946,51.57856],[-0.4021,51.5816],[-0.40203,51.58162],[-0.40559,51.58098],[-0.40572,51.58107],[-0.41224,51.58095],[-0.41233,51.5808],[-0.41654,51.57808],[-0.42512,51.57734],[-0.42709,51.57723],[-0.42619,51.57592],[-0.42503,51.57472],[-0.4225,51.57248],[-0.42254,51.57145],[-0.42278,51.57062],[-0.42339,51.569858],[-0.42347,51.56954],[-0.424203,51.568844],[-0.42583,51.5666],[-0.4192,51.5639],[-0.41431,51.56241],[-0.4138,51.56276],[-0.41266,51.5613],[-0.41552,51.56161],[-0.41731,51.56207],[-0.41829,51.56225],[-0.41965,51.56209],[-0.42072,51.56057],[-0.41928,51.55776],[-0.41182,51.56085],[-0.40935,51.55872],[-0.40918,51.55846],[-0.40917,51.55882],[-0.40489,51.56084],[-0.40465,51.561276],[-0.40452,51.56136],[-0.404395,51.561583],[-0.404574,51.561413],[-0.404524,51.561504],[-0.40404,51.56217],[-0.403368,51.562541],[-0.403189,51.562494],[-0.402186,51.561849],[-0.40198,51.561708],[-0.40198,51.56164],[-0.401876,51.561637],[-0.400924,51.560988],[-0.39993,51.56022],[-0.399857,51.560251],[-0.3998,51.56021],[-0.398908,51.560653]]]},"properties":{"code":"E86014","name":"CEDARS MEDICAL CENTRE","icb":"Z9B2Z"}}]}