{"type":"FeatureCollection","features":[{"type":"Feature","geometry":{"type":"Polygon","coordinates":[[[-0.476704,51.481169],[-0.452499,51.48096],[-0.413761,51.480614],[-0.410897,51.482585],[-0.408505,51.483748],[-0.409686,51.485208],[-0.409705,51.485296],[-0.410845,51.486139],[-0.41021,51.485803],[-0.409764,51.485566],[-0.409705,51.485296],[-0.407778,51.483869],[-0.411298,51.48822],[-0.41076,51.490148],[-0.410046,51.494152],[-0.40897,51.498008],[-0.406902,51.503967],[-0.41148,51.50517],[-0.416057,51.506653],[-0.423572,51.510048],[-0.424791,51.51277],[-0.437382,51.50857],[-0.445523,51.506164],[-0.448722,51.504607],[-0.451251,51.502536],[-0.454626,51.495214],[-0.454704,51.495148],[-0.469165,51.492456],[-0.475337,51.48882],[-0.4766,51.481668],[-0.476704,51.481169]]]},"properties":{"code":"E86038","name":"GLENDALE MEDICAL CENTRE","icb":"Z9B2Z"}}]}