{"type":"FeatureCollection","features":[{"type":"Feature","geometry":{"type":"Polygon","coordinates":[[[-0.370449,51.575534],[-0.364544,51.582027],[-0.363323,51.583246],[-0.361016,51.585905],[-0.362046,51.586974],[-0.362352,51.587355],[-0.362664,51.587744],[-0.362866,51.588608],[-0.363088,51.589049],[-0.3634,51.589671],[-0.363716,51.590299],[-0.364022,51.590769],[-0.364791,51.591916],[-0.367306,51.595663],[-0.369463,51.598876],[-0.372279,51.600347],[-0.376011,51.6027],[-0.379362,51.605395],[-0.382445,51.604439],[-0.384394,51.602969],[-0.387371,51.602319],[-0.390006,51.601112],[-0.391374,51.599607],[-0.392226,51.599088],[-0.39308,51.598568],[-0.394083,51.598158],[-0.395198,51.597701],[-0.399348,51.599494],[-0.401961,51.600599],[-0.409161,51.602616],[-0.41776,51.604859],[-0.423523,51.606107],[-0.424089,51.606125],[-0.424648,51.606144],[-0.426038,51.606189],[-0.426823,51.606521],[-0.4278,51.606933],[-0.429406,51.607945],[-0.434797,51.612589],[-0.439099,51.614996],[-0.439314,51.614169],[-0.438698,51.612391],[-0.43874,51.611304],[-0.438876,51.610781],[-0.439265,51.610211],[-0.441898,51.608605],[-0.444199,51.606866],[-0.445265,51.605305],[-0.44631,51.603775],[-0.446648,51.601913],[-0.446608,51.601069],[-0.446148,51.600312],[-0.444124,51.597306],[-0.441821,51.595678],[-0.440248,51.594205],[-0.438904,51.592539],[-0.436304,51.589311],[-0.436109,51.587935],[-0.434916,51.586162],[-0.433383,51.584574],[-0.431834,51.58316],[-0.431924,51.5808],[-0.43189,51.580051],[-0.431563,51.579264],[-0.430996,51.578808],[-0.430283,51.578359],[-0.429433,51.578137],[-0.428858,51.577731],[-0.428033,51.5773],[-0.427731,51.577143],[-0.427275,51.576905],[-0.425086,51.574637],[-0.423735,51.573546],[-0.423118,51.573109],[-0.422685,51.572602],[-0.422357,51.571966],[-0.42245,51.571606],[-0.422378,51.571296],[-0.422648,51.570259],[-0.423161,51.569666],[-0.422676,51.569063],[-0.422191,51.56846],[-0.420104,51.568391],[-0.418485,51.56709],[-0.417465,51.566159],[-0.416162,51.564968],[-0.41569,51.564722],[-0.415235,51.564484],[-0.414524,51.563718],[-0.413355,51.562458],[-0.412199,51.561211],[-0.410556,51.560048],[-0.409258,51.558831],[-0.406062,51.556156],[-0.405228,51.555292],[-0.404395,51.554427],[-0.403386,51.553245],[-0.39915,51.548282],[-0.378307,51.5558],[-0.374006,51.556238],[-0.371361,51.556507],[-0.368516,51.556796],[-0.362724,51.557698],[-0.36274,51.558059],[-0.363966,51.558927],[-0.364751,51.559408],[-0.365171,51.560103],[-0.365251,51.560446],[-0.365267,51.560785],[-0.364972,51.561513],[-0.364853,51.561868],[-0.364812,51.562221],[-0.364834,51.562708],[-0.36496,51.563186],[-0.367482,51.566325],[-0.370213,51.569724],[-0.370909,51.571079],[-0.371324,51.571906],[-0.371365,51.572806],[-0.371121,51.574138],[-0.370784,51.574838],[-0.370449,51.575534]]]},"properties":{"code":"E86006","name":"THE DEVONSHIRE LODGE PRACTICE","icb":"Z9B2Z"}}]}