{"type":"FeatureCollection","features":[{"type":"Feature","geometry":{"type":"MultiPolygon","coordinates":[[[[-0.494749,51.479038],[-0.492765,51.479298],[-0.490136,51.480922],[-0.489618,51.481322],[-0.488756,51.481666],[-0.487197,51.481724],[-0.482647,51.481577],[-0.480018,51.481777],[-0.478175,51.482135],[-0.474225,51.481811],[-0.471899,51.481836],[-0.469644,51.481717],[-0.467741,51.48167],[-0.464856,51.481502],[-0.461406,51.481169],[-0.455396,51.481503],[-0.455292,51.48308],[-0.455224,51.483166],[-0.454688,51.483441],[-0.45423,51.484918],[-0.454155,51.484991],[-0.453101,51.485458],[-0.453595,51.487984],[-0.456355,51.491131],[-0.457875,51.493562],[-0.45846,51.494112],[-0.459729,51.495546],[-0.478051,51.494103],[-0.483034,51.493836],[-0.483313,51.4927],[-0.482353,51.49071],[-0.482773,51.488973],[-0.483179,51.488883],[-0.484472,51.489614],[-0.484965,51.48924],[-0.483193,51.488525],[-0.483108,51.488394],[-0.483681,51.486869],[-0.484196,51.486029],[-0.485394,51.48455],[-0.486263,51.483129],[-0.486469,51.483049],[-0.489235,51.483214],[-0.491402,51.483214],[-0.492497,51.482639],[-0.494749,51.479038]]],[[[-0.478699,51.494811],[-0.47636,51.494798],[-0.472108,51.495332],[-0.466308,51.495889],[-0.46139,51.49607],[-0.460039,51.496281],[-0.456823,51.496494],[-0.45647,51.49662],[-0.455727,51.497015],[-0.455019,51.497277],[-0.45432,51.49747],[-0.45397,51.49763],[-0.45373,51.49783],[-0.45356,51.49807],[-0.45428,51.49837],[-0.4549,51.49839],[-0.456309,51.498111],[-0.456557,51.498178],[-0.457026,51.498798],[-0.45599,51.50316],[-0.457672,51.503478],[-0.458107,51.503637],[-0.458091,51.503905],[-0.457649,51.504041],[-0.457265,51.504483],[-0.457126,51.504544],[-0.45619,51.504629],[-0.455354,51.504979],[-0.454382,51.50528],[-0.453285,51.505388],[-0.452747,51.505348],[-0.45172,51.50517],[-0.451384,51.506045],[-0.451094,51.507093],[-0.456114,51.507819],[-0.45797,51.50817],[-0.46344,51.5086],[-0.464645,51.508625],[-0.464851,51.50877],[-0.464813,51.509003],[-0.46456,51.509482],[-0.46373,51.51017],[-0.463314,51.510973],[-0.46381,51.511092],[-0.463936,51.511243],[-0.463763,51.511661],[-0.462479,51.512948],[-0.461919,51.513169],[-0.462288,51.513146],[-0.462504,51.513237],[-0.462638,51.513997],[-0.463477,51.514847],[-0.463448,51.515002],[-0.462598,51.515519],[-0.461286,51.515869],[-0.46101,51.5158],[-0.46061,51.515226],[-0.461791,51.517879],[-0.461688,51.518023],[-0.460728,51.518327],[-0.458872,51.518591],[-0.458974,51.518847],[-0.458825,51.519005],[-0.457681,51.519198],[-0.456789,51.519805],[-0.455345,51.520487],[-0.456211,51.522008],[-0.456099,51.52217],[-0.455321,51.522383],[-0.454912,51.52414],[-0.454414,51.52446],[-0.452479,51.524793],[-0.453444,51.52542],[-0.456236,51.5255],[-0.458611,51.525717],[-0.464717,51.52781],[-0.467199,51.52714],[-0.469867,51.526888],[-0.473585,51.526824],[-0.47377,51.526897],[-0.474558,51.52801],[-0.47636,51.530026],[-0.481594,51.530079],[-0.48156,51.529705],[-0.481692,51.52958],[-0.482682,51.529356],[-0.485263,51.529679],[-0.487025,51.529412],[-0.487472,51.528731],[-0.488334,51.526274],[-0.488148,51.523918],[-0.489085,51.522109],[-0.488634,51.52024],[-0.487991,51.518851],[-0.486531,51.518985],[-0.485201,51.519385],[-0.482831,51.52026],[-0.482558,51.520225],[-0.479815,51.517876],[-0.478282,51.516649],[-0.477347,51.514098],[-0.476851,51.513618],[-0.476896,51.513447],[-0.477578,51.513106],[-0.47843,51.51309],[-0.47924,51.51294],[-0.47857,51.51151],[-0.477595,51.510839],[-0.477496,51.509991],[-0.477706,51.509848],[-0.48351,51.50983],[-0.48498,51.50976],[-0.48464,51.50923],[-0.480448,51.505634],[-0.480158,51.504388],[-0.479771,51.503894],[-0.479809,51.503751],[-0.48065,51.50323],[-0.481746,51.501891],[-0.48209,51.50125],[-0.482104,51.500814],[-0.482418,51.500683],[-0.483876,51.501053],[-0.485673,51.502185],[-0.488226,51.502799],[-0.492625,51.503654],[-0.49784,51.503961],[-0.491246,51.497069],[-0.48756,51.495118],[-0.482379,51.495091],[-0.478699,51.494811]]]]},"properties":{"code":"E86004","name":"THE MEDICAL CENTRE","icb":"Z9B2Z"}}]}