{"type":"FeatureCollection","features":[{"type":"Feature","geometry":{"type":"Polygon","coordinates":[[[-0.44121,51.51785],[-0.44804,51.51216],[-0.44941,51.50639],[-0.45001,51.4921],[-0.45027,51.48331],[-0.44804,51.4817],[-0.43447,51.48192],[-0.43233,51.48218],[-0.43375,51.49007],[-0.4283,51.49325],[-0.41061,51.49047],[-0.41044,51.49373],[-0.41044,51.49774],[-0.40993,51.50073],[-0.40752,51.50559],[-0.40581,51.50888],[-0.40409,51.51344],[-0.40375,51.51569],[-0.40546,51.51643],[-0.41113,51.51814],[-0.41662,51.52039],[-0.4283,51.51996],[-0.42853,51.51781],[-0.44121,51.51785]]]},"properties":{"code":"E86017","name":"HAYES MEDICAL CENTRE","icb":"Z9B2Z"}}]}