{"type":"FeatureCollection","features":[{"type":"Feature","geometry":{"type":"Polygon","coordinates":[[[-0.43207,51.59531],[-0.43362,51.59051],[-0.43945,51.58806],[-0.44786,51.58498],[-0.44804,51.58424],[-0.44829,51.5786],[-0.45555,51.57232],[-0.46057,51.56581],[-0.46194,51.56152],[-0.45971,51.55722],[-0.45259,51.55559],[-0.44795,51.55442],[-0.44639,51.55516],[-0.44553,51.55577],[-0.44447,51.55682],[-0.43602,51.55513],[-0.43224,51.56041],[-0.4375,51.56493],[-0.43113,51.56757],[-0.42383,51.56427],[-0.41993,51.55752],[-0.41156,51.56072],[-0.39671,51.55669],[-0.3974,51.56053],[-0.40083,51.56613],[-0.39568,51.57306],[-0.39808,51.57742],[-0.40495,51.59147],[-0.4098,51.59581],[-0.41052,51.59694],[-0.41124,51.59697],[-0.41714,51.59443],[-0.42081,51.59596],[-0.42345,51.59685],[-0.42647,51.59648],[-0.43207,51.59531]]]},"properties":{"code":"E86033","name":"ST MARTINS MEDICAL CENTRE","icb":"Z9B2Z"}}]}