{"type":"FeatureCollection","features":[{"type":"Feature","geometry":{"type":"Polygon","coordinates":[[[-0.394306,51.520761],[-0.39313,51.52194],[-0.39285,51.52173],[-0.39212,51.52134],[-0.39,51.52045],[-0.38745,51.51981],[-0.38213,51.51873],[-0.38012,51.52344],[-0.38106,51.52717],[-0.381947,51.528717],[-0.38424,51.53001],[-0.38744,51.532562],[-0.396194,51.538328],[-0.408554,51.537046],[-0.420914,51.528824],[-0.427265,51.524339],[-0.418596,51.521749],[-0.411129,51.518891],[-0.408082,51.51809],[-0.398254,51.5159],[-0.39525,51.519425],[-0.394306,51.520761]]]},"properties":{"code":"E86610","name":"WILLOW TREE SURGERY","icb":"Z9B2Z"}}]}