{"type":"FeatureCollection","features":[{"type":"Feature","geometry":{"type":"Polygon","coordinates":[[[-0.128489,51.49996],[-0.144088,51.498205],[-0.145054,51.498434],[-0.14823,51.498166],[-0.157757,51.492609],[-0.156898,51.490365],[-0.154281,51.488521],[-0.150032,51.485902],[-0.146813,51.485795],[-0.13999,51.48486],[-0.137393,51.48517],[-0.131664,51.486339],[-0.127373,51.489599],[-0.125313,51.492378],[-0.125227,51.494767],[-0.125753,51.498288],[-0.126182,51.500225],[-0.12704,51.500239],[-0.128489,51.49996]]]},"properties":{"code":"E87034","name":"PIMLICO HEALTH AT THE MARVEN SURGERY","icb":"Z9B2Z"}}]}