{"type":"FeatureCollection","features":[{"type":"Feature","geometry":{"type":"Polygon","coordinates":[[[-0.216625,51.5107],[-0.215463,51.507968],[-0.214425,51.50519],[-0.207522,51.50666],[-0.200886,51.50843],[-0.195371,51.50921],[-0.194022,51.511917],[-0.19412,51.514047],[-0.193957,51.514193],[-0.194977,51.517569],[-0.196502,51.519167],[-0.19844,51.51865],[-0.20054,51.52085],[-0.20159,51.52218],[-0.20674,51.52315],[-0.20541,51.52434],[-0.206012,51.525102],[-0.20732,51.52573],[-0.21398,51.52634],[-0.21522,51.52625],[-0.214,51.52407],[-0.21537,51.52417],[-0.225292,51.522058],[-0.22187,51.51643],[-0.219,51.51371],[-0.216625,51.5107]]]},"properties":{"code":"E87065","name":"THE NOTTING HILL MEDICAL CENTRE","icb":"Z9B2Z"}}]}