{"type":"FeatureCollection","features":[{"type":"Feature","geometry":{"type":"Polygon","coordinates":[[[-0.188419,51.489569],[-0.183338,51.485776],[-0.18024,51.48309],[-0.17509,51.48352],[-0.174393,51.484395],[-0.172389,51.486156],[-0.1708,51.48683],[-0.170409,51.487942],[-0.16823,51.48972],[-0.169819,51.491285],[-0.17002,51.492345],[-0.16771,51.49742],[-0.19312,51.49442],[-0.19381,51.49378],[-0.19106,51.49154],[-0.188419,51.489569]]]},"properties":{"code":"E87048","name":"ROSARY GARDEN SURGERY","icb":"Z9B2Z"}}]}