{"type":"FeatureCollection","features":[{"type":"Feature","geometry":{"type":"Polygon","coordinates":[[[-0.16771,51.51798],[-0.16754,51.5182],[-0.17256,51.52178],[-0.1763,51.52423],[-0.18432,51.53077],[-0.18836,51.53435],[-0.19042,51.53561],[-0.19162,51.53654],[-0.19398,51.53859],[-0.19741,51.53721],[-0.20389,51.53483],[-0.20556,51.53451],[-0.20745,51.53424],[-0.21359,51.53302],[-0.22097,51.53131],[-0.22492,51.53093],[-0.2284,51.53037],[-0.23174,51.53157],[-0.23445,51.53275],[-0.23749,51.53229],[-0.23672,51.52914],[-0.23492,51.52594],[-0.23252,51.52348],[-0.22848,51.52017],[-0.22805,51.51889],[-0.22634,51.51526],[-0.2211,51.51542],[-0.22076,51.51302],[-0.21698,51.50463],[-0.20522,51.50714],[-0.19999,51.50869],[-0.19587,51.50917],[-0.18934,51.51008],[-0.18428,51.5104],[-0.17595,51.51152],[-0.17561,51.51339],[-0.17424,51.51446],[-0.17097,51.51606],[-0.16771,51.51798]]]},"properties":{"code":"E87026","name":"MEANWHILE GARDEN MEDICAL CENTRE","icb":"Z9B2Z"}}]}