{"type":"FeatureCollection","features":[{"type":"Feature","geometry":{"type":"Polygon","coordinates":[[[-0.210296,51.517703],[-0.206594,51.512508],[-0.203054,51.507894],[-0.200833,51.508509],[-0.19828,51.508749],[-0.195909,51.509143],[-0.191767,51.509924],[-0.187411,51.510212],[-0.183871,51.510505],[-0.182369,51.510625],[-0.180888,51.510839],[-0.174086,51.511841],[-0.167069,51.512482],[-0.160203,51.51323],[-0.168743,51.518998],[-0.172648,51.521855],[-0.176779,51.524639],[-0.177519,51.524279],[-0.178431,51.523831],[-0.180041,51.522897],[-0.18342,51.521108],[-0.185748,51.521862],[-0.187014,51.522263],[-0.188227,51.522683],[-0.189557,51.52305],[-0.190276,51.523044],[-0.190887,51.522897],[-0.194728,51.521775],[-0.195576,51.521568],[-0.196499,51.521441],[-0.199503,51.521648],[-0.200447,51.521688],[-0.202421,51.521441],[-0.203633,51.521061],[-0.20461,51.52058],[-0.206391,51.519225],[-0.208118,51.518297],[-0.209202,51.517957],[-0.210296,51.517703]]]},"properties":{"code":"E87681","name":"NEWTON MEDICAL CENTRE","icb":"Z9B2Z"}}]}