{"type":"FeatureCollection","features":[{"type":"Feature","geometry":{"type":"Polygon","coordinates":[[[-0.144711,51.523965],[-0.149367,51.523177],[-0.152242,51.522977],[-0.159538,51.521708],[-0.161061,51.521348],[-0.162992,51.521081],[-0.16295,51.521188],[-0.163035,51.521081],[-0.157585,51.513657],[-0.146084,51.514805],[-0.14044,51.51554],[-0.13475,51.51617],[-0.135527,51.517583],[-0.136149,51.518357],[-0.136492,51.518678],[-0.13694,51.51889],[-0.139754,51.521375],[-0.142844,51.523845],[-0.144711,51.523965]]]},"properties":{"code":"E87745","name":"CAVENDISH HEALTH CENTRE","icb":"Z9B2Z"}}]}