{"type":"FeatureCollection","features":[{"type":"Feature","geometry":{"type":"Polygon","coordinates":[[[-0.156138,51.489803],[-0.15621,51.48977],[-0.15372,51.48598],[-0.15132,51.48454],[-0.135516,51.48454],[-0.13544,51.48448],[-0.135275,51.48454],[-0.13501,51.48454],[-0.12969,51.48545],[-0.12832,51.48683],[-0.12274,51.49352],[-0.12265,51.49576],[-0.121461,51.504567],[-0.12128,51.50468],[-0.12137,51.50524],[-0.12128,51.50591],[-0.121465,51.505825],[-0.12154,51.50629],[-0.12385,51.50671],[-0.1272,51.50703],[-0.12952,51.50714],[-0.13038,51.50773],[-0.13372,51.50949],[-0.13553,51.5096],[-0.14248,51.50645],[-0.14703,51.5011],[-0.15235,51.50287],[-0.15862,51.50548],[-0.16128,51.50506],[-0.16205,51.50452],[-0.16565,51.50153],[-0.16059,51.50148],[-0.16196,51.49848],[-0.16153,51.50003],[-0.16428,51.49907],[-0.16188,51.49838],[-0.16334,51.49688],[-0.16479,51.49587],[-0.16256,51.49319],[-0.15827,51.4941],[-0.15853,51.49202],[-0.16076,51.49052],[-0.15982,51.48977],[-0.15673,51.48993],[-0.156138,51.489803]]]},"properties":{"code":"E87739","name":"MILLBANK MEDICAL CENTRE","icb":"Z9B2Z"}}]}