{"type":"FeatureCollection","features":[{"type":"Feature","geometry":{"type":"Polygon","coordinates":[[[0.587987,51.542268],[0.638376,51.541947],[0.637687,51.542172],[0.637589,51.542253],[0.631145,51.562087],[0.634203,51.569857],[0.610165,51.575897],[0.604641,51.575106],[0.599422,51.576064],[0.598073,51.577074],[0.589272,51.577983],[0.58913,51.578234],[0.589281,51.578339],[0.585931,51.576824],[0.577063,51.573025],[0.577018,51.572927],[0.573763,51.571318],[0.569711,51.569484],[0.569711,51.564682],[0.569858,51.564555],[0.5698,51.564336],[0.56954,51.564149],[0.570605,51.563793],[0.572843,51.562136],[0.580614,51.551165],[0.58703,51.544524],[0.587987,51.542268]]]},"properties":{"code":"F81075","name":"THE HOLLIES","icb":"D7T5G"}}]}