{"type":"FeatureCollection","features":[{"type":"Feature","geometry":{"type":"Polygon","coordinates":[[[0.98671,51.85296],[1.02242,51.8336],[1.07082,51.81615],[1.06361,51.79842],[1.07975,51.79481],[1.09383,51.80129],[1.10567,51.80373],[1.11958,51.80978],[1.12747,51.81382],[1.14095,51.8205],[1.15215,51.82031],[1.16249,51.82092],[1.16421,51.82591],[1.16524,51.84426],[1.17893,51.85433],[1.17743,51.86165],[1.14545,51.87241],[1.11863,51.88338],[1.10327,51.89588],[1.08284,51.90361],[1.02894,51.90075],[1.00027,51.89705],[0.98722,51.88412],[0.98671,51.85296]]]},"properties":{"code":"F81021","name":"GREAT BENTLEY SURGERY","icb":"D7T5G"}}]}