{"type":"FeatureCollection","features":[{"type":"Feature","geometry":{"type":"Polygon","coordinates":[[[0.724183,51.532389],[0.729957,51.530379],[0.734552,51.529968],[0.74449,51.530042],[0.752383,51.529336],[0.767878,51.526219],[0.768531,51.527892],[0.767623,51.531273],[0.767828,51.533545],[0.768733,51.535862],[0.769565,51.537989],[0.769625,51.540486],[0.771806,51.542291],[0.772546,51.544184],[0.767645,51.543477],[0.756787,51.544448],[0.74467,51.55135],[0.739537,51.552048],[0.729643,51.552693],[0.725511,51.554132],[0.722358,51.554629],[0.71596,51.554015],[0.714491,51.550806],[0.715542,51.547929],[0.716862,51.546438],[0.718246,51.54607],[0.718672,51.541422],[0.717609,51.540543],[0.718362,51.537855],[0.718843,51.535098],[0.723569,51.534676],[0.724183,51.532389]]]},"properties":{"code":"F81086","name":"CENTRAL SURGERY - SOUTHCHURCH BLVD","icb":"D7T5G"}}]}