{"type":"FeatureCollection","features":[{"type":"Feature","geometry":{"type":"Polygon","coordinates":[[[0.251314,51.490926],[0.256816,51.492275],[0.260069,51.494882],[0.265947,51.497711],[0.26704,51.499817],[0.295351,51.49862],[0.30196,51.49794],[0.30668,51.49797],[0.31131,51.49934],[0.298612,51.500102],[0.298442,51.500189],[0.295829,51.505697],[0.29719,51.51051],[0.297241,51.511418],[0.297756,51.511504],[0.29803,51.51123],[0.30048,51.51103],[0.303112,51.51114],[0.30828,51.50911],[0.312126,51.516524],[0.312269,51.516604],[0.32581,51.5184],[0.295948,51.539413],[0.29577,51.53993],[0.295379,51.539895],[0.295208,51.539934],[0.295,51.54008],[0.2774,51.53435],[0.259552,51.524445],[0.244925,51.516856],[0.240281,51.508211],[0.234114,51.504924],[0.234256,51.50292],[0.235849,51.499562],[0.239339,51.496406],[0.240914,51.494458],[0.243721,51.492481],[0.247325,51.491337],[0.251314,51.490926]]]},"properties":{"code":"F81010","name":"AVELEY MEDICAL CENTRE","icb":"D7T5G"}}]}