{"type":"FeatureCollection","features":[{"type":"Feature","geometry":{"type":"Polygon","coordinates":[[[0.11759,51.7959],[0.11715,51.79076],[0.11907,51.78583],[0.12095,51.78255],[0.12468,51.78307],[0.12728,51.7832],[0.1275,51.78248],[0.12773,51.78119],[0.12837,51.7789],[0.12885,51.77623],[0.12877,51.77527],[0.12858,51.77443],[0.12843,51.7739],[0.12803,51.77319],[0.12802,51.77294],[0.12905,51.77252],[0.13291,51.77002],[0.148267,51.768914],[0.16325,51.77002],[0.20256,51.77522],[0.20153,51.79134],[0.19677,51.80146],[0.194118,51.80443],[0.192777,51.805932],[0.19114,51.80729],[0.18186,51.80643],[0.17258,51.80482],[0.16382,51.80351],[0.16042,51.80351],[0.14527,51.80182],[0.13387,51.80402],[0.12723,51.80353],[0.12198,51.80008],[0.11759,51.7959]]]},"properties":{"code":"F81056","name":"OLD HARLOW HEALTH CENTRE","icb":"D7T5G"}}]}