{"type":"FeatureCollection","features":[{"type":"Feature","geometry":{"type":"Polygon","coordinates":[[[0.14626,52.09934],[0.14471,52.06589],[0.1472,52.04357],[0.12085,52.0413],[0.10162,52.03623],[0.08789,52.00602],[0.11982,52.00602],[0.13424,51.96437],[0.23895,51.95781],[0.32513,51.96965],[0.34779,51.96881],[0.37628,51.98731],[0.43224,51.99439],[0.42126,52.00919],[0.36684,52.01954],[0.33577,52.02609],[0.35088,52.06938],[0.28255,52.08341],[0.2211,52.08309],[0.14626,52.09934]]]},"properties":{"code":"F81015","name":"CROCUS MEDICAL PRACTICE","icb":"D7T5G"}}]}