{"type":"FeatureCollection","features":[{"type":"Feature","geometry":{"type":"Polygon","coordinates":[[[0.58505,51.95825],[0.585035,51.958239],[0.585028,51.958234],[0.58502,51.95823],[0.57335,51.94934],[0.573329,51.949272],[0.573326,51.949264],[0.573321,51.949258],[0.573314,51.949252],[0.57309,51.94908],[0.570604,51.940475],[0.570601,51.940468],[0.570596,51.940461],[0.57059,51.940455],[0.570582,51.94045],[0.56236,51.9358],[0.560975,51.934518],[0.560971,51.934514],[0.560966,51.934511],[0.55996,51.93389],[0.557702,51.931488],[0.557699,51.931486],[0.5555,51.92945],[0.563046,51.925212],[0.563053,51.925208],[0.57266,51.91801],[0.573256,51.918425],[0.573265,51.91843],[0.573274,51.918435],[0.573285,51.918438],[0.573297,51.91844],[0.573308,51.91844],[0.57332,51.91844],[0.573332,51.918439],[0.573343,51.918436],[0.573353,51.918432],[0.573362,51.918427],[0.57884,51.91505],[0.589138,51.91378],[0.589142,51.91378],[0.60425,51.91124],[0.617286,51.91081],[0.617294,51.91081],[0.62897,51.90954],[0.65781,51.90954],[0.68665,51.90954],[0.70587,51.91124],[0.71617,51.91505],[0.71823,51.92225],[0.71823,51.928178],[0.71823,51.928182],[0.71892,51.93411],[0.71892,51.93961],[0.71823,51.952309],[0.71823,51.952311],[0.71823,51.96881],[0.70724,51.98277],[0.70107,51.99038],[0.691462,51.997551],[0.691455,51.997557],[0.69145,51.997564],[0.691447,51.997572],[0.690734,52.00005],[0.690733,52.000056],[0.690734,52.000063],[0.690736,52.00007],[0.69074,52.000076],[0.690745,52.000082],[0.690752,52.000087],[0.69077,52.0001],[0.67978,52.00348],[0.67017,52.00433],[0.665098,52.003159],[0.665097,52.003159],[0.66457,52.00304],[0.65605,51.9991],[0.65052,51.99562],[0.65052,51.99562],[0.650036,51.995318],[0.650036,51.995317],[0.64751,51.99376],[0.646312,51.992602],[0.646308,51.992598],[0.64626,51.99256],[0.646204,51.992497],[0.646201,51.992495],[0.645153,51.991482],[0.645153,51.991481],[0.64444,51.99081],[0.64332,51.98971],[0.64332,51.989709],[0.64271,51.98912],[0.642703,51.989114],[0.642694,51.989109],[0.642683,51.989104],[0.6324,51.98573],[0.626435,51.982513],[0.626434,51.982512],[0.62626,51.98242],[0.61667,51.97725],[0.61667,51.97725],[0.61592,51.97685],[0.61562,51.97621],[0.61562,51.97621],[0.61508,51.97507],[0.61508,51.97507],[0.61402,51.97284],[0.611911,51.968382],[0.611909,51.968379],[0.61188,51.96833],[0.61151,51.96755],[0.611352,51.967202],[0.611352,51.967201],[0.611126,51.966723],[0.611122,51.966717],[0.611116,51.966711],[0.611109,51.966705],[0.611101,51.966701],[0.611091,51.966697],[0.610187,51.966387],[0.610186,51.966387],[0.609697,51.966226],[0.609696,51.966226],[0.60896,51.96599],[0.60839,51.9658],[0.60839,51.9658],[0.60781,51.96561],[0.60756,51.965525],[0.607559,51.965525],[0.60081,51.96331],[0.60081,51.96331],[0.598043,51.96242],[0.598043,51.96242],[0.59364,51.96101],[0.58505,51.95825]]]},"properties":{"code":"F81068","name":"THE ELIZABETH COURTAULD SURGERY","icb":"D7T5G"}}]}