{"type":"FeatureCollection","features":[{"type":"Feature","geometry":{"type":"Polygon","coordinates":[[[0.435333,51.648916],[0.430149,51.650139],[0.42572,51.651898],[0.417309,51.651472],[0.412159,51.648596],[0.403575,51.646466],[0.399114,51.641566],[0.391902,51.639968],[0.386581,51.634001],[0.377998,51.631125],[0.37645,51.622706],[0.382803,51.610235],[0.386751,51.60064],[0.393618,51.585923],[0.41233,51.58635],[0.423488,51.584537],[0.432241,51.584004],[0.441683,51.585204],[0.453015,51.587203],[0.463658,51.589656],[0.477907,51.592322],[0.484601,51.592962],[0.484945,51.597228],[0.483915,51.602666],[0.483227,51.606077],[0.488035,51.60853],[0.48855,51.612687],[0.489239,51.615778],[0.49284,51.618336],[0.49439,51.622067],[0.493012,51.626649],[0.489926,51.629952],[0.485802,51.63251],[0.481513,51.6356],[0.475674,51.640607],[0.471382,51.6405],[0.435333,51.648916]]]},"properties":{"code":"F81045","name":"THE NEW SURGERY","icb":"D7T5G"}}]}