{"type":"FeatureCollection","features":[{"type":"Feature","geometry":{"type":"Polygon","coordinates":[[[0.564417,51.629207],[0.55258,51.63091],[0.54691,51.63389],[0.545194,51.651259],[0.53833,51.648277],[0.532837,51.64849],[0.520821,51.647424],[0.51139,51.64627],[0.503655,51.645081],[0.47293,51.63661],[0.472496,51.625051],[0.46344,51.62365],[0.46213,51.61355],[0.46232,51.61339],[0.46003,51.60564],[0.46198,51.59911],[0.46313,51.59221],[0.47664,51.59214],[0.50365,51.59371],[0.5252,51.59086],[0.55704,51.58971],[0.573344,51.591576],[0.57232,51.594135],[0.576093,51.595628],[0.57438,51.59904],[0.576266,51.601493],[0.579004,51.606611],[0.578665,51.611728],[0.577464,51.615991],[0.577458,51.622813],[0.564417,51.629207]]]},"properties":{"code":"F81036","name":"ROBERT FREW MEDICAL CENTRE","icb":"D7T5G"}}]}