{"type":"FeatureCollection","features":[{"type":"Feature","geometry":{"type":"Polygon","coordinates":[[[0.54731,51.525027],[0.548029,51.518624],[0.549899,51.513648],[0.552532,51.510723],[0.557056,51.510036],[0.573178,51.507587],[0.580562,51.509498],[0.585956,51.510542],[0.598068,51.512001],[0.623474,51.515633],[0.626277,51.518346],[0.625019,51.521695],[0.620427,51.525807],[0.611458,51.527169],[0.602617,51.529946],[0.584593,51.534377],[0.57263,51.535281],[0.563433,51.535536],[0.557525,51.530116],[0.55217,51.527256],[0.54731,51.525027]]]},"properties":{"code":"F81096","name":"OAKLANDS SURGERY","icb":"D7T5G"}}]}