{"type":"FeatureCollection","features":[{"type":"Feature","geometry":{"type":"Polygon","coordinates":[[[0.953966,51.860459],[0.954695,51.858789],[0.957228,51.85863],[0.957356,51.857862],[0.957099,51.857067],[0.953838,51.857809],[0.951863,51.855847],[0.951777,51.855397],[0.95139,51.854628],[0.95315,51.853912],[0.955888,51.854641],[0.957425,51.854462],[0.960388,51.853622],[0.963073,51.852368],[0.963643,51.853011],[0.964597,51.853369],[0.965219,51.853892],[0.964907,51.854217],[0.96422,51.854456],[0.963125,51.854641],[0.963234,51.854873],[0.96391,51.855165],[0.964146,51.855927],[0.964414,51.856483],[0.965605,51.856795],[0.966379,51.856642],[0.968856,51.857464],[0.971732,51.859611],[0.975896,51.859797],[0.975424,51.860883],[0.972676,51.861546],[0.969629,51.862102],[0.968042,51.862977],[0.964693,51.865733],[0.966324,51.867641],[0.967502,51.867588],[0.969787,51.869364],[0.970486,51.870052],[0.970272,51.870715],[0.970578,51.871563],[0.967183,51.873683],[0.965683,51.873391],[0.96375,51.873047],[0.962034,51.872331],[0.962334,51.870026],[0.96161,51.868304],[0.954269,51.869761],[0.950188,51.869443],[0.949158,51.868648],[0.950061,51.867668],[0.952292,51.866396],[0.952334,51.864912],[0.954567,51.864752],[0.953966,51.860459]]]},"properties":{"code":"F81028","name":"WIVENHOE SURGERY","icb":"D7T5G"}}]}