{"type":"FeatureCollection","features":[{"type":"Feature","geometry":{"type":"Polygon","coordinates":[[[0.43664,51.65058],[0.41693,51.65196],[0.39684,51.65222],[0.39703,51.64714],[0.39618,51.64639],[0.39434,51.64447],[0.39319,51.64234],[0.38748,51.62761],[0.38755,51.62053],[0.38658,51.61815],[0.38474,51.61045],[0.38903,51.60136],[0.3933,51.59386],[0.39628,51.58624],[0.39904,51.58668],[0.40149,51.58732],[0.40412,51.58766],[0.41169,51.58816],[0.42184,51.58842],[0.42659,51.58834],[0.43143,51.58811],[0.43066,51.59227],[0.42778,51.59648],[0.42675,51.59643],[0.45125,51.60288],[0.45924,51.60626],[0.46662,51.61061],[0.47173,51.6242],[0.47585,51.62484],[0.47997,51.6251],[0.48409,51.62505],[0.4882,51.62462],[0.49078,51.63874],[0.48666,51.63872],[0.48203,51.63794],[0.47773,51.63728],[0.47379,51.63597],[0.47164,51.63933],[0.45568,51.64882],[0.44473,51.64999],[0.43664,51.65058]]]},"properties":{"code":"F81080","name":"THE BILLERICAY MEDICAL PRACTICE","icb":"D7T5G"}}]}