{"type":"FeatureCollection","features":[{"type":"Feature","geometry":{"type":"Polygon","coordinates":[[[0.04901,52.02155],[0.05392,52.01738],[0.05815,52.0122],[0.06214,52.0098],[0.06523,52.00745],[0.07231,52.00393],[0.07407,51.99852],[0.073,51.99056],[0.06703,51.97991],[0.07733,51.92267],[0.14823,51.91224],[0.1596,51.91111],[0.16814,51.91055],[0.20007,51.91637],[0.219,51.91672],[0.22033,51.91246],[0.22316,51.90573],[0.27637,51.9106],[0.28337,51.95485],[0.29144,51.95686],[0.30672,51.95976],[0.3407,52.01143],[0.30899,52.06473],[0.21925,52.08533],[0.09956,52.07275],[0.07553,52.04362],[0.07519,52.0436],[0.0495,52.02217],[0.04901,52.02155]]]},"properties":{"code":"F81034","name":"NEWPORT SURGERY","icb":"D7T5G"}}]}