{"type":"FeatureCollection","features":[{"type":"Feature","geometry":{"type":"Polygon","coordinates":[[[0.597338,51.772272],[0.622761,51.777723],[0.625961,51.776453],[0.630731,51.777475],[0.645117,51.762331],[0.704733,51.763362],[0.718307,51.794841],[0.679462,51.810245],[0.671657,51.807484],[0.671277,51.807817],[0.678209,51.811545],[0.678666,51.811362],[0.678433,51.810882],[0.68032,51.811625],[0.651017,51.826943],[0.621857,51.822161],[0.584363,51.834613],[0.575364,51.82851],[0.559825,51.823015],[0.547079,51.807741],[0.597338,51.772272]]]},"properties":{"code":"F81030","name":"FERN HOUSE SURGERY","icb":"D7T5G"}}]}