{"type":"FeatureCollection","features":[{"type":"Feature","geometry":{"type":"Polygon","coordinates":[[[0.70111,51.53985],[0.7031,51.53994],[0.704436,51.540301],[0.70609,51.54033],[0.70659,51.54048],[0.706934,51.540857],[0.707674,51.54108],[0.710657,51.54108],[0.71106,51.54102],[0.71227,51.54102],[0.713679,51.541318],[0.715139,51.541224],[0.71677,51.54054],[0.71793,51.54022],[0.71922,51.54001],[0.721244,51.54004],[0.7239,51.54001],[0.726934,51.54014],[0.72866,51.54014],[0.730428,51.540411],[0.73424,51.54078],[0.737402,51.541399],[0.73836,51.54153],[0.73789,51.54319],[0.737202,51.545123],[0.73703,51.54625],[0.736689,51.54737],[0.73699,51.54796],[0.73707,51.5485],[0.736559,51.549805],[0.73609,51.551809],[0.736133,51.551899],[0.73647,51.55215],[0.73591,51.55245],[0.73501,51.55266],[0.729434,51.55306],[0.727679,51.553245],[0.726515,51.553828],[0.7257,51.55431],[0.72454,51.55458],[0.72227,51.55477],[0.719,51.55466],[0.716707,51.554213],[0.715768,51.554152],[0.71364,51.55442],[0.71179,51.55445],[0.710306,51.553967],[0.7087,51.55375],[0.70849,51.55359],[0.7079,51.552488],[0.707162,51.551908],[0.706077,51.551577],[0.703774,51.551121],[0.703335,51.551047],[0.703098,51.551116],[0.701392,51.553346],[0.70141,51.55423],[0.701137,51.554444],[0.7011,51.554541],[0.70137,51.55535],[0.70145,51.55606],[0.701361,51.556101],[0.701317,51.556286],[0.70167,51.55658],[0.701559,51.556933],[0.701898,51.557504],[0.70321,51.55856],[0.70373,51.55981],[0.70325,51.56186],[0.702739,51.563162],[0.7027,51.564083],[0.70282,51.56635],[0.70004,51.56539],[0.69806,51.5644],[0.69673,51.56323],[0.69617,51.56195],[0.69561,51.5585],[0.698564,51.557525],[0.701006,51.556292],[0.70107,51.55616],[0.70076,51.55554],[0.70083,51.55489],[0.701064,51.554433],[0.70098,51.55418],[0.701066,51.553865],[0.70102,51.55356],[0.70129,51.553401],[0.701349,51.55331],[0.70132,51.55287],[0.702872,51.551008],[0.704674,51.548586],[0.704576,51.548413],[0.70288,51.54789],[0.70104,51.54721],[0.69818,51.5458],[0.697057,51.544827],[0.694695,51.544268],[0.69214,51.54395],[0.69366,51.54314],[0.695114,51.542541],[0.69652,51.54163],[0.697941,51.541195],[0.70111,51.53985]]]},"properties":{"code":"F81003","name":"DR F KHAN CARNAVON ROAD SURGERY","icb":"D7T5G"}}]}