{"type":"FeatureCollection","features":[{"type":"Feature","geometry":{"type":"Polygon","coordinates":[[[0.618582,51.782312],[0.62077,51.784276],[0.627851,51.784887],[0.633259,51.785206],[0.640812,51.786745],[0.65094,51.791417],[0.65506,51.80214],[0.663128,51.809039],[0.658021,51.813444],[0.655704,51.812329],[0.65433,51.813285],[0.654674,51.815646],[0.651369,51.817105],[0.649395,51.816521],[0.647078,51.816919],[0.646734,51.81814],[0.645061,51.819652],[0.642228,51.820182],[0.641241,51.819386],[0.639567,51.81867],[0.638494,51.819731],[0.638194,51.820182],[0.628066,51.815089],[0.62768,51.813444],[0.603555,51.830685],[0.623174,51.811905],[0.602956,51.830738],[0.590679,51.825805],[0.604502,51.806864],[0.605274,51.800601],[0.607335,51.799221],[0.610342,51.797177],[0.603991,51.796394],[0.606866,51.795638],[0.611973,51.796593],[0.618668,51.798371],[0.618925,51.798371],[0.62047,51.796938],[0.62047,51.796859],[0.61833,51.79333],[0.618367,51.793249],[0.618293,51.793295],[0.618324,51.793249],[0.618281,51.793275],[0.616779,51.791258],[0.613046,51.782338],[0.618582,51.782312]]]},"properties":{"code":"F81173","name":"DOUGLAS GROVE SURGERY","icb":"D7T5G"}}]}