{"type":"FeatureCollection","features":[{"type":"Feature","geometry":{"type":"Polygon","coordinates":[[[0.467949,51.578241],[0.466404,51.571733],[0.467262,51.566291],[0.468979,51.56213],[0.473957,51.559251],[0.475159,51.556903],[0.473957,51.554342],[0.470695,51.55402],[0.4743,51.550712],[0.503171,51.560745],[0.512667,51.560851],[0.511293,51.563465],[0.516098,51.563791],[0.530391,51.563975],[0.540562,51.567467],[0.540047,51.583896],[0.519276,51.582402],[0.500736,51.582404],[0.495758,51.57771],[0.491638,51.578351],[0.488903,51.581487],[0.484946,51.580759],[0.479053,51.581333],[0.477191,51.579333],[0.467949,51.578241]]]},"properties":{"code":"F81158","name":"DR NASAH & PARTNERS","icb":"D7T5G"}}]}