{"type":"FeatureCollection","features":[{"type":"Feature","geometry":{"type":"Polygon","coordinates":[[[0.61781,51.78547],[0.63961,51.77767],[0.66759,51.77071],[0.6815,51.77304],[0.67823,51.78345],[0.66038,51.81376],[0.66308,51.81919],[0.698833,51.827503],[0.64476,51.845641],[0.621929,51.858577],[0.595322,51.847232],[0.58058,51.8162],[0.58663,51.80708],[0.5925,51.79723],[0.60464,51.78901],[0.609398,51.785896],[0.61781,51.78547]]]},"properties":{"code":"F81193","name":"WITHAM HEALTH CENTRE","icb":"D7T5G"}}]}