{"type":"FeatureCollection","features":[{"type":"Feature","geometry":{"type":"Polygon","coordinates":[[[0.44323,51.89228],[0.44323,51.89323],[0.4022,51.92744],[0.29268,51.92034],[0.27294,51.89323],[0.27328,51.8926],[0.25183,51.84903],[0.30418,51.79938],[0.25663,51.80023],[0.28341,51.78292],[0.34916,51.77729],[0.3692,51.782715],[0.36976,51.78207],[0.41353,51.79354],[0.45267,51.82973],[0.41911,51.85025],[0.419209,51.850426],[0.45422,51.83047],[0.49095,51.82856],[0.50674,51.86928],[0.49988,51.87607],[0.4628,51.90679],[0.44323,51.89228]]]},"properties":{"code":"F81118","name":"JOHN TASKER HOUSE SURGERY","icb":"D7T5G"}}]}