{"type":"FeatureCollection","features":[{"type":"Feature","geometry":{"type":"Polygon","coordinates":[[[0.137424,51.754958],[0.13827,51.75498],[0.14023,51.75552],[0.14162,51.75676],[0.14497,51.75817],[0.1478,51.76003],[0.15038,51.76356],[0.15364,51.76678],[0.14132,51.7727],[0.142822,51.783453],[0.139732,51.788763],[0.1363,51.788551],[0.13216,51.78799],[0.11892,51.78574],[0.10111,51.7809],[0.0922,51.77932],[0.09191,51.77638],[0.09536,51.77474],[0.0948,51.77278],[0.09609,51.77084],[0.0972,51.76893],[0.09729,51.7676],[0.10012,51.7668],[0.10295,51.76613],[0.10433,51.76604],[0.10755,51.76555],[0.11216,51.76498],[0.11764,51.76459],[0.12347,51.76394],[0.1256,51.76342],[0.12594,51.76212],[0.12648,51.76113],[0.12711,51.75731],[0.12726,51.75684],[0.12765,51.75608],[0.12747,51.75607],[0.12946,51.75488],[0.134413,51.754878],[0.13748,51.75497],[0.137424,51.754958]]]},"properties":{"code":"F81120","name":"NUFFIELD HOUSE HEALTH CENTRE","icb":"D7T5G"}}]}