{"type":"FeatureCollection","features":[{"type":"Feature","geometry":{"type":"Polygon","coordinates":[[[0.45615,51.547155],[0.450969,51.544443],[0.448824,51.543447],[0.4458,51.54121],[0.43173,51.5308],[0.42212,51.52111],[0.4167,51.51589],[0.41452,51.51346],[0.41373,51.51272],[0.41249,51.51214],[0.41182,51.51195],[0.41217,51.51168],[0.412073,51.511253],[0.412502,51.510559],[0.413189,51.509757],[0.414218,51.508743],[0.414648,51.508315],[0.415163,51.507888],[0.415506,51.50714],[0.417051,51.506499],[0.416965,51.506338],[0.41748,51.506766],[0.418253,51.506659],[0.419712,51.506712],[0.420656,51.506873],[0.42433,51.50778],[0.42886,51.50907],[0.43397,51.50881],[0.43371,51.51122],[0.44617,51.51343],[0.461796,51.514924],[0.460528,51.518995],[0.461582,51.519776],[0.461846,51.520256],[0.461976,51.520494],[0.462363,51.521204],[0.463014,51.520096],[0.464358,51.519322],[0.465679,51.521731],[0.465088,51.523206],[0.466966,51.523699],[0.468083,51.524087],[0.470904,51.527045],[0.474642,51.526646],[0.478216,51.526917],[0.475175,51.528364],[0.474782,51.530649],[0.472425,51.53466],[0.470795,51.53822],[0.469731,51.540081],[0.474258,51.542412],[0.471899,51.546951],[0.470742,51.549838],[0.46554,51.550064],[0.464456,51.550625],[0.460325,51.549106],[0.45615,51.547155]]]},"properties":{"code":"F81153","name":"HASSENGATE MEDICAL CENTRE","icb":"D7T5G"}}]}