{"type":"FeatureCollection","features":[{"type":"Feature","geometry":{"type":"Polygon","coordinates":[[[0.54339,51.568],[0.54202,51.56008],[0.54005,51.55527],[0.54116,51.55089],[0.54528,51.54673],[0.55197,51.546],[0.56526,51.54207],[0.569916,51.541958],[0.571632,51.541851],[0.573006,51.541531],[0.573778,51.542171],[0.576782,51.541958],[0.578842,51.541905],[0.580988,51.542492],[0.583563,51.542759],[0.593605,51.543613],[0.59721,51.54404],[0.605278,51.543666],[0.60854,51.547029],[0.610685,51.550658],[0.6112,51.55338],[0.612144,51.555942],[0.612488,51.558183],[0.613174,51.560264],[0.613346,51.562719],[0.613518,51.564159],[0.613775,51.565013],[0.61429,51.566027],[0.615063,51.567307],[0.616436,51.574509],[0.59379,51.57732],[0.58968,51.57774],[0.5867,51.5791],[0.58453,51.58112],[0.58073,51.58331],[0.57365,51.58582],[0.56833,51.58718],[0.56684,51.58512],[0.56187,51.58288],[0.55331,51.57872],[0.54769,51.57664],[0.54513,51.57467],[0.54292,51.57184],[0.54247,51.56907],[0.54339,51.568]]]},"properties":{"code":"F81142","name":"ST GEORGES MEDICAL PRACTICE","icb":"D7T5G"}}]}