{"type":"FeatureCollection","features":[{"type":"Feature","geometry":{"type":"Polygon","coordinates":[[[0.488703,51.764814],[0.487301,51.767454],[0.486626,51.770118],[0.486776,51.772716],[0.486823,51.772748],[0.47993,51.773704],[0.475051,51.776111],[0.470223,51.778492],[0.454531,51.784337],[0.415753,51.774318],[0.397854,51.769451],[0.413176,51.749956],[0.421826,51.745694],[0.429461,51.74193],[0.429125,51.739213],[0.430038,51.739174],[0.429924,51.737171],[0.428743,51.735656],[0.427471,51.734246],[0.426468,51.732706],[0.426055,51.732249],[0.42552,51.731868],[0.426439,51.731101],[0.427649,51.730735],[0.428547,51.73042],[0.43161,51.729875],[0.432873,51.7297],[0.434021,51.729297],[0.434992,51.728639],[0.436751,51.728405],[0.437417,51.72848],[0.439473,51.728709],[0.440258,51.728776],[0.443106,51.727776],[0.446155,51.727399],[0.447557,51.727183],[0.448827,51.727014],[0.452119,51.726515],[0.45253,51.72724],[0.452856,51.728241],[0.453127,51.729228],[0.453392,51.729695],[0.454168,51.730555],[0.455492,51.73165],[0.457963,51.734178],[0.459524,51.735214],[0.4609,51.73643],[0.461463,51.736329],[0.462021,51.736228],[0.463183,51.736038],[0.463531,51.735822],[0.46394,51.735634],[0.464247,51.735313],[0.464531,51.735101],[0.464624,51.735044],[0.464897,51.734866],[0.465111,51.734747],[0.467011,51.733874],[0.468992,51.733051],[0.470336,51.732579],[0.470575,51.732506],[0.47319,51.732474],[0.47527,51.732618],[0.476294,51.732706],[0.47733,51.73193],[0.477381,51.731897],[0.477659,51.732746],[0.481178,51.735197],[0.48311,51.736384],[0.484632,51.737255],[0.484919,51.737419],[0.485238,51.737307],[0.490062,51.735937],[0.494524,51.734691],[0.49492,51.734573],[0.497381,51.738644],[0.498094,51.740122],[0.498276,51.740862],[0.499547,51.742881],[0.501069,51.744818],[0.503686,51.747128],[0.501826,51.747171],[0.499274,51.74816],[0.498433,51.748502],[0.497646,51.748864],[0.496957,51.74935],[0.496519,51.749872],[0.496335,51.7506],[0.496074,51.750762],[0.495058,51.751426],[0.492549,51.754501],[0.492665,51.755654],[0.493401,51.756296],[0.492709,51.757258],[0.491857,51.7582],[0.490945,51.7598],[0.489086,51.761574],[0.488703,51.764814]]]},"properties":{"code":"F81122","name":"CHELMER MEDICAL PARTNERSHIP","icb":"D7T5G"}}]}