{"type":"FeatureCollection","features":[{"type":"Feature","geometry":{"type":"Polygon","coordinates":[[[0.04028,51.61624],[0.04261,51.61682],[0.05343,51.61871],[0.05219,51.61951],[0.05141,51.61983],[0.05146,51.62073],[0.05137,51.62108],[0.05193,51.62119],[0.05188,51.62161],[0.05094,51.62183],[0.0509,51.62215],[0.05141,51.62255],[0.05111,51.62303],[0.05154,51.62324],[0.05167,51.62375],[0.05223,51.62383],[0.05296,51.62353],[0.05356,51.62364],[0.05412,51.62316],[0.05643,51.62327],[0.05854,51.62441],[0.05944,51.62452],[0.05931,51.6255],[0.05931,51.62614],[0.05914,51.627],[0.05922,51.62793],[0.06021,51.62883],[0.06047,51.62939],[0.06107,51.63003],[0.0563,51.63211],[0.05394,51.63347],[0.05154,51.63395],[0.04686,51.63424],[0.04382,51.63469],[0.04077,51.63485],[0.03927,51.63533],[0.0339,51.62859],[0.03034,51.62324],[0.03197,51.623],[0.03749,51.61851],[0.03755,51.61802],[0.04028,51.61624]]]},"properties":{"code":"F81165","name":"PALMERSTON ROAD SURGERY","icb":"D7T5G"}}]}