{"type":"FeatureCollection","features":[{"type":"Feature","geometry":{"type":"Polygon","coordinates":[[[0.411987,51.549004],[0.418854,51.5442],[0.422802,51.549858],[0.4216,51.547189],[0.429325,51.549111],[0.432072,51.551352],[0.436375,51.558564],[0.439252,51.56064],[0.445633,51.556155],[0.455246,51.557863],[0.464516,51.556902],[0.462284,51.569281],[0.475159,51.570562],[0.485458,51.570988],[0.492668,51.570988],[0.495586,51.571735],[0.499191,51.58091],[0.501595,51.591043],[0.494213,51.593069],[0.466128,51.588975],[0.43921,51.58437],[0.42466,51.5836],[0.41147,51.5859],[0.39128,51.58334],[0.392933,51.575363],[0.396538,51.570988],[0.392933,51.560318],[0.395679,51.553487],[0.410442,51.549644],[0.411987,51.549004]]]},"properties":{"code":"F81150","name":"BALLARDS WALK SURGERY","icb":"D7T5G"}}]}