{"type":"FeatureCollection","features":[{"type":"Feature","geometry":{"type":"Polygon","coordinates":[[[0.511027,51.755687],[0.513751,51.754177],[0.516006,51.755279],[0.520471,51.757968],[0.525741,51.760066],[0.5208,51.754186],[0.520469,51.748289],[0.520468,51.742337],[0.520812,51.738298],[0.522634,51.73344],[0.522875,51.733407],[0.523751,51.730292],[0.524592,51.728729],[0.526309,51.727241],[0.52614,51.72708],[0.55758,51.73123],[0.57193,51.73607],[0.57713,51.73596],[0.58155,51.73507],[0.58394,51.73564],[0.58615,51.73652],[0.58898,51.73722],[0.59173,51.73718],[0.59422,51.73745],[0.59672,51.73688],[0.61759,51.73747],[0.63756,51.73954],[0.65675,51.73927],[0.66322,51.74013],[0.67475,51.74016],[0.67715,51.73946],[0.67887,51.73819],[0.68105,51.74056],[0.68336,51.74169],[0.6775,51.74494],[0.67593,51.74566],[0.67572,51.74786],[0.67566,51.75116],[0.6766,51.75464],[0.67703,51.75812],[0.6772,51.76115],[0.67855,51.76505],[0.68039,51.76658],[0.68275,51.76716],[0.6878,51.76905],[0.69033,51.77335],[0.68668,51.77494],[0.68357,51.77623],[0.68028,51.77642],[0.6801,51.78213],[0.67726,51.78189],[0.6751,51.78059],[0.66376,51.78515],[0.64502,51.7894],[0.63635,51.79113],[0.63412,51.79125],[0.63189,51.79126],[0.62759,51.79102],[0.62347,51.79426],[0.62038,51.79273],[0.61884,51.79901],[0.61818,51.80533],[0.60826,51.81871],[0.60196,51.82605],[0.59556,51.82789],[0.56558,51.8253],[0.54563,51.82246],[0.51962,51.81328],[0.48769,51.78704],[0.4879,51.77528],[0.48682,51.77322],[0.48605,51.771],[0.48622,51.76883],[0.4871,51.76751],[0.4882,51.76624],[0.4887,51.76434],[0.48879,51.761482],[0.490395,51.759628],[0.492102,51.761048],[0.501363,51.768063],[0.504989,51.764487],[0.506075,51.763768],[0.506448,51.762774],[0.507143,51.759697],[0.508343,51.757467],[0.511027,51.755687]]]},"properties":{"code":"F81149","name":"THE LAURELS SURGERY","icb":"D7T5G"}}]}