{"type":"FeatureCollection","features":[{"type":"Feature","geometry":{"type":"Polygon","coordinates":[[[0.28865,51.49143],[0.28693,51.48357],[0.28807,51.48114],[0.289936,51.478737],[0.295729,51.479806],[0.29839,51.480768],[0.299935,51.480768],[0.30148,51.480822],[0.302167,51.48173],[0.30384,51.482345],[0.303969,51.48467],[0.304827,51.485766],[0.305899,51.486354],[0.307832,51.486728],[0.309805,51.486915],[0.311436,51.487128],[0.312895,51.487636],[0.314311,51.488518],[0.315557,51.488812],[0.317015,51.488972],[0.317787,51.489079],[0.318127,51.488091],[0.318642,51.486995],[0.319157,51.48614],[0.3195,51.48622],[0.319414,51.488625],[0.319415,51.490389],[0.31933,51.490629],[0.319331,51.490977],[0.319503,51.491458],[0.319546,51.492179],[0.319418,51.493034],[0.319461,51.493862],[0.319462,51.494637],[0.31409,51.49485],[0.30932,51.49431],[0.30056,51.49313],[0.2947,51.49221],[0.28865,51.49143]]]},"properties":{"code":"F81113","name":"CHAFFORD HUNDRED MEDICAL CENTRE","icb":"D7T5G"}}]}