{"type":"FeatureCollection","features":[{"type":"Feature","geometry":{"type":"MultiPolygon","coordinates":[[[[0.336053,51.483164],[0.338407,51.483654],[0.340388,51.484066],[0.340294,51.484795],[0.340293,51.485414],[0.34014,51.48661],[0.340301,51.487309],[0.340301,51.487441],[0.340351,51.487505],[0.340349,51.487542],[0.340366,51.487763],[0.340456,51.488152],[0.339998,51.488192],[0.339596,51.488204],[0.339282,51.488214],[0.33919,51.488102],[0.339081,51.487395],[0.338886,51.487278],[0.337596,51.487129],[0.335533,51.486925],[0.335533,51.487164],[0.335801,51.487643],[0.33483,51.48773],[0.333538,51.487874],[0.331872,51.488059],[0.331293,51.488185],[0.329749,51.488574],[0.329169,51.489061],[0.326776,51.489846],[0.326246,51.488998],[0.325951,51.488566],[0.325694,51.488107],[0.325331,51.487555],[0.32506,51.487157],[0.324737,51.486579],[0.324759,51.486265],[0.324816,51.485435],[0.32489,51.484379],[0.324915,51.483897],[0.324868,51.483839],[0.325054,51.482787],[0.32522,51.482511],[0.325509,51.482033],[0.325575,51.482011],[0.325708,51.481711],[0.325615,51.481103],[0.32581,51.480703],[0.326114,51.480017],[0.326359,51.479431],[0.326541,51.479463],[0.32739,51.479791],[0.331329,51.480868],[0.332302,51.481153],[0.333252,51.481504],[0.335161,51.48221],[0.335912,51.482514],[0.336053,51.482729],[0.336053,51.483164]]],[[[0.446187,51.517372],[0.445241,51.517988],[0.443974,51.51812],[0.437998,51.518167],[0.436528,51.518119],[0.43506,51.51822],[0.433684,51.51846],[0.432324,51.518762],[0.43039,51.519231],[0.428954,51.51955],[0.427978,51.519628],[0.424417,51.517787],[0.423386,51.516488],[0.41988,51.516312],[0.416941,51.516104],[0.414538,51.51339],[0.414335,51.513074],[0.414178,51.512899],[0.41446,51.512846],[0.415634,51.513217],[0.416857,51.513506],[0.419161,51.513816],[0.421964,51.514452],[0.423415,51.514566],[0.423689,51.512078],[0.424343,51.507918],[0.427572,51.508937],[0.430956,51.510121],[0.431745,51.510349],[0.434,51.511255],[0.432498,51.512779],[0.430997,51.514532],[0.431786,51.514678],[0.434767,51.514403],[0.437249,51.514144],[0.438498,51.514038],[0.439721,51.514185],[0.440275,51.514288],[0.44084,51.514422],[0.441849,51.514775],[0.44318,51.515241],[0.442383,51.516049],[0.441593,51.51685],[0.443268,51.517334],[0.444568,51.517541],[0.446187,51.517372]]]]},"properties":{"code":"F81219","name":"DELL MEDICAL CENTRE","icb":"D7T5G"}}]}