{"type":"FeatureCollection","features":[{"type":"Feature","geometry":{"type":"Polygon","coordinates":[[[0.590464,51.562802],[0.589143,51.561542],[0.594979,51.55253],[0.607319,51.551388],[0.611884,51.537196],[0.639341,51.540612],[0.666226,51.543001],[0.695918,51.538904],[0.703183,51.544405],[0.707842,51.54809],[0.706902,51.553935],[0.685206,51.560178],[0.704156,51.566912],[0.681962,51.579722],[0.6918,51.589287],[0.692084,51.589523],[0.691169,51.589977],[0.688228,51.593197],[0.674189,51.600175],[0.652252,51.586641],[0.651194,51.585818],[0.649082,51.583764],[0.638719,51.604463],[0.633853,51.604457],[0.633445,51.604411],[0.626164,51.606504],[0.617029,51.594245],[0.609138,51.606504],[0.594857,51.604116],[0.583323,51.600021],[0.585348,51.587444],[0.581295,51.581066],[0.577501,51.580431],[0.571034,51.57644],[0.574826,51.568861],[0.572096,51.570437],[0.574724,51.568319],[0.590565,51.563907],[0.590464,51.562802]]]},"properties":{"code":"F81223","name":"DR MALIK - KENT ELMS HC","icb":"D7T5G"}}]}