{"type":"FeatureCollection","features":[{"type":"Feature","geometry":{"type":"Polygon","coordinates":[[[0.32169,51.4709],[0.336455,51.471333],[0.344695,51.47176],[0.35362,51.47454],[0.35671,51.48331],[0.375931,51.483949],[0.380049,51.488224],[0.37696,51.491217],[0.381078,51.495706],[0.384854,51.499126],[0.37319,51.50554],[0.36976,51.51537],[0.305907,51.515793],[0.27294,51.4987],[0.27397,51.47369],[0.28839,51.47582],[0.3035,51.4786],[0.31036,51.47711],[0.32169,51.4709]]]},"properties":{"code":"F81641","name":"MILTON ROAD AND THE GRAYS SURGERY","icb":"D7T5G"}}]}