{"type":"FeatureCollection","features":[{"type":"Feature","geometry":{"type":"Polygon","coordinates":[[[0.368443,51.452605],[0.379695,51.454427],[0.395051,51.454228],[0.408481,51.456182],[0.435176,51.460503],[0.439083,51.484523],[0.440421,51.492746],[0.446285,51.500158],[0.446034,51.518309],[0.422373,51.519806],[0.392529,51.509323],[0.364821,51.502603],[0.328878,51.476074],[0.333985,51.459473],[0.345013,51.450973],[0.3607,51.452133],[0.368443,51.452605]]]},"properties":{"code":"F81652","name":"MEDIC HOUSE","icb":"D7T5G"}}]}