{"type":"FeatureCollection","features":[{"type":"Feature","geometry":{"type":"Polygon","coordinates":[[[0.7596,51.52813],[0.78024,51.5217],[0.786528,51.522042],[0.789467,51.523779],[0.79745,51.5285],[0.804575,51.533673],[0.805916,51.534533],[0.80687,51.535097],[0.80865,51.536197],[0.809688,51.536951],[0.811409,51.537969],[0.813303,51.539088],[0.816535,51.540811],[0.818823,51.541846],[0.821542,51.543076],[0.826426,51.545524],[0.825891,51.545681],[0.825263,51.545704],[0.823884,51.54605],[0.821969,51.54623],[0.820495,51.54727],[0.818646,51.548969],[0.817336,51.549041],[0.816226,51.549368],[0.815886,51.549319],[0.815741,51.549452],[0.81558,51.5496],[0.815288,51.549973],[0.814605,51.550335],[0.814244,51.550523],[0.814308,51.550478],[0.814376,51.550446],[0.814647,51.550306],[0.814372,51.550432],[0.814308,51.550478],[0.814256,51.550501],[0.814244,51.550523],[0.811204,51.555805],[0.809759,51.555858],[0.807988,51.555983],[0.804457,51.55618],[0.801908,51.556411],[0.799498,51.556008],[0.797374,51.555818],[0.795271,51.555536],[0.793398,51.555546],[0.790505,51.55575],[0.789002,51.554415],[0.787641,51.553427],[0.78793,51.54668],[0.77119,51.54425],[0.763298,51.544291],[0.756088,51.545314],[0.752139,51.543813],[0.748222,51.54309],[0.745604,51.542651],[0.743264,51.542524],[0.73862,51.54185],[0.74015,51.53606],[0.73971,51.53021],[0.74931,51.53016],[0.7596,51.52813]]]},"properties":{"code":"F81613","name":"DR KUMAR & PTNR - SHOEBURY HC","icb":"D7T5G"}}]}