{"type":"FeatureCollection","features":[{"type":"Feature","geometry":{"type":"Polygon","coordinates":[[[0.050467,51.799698],[0.001542,51.787807],[-0.02369,51.784409],[-0.023345,51.771452],[-0.034676,51.760616],[-0.032615,51.742018],[-0.032957,51.723307],[-0.03622,51.71331],[-0.040684,51.709374],[-0.043087,51.705757],[-0.043473,51.704162],[-0.043001,51.702619],[-0.043945,51.699906],[-0.044975,51.69581],[-0.045318,51.691607],[-0.048921,51.683412],[-0.011845,51.6799],[-0.016657,51.634215],[0.02764,51.61791],[0.064888,51.625583],[0.094071,51.646679],[0.11673,51.66702],[0.140422,51.695438],[0.146429,51.708417],[0.142136,51.721286],[0.137157,51.740955],[0.155012,51.766884],[0.16531,51.77655],[0.171489,51.788763],[0.089177,51.80145],[0.050467,51.799698]]]},"properties":{"code":"F81725","name":"MAYNARD COURT SURGERY","icb":"D7T5G"}}]}