{"type":"FeatureCollection","features":[{"type":"Feature","geometry":{"type":"Polygon","coordinates":[[[0.955556,51.910656],[0.94259,51.91844],[0.93538,51.9214],[0.92543,51.925],[0.91324,51.92574],[0.90328,51.92532],[0.89058,51.92331],[0.882484,51.919787],[0.880623,51.918809],[0.874098,51.91505],[0.869291,51.909544],[0.868089,51.907214],[0.866715,51.903083],[0.8662,51.901601],[0.878992,51.902448],[0.886289,51.901653],[0.89161,51.901018],[0.896502,51.900435],[0.904399,51.900065],[0.91161,51.899959],[0.919163,51.899535],[0.927574,51.900277],[0.929547,51.900594],[0.932378,51.901071],[0.934267,51.901495],[0.937529,51.902501],[0.941392,51.903772],[0.948602,51.907161],[0.955556,51.910656]]]},"properties":{"code":"F81746","name":"BLUEBELL SURGERY","icb":"D7T5G"}}]}