{"type":"FeatureCollection","features":[{"type":"Feature","geometry":{"type":"Polygon","coordinates":[[[0.55998,51.55363],[0.56038,51.55404],[0.56041,51.5544],[0.56071,51.55476],[0.56122,51.55518],[0.56156,51.55498],[0.56167,51.55506],[0.56136,51.55524],[0.56213,51.55572],[0.56282,51.5556],[0.5628,51.55536],[0.56295,51.55533],[0.56304,51.55558],[0.56294,51.5557],[0.56224,51.5558],[0.56259,51.55628],[0.56458,51.55615],[0.56495,51.55746],[0.56518,51.55859],[0.56508,51.55876],[0.56492,51.55886],[0.56397,51.55921],[0.56406,51.56042],[0.56499,51.56236],[0.56663,51.56494],[0.56555,51.56542],[0.56357,51.56606],[0.56239,51.56631],[0.56081,51.56651],[0.55363,51.56718],[0.55161,51.56731],[0.55143,51.56728],[0.54956,51.5673],[0.54944,51.56737],[0.54669,51.56738],[0.54487,51.56734],[0.54425,51.56729],[0.54443,51.56541],[0.5447,51.56515],[0.54506,51.56374],[0.54681,51.563],[0.5466,51.56243],[0.54679,51.56088],[0.54637,51.56012],[0.54534,51.55921],[0.546,51.5586],[0.5462,51.55571],[0.54736,51.55556],[0.55008,51.55537],[0.55089,51.55536],[0.55108,51.55547],[0.55132,51.55536],[0.55344,51.55519],[0.55522,51.55497],[0.55998,51.55363]]]},"properties":{"code":"F81713","name":"BENFLEET SURGERY","icb":"D7T5G"}}]}