{"type":"FeatureCollection","features":[{"type":"Feature","geometry":{"type":"Polygon","coordinates":[[[0.231464,51.583417],[0.237976,51.584257],[0.242654,51.589163],[0.241998,51.594175],[0.240358,51.597394],[0.238564,51.6012],[0.234575,51.601706],[0.229597,51.602506],[0.224619,51.602772],[0.220373,51.59944],[0.215994,51.597628],[0.212903,51.596801],[0.215092,51.594642],[0.216466,51.593309],[0.218268,51.591336],[0.220317,51.588883],[0.231464,51.583417]]]},"properties":{"code":"F82045","name":"CHOWDHURY","icb":"QMF"}}]}