{"type":"FeatureCollection","features":[{"type":"Feature","geometry":{"type":"Polygon","coordinates":[[[0.155652,51.611698],[0.148102,51.600184],[0.155309,51.598264],[0.151877,51.580773],[0.162516,51.580987],[0.171095,51.579067],[0.177273,51.578],[0.179675,51.581413],[0.184479,51.58056],[0.190109,51.580672],[0.198902,51.587038],[0.20677,51.589174],[0.213329,51.593112],[0.223005,51.595736],[0.214126,51.605895],[0.207478,51.60997],[0.186468,51.620068],[0.155652,51.611698]]]},"properties":{"code":"F82030","name":"LYNWOOD MEDICAL CENTRE","icb":"QMF"}}]}