{"type":"FeatureCollection","features":[{"type":"Feature","geometry":{"type":"Polygon","coordinates":[[[0.165804,51.554948],[0.165804,51.554948],[0.165804,51.554948],[0.173629,51.557349],[0.187995,51.555264],[0.165804,51.554948],[0.165804,51.554948],[0.147965,51.549405],[0.148643,51.541308],[0.147194,51.53204],[0.163666,51.526255],[0.20135,51.510369],[0.222463,51.522429],[0.207947,51.541439],[0.215402,51.542683],[0.222902,51.544986],[0.233598,51.548772],[0.242524,51.543785],[0.248773,51.544826],[0.251284,51.545244],[0.254004,51.547647],[0.257265,51.548418],[0.259572,51.550456],[0.262088,51.557156],[0.273778,51.557623],[0.281727,51.564639],[0.274724,51.573215],[0.25731,51.57707],[0.23292,51.58163],[0.22174,51.58787],[0.210179,51.593442],[0.197091,51.595344],[0.184546,51.593874],[0.16353,51.581877],[0.153562,51.561088],[0.145678,51.556581],[0.14725,51.552934],[0.147551,51.549344],[0.165804,51.554948]]]},"properties":{"code":"F82023","name":"HIGH STREET SURGERY","icb":"QMF"}}]}