{"type":"FeatureCollection","features":[{"type":"Feature","geometry":{"type":"Polygon","coordinates":[[[0.15565,51.57088],[0.16368,51.57142],[0.16696,51.57176],[0.17023,51.57219],[0.17883,51.57388],[0.18134,51.57467],[0.18406,51.57541],[0.18692,51.57653],[0.18662,51.57709],[0.18544,51.57851],[0.18569,51.57872],[0.1881,51.57989],[0.19059,51.58063],[0.189,51.58263],[0.18736,51.58404],[0.18694,51.58502],[0.18626,51.58588],[0.1862,51.58687],[0.18372,51.58939],[0.18314,51.59011],[0.18184,51.59243],[0.18061,51.59189],[0.17943,51.59125],[0.17295,51.58674],[0.17204,51.58616],[0.16578,51.58236],[0.16352,51.58114],[0.1622,51.58078],[0.1608,51.58051],[0.15874,51.58047],[0.15669,51.58051],[0.15554,51.57591],[0.15514,51.57459],[0.15521,51.57336],[0.15565,51.57088]]]},"properties":{"code":"F82011","name":"ST EDWARDS MEDICAL CENTRE","icb":"QMF"}}]}