{"type":"FeatureCollection","features":[{"type":"Feature","geometry":{"type":"Polygon","coordinates":[[[0.1884,51.56549],[0.18874,51.56293],[0.18977,51.56144],[0.18788,51.56005],[0.18857,51.55728],[0.1914,51.55338],[0.18685,51.54682],[0.19123,51.54516],[0.19192,51.54425],[0.18951,51.54281],[0.18788,51.54057],[0.18557,51.53859],[0.18539,51.53769],[0.18016,51.53454],[0.17853,51.52952],[0.16917,51.53096],[0.16531,51.52647],[0.185541,51.521772],[0.190334,51.521959],[0.216749,51.541747],[0.219864,51.544037],[0.222616,51.547999],[0.21835,51.549617],[0.218741,51.551536],[0.220183,51.555964],[0.221259,51.561246],[0.21691,51.562895],[0.21329,51.56304],[0.21063,51.56277],[0.20411,51.56491],[0.20119,51.56464],[0.19835,51.56512],[0.19423,51.56496],[0.1884,51.56549]]]},"properties":{"code":"F82028","name":"WOOD LANE SURGERY","icb":"QMF"}}]}