{"type":"FeatureCollection","features":[{"type":"Feature","geometry":{"type":"Polygon","coordinates":[[[0.212796,51.569575],[0.213032,51.570455],[0.206122,51.572269],[0.20153,51.574429],[0.200586,51.574322],[0.198097,51.574402],[0.192089,51.572349],[0.191274,51.572322],[0.188785,51.571815],[0.186081,51.570775],[0.184708,51.568241],[0.185695,51.56688],[0.186038,51.56552],[0.184064,51.563332],[0.184836,51.55789],[0.187368,51.55845],[0.188227,51.558156],[0.188828,51.556956],[0.191188,51.553887],[0.191016,51.552633],[0.190544,51.551726],[0.188699,51.549804],[0.186853,51.547589],[0.186853,51.546789],[0.1899,51.545748],[0.191445,51.545134],[0.191488,51.544147],[0.189128,51.542679],[0.187411,51.540437],[0.185566,51.538968],[0.184751,51.537714],[0.180073,51.534484],[0.182304,51.533603],[0.184879,51.532268],[0.187283,51.530746],[0.189686,51.529064],[0.19136,51.528023],[0.193334,51.527302],[0.213804,51.543132],[0.21522,51.545428],[0.217109,51.548096],[0.218225,51.550445],[0.218353,51.551859],[0.218782,51.55314],[0.220284,51.556502],[0.22037,51.557169],[0.220327,51.558236],[0.220456,51.55949],[0.220757,51.561305],[0.220714,51.561785],[0.220156,51.562505],[0.217409,51.562932],[0.212753,51.562985],[0.210714,51.562892],[0.210328,51.562905],[0.20932,51.563159],[0.210843,51.565987],[0.212345,51.568014],[0.212796,51.569575]]]},"properties":{"code":"F82008","name":"MAYLANDS HEALTHCARE","icb":"QMF"}}]}