{"type":"FeatureCollection","features":[{"type":"Feature","geometry":{"type":"Polygon","coordinates":[[[0.142641,51.565572],[0.14141,51.56635],[0.13677,51.56576],[0.12634,51.56456],[0.09969,51.5652],[0.09163,51.56264],[0.09059,51.55653],[0.09162,51.55018],[0.07034,51.534],[0.09824,51.52821],[0.10729,51.52888],[0.12077,51.52527],[0.1402,51.52373],[0.16649,51.53757],[0.16931,51.54452],[0.16596,51.54786],[0.16054,51.55255],[0.16055,51.55799],[0.14961,51.56117],[0.146537,51.563111],[0.14493,51.56744],[0.142641,51.565572]]]},"properties":{"code":"F82660","name":"TULASI MEDICAL CENTRE","icb":"QMF"}}]}