{"type":"FeatureCollection","features":[{"type":"Feature","geometry":{"type":"Polygon","coordinates":[[[0.190272,51.517201],[0.203848,51.508849],[0.209365,51.505982],[0.213915,51.503307],[0.225351,51.50618],[0.224597,51.508072],[0.22356,51.510073],[0.221311,51.513968],[0.224465,51.517735],[0.225952,51.518967],[0.226422,51.520939],[0.225943,51.522653],[0.225821,51.524413],[0.225678,51.52648],[0.224795,51.52719],[0.223346,51.527691],[0.222566,51.529194],[0.22368,51.531858],[0.224547,51.533932],[0.225524,51.534161],[0.226705,51.534073],[0.229487,51.533801],[0.230745,51.535859],[0.229362,51.538114],[0.229199,51.539412],[0.229519,51.540754],[0.230183,51.542342],[0.230406,51.543861],[0.231491,51.546092],[0.232594,51.546506],[0.232599,51.548118],[0.233081,51.548475],[0.233249,51.548968],[0.233008,51.549833],[0.232952,51.550639],[0.232183,51.551421],[0.230809,51.552363],[0.230191,51.552859],[0.229991,51.553574],[0.229996,51.555302],[0.230104,51.556035],[0.229568,51.556707],[0.225238,51.555885],[0.219815,51.554989],[0.204024,51.550716],[0.199169,51.549882],[0.195422,51.549171],[0.191486,51.548494],[0.187724,51.547873],[0.187167,51.547781],[0.186782,51.547152],[0.186981,51.546648],[0.187851,51.546292],[0.191433,51.545114],[0.191773,51.54456],[0.19137,51.5439],[0.190326,51.543223],[0.189377,51.542732],[0.188784,51.542083],[0.186087,51.539134],[0.179889,51.534556],[0.180723,51.530564],[0.179014,51.527766],[0.177685,51.525893],[0.176627,51.524158],[0.18042,51.523258],[0.185554,51.519563],[0.187134,51.519043],[0.188186,51.518426],[0.188994,51.517621],[0.190272,51.517201]]]},"properties":{"code":"F82607","name":"SOUTH HORNCHURCH MEDICAL PRACTICE","icb":"QMF"}}]}