{"type":"FeatureCollection","features":[{"type":"Feature","geometry":{"type":"Polygon","coordinates":[[[0.25578,51.60586],[0.258523,51.609276],[0.254746,51.613113],[0.252343,51.615245],[0.250626,51.615458],[0.245476,51.61759],[0.244103,51.61823],[0.23998,51.61748],[0.23775,51.61876],[0.23518,51.61887],[0.22882,51.61887],[0.22436,51.61972],[0.22247,51.61855],[0.2199,51.61748],[0.21852,51.61663],[0.21612,51.61493],[0.2132,51.61343],[0.21011,51.61173],[0.180237,51.609489],[0.171651,51.606504],[0.15654,51.598188],[0.163408,51.580697],[0.206336,51.550393],[0.22591,51.55637],[0.247202,51.558931],[0.267119,51.559998],[0.284633,51.56384],[0.277762,51.581764],[0.267457,51.594988],[0.266425,51.602026],[0.261959,51.605225],[0.25578,51.60586]]]},"properties":{"code":"F82670","name":"ABBAMOOR SURGERY","icb":"QMF"}}]}