{"type":"FeatureCollection","features":[{"type":"Feature","geometry":{"type":"Polygon","coordinates":[[[0.154616,51.583631],[0.154216,51.583417],[0.164902,51.58131],[0.16722,51.577336],[0.175717,51.578483],[0.174258,51.580137],[0.174215,51.58011],[0.171297,51.58387],[0.17134,51.583923],[0.17267,51.582697],[0.172241,51.583443],[0.167692,51.58635],[0.16619,51.587923],[0.165246,51.590723],[0.162885,51.594082],[0.162027,51.594295],[0.159194,51.595708],[0.155557,51.595548],[0.155418,51.595068],[0.155075,51.594908],[0.155289,51.592669],[0.158465,51.590589],[0.158808,51.591043],[0.155547,51.585417],[0.154616,51.583631]]]},"properties":{"code":"F82610","name":"DR GUPTA","icb":"QMF"}}]}