{"type":"FeatureCollection","features":[{"type":"Feature","geometry":{"type":"Polygon","coordinates":[[[-0.143118,51.553283],[-0.14263,51.5531],[-0.14063,51.55089],[-0.13093,51.55071],[-0.129,51.54887],[-0.11967,51.55793],[-0.12288,51.56032],[-0.12506,51.56202],[-0.12845,51.56372],[-0.13417,51.5654],[-0.14132,51.56885],[-0.14305,51.56953],[-0.14403,51.57006],[-0.14825,51.57088],[-0.14954,51.57127],[-0.14991,51.57149],[-0.15151,51.57163],[-0.15152,51.57092],[-0.15385,51.57103],[-0.15423,51.57049],[-0.15509,51.57006],[-0.15581,51.56963],[-0.1576,51.56838],[-0.15778,51.56806],[-0.15731,51.56704],[-0.15739,51.56658],[-0.157083,51.566043],[-0.157057,51.565998],[-0.15593,51.56518],[-0.15608,51.56431],[-0.15552,51.56364],[-0.15505,51.56323],[-0.15436,51.56298],[-0.15261,51.56331],[-0.15198,51.56279],[-0.15055,51.56098],[-0.14959,51.55944],[-0.147844,51.557763],[-0.149,51.55736],[-0.14973,51.55676],[-0.14889,51.55559],[-0.14693,51.55635],[-0.146608,51.55657],[-0.14435,51.55407],[-0.1439,51.553782],[-0.14351,51.55343],[-0.143118,51.553283]]]},"properties":{"code":"F83052","name":"BROOKFIELD PARK SURGERY","icb":"Z9B2Z"}}]}