{"type":"FeatureCollection","features":[{"type":"Feature","geometry":{"type":"Polygon","coordinates":[[[-0.12601,51.532749],[-0.125581,51.532128],[-0.12527,51.531367],[-0.124555,51.530643],[-0.123801,51.530128],[-0.123153,51.530425],[-0.122424,51.530768],[-0.121948,51.530844],[-0.121393,51.530869],[-0.120356,51.530933],[-0.119862,51.530972],[-0.11937,51.530878],[-0.117363,51.530419],[-0.116876,51.530266],[-0.116413,51.530095],[-0.116137,51.529994],[-0.11593,51.529842],[-0.115811,51.529725],[-0.115772,51.529619],[-0.115668,51.529338],[-0.115678,51.528744],[-0.115496,51.528143],[-0.115107,51.527507],[-0.114112,51.526902],[-0.113581,51.526624],[-0.112937,51.526419],[-0.112402,51.526138],[-0.11188,51.525834],[-0.111408,51.525553],[-0.110578,51.525099],[-0.110485,51.525517],[-0.110102,51.525969],[-0.109186,51.526498],[-0.108275,51.527075],[-0.10731,51.52785],[-0.106176,51.52908],[-0.105681,51.529508],[-0.105209,51.529971],[-0.105891,51.530697],[-0.106311,51.532014],[-0.106278,51.532351],[-0.106223,51.532673],[-0.106185,51.533055],[-0.10612,51.533226],[-0.105993,51.533376],[-0.105346,51.534078],[-0.104541,51.534901],[-0.104154,51.535321],[-0.104057,51.535475],[-0.103619,51.535615],[-0.102477,51.536121],[-0.101961,51.536364],[-0.101477,51.536623],[-0.099705,51.537994],[-0.098241,51.539261],[-0.097034,51.539908],[-0.095931,51.540646],[-0.097928,51.541759],[-0.100002,51.542826],[-0.101236,51.544585],[-0.102451,51.545533],[-0.103214,51.54618],[-0.105847,51.547679],[-0.108009,51.549368],[-0.112481,51.55264],[-0.115873,51.555289],[-0.117104,51.556022],[-0.118073,51.555733],[-0.126944,51.547509],[-0.125936,51.543406],[-0.125742,51.542392],[-0.125271,51.541484],[-0.130227,51.540904],[-0.129089,51.539329],[-0.129068,51.538715],[-0.128767,51.538114],[-0.128875,51.537767],[-0.12881,51.53746],[-0.128864,51.536913],[-0.1288,51.536286],[-0.128327,51.535612],[-0.12601,51.532749]]]},"properties":{"code":"F83063","name":"KILLICK STREET HEALTH CENTRE","icb":"Z9B2Z"}}]}