{"type":"FeatureCollection","features":[{"type":"Feature","geometry":{"type":"Polygon","coordinates":[[[-0.101108,51.555475],[-0.102911,51.555515],[-0.104809,51.555389],[-0.105026,51.55531],[-0.10474,51.55289],[-0.10531,51.55217],[-0.10498,51.55134],[-0.10468,51.55086],[-0.10398,51.55082],[-0.10345,51.55064],[-0.102825,51.550578],[-0.102585,51.550407],[-0.101945,51.550178],[-0.101516,51.550178],[-0.101001,51.550325],[-0.100465,51.550685],[-0.100272,51.550378],[-0.100079,51.550405],[-0.099821,51.550271],[-0.099692,51.550365],[-0.099456,51.550271],[-0.099392,51.550178],[-0.099199,51.550231],[-0.099006,51.550205],[-0.098298,51.550058],[-0.098083,51.549965],[-0.098619,51.546749],[-0.096452,51.547429],[-0.095036,51.547282],[-0.09203,51.5473],[-0.09182,51.54761],[-0.08986,51.54816],[-0.08886,51.54828],[-0.08794,51.54831],[-0.08752,51.54897],[-0.08709,51.54993],[-0.08603,51.55126],[-0.08578,51.55173],[-0.08578,51.55201],[-0.08602,51.55223],[-0.08705,51.55255],[-0.08793,51.55291],[-0.08903,51.55409],[-0.09019,51.55578],[-0.09062,51.5566],[-0.09047,51.55743],[-0.090499,51.557568],[-0.090423,51.557596],[-0.090508,51.557609],[-0.092783,51.556729],[-0.092827,51.556769],[-0.093411,51.556442],[-0.094962,51.555828],[-0.095716,51.555705],[-0.097911,51.555635],[-0.098834,51.555675],[-0.101108,51.555475]]]},"properties":{"code":"F83045","name":"THE MILLER PRACTICE","icb":"Z9B2Z"}}]}