{"type":"FeatureCollection","features":[{"type":"Feature","geometry":{"type":"Polygon","coordinates":[[[-0.087612,51.557609],[-0.088406,51.557996],[-0.08935,51.558143],[-0.090369,51.557716],[-0.091925,51.557076],[-0.09245,51.556869],[-0.092568,51.556175],[-0.092482,51.553734],[-0.091881,51.551953],[-0.091903,51.551212],[-0.09231,51.550512],[-0.095068,51.549785],[-0.095615,51.549578],[-0.096077,51.549291],[-0.09642,51.54895],[-0.096463,51.54865],[-0.096141,51.54863],[-0.094349,51.54891],[-0.091603,51.54919],[-0.089949,51.548668],[-0.087418,51.54895],[-0.086174,51.547174],[-0.08214,51.546441],[-0.07622,51.546107],[-0.076133,51.546814],[-0.076604,51.54803],[-0.077248,51.54895],[-0.077891,51.549884],[-0.078449,51.550805],[-0.079351,51.551725],[-0.080949,51.554394],[-0.080638,51.555302],[-0.080423,51.556049],[-0.079994,51.557063],[-0.080295,51.557676],[-0.080595,51.558023],[-0.080595,51.55821],[-0.080852,51.558157],[-0.08141,51.558077],[-0.081582,51.557863],[-0.082183,51.557917],[-0.08243,51.557983],[-0.082827,51.557483],[-0.083224,51.557209],[-0.083921,51.557009],[-0.085745,51.557142],[-0.087612,51.557609]]]},"properties":{"code":"F83053","name":"MILDMAY MEDICAL PRACTICE","icb":"QMF"}}]}