{"type":"FeatureCollection","features":[{"type":"Feature","geometry":{"type":"Polygon","coordinates":[[[-0.100982,51.570839],[-0.106606,51.57938],[-0.11097,51.586007],[-0.127359,51.582167],[-0.134648,51.581601],[-0.138761,51.581397],[-0.154159,51.582016],[-0.160997,51.582588],[-0.16941,51.569284],[-0.155547,51.563863],[-0.151445,51.555486],[-0.144255,51.55675],[-0.140184,51.556637],[-0.13638,51.55714],[-0.13411,51.55744],[-0.112497,51.552882],[-0.107979,51.559798],[-0.100982,51.570839]]]},"properties":{"code":"F83015","name":"ST JOHNS WAY MEDICAL CENTRE","icb":"Z9B2Z"}}]}