{"type":"FeatureCollection","features":[{"type":"Feature","geometry":{"type":"Polygon","coordinates":[[[-0.106096,51.531784],[-0.106108,51.531708],[-0.095723,51.529265],[-0.095758,51.529318],[-0.095701,51.529305],[-0.095647,51.530402],[-0.096966,51.532908],[-0.09617,51.5332],[-0.09418,51.53393],[-0.0865,51.53743],[-0.0836,51.54463],[-0.0836,51.545858],[-0.086584,51.546251],[-0.086775,51.54702],[-0.085437,51.552162],[-0.087863,51.553123],[-0.090331,51.555776],[-0.09385,51.554775],[-0.098116,51.554827],[-0.099596,51.55014],[-0.10079,51.55039],[-0.10103,51.55017],[-0.10141,51.55022],[-0.10143,51.55031],[-0.10206,51.55038],[-0.10265,51.55023],[-0.10383,51.54986],[-0.10501,51.54922],[-0.105848,51.549417],[-0.106837,51.549423],[-0.109858,51.548105],[-0.107227,51.544812],[-0.106241,51.540854],[-0.10707,51.537186],[-0.106883,51.533804],[-0.10651,51.533497],[-0.106046,51.533047],[-0.106153,51.531797],[-0.106096,51.531784]]]},"properties":{"code":"F83002","name":"RIVER PLACE HEALTH CENTRE","icb":"Z9B2Z"}}]}