{"type":"FeatureCollection","features":[{"type":"Feature","geometry":{"type":"Polygon","coordinates":[[[-0.113303,51.521533],[-0.11336,51.52153],[-0.11222,51.51972],[-0.11186,51.51929],[-0.11141,51.51842],[-0.11104,51.51814],[-0.109,51.51781],[-0.10675,51.51765],[-0.105087,51.517203],[-0.10237,51.51629],[-0.09907,51.51545],[-0.0981,51.51515],[-0.09737,51.51513],[-0.09714,51.51571],[-0.09699,51.51649],[-0.09695,51.51721],[-0.09652,51.51742],[-0.09276,51.5174],[-0.0901,51.51746],[-0.08879,51.51724],[-0.08838,51.518],[-0.08793,51.51861],[-0.08729,51.52059],[-0.08701,51.52184],[-0.0872,51.52244],[-0.0874,51.52348],[-0.08757,51.52501],[-0.087442,51.525258],[-0.0869,51.52577],[-0.08785,51.52611],[-0.088,51.52772],[-0.0875,51.52901],[-0.08682,51.52984],[-0.08641,51.5302],[-0.08626,51.53063],[-0.08626,51.53091],[-0.08632,51.53115],[-0.08677,51.53207],[-0.08669,51.53246],[-0.089651,51.536051],[-0.08763,51.53715],[-0.0866,51.53742],[-0.08613,51.53859],[-0.08583,51.53956],[-0.08523,51.54081],[-0.08476,51.54198],[-0.08364,51.54505],[-0.08377,51.5466],[-0.0863,51.5466],[-0.08939,51.54692],[-0.09182,51.54712],[-0.09348,51.5472],[-0.09687,51.54726],[-0.10002,51.54642],[-0.1022,51.54613],[-0.10316,51.54592],[-0.10397,51.54594],[-0.10643,51.54533],[-0.10769,51.54507],[-0.10748,51.54453],[-0.10874,51.54428],[-0.1106,51.54378],[-0.11544,51.54265],[-0.11734,51.5421],[-0.11734,51.54259],[-0.11741,51.54286],[-0.12116,51.54188],[-0.12512,51.54113],[-0.125,51.54062],[-0.12451,51.53934],[-0.1233,51.5386],[-0.12277,51.53804],[-0.12239,51.53701],[-0.12228,51.53446],[-0.12245,51.53252],[-0.12248,51.53065],[-0.12088,51.53031],[-0.11862,51.52764],[-0.11777,51.52631],[-0.11736,51.52581],[-0.11598,51.52437],[-0.115214,51.524682],[-0.11553,51.52445],[-0.11549,51.524437],[-0.1157,51.52434],[-0.115356,51.523961],[-0.11587,51.52426],[-0.114631,51.523161],[-0.113303,51.521533]]]},"properties":{"code":"F83678","name":"DR SEGARAJASINGHE","icb":"Z9B2Z"}}]}