{"type":"FeatureCollection","features":[{"type":"Feature","geometry":{"type":"Polygon","coordinates":[[[-0.174827,51.543818],[-0.17479,51.54379],[-0.171076,51.544322],[-0.16293,51.54535],[-0.16381,51.54531],[-0.16283,51.54546],[-0.16295,51.54535],[-0.1611,51.5462],[-0.15993,51.54659],[-0.15971,51.54727],[-0.159953,51.547126],[-0.1596,51.5474],[-0.16068,51.54805],[-0.16187,51.54889],[-0.16179,51.54969],[-0.16143,51.55048],[-0.1618,51.55274],[-0.16119,51.55347],[-0.16126,51.55344],[-0.164806,51.554184],[-0.165254,51.554552],[-0.16658,51.55596],[-0.16647,51.55664],[-0.168257,51.55772],[-0.17352,51.56327],[-0.17494,51.56852],[-0.18102,51.56931],[-0.18181,51.56883],[-0.18188,51.56836],[-0.18394,51.56739],[-0.18787,51.56484],[-0.18962,51.56348],[-0.190268,51.562655],[-0.19054,51.56248],[-0.19056,51.562364],[-0.191387,51.561651],[-0.19198,51.56158],[-0.19391,51.56077],[-0.19411,51.55956],[-0.195062,51.558577],[-0.19578,51.55797],[-0.195568,51.557816],[-0.19517,51.55683],[-0.19417,51.55606],[-0.190886,51.55442],[-0.19057,51.55419],[-0.189636,51.553827],[-0.183101,51.550729],[-0.181233,51.549204],[-0.18063,51.5483],[-0.17865,51.54622],[-0.17815,51.54584],[-0.17757,51.54555],[-0.1766,51.54519],[-0.175197,51.544105],[-0.17498,51.5438],[-0.174827,51.543818]]]},"properties":{"code":"F83623","name":"KEATS GROUP PRACTICE","icb":"Z9B2Z"}}]}