{"type":"FeatureCollection","features":[{"type":"Feature","geometry":{"type":"Polygon","coordinates":[[[0.030293,51.517042],[0.031881,51.517164],[0.032117,51.517047],[0.032127,51.516992],[0.032683,51.517035],[0.032677,51.51709],[0.032848,51.517225],[0.034932,51.517614],[0.036885,51.518206],[0.039209,51.519124],[0.039425,51.519114],[0.041166,51.519554],[0.041244,51.519688],[0.041364,51.519761],[0.042592,51.520007],[0.041179,51.520621],[0.039366,51.521832],[0.039318,51.521933],[0.039679,51.523254],[0.039691,51.523593],[0.039465,51.523837],[0.039598,51.524041],[0.039877,51.52409],[0.040096,51.52447],[0.039906,51.52454],[0.03981,51.524654],[0.039891,51.525322],[0.039764,51.526051],[0.039609,51.526227],[0.039498,51.526902],[0.038913,51.527905],[0.039022,51.528067],[0.039398,51.528174],[0.038144,51.528915],[0.038013,51.529278],[0.038127,51.529411],[0.038279,51.529454],[0.038334,51.529594],[0.037998,51.529649],[0.037627,51.52984],[0.037566,51.529976],[0.037685,51.530187],[0.037899,51.530378],[0.037812,51.530727],[0.037974,51.530874],[0.039231,51.531045],[0.039525,51.530951],[0.040735,51.530993],[0.040647,51.531494],[0.039752,51.533408],[0.038998,51.533028],[0.03848,51.532967],[0.037639,51.533129],[0.037002,51.533459],[0.036719,51.533771],[0.03679,51.533942],[0.037272,51.534133],[0.036813,51.534458],[0.036542,51.534414],[0.036325,51.534467],[0.036204,51.534583],[0.036158,51.535122],[0.035861,51.53555],[0.03557,51.536173],[0.035317,51.536443],[0.035358,51.536776],[0.035212,51.536994],[0.034669,51.537311],[0.034361,51.537413],[0.034147,51.537694],[0.03426,51.537875],[0.03451,51.537938],[0.034414,51.538218],[0.034751,51.538392],[0.035292,51.538295],[0.03767,51.538831],[0.038823,51.539143],[0.039725,51.539307],[0.040038,51.539269],[0.040571,51.539279],[0.04075,51.539144],[0.040702,51.538839],[0.040832,51.538578],[0.041194,51.53831],[0.041641,51.538095],[0.042046,51.53832],[0.04194,51.538525],[0.04201,51.538649],[0.041369,51.539347],[0.041435,51.53953],[0.041739,51.539672],[0.043081,51.539921],[0.04329,51.539891],[0.043535,51.539731],[0.04357,51.539592],[0.043276,51.539214],[0.043921,51.539283],[0.044098,51.539244],[0.044486,51.53897],[0.046161,51.539585],[0.046775,51.539724],[0.046115,51.540853],[0.046062,51.541239],[0.046161,51.541718],[0.046471,51.542174],[0.047017,51.542803],[0.046898,51.543103],[0.047163,51.543281],[0.047548,51.54324],[0.04826,51.544013],[0.048091,51.544196],[0.047569,51.544242],[0.04534,51.544003],[0.043867,51.544288],[0.043405,51.544337],[0.042117,51.54411],[0.041886,51.544198],[0.041716,51.544616],[0.041288,51.546362],[0.041325,51.546461],[0.042548,51.547418],[0.04302,51.547566],[0.043349,51.54773],[0.043353,51.548323],[0.043598,51.548593],[0.04431,51.54897],[0.044091,51.549227],[0.04387,51.549337],[0.042156,51.54975],[0.039346,51.550178],[0.037955,51.550486],[0.037206,51.550533],[0.036703,51.550842],[0.036861,51.551096],[0.039078,51.551251],[0.039282,51.552125],[0.039268,51.552623],[0.039485,51.552758],[0.041144,51.552739],[0.041923,51.553269],[0.042604,51.553909],[0.042388,51.553896],[0.042164,51.554002],[0.04194,51.55476],[0.042172,51.554923],[0.046423,51.554767],[0.047815,51.555856],[0.045596,51.556881],[0.043538,51.558146],[0.042215,51.558717],[0.04062,51.55924],[0.036979,51.561064],[0.035598,51.560205],[0.035331,51.560192],[0.032268,51.561606],[0.026017,51.559873],[0.025195,51.559863],[0.021723,51.560981],[0.021266,51.561418],[0.019983,51.560935],[0.018575,51.558493],[0.018213,51.55804],[0.018099,51.557753],[0.018167,51.557651],[0.018105,51.557503],[0.017163,51.55705],[0.015422,51.556477],[0.014024,51.55611],[0.011025,51.554954],[0.008769,51.553551],[0.008572,51.55325],[0.007594,51.552731],[0.006228,51.552274],[0.005923,51.552347],[0.005823,51.5526],[0.005357,51.55255],[0.005179,51.552614],[0.004929,51.55288],[0.004893,51.55319],[0.00495,51.553347],[0.004862,51.553497],[0.004447,51.553624],[0.003943,51.553685],[0.003486,51.553677],[0.003164,51.553585],[0.00293,51.553616],[0.002537,51.553894],[0.002027,51.553956],[0.001867,51.554065],[0.001685,51.554782],[0.001278,51.554775],[0.000624,51.554559],[-0.000133,51.554183],[-0.000963,51.55391],[-0.00185,51.553775],[-0.004514,51.553168],[-0.004814,51.553284],[-0.005081,51.554813],[-0.00504,51.555319],[-0.005812,51.556643],[-0.00688,51.555733],[-0.008401,51.553985],[-0.010202,51.552912],[-0.011465,51.55244],[-0.012936,51.552058],[-0.020651,51.551214],[-0.022194,51.550804],[-0.024925,51.549286],[-0.024808,51.548963],[-0.024868,51.548846],[-0.025362,51.548573],[-0.026015,51.548299],[-0.025476,51.547762],[-0.022141,51.544913],[-0.021097,51.543684],[-0.020148,51.541803],[-0.018449,51.541452],[-0.01774,51.541847],[-0.017786,51.542527],[-0.017709,51.543219],[-0.01776,51.543955],[-0.017884,51.544201],[-0.018132,51.544392],[-0.020733,51.545852],[-0.021389,51.546622],[-0.021321,51.546789],[-0.020657,51.547068],[-0.021877,51.548578],[-0.022238,51.54915],[-0.022101,51.549406],[-0.021895,51.549472],[-0.021435,51.549431],[-0.021289,51.54961],[-0.021116,51.549676],[-0.019835,51.549784],[-0.019219,51.550279],[-0.019427,51.551173],[-0.019257,51.55136],[-0.013161,51.551992],[-0.011791,51.552314],[-0.010132,51.552879],[-0.009886,51.552851],[-0.009585,51.552638],[-0.006879,51.551218],[-0.00575,51.550126],[-0.004957,51.549271],[-0.004567,51.54871],[-0.003995,51.547487],[-0.003319,51.545204],[-0.00317,51.544356],[-0.003121,51.543835],[-0.003277,51.543098],[-0.004135,51.542243],[-0.004519,51.542043],[-0.004943,51.541667],[-0.005612,51.54127],[-0.006272,51.540949],[-0.006267,51.540749],[-0.006502,51.540612],[-0.006921,51.540635],[-0.007348,51.540272],[-0.007692,51.53956],[-0.007668,51.539036],[-0.008026,51.538623],[-0.008442,51.538267],[-0.009409,51.537609],[-0.009661,51.537585],[-0.009866,51.537661],[-0.010208,51.537583],[-0.010659,51.537358],[-0.01108,51.536937],[-0.011353,51.536901],[-0.011614,51.536997],[-0.012996,51.536327],[-0.013179,51.536117],[-0.013297,51.53606],[-0.017572,51.535368],[-0.017069,51.534356],[-0.016437,51.534255],[-0.015561,51.533635],[-0.01559,51.533441],[-0.017934,51.532307],[-0.018294,51.532378],[-0.018425,51.532641],[-0.018143,51.533199],[-0.018806,51.533061],[-0.019582,51.53311],[-0.020026,51.532712],[-0.017794,51.531372],[-0.014128,51.530029],[-0.012713,51.529715],[-0.010732,51.529513],[-0.010556,51.529411],[-0.010421,51.528957],[-0.009899,51.528393],[-0.009249,51.528155],[-0.008796,51.528204],[-0.008647,51.528179],[-0.008149,51.52793],[-0.007903,51.528214],[-0.008229,51.52859],[-0.007976,51.528817],[-0.00742,51.528769],[-0.007215,51.529518],[-0.007362,51.53024],[-0.006987,51.530394],[-0.005098,51.529696],[-0.004394,51.529189],[-0.004032,51.528671],[-0.003955,51.528387],[-0.002918,51.52807],[-0.001909,51.528669],[-0.001714,51.528696],[0.000477,51.528225],[0.001689,51.527585],[0.004224,51.528094],[0.00508,51.52822],[0.005996,51.528481],[0.010648,51.529554],[0.010858,51.529523],[0.011437,51.529134],[0.011941,51.528382],[0.012014,51.528054],[0.011963,51.527957],[0.009782,51.52655],[0.009648,51.525832],[0.009557,51.524773],[0.009707,51.524832],[0.010078,51.524708],[0.01008,51.524657],[0.012203,51.524696],[0.012676,51.524803],[0.013064,51.525053],[0.013217,51.525089],[0.013942,51.525049],[0.014224,51.525155],[0.014554,51.525075],[0.014651,51.52485],[0.014638,51.524476],[0.014356,51.524126],[0.015844,51.523818],[0.015977,51.523647],[0.015731,51.523222],[0.015259,51.522648],[0.015026,51.522521],[0.015183,51.52228],[0.015405,51.52163],[0.015331,51.521426],[0.01542,51.521274],[0.015417,51.521108],[0.015242,51.520993],[0.014801,51.520956],[0.012583,51.521007],[0.012323,51.519619],[0.01287,51.519661],[0.012887,51.519805],[0.01311,51.519926],[0.01434,51.519881],[0.014539,51.51974],[0.014529,51.519655],[0.014783,51.519639],[0.014975,51.519751],[0.016451,51.519785],[0.016647,51.519681],[0.016676,51.519584],[0.016856,51.519632],[0.017839,51.519573],[0.018472,51.519949],[0.018968,51.519657],[0.01867,51.519436],[0.019432,51.519204],[0.020097,51.519725],[0.020344,51.519759],[0.020559,51.519694],[0.020873,51.519852],[0.02074,51.51994],[0.020747,51.520126],[0.022235,51.521007],[0.022566,51.520985],[0.023445,51.520201],[0.02347,51.520092],[0.023422,51.520007],[0.023495,51.519774],[0.023386,51.519579],[0.023152,51.518726],[0.023081,51.518138],[0.023167,51.518112],[0.023271,51.517954],[0.023142,51.517725],[0.023199,51.51735],[0.024125,51.517421],[0.024926,51.517413],[0.025259,51.517234],[0.026429,51.51716],[0.026508,51.51758],[0.026619,51.517675],[0.026902,51.517738],[0.029666,51.517572],[0.029902,51.517476],[0.030043,51.517471],[0.030229,51.517368],[0.030293,51.517042]]]},"properties":{"code":"F84077","name":"NEWHAM VICARAGE PRACTICE","icb":"QMF"}}]}