{"type":"FeatureCollection","features":[{"type":"Feature","geometry":{"type":"Polygon","coordinates":[[[0.02455,51.56608],[0.02287,51.56601],[0.02253,51.56581],[0.02165,51.56488],[0.0213,51.56439],[0.02104,51.56332],[0.02121,51.56225],[0.0212,51.56173],[0.02094,51.5617],[0.01987,51.5612],[0.01802,51.55813],[0.01624,51.55725],[0.01412,51.55658],[0.01238,51.55592],[0.01134,51.55558],[0.0103,51.55535],[0.00841,51.55421],[0.0073,51.55331],[-0.018999,51.551525],[-0.003605,51.516111],[0.004634,51.509805],[0.021454,51.511412],[0.028658,51.511728],[0.048321,51.510131],[0.069003,51.515686],[0.070358,51.525402],[0.067445,51.537685],[0.064102,51.547242],[0.066849,51.552634],[0.064963,51.555836],[0.060333,51.558932],[0.04613,51.55277],[0.04583,51.55491],[0.04465,51.55604],[0.04416,51.55759],[0.04241,51.55882],[0.04137,51.56175],[0.04513,51.56288],[0.04351,51.5648],[0.04149,51.565],[0.03828,51.56568],[0.03557,51.56556],[0.03431,51.56518],[0.03273,51.56528],[0.0325,51.56501],[0.03063,51.56552],[0.0278,51.56567],[0.02622,51.56545],[0.02538,51.56544],[0.02455,51.56608]]]},"properties":{"code":"F84086","name":"THE FOREST PRACTICE","icb":"QMF"}}]}