{"type":"FeatureCollection","features":[{"type":"Feature","geometry":{"type":"Polygon","coordinates":[[[-0.043,51.53627],[-0.04429,51.53675],[-0.0448,51.53809],[-0.05532,51.53614],[-0.05712,51.53553],[-0.05738,51.53435],[-0.05708,51.53272],[-0.05562,51.52877],[-0.05553,51.52733],[-0.05111,51.52789],[-0.0497,51.52557],[-0.04626,51.52191],[-0.04407,51.52223],[-0.04227,51.52244],[-0.03918,51.52316],[-0.03485,51.52506],[-0.02794,51.52645],[-0.03407,51.53496],[-0.03661,51.53432],[-0.03858,51.53424],[-0.041497,51.533195],[-0.04146,51.53312],[-0.04154,51.53318],[-0.041497,51.533195],[-0.043,51.53627]]]},"properties":{"code":"F84055","name":"THE GROVE ROAD SURGERY","icb":"QMF"}}]}