{"type":"FeatureCollection","features":[{"type":"Feature","geometry":{"type":"Polygon","coordinates":[[[-0.03651,51.53132],[-0.0396,51.53072],[-0.038216,51.529365],[-0.036789,51.528063],[-0.035341,51.526595],[-0.034858,51.525927],[-0.034397,51.52526],[-0.034021,51.524412],[-0.033882,51.523998],[-0.033753,51.523531],[-0.033764,51.522883],[-0.033463,51.522162],[-0.033259,51.521962],[-0.032294,51.521809],[-0.030802,51.521695],[-0.029579,51.521395],[-0.027884,51.521028],[-0.027627,51.521335],[-0.027412,51.521548],[-0.026962,51.521849],[-0.026371,51.522076],[-0.025384,51.522243],[-0.024494,51.522256],[-0.023646,51.521875],[-0.022949,51.521662],[-0.022359,51.521795],[-0.021586,51.521882],[-0.020149,51.522082],[-0.020396,51.522957],[-0.020964,51.524519],[-0.020664,51.524866],[-0.020256,51.525013],[-0.022268,51.528163],[-0.020401,51.528437],[-0.018609,51.528627],[-0.01685,51.528954],[-0.015986,51.529311],[-0.015814,51.529438],[-0.017552,51.53052],[-0.019526,51.531501],[-0.020084,51.531868],[-0.0209,51.532435],[-0.021383,51.532709],[-0.022101,51.532829],[-0.022606,51.533429],[-0.023367,51.533296],[-0.024258,51.532849],[-0.025309,51.532375],[-0.027047,51.533763],[-0.028753,51.533042],[-0.030513,51.532508],[-0.031586,51.532215],[-0.032551,51.532001],[-0.034332,51.531674],[-0.03651,51.53132]]]},"properties":{"code":"F84044","name":"HARLEY GROVE MEDICAL CTR.","icb":"QMF"}}]}