{"type":"FeatureCollection","features":[{"type":"Feature","geometry":{"type":"Polygon","coordinates":[[[0.03253,51.53969],[0.03691,51.53254],[0.03965,51.52364],[0.05426,51.52171],[0.05749,51.52258],[0.06682,51.5268],[0.06437,51.52913],[0.06403,51.53044],[0.06601,51.53115],[0.06661,51.53235],[0.06609,51.53336],[0.0637,51.53335],[0.06353,51.53479],[0.06298,51.53612],[0.06519,51.53653],[0.06241,51.53988],[0.06143,51.53971],[0.05922,51.54295],[0.05495,51.54225],[0.05458,51.54375],[0.0498,51.54317],[0.0473,51.54293],[0.04678,51.54337],[0.04494,51.54342],[0.04371,51.5435],[0.03755,51.54206],[0.03837,51.54104],[0.03253,51.53969]]]},"properties":{"code":"F84050","name":"BOLEYN MEDICAL CENTRE","icb":"QMF"}}]}