{"type":"FeatureCollection","features":[{"type":"Feature","geometry":{"type":"Polygon","coordinates":[[[-0.048602,51.54167],[-0.045185,51.542468],[-0.04334,51.542899],[-0.041933,51.543227],[-0.04025,51.543572],[-0.038653,51.543899],[-0.036916,51.544366],[-0.035576,51.545061],[-0.034463,51.54497],[-0.033829,51.545246],[-0.033542,51.545836],[-0.033395,51.546307],[-0.032917,51.546838],[-0.034632,51.548033],[-0.035593,51.549104],[-0.035712,51.549579],[-0.035019,51.549938],[-0.035512,51.552366],[-0.03739,51.552154],[-0.037647,51.552282],[-0.037731,51.554253],[-0.035985,51.555822],[-0.037762,51.556709],[-0.038992,51.55808],[-0.039748,51.559125],[-0.039761,51.559264],[-0.041125,51.560098],[-0.045847,51.562061],[-0.046675,51.561711],[-0.047128,51.561381],[-0.047702,51.560963],[-0.047469,51.561275],[-0.048227,51.560955],[-0.048279,51.560848],[-0.04868,51.560881],[-0.04897,51.56078],[-0.052996,51.559026],[-0.05506,51.55847],[-0.05534,51.55835],[-0.055458,51.55822],[-0.055646,51.558132],[-0.05583,51.5581],[-0.05611,51.55812],[-0.055954,51.557803],[-0.056,51.55747],[-0.05582,51.55668],[-0.055584,51.55627],[-0.055677,51.556118],[-0.0567,51.5558],[-0.05705,51.55555],[-0.05708,51.55517],[-0.056996,51.554839],[-0.05713,51.55441],[-0.057144,51.553658],[-0.057369,51.553361],[-0.057873,51.552887],[-0.059972,51.552457],[-0.060899,51.551211],[-0.060966,51.550894],[-0.060883,51.549866],[-0.060865,51.549723],[-0.060438,51.549706],[-0.06008,51.549593],[-0.05993,51.549447],[-0.059769,51.549404],[-0.059398,51.549164],[-0.055234,51.547017],[-0.055518,51.543416],[-0.055322,51.540984],[-0.055976,51.539637],[-0.052079,51.540253],[-0.050097,51.540682],[-0.049271,51.541041],[-0.048602,51.54167]]]},"properties":{"code":"F84003","name":"LOWER CLAPTON GENERAL PRACTICE","icb":"QMF"}}]}