{"type":"FeatureCollection","features":[{"type":"Feature","geometry":{"type":"Polygon","coordinates":[[[0.068311,51.547133],[0.067575,51.552055],[0.06751,51.55311],[0.06708,51.55505],[0.06583,51.55669],[0.05555,51.55467],[0.04626,51.55485],[0.04219,51.55498],[0.040346,51.554983],[0.03532,51.55527],[0.033043,51.554791],[0.02841,51.55437],[0.025301,51.553936],[0.02532,51.555522],[0.025175,51.555558],[0.024907,51.555548],[0.024526,51.555528],[0.023727,51.555485],[0.023534,51.555878],[0.023582,51.556462],[0.022574,51.556485],[0.022552,51.556312],[0.022552,51.556119],[0.022155,51.556149],[0.021297,51.556189],[0.02054,51.556082],[0.021383,51.555215],[0.02193,51.554674],[0.021109,51.554388],[0.021586,51.553917],[0.020744,51.5536],[0.019709,51.553547],[0.019398,51.55341],[0.019027,51.553227],[0.018732,51.55308],[0.018454,51.55292],[0.018293,51.553093],[0.018121,51.55329],[0.017622,51.553647],[0.016871,51.55336],[0.016662,51.553267],[0.016318,51.553167],[0.015793,51.553187],[0.015428,51.553527],[0.014709,51.554271],[0.014344,51.554698],[0.013948,51.554581],[0.012804,51.554237],[0.0117,51.553841],[0.011051,51.554187],[0.009816,51.5534],[0.010385,51.55289],[0.010981,51.552299],[0.011475,51.552656],[0.011673,51.552253],[0.011791,51.552059],[0.011941,51.551846],[0.01119,51.551699],[0.010343,51.551479],[0.011168,51.550145],[0.011812,51.548897],[0.012499,51.548183],[0.012949,51.547569],[0.006995,51.546418],[0.007537,51.545668],[0.00644,51.53691],[0.00669,51.53635],[0.00738,51.53571],[0.008163,51.535429],[0.00961,51.5348],[0.012808,51.53362],[0.01498,51.53264],[0.01721,51.53117],[0.05038,51.53875],[0.0518,51.53918],[0.05446,51.54004],[0.05751,51.54116],[0.057855,51.541395],[0.06793,51.54436],[0.06841,51.54545],[0.06841,51.54647],[0.068311,51.547133]]]},"properties":{"code":"F84097","name":"CLAREMONT CLINIC","icb":"QMF"}}]}