{"type":"FeatureCollection","features":[{"type":"Feature","geometry":{"type":"Polygon","coordinates":[[[-0.073793,51.530346],[-0.057592,51.532508],[-0.049267,51.533576],[-0.053129,51.535445],[-0.05088,51.536474],[-0.047928,51.535478],[-0.045531,51.535728],[-0.04308,51.536506],[-0.033388,51.54484],[-0.033454,51.545789],[-0.035148,51.549564],[-0.029879,51.551236],[-0.03995,51.557956],[-0.040283,51.559053],[-0.048061,51.565673],[-0.056388,51.570457],[-0.05688,51.568588],[-0.056498,51.568533],[-0.05698,51.568211],[-0.05688,51.568588],[-0.058658,51.568844],[-0.066033,51.571917],[-0.075376,51.574052],[-0.080263,51.574756],[-0.085984,51.57447],[-0.090411,51.572443],[-0.095805,51.570847],[-0.09497,51.569392],[-0.092734,51.564427],[-0.090949,51.558565],[-0.090351,51.558107],[-0.090224,51.557691],[-0.09009,51.555857],[-0.088592,51.554373],[-0.085322,51.552194],[-0.086176,51.550668],[-0.087405,51.548473],[-0.08689,51.546585],[-0.09563,51.540733],[-0.089499,51.536042],[-0.085839,51.531115],[-0.073793,51.530346]]]},"properties":{"code":"F84035","name":"RICHMOND ROAD MEDICAL CENTRE","icb":"QMF"}}]}