{"type":"FeatureCollection","features":[{"type":"Feature","geometry":{"type":"Polygon","coordinates":[[[-0.040178,51.533799],[-0.04166,51.533185],[-0.040469,51.530987],[-0.037036,51.527342],[-0.034847,51.524993],[-0.036907,51.524259],[-0.035952,51.522883],[-0.035427,51.522997],[-0.034901,51.523104],[-0.031468,51.523631],[-0.027938,51.524392],[-0.028903,51.526081],[-0.028957,51.526201],[-0.028968,51.526201],[-0.02414,51.527349],[-0.01384,51.52979],[-0.01708,51.53109],[-0.01764,51.53157],[-0.0176,51.53147],[-0.018,51.53196],[-0.01846,51.53268],[-0.01829,51.53293],[-0.01834,51.53348],[-0.01919,51.53423],[-0.01955,51.53512],[-0.01984,51.53552],[-0.02144,51.53656],[-0.019795,51.538575],[-0.019183,51.539756],[-0.017982,51.541171],[-0.017837,51.542899],[-0.020986,51.542769],[-0.02411,51.54065],[-0.02661,51.53954],[-0.02747,51.53929],[-0.02977,51.53807],[-0.03649,51.53496],[-0.040178,51.533799]]]},"properties":{"code":"F84034","name":"ST. STEPHENS HEALTH CENTRE","icb":"QMF"}}]}