{"type":"FeatureCollection","features":[{"type":"Feature","geometry":{"type":"Polygon","coordinates":[[[0.021951,51.546031],[0.019203,51.54547],[0.019139,51.545377],[0.01886,51.545324],[0.018044,51.545177],[0.016241,51.544683],[0.009278,51.542872],[0.010468,51.541024],[0.010856,51.539635],[0.010832,51.539555],[0.010832,51.539289],[0.01079,51.539209],[0.010725,51.539076],[0.010618,51.538795],[0.010403,51.538649],[0.010253,51.538462],[0.00957,51.537821],[0.006394,51.536913],[0.006952,51.536059],[0.008407,51.53523],[0.008922,51.53515],[0.009051,51.534937],[0.00948,51.534857],[0.009996,51.53467],[0.010296,51.534483],[0.011155,51.534297],[0.01197,51.53395],[0.012271,51.533843],[0.01446,51.532962],[0.01549,51.532321],[0.016306,51.531894],[0.016735,51.531814],[0.017379,51.53168],[0.017937,51.531814],[0.017251,51.531627],[0.016522,51.531174],[0.016607,51.531201],[0.016006,51.530987],[0.015362,51.530773],[0.014374,51.53056],[0.012013,51.529999],[0.01403,51.529117],[0.013816,51.529037],[0.013859,51.529037],[0.013944,51.528984],[0.017636,51.527488],[0.01755,51.527408],[0.017635,51.526714],[0.018107,51.526234],[0.013127,51.524711],[0.012359,51.523564],[0.012526,51.522012],[0.012397,51.522012],[0.01244,51.521932],[0.012311,51.519527],[0.012917,51.518491],[0.014419,51.517555],[0.016179,51.517289],[0.01845,51.517149],[0.018666,51.517179],[0.018536,51.517069],[0.020682,51.517203],[0.025061,51.517204],[0.025275,51.517205],[0.027809,51.517021],[0.028881,51.517047],[0.032315,51.517074],[0.031586,51.515259],[0.031584,51.513307],[0.034071,51.509912],[0.046518,51.508977],[0.062056,51.508791],[0.070125,51.508633],[0.071497,51.5112],[0.070511,51.513923],[0.072315,51.516432],[0.073473,51.520548],[0.072615,51.522977],[0.072615,51.523111],[0.072743,51.523164],[0.072915,51.523858],[0.072485,51.524499],[0.068707,51.524192],[0.068664,51.524392],[0.068728,51.524659],[0.06852,51.52484],[0.069228,51.525714],[0.067066,51.527326],[0.066014,51.52812],[0.065521,51.528484],[0.064952,51.528931],[0.06523,51.52951],[0.06507,51.52993],[0.06387,51.53054],[0.06485,51.53061],[0.06548,51.53086],[0.06574,51.53101],[0.06656,51.53195],[0.06739,51.53254],[0.06633,51.5341],[0.06727,51.53542],[0.06527,51.53687],[0.06471,51.53736],[0.066429,51.539883],[0.060335,51.544893],[0.060726,51.545909],[0.059867,51.545963],[0.059567,51.545963],[0.059009,51.546016],[0.058194,51.546123],[0.057464,51.546257],[0.056563,51.54655],[0.055662,51.546657],[0.055103,51.546898],[0.054116,51.547004],[0.052657,51.547325],[0.052014,51.547646],[0.051327,51.547753],[0.050855,51.547911],[0.048408,51.548446],[0.046821,51.548767],[0.045061,51.549247],[0.04403,51.549541],[0.043644,51.549301],[0.042786,51.548927],[0.042786,51.548926],[0.0424,51.548847],[0.042056,51.548794],[0.040082,51.548366],[0.039524,51.54818],[0.039009,51.5481],[0.037936,51.547833],[0.036949,51.547699],[0.035833,51.547486],[0.034889,51.547379],[0.033946,51.547299],[0.03283,51.547219],[0.031649,51.547006],[0.030533,51.546872],[0.030469,51.546872],[0.029589,51.546806],[0.02813,51.546739],[0.028001,51.546752],[0.027422,51.546658],[0.026822,51.546605],[0.025706,51.546472],[0.023646,51.546311],[0.022316,51.546123],[0.021929,51.546083],[0.021951,51.546031]]]},"properties":{"code":"F84010","name":"ASPIRE MEDICAL CENTRE","icb":"QMF"}}]}