{"type":"FeatureCollection","features":[{"type":"Feature","geometry":{"type":"Polygon","coordinates":[[[-0.04957,51.52554],[-0.0521,51.52501],[-0.05901,51.52383],[-0.06347,51.52375],[-0.07231,51.5221],[-0.07781,51.52212],[-0.07798,51.52252],[-0.0769,51.52372],[-0.07768,51.52322],[-0.07892,51.52119],[-0.07965,51.51833],[-0.07854,51.51796],[-0.07733,51.51718],[-0.07639,51.5163],[-0.07437,51.51467],[-0.07175,51.51529],[-0.07665,51.51376],[-0.07605,51.51267],[-0.07566,51.51045],[-0.07476,51.5097],[-0.07957,51.50946],[-0.07871,51.50896],[-0.07948,51.50791],[-0.07296,51.50626],[-0.07266,51.50674],[-0.07111,51.50615],[-0.07017,51.50551],[-0.06836,51.50527],[-0.06789,51.50487],[-0.05952,51.503],[-0.0563,51.50417],[-0.05489,51.50524],[-0.05407,51.50604],[-0.05098,51.5073],[-0.05051,51.5081],[-0.04948,51.50794],[-0.04798,51.50829],[-0.04601,51.50925],[-0.04167,51.50962],[-0.04223,51.51053],[-0.04133,51.51275],[-0.04081,51.51334],[-0.0406,51.51561],[-0.04141,51.51571],[-0.0427,51.51694],[-0.043,51.51761],[-0.043,51.51881],[-0.04957,51.52554]]]},"properties":{"code":"F84039","name":"GOODMAN'S FIELD HEALTH CENTRE","icb":"QMF"}}]}