{"type":"FeatureCollection","features":[{"type":"Feature","geometry":{"type":"Polygon","coordinates":[[[-0.06379,51.55861],[-0.06488,51.55904],[-0.06524,51.55933],[-0.06728,51.56233],[-0.06773,51.56235],[-0.06832,51.56216],[-0.07167,51.56207],[-0.07186,51.56253],[-0.07354,51.56245],[-0.07366,51.56197],[-0.07592,51.56219],[-0.07802,51.56225],[-0.07991,51.56212],[-0.08036,51.56208],[-0.08212,51.56145],[-0.08289,51.56122],[-0.08351,51.56117],[-0.08328,51.56038],[-0.08257,51.55926],[-0.08238,51.55858],[-0.08242,51.55784],[-0.08298,51.55729],[-0.08366,51.5569],[-0.08392,51.55665],[-0.08422,51.55537],[-0.08508,51.55278],[-0.0854,51.55214],[-0.08471,51.55205],[-0.08345,51.55215],[-0.08102,51.55201],[-0.07989,51.55186],[-0.07939,51.5517],[-0.07864,51.55095],[-0.0783,51.55032],[-0.07701,51.54861],[-0.07671,51.54809],[-0.07638,51.54719],[-0.07562,51.54708],[-0.07542,51.54819],[-0.07495,51.54815],[-0.07415,51.54826],[-0.07159,51.54806],[-0.07085,51.54805],[-0.06899,51.54812],[-0.06869,51.54809],[-0.06855,51.54818],[-0.06707,51.54832],[-0.06571,51.54831],[-0.06423,51.54838],[-0.06353,51.5483],[-0.06295,51.5484],[-0.06105,51.549],[-0.06009,51.54947],[-0.06058,51.54958],[-0.06143,51.54967],[-0.06173,51.55034],[-0.06203,51.55064],[-0.06409,51.55193],[-0.06577,51.55169],[-0.06832,51.55466],[-0.06906,51.55529],[-0.06855,51.55555],[-0.06807,51.55558],[-0.06607,51.55546],[-0.06559,51.55547],[-0.06561,51.55568],[-0.06549,51.55606],[-0.06459,51.55728],[-0.06415,51.55816],[-0.06379,51.55861]]]},"properties":{"code":"F84033","name":"SOMERFORD GROVE PRACTICE","icb":"QMF"}}]}