{"type":"FeatureCollection","features":[{"type":"Feature","geometry":{"type":"Polygon","coordinates":[[[-0.075288,51.554064],[-0.076299,51.545767],[-0.07686,51.541168],[-0.077219,51.539128],[-0.077203,51.537907],[-0.077287,51.536838],[-0.077403,51.535888],[-0.077508,51.535025],[-0.077737,51.533149],[-0.077695,51.529917],[-0.069098,51.531031],[-0.064078,51.531513],[-0.062031,51.531778],[-0.061392,51.53184],[-0.060132,51.532085],[-0.055932,51.532489],[-0.054828,51.542071],[-0.054548,51.54951],[-0.061952,51.550137],[-0.065149,51.551651],[-0.067069,51.553826],[-0.06938,51.55579],[-0.073285,51.55668],[-0.075174,51.557111],[-0.075288,51.554064]]]},"properties":{"code":"F84117","name":"QUEENSBRIDGE GROUP PRACTICE","icb":"QMF"}}]}