{"type":"FeatureCollection","features":[{"type":"Feature","geometry":{"type":"Polygon","coordinates":[[[-0.081436,51.508136],[-0.080398,51.509417],[-0.079922,51.509572],[-0.079434,51.50963],[-0.07929,51.509955],[-0.080503,51.510006],[-0.080279,51.510691],[-0.079674,51.510716],[-0.079676,51.511016],[-0.079573,51.511028],[-0.079577,51.51154],[-0.079384,51.511535],[-0.079225,51.511813],[-0.079487,51.512291],[-0.076799,51.513549],[-0.07748,51.514063],[-0.076829,51.514279],[-0.078976,51.515568],[-0.079126,51.516319],[-0.077908,51.515775],[-0.076998,51.516527],[-0.080188,51.517715],[-0.080385,51.518105],[-0.080133,51.518543],[-0.079866,51.519148],[-0.079247,51.520656],[-0.078367,51.522798],[-0.078246,51.523093],[-0.079278,51.523712],[-0.080348,51.523669],[-0.081179,51.524852],[-0.082831,51.525719],[-0.082973,51.52579],[-0.083223,51.525886],[-0.084083,51.526253],[-0.084968,51.526289],[-0.085621,51.52618],[-0.086031,51.526927],[-0.087258,51.526722],[-0.088015,51.526703],[-0.088457,51.527227],[-0.08886,51.527468],[-0.097365,51.529726],[-0.09754,51.529421],[-0.100224,51.528706],[-0.104671,51.527774],[-0.104606,51.527448],[-0.104186,51.52685],[-0.103913,51.526434],[-0.103911,51.526074],[-0.104049,51.525654],[-0.103952,51.52517],[-0.103531,51.524671],[-0.102574,51.523621],[-0.102019,51.522518],[-0.103264,51.522569],[-0.104539,51.522419],[-0.106218,51.522253],[-0.106969,51.522179],[-0.105878,51.520517],[-0.105121,51.517898],[-0.106042,51.517936],[-0.106166,51.517559],[-0.107491,51.517727],[-0.107854,51.517364],[-0.108037,51.51695],[-0.109144,51.516537],[-0.109216,51.516066],[-0.108936,51.515925],[-0.109154,51.515727],[-0.109616,51.514984],[-0.109545,51.514484],[-0.110488,51.514372],[-0.110366,51.513949],[-0.111281,51.513776],[-0.11154,51.513745],[-0.111443,51.51338],[-0.111409,51.513137],[-0.111336,51.512862],[-0.111009,51.512266],[-0.110771,51.511617],[-0.110712,51.511325],[-0.11078,51.510886],[-0.10825,51.510855],[-0.099319,51.510746],[-0.089705,51.50911],[-0.082619,51.508394],[-0.081436,51.508136]]]},"properties":{"code":"F84640","name":"THE NEAMAN PRACTICE","icb":"QMF"}}]}