{"type":"FeatureCollection","features":[{"type":"Feature","geometry":{"type":"Polygon","coordinates":[[[0.04661,51.55343],[0.04304,51.5493],[0.03592,51.54754],[0.03635,51.54332],[0.03884,51.5403],[0.04622,51.53601],[0.04648,51.53478],[0.04772,51.53184],[0.05206,51.53283],[0.05927,51.53371],[0.06592,51.53478],[0.06841,51.53689],[0.06626,51.54012],[0.06763,51.54359],[0.06811,51.54916],[0.06759,51.55215],[0.06523,51.55653],[0.06103,51.5608],[0.05124,51.55813],[0.04661,51.55343]]]},"properties":{"code":"F84658","name":"SANGAM PRACTICE","icb":"QMF"}}]}