{"type":"FeatureCollection","features":[{"type":"Feature","geometry":{"type":"Polygon","coordinates":[[[-0.05527,51.5585],[-0.06042,51.56597],[-0.060744,51.567257],[-0.061751,51.568536],[-0.06437,51.57088],[-0.067931,51.572326],[-0.07278,51.57355],[-0.078315,51.574413],[-0.080972,51.574726],[-0.083731,51.574702],[-0.08102,51.57077],[-0.07965,51.56683],[-0.084902,51.565758],[-0.082162,51.563306],[-0.080077,51.561923],[-0.07931,51.55765],[-0.07939,51.55557],[-0.07484,51.55493],[-0.06918,51.55498],[-0.06841,51.55493],[-0.06832,51.55567],[-0.06532,51.55551],[-0.057596,51.555578],[-0.055549,51.556204],[-0.05527,51.5585]]]},"properties":{"code":"F84694","name":"THE SURGERY (BROOKE ROAD)","icb":"QMF"}}]}