{"type":"FeatureCollection","features":[{"type":"Feature","geometry":{"type":"Polygon","coordinates":[[[-0.005867,51.50523],[-0.005764,51.50523],[-0.005633,51.505133],[-0.005354,51.50504],[-0.0041,51.50602],[-0.003406,51.506492],[-0.00451,51.50803],[-0.00545,51.50774],[-0.00648,51.50751],[-0.00704,51.50751],[-0.0073,51.50745],[-0.00824,51.50703],[-0.00862,51.50707],[-0.00902,51.50733],[-0.00903,51.50767],[-0.00883,51.50799],[-0.00884,51.50833],[-0.01023,51.50952],[-0.01081,51.51112],[-0.01262,51.51115],[-0.02119,51.51072],[-0.021468,51.509357],[-0.022144,51.509197],[-0.026178,51.508549],[-0.030041,51.507494],[-0.029612,51.507033],[-0.028474,51.506045],[-0.02725,51.50322],[-0.02763,51.50161],[-0.02774,51.49868],[-0.02811,51.49548],[-0.02769,51.49371],[-0.02568,51.49049],[-0.02403,51.48897],[-0.02212,51.4878],[-0.01902,51.48648],[-0.01561,51.4858],[-0.01195,51.48582],[-0.00927,51.48621],[-0.0068,51.48688],[-0.00453,51.48789],[-0.00269,51.48926],[-0.00275,51.49143],[-0.0037,51.49333],[-0.00613,51.49693],[-0.00788,51.50095],[-0.00702,51.50273],[-0.00688,51.50342],[-0.00656,51.50367],[-0.00675,51.50373],[-0.00647,51.50405],[-0.00612,51.50409],[-0.005509,51.504869],[-0.005895,51.50504],[-0.005611,51.505106],[-0.00628,51.50521],[-0.005867,51.50523]]]},"properties":{"code":"F84647","name":"ROSERTON STREET SURGERY","icb":"QMF"}}]}