{"type":"FeatureCollection","features":[{"type":"Feature","geometry":{"type":"Polygon","coordinates":[[[-0.08351,51.51983],[-0.08326,51.51982],[-0.08265,51.52013],[-0.081763,51.520825],[-0.081553,51.520867],[-0.07972,51.52053],[-0.07895,51.52047],[-0.078594,51.521438],[-0.07826,51.52188],[-0.07757,51.52326],[-0.07728,51.52401],[-0.07734,51.52486],[-0.07745,51.52517],[-0.07808,51.52617],[-0.077921,51.52685],[-0.07669,51.52762],[-0.07577,51.52834],[-0.074973,51.529252],[-0.074641,51.529823],[-0.074112,51.53021],[-0.073123,51.530562],[-0.072116,51.530853],[-0.071011,51.53097],[-0.06682,51.53119],[-0.066649,51.531248],[-0.06502,51.53136],[-0.06124,51.53196],[-0.059561,51.532268],[-0.05815,51.53241],[-0.05703,51.5327],[-0.057309,51.533614],[-0.05716,51.53512],[-0.05712,51.536381],[-0.05691,51.5371],[-0.057099,51.538386],[-0.056704,51.539017],[-0.05543,51.54041],[-0.05521,51.54094],[-0.055251,51.543513],[-0.055321,51.543565],[-0.055429,51.54429],[-0.05512,51.54674],[-0.057713,51.546541],[-0.0598,51.54648],[-0.063428,51.545763],[-0.06974,51.54628],[-0.070548,51.546221],[-0.072401,51.54625],[-0.07257,51.54631],[-0.073168,51.546272],[-0.0748,51.54627],[-0.076299,51.54611],[-0.077941,51.546151],[-0.08075,51.54644],[-0.08384,51.54655],[-0.083605,51.545233],[-0.083901,51.544287],[-0.08577,51.53953],[-0.086505,51.537471],[-0.086574,51.537404],[-0.092274,51.534708],[-0.09515,51.533514],[-0.09703,51.53294],[-0.095474,51.530726],[-0.095114,51.529979],[-0.09538,51.5292],[-0.088757,51.527508],[-0.088649,51.527443],[-0.087814,51.526153],[-0.087825,51.52605],[-0.08826,51.52557],[-0.08765,51.52533],[-0.08718,51.52547],[-0.086826,51.525805],[-0.084693,51.52636],[-0.084009,51.526316],[-0.083828,51.526169],[-0.08436,51.523328],[-0.084839,51.521335],[-0.08523,51.52031],[-0.08351,51.51983]]]},"properties":{"code":"F84692","name":"THE HOXTON SURGERY","icb":"QMF"}}]}