{"type":"FeatureCollection","features":[{"type":"Feature","geometry":{"type":"Polygon","coordinates":[[[-0.062113,51.548403],[-0.065122,51.548062],[-0.063096,51.545752],[-0.069321,51.546166],[-0.069811,51.544285],[-0.070144,51.543007],[-0.070024,51.540228],[-0.069807,51.535183],[-0.059555,51.5345],[-0.05716,51.53454],[-0.0545,51.53528],[-0.05313,51.53523],[-0.05124,51.53657],[-0.04978,51.53641],[-0.04815,51.53566],[-0.04609,51.5355],[-0.04377,51.53635],[-0.04077,51.53811],[-0.03802,51.54057],[-0.03682,51.54239],[-0.03416,51.54367],[-0.03227,51.545],[-0.03038,51.54468],[-0.02961,51.54548],[-0.02918,51.54676],[-0.02695,51.54772],[-0.03013,51.55135],[-0.0333,51.55455],[-0.03407,51.5545],[-0.03442,51.55317],[-0.03519,51.5529],[-0.03553,51.55247],[-0.03751,51.55215],[-0.03785,51.55333],[-0.04008,51.55311],[-0.03948,51.5513],[-0.04103,51.55258],[-0.04952,51.55162],[-0.05356,51.55077],[-0.05485,51.54964],[-0.05965,51.54996],[-0.060378,51.549039],[-0.062113,51.548403]]]},"properties":{"code":"F84601","name":"ELSDALE STREET SURGERY","icb":"QMF"}}]}