{"type":"FeatureCollection","features":[{"type":"Feature","geometry":{"type":"Polygon","coordinates":[[[-0.035924,51.528267],[-0.03155,51.52923],[-0.02955,51.52953],[-0.0256,51.52994],[-0.02361,51.53028],[-0.02219,51.53061],[-0.0244,51.5328],[-0.0251,51.53245],[-0.026,51.53317],[-0.02688,51.53408],[-0.02764,51.53504],[-0.02838,51.53646],[-0.02896,51.53727],[-0.02933,51.53804],[-0.03344,51.53628],[-0.03392,51.53599],[-0.03756,51.53433],[-0.04082,51.53277],[-0.04111,51.53259],[-0.04006,51.53091],[-0.03727,51.52796],[-0.035924,51.528267]]]},"properties":{"code":"F84696","name":"TREDEGAR PRACTICE","icb":"QMF"}}]}