{"type":"FeatureCollection","features":[{"type":"Feature","geometry":{"type":"Polygon","coordinates":[[[-0.002961,51.506953],[-0.003884,51.507981],[-0.004807,51.508195],[-0.006695,51.507727],[-0.011759,51.507193],[-0.018496,51.507647],[-0.02386,51.508716],[-0.02781,51.51136],[-0.03167,51.51221],[-0.03262,51.51067],[-0.03588,51.50965],[-0.03056,51.50735],[-0.02901,51.50634],[-0.02738,51.50409],[-0.02755,51.501],[-0.02781,51.501],[-0.02764,51.49341],[-0.02498,51.48961],[-0.02077,51.48694],[-0.01657,51.48603],[-0.0121,51.48571],[-0.00669,51.48683],[-0.00309,51.48865],[-0.00283,51.48999],[-0.00309,51.49213],[-0.00489,51.49474],[-0.00644,51.49736],[-0.00764,51.50035],[-0.00695,51.50313],[-0.00506,51.50522],[-0.0036,51.50666],[-0.002961,51.506953]]]},"properties":{"code":"F84656","name":"DOCKLANDS MEDICAL CENTRE","icb":"QMF"}}]}