{"type":"FeatureCollection","features":[{"type":"Feature","geometry":{"type":"Polygon","coordinates":[[[0.029383,51.554413],[0.02888,51.55446],[0.02841,51.55443],[0.02544,51.55406],[0.02547,51.55454],[0.025535,51.555608],[0.024054,51.555862],[0.023893,51.556342],[0.023732,51.556822],[0.022831,51.556929],[0.022573,51.556262],[0.022745,51.556049],[0.022444,51.556062],[0.021951,51.556195],[0.021608,51.556249],[0.020599,51.556089],[0.021265,51.555208],[0.020685,51.555035],[0.020149,51.554768],[0.0193,51.5545],[0.016651,51.557756],[0.011673,51.55797],[0.01236,51.556582],[0.013352,51.554416],[0.011845,51.557543],[0.01356,51.55078],[0.01354,51.55056],[0.01364,51.55033],[0.013905,51.550391],[0.013561,51.550178],[0.012531,51.55338],[0.012531,51.553647],[0.011501,51.557116],[0.011501,51.557329],[0.011673,51.556796],[0.011501,51.557756],[0.010986,51.557009],[0.01133,51.557649],[0.003262,51.557329],[0.00309,51.556582],[0.003262,51.556582],[0.002918,51.556369],[0.002232,51.557222],[0.001545,51.557543],[0.002403,51.556582],[0.001202,51.557543],[-0.000515,51.557436],[-0.002918,51.557436],[-0.002575,51.556795],[-0.002403,51.556369],[-0.00427,51.556008],[-0.003605,51.557969],[-0.005665,51.556475],[-0.005493,51.556582],[-0.009269,51.55258],[-0.013389,51.551352],[-0.018626,51.550818],[-0.016566,51.546549],[-0.01605,51.54452],[-0.01588,51.542652],[-0.015793,51.542065],[-0.016229,51.541104],[-0.017084,51.540356],[-0.017771,51.539876],[-0.018633,51.539235],[-0.018806,51.538862],[-0.018851,51.538682],[-0.018926,51.538561],[-0.019011,51.538461],[-0.019129,51.538355],[-0.019183,51.538308],[-0.019333,51.538224],[-0.019382,51.538204],[-0.019419,51.538188],[-0.019532,51.538114],[-0.019585,51.538088],[-0.019698,51.538041],[-0.019805,51.538014],[-0.019891,51.537981],[-0.019961,51.537947],[-0.020036,51.537921],[-0.020095,51.537897],[-0.020127,51.537884],[-0.020133,51.537891],[-0.020154,51.537867],[-0.020186,51.537861],[-0.020235,51.537851],[-0.020278,51.537827],[-0.020331,51.537807],[-0.020417,51.537761],[-0.020557,51.537734],[-0.020642,51.537687],[-0.020803,51.53762],[-0.020954,51.537527],[-0.021082,51.53746],[-0.021211,51.53738],[-0.021318,51.53728],[-0.021468,51.537173],[-0.021511,51.537047],[-0.021554,51.536973],[-0.021597,51.53684],[-0.021619,51.536813],[-0.021629,51.536706],[-0.021511,51.536573],[-0.021447,51.536453],[-0.021425,51.536426],[-0.02135,51.536319],[-0.021222,51.536246],[-0.021082,51.536172],[-0.020964,51.536106],[-0.020792,51.536032],[-0.020685,51.535979],[-0.020578,51.535939],[-0.020449,51.535899],[-0.020056,51.535792],[-0.019928,51.535739],[-0.01967,51.535659],[-0.01967,51.535605],[-0.019499,51.535498],[-0.019671,51.535445],[-0.019585,51.535338],[-0.019499,51.535338],[-0.019241,51.534911],[-0.019156,51.534324],[-0.018797,51.533843],[-0.018539,51.533256],[-0.018454,51.532936],[-0.018539,51.532242],[-0.01811,51.531708],[-0.017252,51.531227],[-0.016651,51.53096],[-0.015964,51.530533],[-0.015461,51.530479],[-0.014591,51.530106],[-0.013904,51.529892],[-0.013132,51.529572],[-0.011029,51.529358],[-0.010621,51.528611],[-0.010085,51.528077],[-0.009248,51.527743],[-0.008583,51.527262],[-0.008175,51.526595],[-0.007682,51.525914],[-0.00854,51.524178],[-0.008669,51.523324],[-0.009699,51.521935],[-0.008927,51.520787],[-0.008926,51.520427],[-0.008733,51.519906],[-0.008068,51.519546],[-0.00663,51.518851],[-0.005729,51.517382],[-0.005579,51.516835],[-0.005322,51.516635],[-0.004742,51.516661],[-0.004012,51.517289],[-0.00354,51.51773],[-0.002983,51.517903],[-0.00236,51.517957],[-0.001717,51.51773],[0.00425,51.515206],[0.001545,51.511146],[0.002661,51.510532],[0.00429,51.513657],[0.007209,51.513764],[0.007036,51.510025],[0.009785,51.507674],[0.01133,51.50543],[0.018883,51.499019],[0.039997,51.497202],[0.051327,51.496668],[0.05785,51.496133],[0.064545,51.49624],[0.070382,51.497309],[0.076391,51.498591],[0.079996,51.50137],[0.083257,51.504255],[0.084974,51.506819],[0.087376,51.50917],[0.090466,51.510559],[0.094245,51.511627],[0.099521,51.512562],[0.099521,51.514218],[0.096173,51.516007],[0.095165,51.516862],[0.094671,51.517756],[0.0948,51.519305],[0.094843,51.52032],[0.094071,51.521068],[0.091839,51.522737],[0.091882,51.524098],[0.092097,51.524926],[0.091925,51.52554],[0.090294,51.525353],[0.088921,51.526047],[0.085101,51.525353],[0.080338,51.527329],[0.079824,51.527649],[0.078664,51.528397],[0.077978,51.529145],[0.075918,51.529358],[0.074115,51.529225],[0.072012,51.529078],[0.072162,51.529759],[0.072119,51.530466],[0.071991,51.53124],[0.071733,51.532055],[0.070918,51.53367],[0.068071,51.536273],[0.06571,51.540837],[0.067425,51.546015],[0.066953,51.549404],[0.066648,51.55286],[0.066369,51.554661],[0.065789,51.555435],[0.06506,51.556115],[0.063987,51.556996],[0.0633,51.557383],[0.062443,51.557103],[0.062035,51.556982],[0.061391,51.556796],[0.060575,51.556422],[0.060125,51.556662],[0.059524,51.557009],[0.059159,51.557143],[0.058837,51.557329],[0.058515,51.557556],[0.058322,51.557943],[0.057979,51.557956],[0.057657,51.558036],[0.057313,51.558116],[0.057228,51.558397],[0.05697,51.558863],[0.056627,51.558637],[0.056326,51.558623],[0.056348,51.55905],[0.055511,51.559477],[0.05461,51.559637],[0.054331,51.560331],[0.053515,51.560744],[0.052872,51.561438],[0.050897,51.563946],[0.045833,51.562612],[0.042228,51.561598],[0.042314,51.560157],[0.042915,51.55877],[0.044975,51.556209],[0.046113,51.554928],[0.042617,51.555061],[0.041587,51.554954],[0.039913,51.555035],[0.037358,51.555195],[0.035963,51.555248],[0.035148,51.555141],[0.033689,51.554954],[0.032176,51.554714],[0.029947,51.554402],[0.029383,51.554413]]]},"properties":{"code":"F84724","name":"WOODGRANGE MEDICAL PRACTICE","icb":"QMF"}}]}