{"type":"FeatureCollection","features":[{"type":"Feature","geometry":{"type":"Polygon","coordinates":[[[-0.12463,51.61386],[-0.12868,51.614993],[-0.1363,51.61109],[-0.13398,51.61253],[-0.13759,51.61087],[-0.12042,51.59787],[-0.11312,51.588],[-0.10308,51.5904],[-0.09836,51.59302],[-0.09227,51.59797],[-0.08695,51.60283],[-0.08686,51.61716],[-0.09562,51.61551],[-0.10815,51.61343],[-0.1169,51.61301],[-0.12463,51.61386]]]},"properties":{"code":"F85064","name":"HIGH ROAD SURGERY (STUART CRESCENT HC)","icb":"Z9B2Z"}}]}