{"type":"FeatureCollection","features":[{"type":"Feature","geometry":{"type":"Polygon","coordinates":[[[-0.129746,51.624442],[-0.12774,51.62497],[-0.12514,51.62434],[-0.12415,51.6248],[-0.12238,51.62473],[-0.12046,51.62483],[-0.11452,51.62594],[-0.11415,51.62687],[-0.11383,51.62688],[-0.11218,51.62846],[-0.10626,51.63318],[-0.10308,51.63395],[-0.11085,51.63813],[-0.11106,51.64178],[-0.11081,51.64332],[-0.12149,51.64378],[-0.13022,51.64776],[-0.1454,51.65003],[-0.15089,51.64518],[-0.15157,51.64517],[-0.15293,51.64539],[-0.15455,51.64529],[-0.16187,51.64368],[-0.16298,51.64253],[-0.16028,51.63887],[-0.15684,51.63659],[-0.15308,51.63425],[-0.147172,51.636312],[-0.143012,51.631876],[-0.14153,51.62963],[-0.14028,51.62686],[-0.13504,51.62209],[-0.13406,51.62419],[-0.13236,51.62429],[-0.13085,51.6243],[-0.129746,51.624442]]]},"properties":{"code":"F85032","name":"SOUTHGATE","icb":"Z9B2Z"}}]}