{"type":"FeatureCollection","features":[{"type":"Feature","geometry":{"type":"Polygon","coordinates":[[[-0.126,51.61802],[-0.12394,51.61876],[-0.122769,51.620946],[-0.122655,51.62102],[-0.12136,51.62132],[-0.11891,51.623326],[-0.11424,51.62457],[-0.113275,51.626818],[-0.112982,51.626909],[-0.105843,51.625081],[-0.10523,51.62468],[-0.103335,51.62758],[-0.103046,51.627651],[-0.09888,51.62644],[-0.097256,51.629837],[-0.09527,51.63198],[-0.09398,51.63379],[-0.09398,51.634544],[-0.093929,51.634624],[-0.09081,51.63661],[-0.094853,51.639122],[-0.094905,51.639236],[-0.093809,51.642053],[-0.09184,51.64625],[-0.09381,51.64652],[-0.095474,51.644221],[-0.095859,51.644183],[-0.096932,51.644914],[-0.09686,51.645134],[-0.097032,51.64556],[-0.097296,51.645973],[-0.097804,51.645791],[-0.100379,51.647584],[-0.107028,51.647842],[-0.107226,51.647981],[-0.106676,51.654161],[-0.106302,51.654277],[-0.09819,51.65094],[-0.0975,51.65403],[-0.09991,51.65941],[-0.10352,51.659411],[-0.10598,51.659574],[-0.106167,51.65971],[-0.106191,51.659608],[-0.106335,51.659496],[-0.13098,51.65509],[-0.133325,51.64958],[-0.133588,51.649487],[-0.14969,51.65232],[-0.146659,51.645416],[-0.146814,51.645254],[-0.146899,51.645241],[-0.14669,51.645216],[-0.146538,51.645127],[-0.14643,51.64487],[-0.1442,51.64135],[-0.14008,51.63794],[-0.138557,51.637071],[-0.138316,51.636878],[-0.132051,51.633469],[-0.128598,51.632469],[-0.127979,51.632225],[-0.12789,51.632124],[-0.12789,51.63108],[-0.127968,51.630984],[-0.13115,51.62953],[-0.13063,51.62835],[-0.127626,51.62835],[-0.127484,51.62831],[-0.12633,51.627488],[-0.12498,51.625912],[-0.124523,51.6248],[-0.124748,51.624625],[-0.13046,51.62473],[-0.13407,51.62398],[-0.13527,51.62217],[-0.13458,51.62089],[-0.13098,51.61962],[-0.126,51.61802]]]},"properties":{"code":"F85035","name":"HIGHLANDS PRACTICE","icb":"Z9B2Z"}}]}