{"type":"FeatureCollection","features":[{"type":"Feature","geometry":{"type":"Polygon","coordinates":[[[-0.1545,51.6291],[-0.12497,51.63208],[-0.126658,51.633895],[-0.126418,51.634126],[-0.12617,51.63411],[-0.119044,51.638958],[-0.10763,51.64657],[-0.108849,51.651227],[-0.109,51.65264],[-0.109247,51.652749],[-0.10986,51.65509],[-0.127998,51.650382],[-0.140465,51.648894],[-0.140675,51.648954],[-0.15797,51.66752],[-0.17853,51.66276],[-0.16977,51.64455],[-0.16402,51.63608],[-0.1545,51.6291]]]},"properties":{"code":"F85016","name":"COCKFOSTERS MEDICAL CTRE","icb":"Z9B2Z"}}]}