{"type":"FeatureCollection","features":[{"type":"Feature","geometry":{"type":"Polygon","coordinates":[[[-0.010602,51.671278],[-0.00914,51.676654],[-0.0103,51.6766],[-0.010814,51.674684],[-0.013776,51.674977],[-0.017897,51.675004],[-0.016737,51.680592],[-0.020449,51.680805],[-0.023368,51.681231],[-0.026672,51.681776],[-0.02914,51.681922],[-0.030851,51.680216],[-0.031098,51.680096],[-0.031468,51.67995],[-0.031634,51.679591],[-0.031945,51.679358],[-0.034171,51.679953],[-0.036006,51.680352],[-0.037991,51.680758],[-0.03975,51.680984],[-0.041531,51.681144],[-0.042948,51.681071],[-0.044525,51.680931],[-0.04604,51.676148],[-0.047224,51.672435],[-0.047615,51.671251],[-0.048172,51.671224],[-0.049267,51.670865],[-0.050511,51.671065],[-0.051002,51.669534],[-0.04819,51.669162],[-0.049138,51.666167],[-0.049349,51.660311],[-0.050207,51.656424],[-0.052871,51.647205],[-0.053837,51.644382],[-0.054921,51.642991],[-0.054041,51.642498],[-0.054717,51.640873],[-0.050533,51.640607],[-0.047529,51.640021],[-0.042701,51.639182],[-0.036349,51.63817],[-0.029891,51.636945],[-0.029161,51.639688],[-0.025838,51.640021],[-0.02644,51.641512],[-0.026096,51.644229],[-0.023779,51.646839],[-0.020344,51.650247],[-0.019572,51.652324],[-0.019401,51.65685],[-0.019143,51.662973],[-0.010342,51.66268],[-0.011029,51.663426],[-0.011072,51.664437],[-0.010643,51.667551],[-0.009785,51.669148],[-0.0106,51.670266],[-0.010602,51.671278]]]},"properties":{"code":"F85023","name":"THE ORDNANCE UNITY CENTRE FOR HEALTH","icb":"Z9B2Z"}}]}