{"type":"FeatureCollection","features":[{"type":"Feature","geometry":{"type":"Polygon","coordinates":[[[-0.169604,51.642738],[-0.16531,51.636132],[-0.158787,51.630485],[-0.151234,51.62228],[-0.1478,51.620148],[-0.14574,51.619082],[-0.145654,51.617484],[-0.144882,51.616258],[-0.141191,51.61322],[-0.128058,51.608476],[-0.122136,51.604905],[-0.120506,51.602772],[-0.117501,51.601173],[-0.112436,51.600587],[-0.107546,51.601653],[-0.102911,51.603039],[-0.101109,51.604052],[-0.098705,51.604798],[-0.094757,51.605331],[-0.092611,51.606504],[-0.087977,51.606184],[-0.085145,51.606344],[-0.087205,51.61807],[-0.085282,51.62996],[-0.08892,51.65318],[-0.090637,51.658288],[-0.094239,51.663186],[-0.122223,51.666593],[-0.131321,51.667232],[-0.141042,51.669031],[-0.156602,51.667722],[-0.17493,51.657329],[-0.173898,51.648383],[-0.169604,51.642738]]]},"properties":{"code":"F85072","name":"GROVELANDS MEDICAL CENTRE","icb":"Z9B2Z"}}]}