{"type":"FeatureCollection","features":[{"type":"Feature","geometry":{"type":"Polygon","coordinates":[[[-0.151434,51.597258],[-0.15531,51.59595],[-0.16763,51.59358],[-0.16514,51.59144],[-0.16355,51.58952],[-0.15797,51.59046],[-0.14432,51.59179],[-0.14205,51.59107],[-0.13209,51.59533],[-0.13411,51.5964],[-0.13085,51.59821],[-0.12042,51.59752],[-0.12523,51.60155],[-0.12875,51.603975],[-0.12437,51.60672],[-0.12986,51.60944],[-0.13523,51.60546],[-0.13578,51.60323],[-0.13531,51.60272],[-0.13016,51.60317],[-0.129138,51.603791],[-0.13231,51.60133],[-0.1354,51.59981],[-0.13772,51.60093],[-0.13909,51.59995],[-0.14432,51.60005],[-0.14738,51.598604],[-0.150554,51.597586],[-0.14462,51.60005],[-0.14385,51.60149],[-0.14239,51.60304],[-0.14145,51.60458],[-0.14248,51.60576],[-0.14248,51.60709],[-0.14342,51.60848],[-0.15647,51.60538],[-0.15342,51.60285],[-0.15364,51.60123],[-0.15312,51.5992],[-0.151434,51.597258]]]},"properties":{"code":"F85688","name":"RUTLAND HOUSE SURGERY","icb":"Z9B2Z"}}]}