{"type":"FeatureCollection","features":[{"type":"Feature","geometry":{"type":"Polygon","coordinates":[[[-0.096828,51.644722],[-0.095512,51.643009],[-0.096433,51.641294],[-0.095415,51.640639],[-0.095233,51.64021],[-0.094502,51.640016],[-0.092254,51.638694],[-0.0917,51.638199],[-0.091068,51.637885],[-0.089848,51.637279],[-0.08486,51.638729],[-0.083359,51.639506],[-0.08227,51.640429],[-0.081557,51.641337],[-0.08116,51.641803],[-0.080603,51.642145],[-0.07934,51.642427],[-0.078006,51.64255],[-0.077741,51.64351],[-0.075016,51.645188],[-0.07969,51.647342],[-0.077291,51.64765],[-0.076317,51.649463],[-0.076134,51.651358],[-0.07561,51.653769],[-0.075928,51.656046],[-0.076355,51.656159],[-0.079424,51.656814],[-0.08207,51.657203],[-0.093813,51.658927],[-0.095186,51.659193],[-0.095587,51.65962],[-0.096302,51.659885],[-0.098117,51.660414],[-0.099777,51.660455],[-0.102997,51.659938],[-0.104241,51.657462],[-0.101624,51.653043],[-0.098362,51.64833],[-0.096828,51.644722]]]},"properties":{"code":"F85678","name":"THE TOWN SURGERY LTD","icb":"Z9B2Z"}}]}