{"type":"FeatureCollection","features":[{"type":"Feature","geometry":{"type":"Polygon","coordinates":[[[-0.110807,51.584857],[-0.106258,51.579523],[-0.104628,51.577123],[-0.106516,51.563626],[-0.105658,51.564053],[-0.104928,51.563679],[-0.103812,51.564346],[-0.102053,51.563226],[-0.099478,51.561518],[-0.095615,51.562879],[-0.09244,51.563839],[-0.080338,51.566934],[-0.076647,51.566987],[-0.07287,51.565173],[-0.072784,51.569015],[-0.072656,51.570615],[-0.070467,51.570428],[-0.06948,51.570695],[-0.067205,51.571895],[-0.062227,51.574829],[-0.059137,51.575096],[-0.05527,51.58502],[-0.038495,51.585523],[-0.040426,51.58683],[-0.039396,51.58891],[-0.039997,51.590456],[-0.039825,51.593709],[-0.040812,51.595015],[-0.041456,51.597734],[-0.040169,51.598774],[-0.03592,51.598987],[-0.033174,51.59944],[-0.029097,51.59968],[-0.025148,51.5996],[-0.0209,51.600373],[-0.017037,51.600827],[-0.024118,51.605038],[-0.029354,51.607517],[-0.030599,51.609569],[-0.0315,51.611568],[-0.034246,51.6129],[-0.038023,51.613273],[-0.042229,51.612154],[-0.045662,51.611035],[-0.049438,51.611781],[-0.052099,51.61322],[-0.055618,51.61354],[-0.061455,51.614339],[-0.067291,51.614765],[-0.070982,51.614819],[-0.076818,51.614126],[-0.082827,51.616045],[-0.086517,51.616524],[-0.096388,51.615991],[-0.102053,51.614446],[-0.108061,51.612314],[-0.11158,51.612634],[-0.114927,51.612687],[-0.115871,51.610875],[-0.118189,51.608316],[-0.121622,51.604905],[-0.120077,51.602079],[-0.115786,51.600213],[-0.116644,51.597974],[-0.119133,51.597174],[-0.115442,51.591629],[-0.110807,51.584857]]]},"properties":{"code":"F85623","name":"GROVE ROAD SURGERY","icb":"Z9B2Z"}}]}