{"type":"FeatureCollection","features":[{"type":"Feature","geometry":{"type":"Polygon","coordinates":[[[-0.031672,51.578723],[-0.029912,51.57715],[-0.02974,51.575256],[-0.02841,51.573816],[-0.027294,51.572242],[-0.025749,51.570908],[-0.02502,51.570188],[-0.02429,51.570135],[-0.023646,51.569361],[-0.022316,51.567894],[-0.020428,51.56568],[-0.019569,51.564586],[-0.01781,51.564319],[-0.016866,51.563813],[-0.015364,51.562078],[-0.013175,51.559464],[-0.010858,51.557516],[-0.010343,51.557036],[-0.008969,51.557649],[-0.006453,51.558093],[-0.004941,51.558683],[-0.003905,51.557996],[0.001845,51.561812],[0.005107,51.564773],[0.007339,51.568054],[0.008819,51.569748],[0.010858,51.571362],[0.013089,51.572695],[0.015707,51.572722],[0.014677,51.574242],[0.011587,51.57707],[0.009313,51.577923],[0.006909,51.578616],[0.00206,51.58075],[0.001459,51.58203],[0.002317,51.58219],[0.003777,51.582883],[0.006008,51.584857],[0.006351,51.587203],[0.008497,51.591469],[0.011029,51.596641],[0.015235,51.603092],[0.018325,51.606157],[0.017166,51.610875],[0.007725,51.618017],[0.00618,51.624837],[0.01442,51.632829],[-0.010643,51.638689],[-0.036736,51.61354],[-0.028582,51.605971],[-0.030212,51.601386],[-0.04034,51.602079],[-0.043688,51.596321],[-0.043344,51.591736],[-0.044632,51.587203],[-0.031672,51.578723]]]},"properties":{"code":"F86088","name":"THE LYNDHURST SURGERY","icb":"QMF"}}]}