{"type":"FeatureCollection","features":[{"type":"Feature","geometry":{"type":"Polygon","coordinates":[[[0.120422,51.614393],[0.116922,51.616957],[0.117588,51.620149],[0.113812,51.621429],[0.110893,51.623135],[0.107117,51.624201],[0.103169,51.62484],[0.098019,51.624307],[0.08935,51.624094],[0.083513,51.625321],[0.080842,51.627269],[0.079018,51.627063],[0.075188,51.631127],[0.068836,51.629103],[0.063858,51.626226],[0.061283,51.621429],[0.060253,51.615673],[0.05579,51.613222],[0.052442,51.612501],[0.050554,51.61149],[0.049438,51.610744],[0.048665,51.61029],[0.046348,51.608185],[0.048408,51.60448],[0.046692,51.601493],[0.038582,51.596561],[0.038452,51.590082],[0.043944,51.575042],[0.066776,51.575469],[0.094236,51.573442],[0.12016,51.58315],[0.120157,51.592936],[0.129712,51.608436],[0.120422,51.614393]]]},"properties":{"code":"F86007","name":"THE FOREST EDGE PRACTICE","icb":"QMF"}}]}