{"type":"FeatureCollection","features":[{"type":"Feature","geometry":{"type":"Polygon","coordinates":[[[-0.02472,51.57056],[-0.02438,51.5696],[-0.02043,51.56501],[-0.01854,51.56448],[-0.01631,51.56331],[-0.0103,51.55722],[-0.00652,51.55797],[0.00669,51.55776],[0.0182,51.55797],[0.020685,51.561065],[0.02523,51.56373],[0.02369,51.57195],[0.02317,51.58038],[0.02047,51.58315],[0.02026,51.58328],[0.02026,51.58336],[0.006952,51.583577],[0.006609,51.584163],[0.007554,51.587043],[0.00824,51.589336],[0.00395,51.58827],[-0.00257,51.58667],[-0.0182,51.57984],[-0.01768,51.57867],[-0.01579,51.57664],[-0.01287,51.57547],[-0.01579,51.57323],[-0.02472,51.57056]]]},"properties":{"code":"F86036","name":"THE ALLUM MEDICAL CENTRE","icb":"QMF"}}]}