{"type":"FeatureCollection","features":[{"type":"Feature","geometry":{"type":"Polygon","coordinates":[[[0.01914,51.57259],[0.01905,51.57251],[0.02326,51.56992],[0.0236,51.56976],[0.02324,51.56981],[0.02365,51.56861],[0.02465,51.56636],[0.02423,51.56621],[0.0229,51.56631],[0.022577,51.566178],[0.02092,51.5644],[0.02079,51.56228],[0.02174,51.56174],[0.02592,51.56391],[0.02787,51.56289],[0.03259,51.56309],[0.0335,51.56295],[0.03789,51.5607],[0.03852,51.560944],[0.03852,51.56089],[0.03862,51.5609],[0.04498,51.56283],[0.04498,51.56296],[0.04326,51.56247],[0.04242,51.56465],[0.04332,51.56476],[0.0421,51.5648],[0.04214,51.56819],[0.03972,51.56912],[0.038468,51.570352],[0.038771,51.570606],[0.04495,51.57459],[0.045397,51.576029],[0.045575,51.57619],[0.04689,51.57619],[0.05088,51.5764],[0.05997,51.57675],[0.05914,51.57807],[0.05856,51.57999],[0.05813,51.58115],[0.055511,51.584006],[0.05405,51.58574],[0.05208,51.58766],[0.051976,51.58766],[0.04828,51.59022],[0.047943,51.589449],[0.04716,51.58999],[0.041389,51.593058],[0.043913,51.595035],[0.045683,51.596262],[0.04793,51.59551],[0.05032,51.59492],[0.05721,51.602],[0.057162,51.602007],[0.06686,51.60168],[0.06793,51.60187],[0.06994,51.60204],[0.072441,51.60371],[0.07245,51.60367],[0.0728,51.60395],[0.072651,51.604008],[0.07193,51.60472],[0.06784,51.605885],[0.05657,51.610278],[0.034198,51.6213],[0.03217,51.62287],[0.031536,51.622646],[0.031044,51.622926],[0.031702,51.622853],[0.03215,51.62287],[0.03168,51.62301],[0.03114,51.62298],[0.031026,51.622935],[0.030575,51.623177],[0.0306,51.62321],[0.03057,51.623179],[0.0304,51.62327],[0.030409,51.623115],[0.029445,51.622019],[0.02807,51.6206],[0.025799,51.615336],[0.024616,51.613378],[0.02271,51.61069],[0.02129,51.60885],[0.020968,51.60833],[0.018373,51.605294],[0.01609,51.60301],[0.01532,51.60197],[0.01489,51.60168],[0.0141,51.60077],[0.012498,51.598586],[0.01238,51.59853],[0.01159,51.59664],[0.01178,51.59649],[0.01199,51.59739],[0.01238,51.59804],[0.012626,51.598221],[0.013212,51.598921],[0.015171,51.599841],[0.009755,51.592106],[0.00944,51.59254],[0.0076,51.58863],[0.00919,51.58583],[0.00945,51.5852],[0.00947,51.5852],[0.009468,51.585339],[0.00961,51.58509],[0.00944,51.58361],[0.015916,51.583553],[0.018106,51.580594],[0.01734,51.57915],[0.01711,51.57411],[0.01605,51.57312],[0.01914,51.57259]]]},"properties":{"code":"F86032","name":"WANSTEAD PLACE SURGERY","icb":"QMF"}}]}