{"type":"FeatureCollection","features":[{"type":"Feature","geometry":{"type":"Polygon","coordinates":[[[-0.027843,51.582917],[-0.027017,51.578145],[-0.026358,51.577277],[-0.023559,51.578526],[-0.022462,51.576482],[-0.020653,51.574701],[-0.015537,51.57644],[-0.01695,51.5783],[-0.01674,51.57828],[-0.01275,51.57912],[-0.014614,51.581574],[-0.016134,51.583758],[-0.017245,51.585354],[-0.022669,51.584284],[-0.027843,51.582917]]]},"properties":{"code":"F86030","name":"QUEENS ROAD MEDICAL CENTRE","icb":"QMF"}}]}