{"type":"FeatureCollection","features":[{"type":"Feature","geometry":{"type":"Polygon","coordinates":[[[0.01257,51.59917],[0.01279,51.59579],[0.01249,51.58951],[0.01433,51.58328],[0.01953,51.58323],[0.02254,51.58397],[0.02637,51.58567],[0.02857,51.58532],[0.02942,51.58508],[0.0301,51.58457],[0.03171,51.58493],[0.03395,51.58563],[0.0351,51.58618],[0.03543,51.58722],[0.03397,51.58923],[0.03326,51.59048],[0.03549,51.59142],[0.03598,51.59247],[0.03578,51.59281],[0.03575,51.59368],[0.03596,51.59435],[0.03742,51.59435],[0.03935,51.59709],[0.03163,51.59781],[0.02571,51.59851],[0.0206,51.5988],[0.01257,51.59917]]]},"properties":{"code":"F86066","name":"SOUTHDENE SURGERY","icb":"QMF"}}]}