{"type":"FeatureCollection","features":[{"type":"Feature","geometry":{"type":"Polygon","coordinates":[[[0.016054,51.572887],[0.015733,51.572839],[0.013817,51.574874],[0.01165,51.57679],[0.010652,51.577411],[0.009374,51.577936],[0.00682,51.57843],[0.00345,51.57988],[0.00043,51.58142],[-0.0036,51.57972],[-0.00562,51.57904],[-0.00721,51.57792],[-0.007639,51.575736],[-0.009184,51.573869],[-0.008326,51.571628],[-0.007983,51.569441],[-0.008669,51.567734],[-0.010215,51.566347],[-0.006095,51.563733],[-0.003262,51.561865],[-0.000687,51.559624],[0.003262,51.560264],[0.007125,51.55797],[0.009872,51.559304],[0.013672,51.560159],[0.016093,51.559953],[0.019601,51.561134],[0.022727,51.562454],[0.023824,51.563453],[0.024929,51.564218],[0.024757,51.566233],[0.02371,51.569767],[0.023466,51.572612],[0.023088,51.573288],[0.021062,51.574644],[0.01961,51.575342],[0.019036,51.575585],[0.018853,51.575616],[0.016354,51.572898],[0.01598,51.572862],[0.016054,51.572887]]]},"properties":{"code":"F86621","name":"DR MOHAMMED GREEN MAN MEDICAL CENTRE","icb":"QMF"}}]}