{"type":"FeatureCollection","features":[{"type":"Feature","geometry":{"type":"Polygon","coordinates":[[[-0.022488,51.623772],[-0.030899,51.610448],[-0.023689,51.605331],[-0.016192,51.602199],[-0.016508,51.603034],[-0.018196,51.604265],[-0.013684,51.603343],[0.00618,51.602879],[-0.006661,51.601907],[-0.004635,51.601493],[-0.008961,51.601361],[-0.006083,51.601143],[-0.001519,51.601397],[0.00541,51.602229],[0.011538,51.601243],[0.02644,51.61908],[0.01511,51.63315],[0.0333,51.63933],[-0.011673,51.635387],[-0.022488,51.623772]]]},"properties":{"code":"F86638","name":"THE MICROFACULTY","icb":"QMF"}}]}