{"type":"FeatureCollection","features":[{"type":"Feature","geometry":{"type":"Polygon","coordinates":[[[-0.014722,51.557519],[-0.013897,51.557579],[-0.014388,51.557479],[-0.014628,51.557494],[-0.014339,51.557417],[-0.01416,51.55722],[-0.01523,51.55648],[-0.00987,51.55338],[-0.01854,51.55111],[-0.01502,51.54764],[-0.01343,51.54508],[-0.0033,51.54497],[-0.00036,51.54407],[0.00363,51.54553],[0.00717,51.54625],[0.02498,51.54962],[0.02516,51.551339],[0.02523,51.552002],[0.025356,51.553203],[0.025335,51.555368],[0.025483,51.556164],[0.025234,51.557669],[0.025296,51.559411],[0.025366,51.561331],[0.025064,51.56424],[0.024857,51.56624],[0.03092,51.569046],[0.030824,51.57191],[0.03029,51.572856],[0.028972,51.574516],[0.026219,51.577394],[0.02527,51.57882],[0.023344,51.580241],[0.021986,51.580987],[0.021154,51.581469],[0.020778,51.581747],[0.02025,51.581978],[0.020178,51.58267],[0.02031,51.583076],[0.020212,51.583394],[0.02008,51.58336],[0.01253,51.58347],[0.01107,51.58566],[0.00884,51.58523],[0.00609,51.58427],[0.000108,51.587556],[-0.001375,51.592342],[-0.010854,51.590415],[-0.01493,51.590016],[-0.020729,51.590909],[-0.026052,51.589879],[-0.041041,51.587212],[-0.035516,51.576781],[-0.039,51.573585],[-0.045955,51.570796],[-0.038196,51.565078],[-0.026468,51.562186],[-0.023146,51.561575],[-0.02065,51.560483],[-0.018819,51.558998],[-0.01669,51.557768],[-0.015976,51.557577],[-0.014628,51.557494],[-0.014722,51.557519]]]},"properties":{"code":"F86650","name":"LIME TREE SURGERY","icb":"QMF"}}]}