{"type":"FeatureCollection","features":[{"type":"Feature","geometry":{"type":"Polygon","coordinates":[[[0.083551,51.575519],[0.083608,51.579396],[0.084288,51.582068],[0.084733,51.583424],[0.08497,51.584354],[0.084637,51.583439],[0.084938,51.584355],[0.085652,51.586764],[0.086372,51.587836],[0.086217,51.589256],[0.086074,51.591193],[0.085986,51.592005],[0.085853,51.592409],[0.085747,51.592668],[0.085673,51.593343],[0.084824,51.593771],[0.083535,51.593952],[0.081006,51.594306],[0.079115,51.594759],[0.077828,51.594826],[0.073602,51.595839],[0.06886,51.5968],[0.065942,51.597644],[0.062881,51.597623],[0.060773,51.598191],[0.057098,51.597934],[0.051414,51.595818],[0.050063,51.594302],[0.048135,51.592705],[0.046533,51.591266],[0.0446,51.588388],[0.04133,51.584504],[0.043171,51.581758],[0.043833,51.579401],[0.044413,51.577641],[0.045448,51.576822],[0.048166,51.576555],[0.052491,51.576329],[0.056406,51.576431],[0.059877,51.576597],[0.068212,51.576313],[0.083875,51.57366],[0.083551,51.575519]]]},"properties":{"code":"F86624","name":"THE HEATHCOTE PRIMARY CARE CENTRE","icb":"QMF"}}]}