{"type":"FeatureCollection","features":[{"type":"Feature","geometry":{"type":"Polygon","coordinates":[[[-0.015291,51.589957],[-0.015606,51.597417],[-0.01653,51.600385],[-0.023686,51.604101],[-0.034299,51.60157],[-0.040407,51.603229],[-0.042037,51.599724],[-0.045411,51.595011],[-0.044676,51.587209],[-0.038211,51.585879],[-0.036578,51.584307],[-0.032101,51.581811],[-0.027864,51.582356],[-0.018963,51.583503],[-0.012421,51.584345],[-0.015291,51.589957]]]},"properties":{"code":"F86679","name":"HIGHAM HILL MEDICAL CENTRE","icb":"QMF"}}]}