{"type":"FeatureCollection","features":[{"type":"Feature","geometry":{"type":"Polygon","coordinates":[[[0.072596,51.598291],[0.06497,51.59899],[0.056563,51.598108],[0.05446,51.595548],[0.053258,51.594135],[0.052142,51.592829],[0.05253,51.591948],[0.058565,51.591755],[0.075746,51.590962],[0.078835,51.590669],[0.082011,51.590029],[0.085185,51.593975],[0.082097,51.596401],[0.081882,51.596598],[0.081349,51.597102],[0.080533,51.597756],[0.077205,51.600561],[0.075102,51.600161],[0.07643,51.59741],[0.07261,51.59835],[0.072596,51.598291]]]},"properties":{"code":"F86612","name":"THE FULLWELL AVENUE SURGERY","icb":"QMF"}}]}