{"type":"FeatureCollection","features":[{"type":"Feature","geometry":{"type":"Polygon","coordinates":[[[0.00652,51.65232],[0.00511,51.652706],[0.005062,51.652722],[0.005018,51.652742],[0.00318,51.65374],[0.001373,51.653722],[0.001335,51.653723],[0.001297,51.653726],[0.00126,51.653732],[0.001224,51.65374],[-0.004588,51.655292],[-0.004633,51.655307],[-0.004675,51.655325],[-0.00558,51.65579],[-0.006135,51.654174],[-0.006148,51.654147],[-0.006766,51.653047],[-0.006779,51.653027],[-0.006795,51.653008],[-0.01064,51.64892],[-0.01064,51.6489],[-0.010643,51.648879],[-0.010649,51.648859],[-0.010657,51.64884],[-0.010669,51.648821],[-0.010683,51.648802],[-0.0107,51.648785],[-0.010719,51.648768],[-0.01073,51.64876],[-0.010474,51.646868],[-0.010473,51.64684],[-0.010477,51.646813],[-0.0112,51.64404],[-0.011668,51.640273],[-0.011674,51.640247],[-0.01305,51.63595],[-0.01339,51.6331],[-0.01322,51.6307],[-0.0121,51.62737],[-0.009878,51.626934],[-0.009528,51.626869],[-0.009474,51.626856],[-0.009424,51.626838],[-0.00938,51.626815],[-0.009342,51.626788],[-0.009311,51.626758],[-0.009288,51.626725],[-0.009275,51.62669],[-0.00927,51.626654],[-0.00927,51.626649],[-0.008926,51.626436],[-0.007725,51.626649],[-0.007751,51.626681],[-0.007768,51.626715],[-0.007777,51.626751],[-0.007776,51.626786],[-0.007766,51.626822],[-0.007748,51.626855],[-0.007721,51.626887],[-0.007686,51.626916],[-0.001375,51.631317],[-0.001349,51.631333],[-0.001321,51.631348],[-0.00129,51.631361],[-0.001257,51.631372],[-0.001222,51.63138],[-0.001186,51.631387],[-0.00115,51.631391],[-0.001113,51.631392],[-0.001076,51.631391],[-0.001039,51.631388],[-0.001003,51.631383],[-0.000968,51.631375],[-0.000934,51.631365],[-0.000902,51.631353],[-0.000873,51.631339],[-0.000846,51.631323],[0.00403,51.62817],[0.00657,51.62702],[0.010626,51.627339],[0.010654,51.62734],[0.01738,51.62755],[0.015644,51.630913],[0.015637,51.630927],[0.01442,51.63395],[0.012769,51.634095],[0.01271,51.634104],[0.012655,51.634118],[0.012604,51.634138],[0.012559,51.634162],[0.012521,51.634191],[0.012492,51.634224],[0.012471,51.634259],[0.01246,51.634296],[0.012459,51.634333],[0.012468,51.63437],[0.012487,51.634406],[0.012515,51.634439],[0.012551,51.634468],[0.012595,51.634494],[0.012645,51.634515],[0.0127,51.63453],[0.01245,51.635249],[0.012445,51.63527],[0.012442,51.635292],[0.012443,51.635313],[0.012447,51.635334],[0.0127,51.63627],[0.01279,51.63866],[0.01232,51.64047],[0.011633,51.642063],[0.011628,51.642078],[0.01116,51.64356],[0.0093,51.645927],[0.009263,51.645909],[0.009221,51.645893],[0.009177,51.645882],[0.009131,51.645874],[0.009083,51.64587],[0.009035,51.64587],[0.008988,51.645874],[0.008941,51.645882],[0.008897,51.645893],[0.008856,51.645908],[0.008818,51.645927],[0.008784,51.645948],[0.008756,51.645972],[0.008732,51.645998],[0.008715,51.646026],[0.008703,51.646055],[0.008215,51.64778],[0.007667,51.649021],[0.007662,51.649033],[0.00652,51.65232]]]},"properties":{"code":"F86700","name":"KINGS HEAD MEDICAL PRACTICE","icb":"QMF"}}]}