{"type":"FeatureCollection","features":[{"type":"Feature","geometry":{"type":"Polygon","coordinates":[[[0.32744,50.799615],[0.326673,50.793756],[0.331779,50.792047],[0.33981,50.79913],[0.35032,50.81006],[0.3872,50.8221],[0.39552,50.82508],[0.39903,50.82622],[0.37693,50.8312],[0.34727,50.83229],[0.32062,50.83917],[0.30152,50.83717],[0.2888,50.83557],[0.27607,50.83267],[0.26901,50.82836],[0.265344,50.820876],[0.27637,50.81082],[0.280064,50.809053],[0.281008,50.807969],[0.28354,50.806097],[0.288392,50.803006],[0.290413,50.80051],[0.295601,50.801541],[0.297243,50.803349],[0.298219,50.804145],[0.299249,50.804606],[0.299986,50.804832],[0.301304,50.804978],[0.302704,50.80484],[0.304141,50.804497],[0.304853,50.804682],[0.305815,50.804741],[0.306171,50.805026],[0.31178,50.806933],[0.314698,50.807725],[0.31558,50.807477],[0.317059,50.806423],[0.318174,50.805447],[0.32002,50.805175],[0.321951,50.804009],[0.32744,50.799615]]]},"properties":{"code":"G81008","name":"STONE CROSS SURGERY","icb":"S9B9J"}}]}