{"type":"FeatureCollection","features":[{"type":"Feature","geometry":{"type":"Polygon","coordinates":[[[-0.09419,50.80865],[-0.09191,50.81201],[-0.087581,50.810831],[-0.087403,50.816066],[-0.091097,50.816217],[-0.090988,50.819418],[-0.082813,50.819103],[-0.083729,50.822896],[-0.085226,50.827234],[-0.085381,50.829787],[-0.074579,50.8303],[-0.076298,50.82891],[-0.076239,50.826956],[-0.074677,50.825726],[-0.073336,50.82467],[-0.069566,50.824352],[-0.065868,50.82308],[-0.061599,50.8248],[-0.057519,50.82964],[-0.057295,50.836083],[-0.066043,50.841123],[-0.073568,50.842212],[-0.081059,50.841205],[-0.088519,50.839704],[-0.087077,50.844706],[-0.095958,50.845884],[-0.094509,50.8474],[-0.095679,50.848493],[-0.099507,50.848451],[-0.101402,50.844632],[-0.103304,50.845042],[-0.105473,50.84513],[-0.107707,50.844755],[-0.10935,50.84313],[-0.10806,50.84448],[-0.10681,50.84567],[-0.10539,50.84719],[-0.10441,50.84793],[-0.10365,50.84821],[-0.10302,50.84864],[-0.10229,50.84944],[-0.10235,50.84985],[-0.10249,50.85021],[-0.10131,50.85125],[-0.09974,50.85223],[-0.09822,50.85346],[-0.09644,50.85467],[-0.09603,50.85484],[-0.09517,50.85455],[-0.0943,50.85541],[-0.09571,50.85774],[-0.09613,50.85825],[-0.09639,50.85847],[-0.09695,50.85872],[-0.09691,50.85875],[-0.09726,50.85885],[-0.09752,50.85882],[-0.09772,50.85866],[-0.09903,50.858],[-0.10029,50.85769],[-0.10618,50.85716],[-0.10761,50.85643],[-0.10857,50.85557],[-0.11002,50.85339],[-0.11021,50.85273],[-0.11086,50.85256],[-0.11112,50.85196],[-0.11142,50.85163],[-0.11193,50.85122],[-0.11465,50.84967],[-0.11533,50.84931],[-0.11575,50.84915],[-0.11622,50.84905],[-0.11686,50.84871],[-0.11769,50.84885],[-0.11832,50.8489],[-0.1219,50.84938],[-0.12353,50.84786],[-0.12534,50.84825],[-0.12913,50.84955],[-0.1325,50.85005],[-0.13503,50.84954],[-0.13465,50.85313],[-0.13572,50.85341],[-0.13689,50.85357],[-0.13904,50.85375],[-0.13957,50.85383],[-0.14019,50.85369],[-0.14061,50.85346],[-0.14424,50.85346],[-0.14505,50.85369],[-0.14768,50.85366],[-0.14926,50.85372],[-0.15084,50.85363],[-0.15282,50.85371],[-0.15526,50.85343],[-0.15444,50.85246],[-0.15355,50.85163],[-0.15302,50.85081],[-0.15289,50.84871],[-0.15205,50.84684],[-0.15152,50.84592],[-0.15149,50.84497],[-0.1516,50.84386],[-0.15133,50.84275],[-0.15125,50.84162],[-0.15045,50.84042],[-0.14933,50.83954],[-0.148,50.83887],[-0.14259,50.83576],[-0.13909,50.8336],[-0.14015,50.83372],[-0.14116,50.83355],[-0.14298,50.83311],[-0.14453,50.83259],[-0.14569,50.83197],[-0.14398,50.83146],[-0.14282,50.83078],[-0.14234,50.8304],[-0.14193,50.82989],[-0.14161,50.82924],[-0.1424,50.82738],[-0.14192,50.8272],[-0.14355,50.82381],[-0.14499,50.82042],[-0.10751,50.81258],[-0.10799,50.81161],[-0.10666,50.81081],[-0.10405,50.81036],[-0.09862,50.80929],[-0.09419,50.80865]]]},"properties":{"code":"G81011","name":"ST. PETER'S MEDICAL CENTRE","icb":"S9B9J"}}]}