{"type":"FeatureCollection","features":[{"type":"Feature","geometry":{"type":"Polygon","coordinates":[[[0.684844,51.014787],[0.684837,51.014762],[0.684825,51.014737],[0.684809,51.014713],[0.684788,51.014691],[0.684764,51.01467],[0.684736,51.014651],[0.684704,51.014634],[0.68467,51.01462],[0.663613,50.999697],[0.663585,50.99968],[0.663555,50.999664],[0.663522,50.999651],[0.663487,50.99964],[0.65738,50.99798],[0.653442,50.993623],[0.653413,50.993596],[0.648257,50.989444],[0.648221,50.989419],[0.648181,50.989398],[0.648136,50.989381],[0.648087,50.989369],[0.63858,50.9874],[0.63043,50.98334],[0.597276,50.959128],[0.597241,50.959106],[0.597202,50.959087],[0.597159,50.959072],[0.597114,50.959061],[0.57541,50.95475],[0.59635,50.93344],[0.62897,50.90855],[0.71875,50.90839],[0.71876,50.908411],[0.718774,50.908432],[0.71879,50.908452],[0.71881,50.908471],[0.718832,50.908488],[0.718858,50.908504],[0.718885,50.908518],[0.718915,50.90853],[0.772486,50.928485],[0.772514,50.928494],[0.788985,50.933426],[0.789042,50.933439],[0.789102,50.933446],[0.789163,50.933447],[0.789223,50.933441],[0.82904,50.92717],[0.85264,50.93528],[0.84492,51.00209],[0.78861,51.02952],[0.68802,51.03146],[0.684844,51.014787]]]},"properties":{"code":"G81051","name":"RYE MEDICAL CENTRE","icb":"S9B9J"}}]}