{"type":"FeatureCollection","features":[{"type":"Feature","geometry":{"type":"Polygon","coordinates":[[[0.55661,51.03427],[0.54305,51.02272],[0.53833,51.01856],[0.52564,51.00861],[0.53237,51.00235],[0.53233,50.98734],[0.53121,50.97395],[0.52942,50.95776],[0.56858,50.95755],[0.56885,50.95269],[0.57515,50.94784],[0.57778,50.93435],[0.57962,50.93106],[0.61814,50.93053],[0.67682,50.93067],[0.70148,50.9402],[0.6933,50.95411],[0.67864,50.96823],[0.67768,50.96979],[0.67375,50.97474],[0.6705,50.97926],[0.66835,50.98822],[0.66482,50.99545],[0.65594,51.00887],[0.62875,51.00911],[0.62605,51.02212],[0.59772,51.02466],[0.58846,51.03718],[0.55661,51.03427]]]},"properties":{"code":"G81087","name":"NORTHIAM SURGERY","icb":"S9B9J"}}]}