{"type":"FeatureCollection","features":[{"type":"Feature","geometry":{"type":"Polygon","coordinates":[[[0.292885,50.817666],[0.29114,50.81765],[0.24033,50.82025],[0.21973,50.8042],[0.2005,50.76165],[0.20187,50.74384],[0.20256,50.73819],[0.23758,50.73341],[0.25818,50.73472],[0.28908,50.76209],[0.31586,50.78033],[0.329634,50.784342],[0.33714,50.79074],[0.336259,50.790868],[0.35517,50.81244],[0.351634,50.813775],[0.34126,50.81895],[0.32135,50.81808],[0.292885,50.817666]]]},"properties":{"code":"G81002","name":"GROVE ROAD SURGERY","icb":"S9B9J"}}]}