{"type":"FeatureCollection","features":[{"type":"Feature","geometry":{"type":"Polygon","coordinates":[[[-0.116279,50.8175],[-0.112073,50.816632],[-0.111644,50.817324],[-0.10716,50.816334],[-0.106516,50.817392],[-0.103984,50.816768],[-0.102997,50.817753],[-0.100594,50.821548],[-0.10025,50.823067],[-0.100937,50.827946],[-0.099564,50.831633],[-0.089607,50.833151],[-0.076218,50.835644],[-0.075874,50.833259],[-0.073299,50.828055],[-0.067291,50.823392],[-0.062313,50.824476],[-0.059223,50.827946],[-0.05682,50.82903],[-0.058365,50.837053],[-0.064545,50.840848],[-0.075874,50.841173],[-0.099392,50.835319],[-0.103683,50.837053],[-0.089092,50.839222],[-0.087891,50.844641],[-0.099392,50.846484],[-0.109692,50.84269],[-0.095615,50.854612],[-0.100079,50.857647],[-0.104713,50.857863],[-0.107975,50.856996],[-0.109348,50.853962],[-0.120335,50.866423],[-0.122395,50.859272],[-0.129089,50.857863],[-0.135098,50.853529],[-0.135612,50.847026],[-0.133381,50.839872],[-0.134583,50.829898],[-0.136642,50.820957],[-0.130892,50.820279],[-0.12557,50.819086],[-0.12424,50.81952],[-0.119863,50.818056],[-0.116537,50.817337],[-0.116279,50.8175]]]},"properties":{"code":"G81028","name":"PARK CRESCENT HEALTH CENTRE","icb":"S9B9J"}}]}