{"type":"FeatureCollection","features":[{"type":"Feature","geometry":{"type":"Polygon","coordinates":[[[-0.24479,50.83131],[-0.24033,50.83088],[-0.23449,50.83131],[-0.23003,50.83131],[-0.22625,50.83153],[-0.22076,50.83153],[-0.21526,50.8311],[-0.20805,50.83066],[-0.20771,50.83348],[-0.20565,50.83673],[-0.20187,50.84194],[-0.1981,50.84454],[-0.1902,50.84649],[-0.18436,50.84844],[-0.18333,50.85147],[-0.17887,50.85386],[-0.17647,50.85668],[-0.17715,50.85841],[-0.19192,50.85516],[-0.1981,50.85603],[-0.20702,50.85538],[-0.21423,50.85321],[-0.21801,50.85473],[-0.22385,50.85884],[-0.23621,50.85624],[-0.23071,50.84909],[-0.24273,50.84562],[-0.24479,50.83131]]]},"properties":{"code":"G81073","name":"MILE OAK MEDICAL CENTRE","icb":"S9B9J"}}]}