{"type":"FeatureCollection","features":[{"type":"Feature","geometry":{"type":"Polygon","coordinates":[[[0.674878,50.913198],[0.697293,50.90068],[0.71788,50.908096],[0.747507,50.918757],[0.816488,50.934918],[0.824794,50.935963],[0.851193,50.998606],[0.842196,51.0071],[0.831348,51.009128],[0.812854,50.998789],[0.751379,50.991048],[0.679785,50.982425],[0.640188,50.95177],[0.654031,50.930197],[0.655749,50.91429],[0.674878,50.913198]]]},"properties":{"code":"G81085","name":"FERRY ROAD HEALTH CENTRE","icb":"S9B9J"}}]}