{"type":"FeatureCollection","features":[{"type":"Feature","geometry":{"type":"Polygon","coordinates":[[[0.737114,50.918173],[0.727201,50.925489],[0.707932,50.931921],[0.680466,50.921859],[0.659523,50.917238],[0.643215,50.916155],[0.629826,50.913071],[0.612831,50.904325],[0.587082,50.895014],[0.566397,50.888252],[0.560732,50.889335],[0.556397,50.894397],[0.554295,50.892286],[0.543351,50.892746],[0.532408,50.896238],[0.528374,50.895317],[0.528545,50.890688],[0.536013,50.885597],[0.524511,50.878666],[0.518246,50.870216],[0.527129,50.865304],[0.525992,50.862636],[0.525305,50.860388],[0.525327,50.859399],[0.525498,50.858654],[0.524983,50.857232],[0.524383,50.855078],[0.526764,50.854116],[0.526292,50.853642],[0.526164,50.853222],[0.525112,50.85119],[0.526786,50.850079],[0.527644,50.848481],[0.532193,50.848467],[0.589142,50.851678],[0.669479,50.871398],[0.737114,50.918173]]]},"properties":{"code":"G81095","name":"HASTINGS OLD TOWN SURGERY","icb":"S9B9J"}}]}