{"type":"FeatureCollection","features":[{"type":"Feature","geometry":{"type":"Polygon","coordinates":[[[0.127082,51.067962],[0.122692,51.064984],[0.12273,51.062863],[0.117831,51.061944],[0.111815,51.055218],[0.107403,51.049689],[0.102202,51.044059],[0.096419,51.040141],[0.117917,51.036509],[0.111185,51.025431],[0.165532,51.019721],[0.214611,51.045733],[0.229534,51.083355],[0.22247,51.09964],[0.2041,51.090036],[0.199665,51.089484],[0.161522,51.094081],[0.147402,51.085654],[0.144778,51.085433],[0.143149,51.084989],[0.142664,51.084405],[0.142422,51.082533],[0.141425,51.083529],[0.140962,51.083185],[0.141221,51.083426],[0.139355,51.082856],[0.138685,51.080665],[0.135575,51.078735],[0.131882,51.072253],[0.129504,51.070255],[0.127407,51.068721],[0.127082,51.067962]]]},"properties":{"code":"G81055","name":"SAXONBURY HOUSE SURGERY","icb":"S9B9J"}}]}