{"type":"FeatureCollection","features":[{"type":"Feature","geometry":{"type":"Polygon","coordinates":[[[0.153306,51.089607],[0.151407,51.088804],[0.149428,51.087634],[0.146778,51.086956],[0.145355,51.086898],[0.143758,51.086833],[0.136042,51.082552],[0.132008,51.077538],[0.124626,51.073169],[0.109177,51.064594],[0.102654,51.059793],[0.098104,51.054668],[0.098534,51.04938],[0.095358,51.043445],[0.092697,51.040261],[0.106173,51.032974],[0.121622,51.028332],[0.139475,51.021476],[0.146847,51.021116],[0.153971,51.021406],[0.155017,51.021987],[0.156805,51.022096],[0.159681,51.021106],[0.163603,51.019755],[0.162735,51.017102],[0.172949,51.017723],[0.183978,51.019478],[0.194836,51.022259],[0.203075,51.02952],[0.209513,51.039667],[0.211315,51.045171],[0.211573,51.050567],[0.211916,51.060602],[0.21389,51.070958],[0.205908,51.090316],[0.178399,51.090909],[0.164644,51.091205],[0.157767,51.091354],[0.156441,51.090932],[0.155624,51.090723],[0.154816,51.090246],[0.153306,51.089607]]]},"properties":{"code":"G81019","name":"BEACON SURGERY","icb":"S9B9J"}}]}