{"type":"FeatureCollection","features":[{"type":"Feature","geometry":{"type":"Polygon","coordinates":[[[-0.208509,50.829549],[-0.205658,50.829049],[-0.20268,50.828825],[-0.199986,50.828539],[-0.198606,50.828273],[-0.197304,50.827883],[-0.192959,50.826],[-0.189366,50.825681],[-0.186187,50.825399],[-0.18356,50.82523],[-0.180693,50.824813],[-0.175058,50.824211],[-0.163416,50.82373],[-0.158566,50.823103],[-0.154318,50.822416],[-0.15098,50.82806],[-0.150472,50.828618],[-0.150205,50.828868],[-0.150062,50.829025],[-0.149869,50.829151],[-0.149339,50.829584],[-0.1486,50.83007],[-0.145971,50.83176],[-0.144374,50.832584],[-0.142655,50.833132],[-0.140796,50.833552],[-0.140345,50.833617],[-0.139892,50.833607],[-0.138988,50.833599],[-0.145243,50.837437],[-0.14653,50.838054],[-0.147531,50.838592],[-0.149464,50.839633],[-0.150164,50.84014],[-0.150652,50.840756],[-0.150966,50.841365],[-0.151167,50.842071],[-0.151264,50.842573],[-0.151355,50.843042],[-0.15154,50.843995],[-0.151639,50.845988],[-0.1528,50.848549],[-0.152874,50.848934],[-0.152944,50.849296],[-0.152956,50.850087],[-0.152904,50.850447],[-0.153057,50.850784],[-0.153487,50.851492],[-0.154513,50.852538],[-0.154904,50.853065],[-0.155242,50.853621],[-0.154879,50.854789],[-0.154268,50.856026],[-0.15265,50.858244],[-0.152148,50.859496],[-0.151965,50.860777],[-0.152087,50.863248],[-0.153149,50.865591],[-0.165422,50.862514],[-0.166473,50.863079],[-0.168398,50.862341],[-0.171023,50.860778],[-0.173012,50.859752],[-0.174519,50.85783],[-0.176786,50.85472],[-0.177958,50.853042],[-0.179067,50.852121],[-0.180726,50.85136],[-0.182577,50.850594],[-0.182902,50.849129],[-0.183925,50.848265],[-0.18469,50.847701],[-0.184495,50.847455],[-0.186313,50.84747],[-0.187066,50.847299],[-0.188084,50.847069],[-0.18908,50.846726],[-0.189959,50.846322],[-0.192099,50.845047],[-0.193598,50.844602],[-0.195415,50.844296],[-0.199086,50.843768],[-0.19985,50.843595],[-0.200144,50.843508],[-0.200333,50.843452],[-0.200466,50.843353],[-0.200646,50.843291],[-0.200861,50.843217],[-0.201017,50.843146],[-0.201208,50.843004],[-0.201364,50.842932],[-0.20144,50.84276],[-0.201605,50.842661],[-0.201719,50.842404],[-0.202561,50.840954],[-0.203567,50.839573],[-0.203792,50.839096],[-0.204432,50.837737],[-0.205263,50.836437],[-0.205576,50.836021],[-0.207513,50.832748],[-0.208161,50.831123],[-0.208509,50.829549]]]},"properties":{"code":"G81034","name":"CHARTER MEDICAL CENTRE","icb":"S9B9J"}}]}