{"type":"FeatureCollection","features":[{"type":"Feature","geometry":{"type":"Polygon","coordinates":[[[0.50786,50.844687],[0.510806,50.845691],[0.517683,50.847629],[0.520789,50.848361],[0.527928,50.849518],[0.533821,50.849726],[0.539816,50.850313],[0.546589,50.85034],[0.55326,50.85066],[0.558165,50.850758],[0.56073,50.8516],[0.560629,50.852322],[0.560131,50.85381],[0.559597,50.855185],[0.559178,50.856696],[0.558487,50.858123],[0.558026,50.85886],[0.557466,50.859503],[0.557183,50.860087],[0.557379,50.861554],[0.557491,50.861968],[0.557546,50.862383],[0.557546,50.863357],[0.557434,50.863978],[0.55707,50.86456],[0.556647,50.865335],[0.55656,50.865959],[0.556302,50.866729],[0.55569,50.86785],[0.555049,50.867787],[0.554763,50.867418],[0.554672,50.867206],[0.55455,50.867026],[0.554332,50.866705],[0.553835,50.866177],[0.553098,50.86554],[0.552471,50.865048],[0.552171,50.864813],[0.551912,50.864556],[0.55159,50.864357],[0.551245,50.864124],[0.55085,50.863732],[0.550665,50.86364],[0.54942,50.863752],[0.549077,50.863813],[0.54871,50.86385],[0.548368,50.863872],[0.548041,50.863893],[0.547114,50.864038],[0.546604,50.864434],[0.545906,50.864642],[0.544773,50.864714],[0.543202,50.864798],[0.541831,50.865207],[0.540835,50.865504],[0.539786,50.8657],[0.539498,50.865643],[0.539176,50.865528],[0.538057,50.866333],[0.537183,50.866902],[0.536102,50.867325],[0.534461,50.867291],[0.530997,50.866413],[0.530086,50.865798],[0.529238,50.865028],[0.529654,50.863789],[0.529277,50.861408],[0.528045,50.860646],[0.52847,50.858287],[0.52888,50.857817],[0.530578,50.857017],[0.530554,50.856836],[0.530046,50.856374],[0.52947,50.85568],[0.528047,50.85445],[0.527257,50.853609],[0.526906,50.85303],[0.52649,50.851849],[0.5263,50.851207],[0.52623,50.851173],[0.524043,50.851395],[0.5197,50.85017],[0.515147,50.84839],[0.514997,50.848377],[0.51168,50.848995],[0.509706,50.848291],[0.50844,50.847139],[0.507452,50.845906],[0.50786,50.844687]]]},"properties":{"code":"G81048","name":"CARISBROOKE SURGERY","icb":"S9B9J"}}]}