{"type":"FeatureCollection","features":[{"type":"Feature","geometry":{"type":"Polygon","coordinates":[[[-0.022924,50.79697],[-0.02549,50.79758],[-0.02669,50.7959],[-0.02395,50.79481],[-0.01725,50.79324],[-0.01442,50.79243],[-0.01202,50.79199],[-0.0091,50.79107],[0.00326,50.78809],[0.00635,50.78716],[0.01081,50.78624],[0.02154,50.78494],[0.02481,50.78928],[0.02412,50.79156],[0.02481,50.79395],[0.02,50.79416],[0.023,50.79834],[0.01571,50.80002],[0.01674,50.80225],[0.01227,50.80366],[0.01442,50.80583],[0.01562,50.81223],[0.00223,50.81277],[-0.00438,50.8068],[-0.00755,50.80697],[-0.0103,50.80241],[-0.0121,50.80306],[-0.01476,50.79964],[-0.01905,50.80035],[-0.019484,50.799648],[-0.021715,50.800293],[-0.022924,50.79697]]]},"properties":{"code":"G81100","name":"HAVENSHEALTH","icb":"S9B9J"}}]}