{"type":"FeatureCollection","features":[{"type":"Feature","geometry":{"type":"Polygon","coordinates":[[[0.583081,50.856614],[0.585181,50.856956],[0.586856,50.85679],[0.58898,50.857237],[0.589247,50.857577],[0.589367,50.857638],[0.590154,50.857767],[0.589773,50.857772],[0.589566,50.857984],[0.592726,50.86201],[0.592738,50.862181],[0.593022,50.862297],[0.596053,50.862762],[0.596909,50.86285],[0.597145,50.862745],[0.597109,50.862871],[0.596184,50.8636],[0.59608,50.865119],[0.595501,50.86558],[0.594147,50.865891],[0.593574,50.865763],[0.593406,50.865777],[0.592367,50.866243],[0.591875,50.866406],[0.589023,50.866961],[0.588229,50.86688],[0.587199,50.866636],[0.586728,50.866149],[0.586763,50.865764],[0.586535,50.865241],[0.587171,50.865276],[0.587348,50.865222],[0.58814,50.864458],[0.587838,50.864205],[0.586449,50.864483],[0.585183,50.862681],[0.587306,50.860878],[0.587318,50.860743],[0.584041,50.857167],[0.583896,50.857101],[0.583922,50.85696],[0.583812,50.856833],[0.583081,50.856614]]]},"properties":{"code":"G81641","name":"PRIORY ROAD SURGERY","icb":"S9B9J"}}]}