{"type":"FeatureCollection","features":[{"type":"Feature","geometry":{"type":"Polygon","coordinates":[[[-0.222816,50.839762],[-0.21595,50.827728],[-0.143681,50.820788],[-0.140934,50.829137],[-0.142822,50.83304],[-0.150375,50.83445],[-0.170288,50.839111],[-0.178013,50.839653],[-0.17664,50.844748],[-0.183849,50.849842],[-0.192432,50.855478],[-0.202389,50.856019],[-0.211487,50.853202],[-0.219383,50.853852],[-0.226765,50.858187],[-0.234146,50.857536],[-0.238094,50.855803],[-0.222816,50.839762]]]},"properties":{"code":"G81638","name":"WELLBN HEALTHCARE","icb":"S9B9J"}}]}