{"type":"FeatureCollection","features":[{"type":"Feature","geometry":{"type":"Polygon","coordinates":[[[1.12882,51.09825],[1.12542,51.0991],[1.1216,51.09962],[1.11878,51.09911],[1.11666,51.09732],[1.11522,51.0956],[1.11402,51.09362],[1.11294,51.09147],[1.11568,51.09065],[1.11938,51.0903],[1.1207,51.0901],[1.12085,51.08055],[1.14175,51.07906],[1.14086,51.07767],[1.14066,51.07667],[1.14221,51.07604],[1.14405,51.07574],[1.14578,51.07569],[1.15511,51.07619],[1.15639,51.07741],[1.16413,51.07779],[1.16586,51.07783],[1.16375,51.08777],[1.16444,51.08825],[1.16762,51.088],[1.17009,51.08717],[1.17058,51.0885],[1.17092,51.08966],[1.1707,51.09034],[1.17021,51.09094],[1.16504,51.09108],[1.1652,51.09158],[1.16416,51.09772],[1.16366,51.09815],[1.16212,51.0971],[1.15928,51.09643],[1.15501,51.09612],[1.14809,51.09606],[1.14208,51.09563],[1.13697,51.09477],[1.13124,51.09266],[1.12964,51.09254],[1.12666,51.09186],[1.12882,51.09825]]]},"properties":{"code":"G82069","name":"WHITE HOUSE SURGERY","icb":"QKS"}}]}