{"type":"FeatureCollection","features":[{"type":"Feature","geometry":{"type":"Polygon","coordinates":[[[0.38326,51.40957],[0.38464,51.40988],[0.38612,51.40985],[0.38749,51.40959],[0.38793,51.41074],[0.38834,51.4116],[0.38839,51.41259],[0.3875,51.4133],[0.38641,51.41373],[0.38442,51.41638],[0.38375,51.41778],[0.38282,51.41948],[0.38277,51.42023],[0.38311,51.42156],[0.38459,51.42315],[0.38588,51.42475],[0.38585,51.42608],[0.38544,51.42708],[0.38581,51.42887],[0.38577,51.42979],[0.38628,51.43077],[0.38756,51.43219],[0.38775,51.4323],[0.38951,51.43227],[0.39127,51.43212],[0.39303,51.43214],[0.39387,51.43224],[0.39396,51.43229],[0.38924,51.43587],[0.38807,51.43658],[0.38764,51.43717],[0.38767,51.43787],[0.38742,51.43845],[0.38698,51.43875],[0.38577,51.43883],[0.38403,51.4391],[0.38254,51.43913],[0.37914,51.43972],[0.37787,51.4401],[0.37705,51.4404],[0.37651,51.44076],[0.37559,51.44095],[0.37505,51.4412],[0.37358,51.44146],[0.37239,51.44183],[0.37138,51.44197],[0.36891,51.44254],[0.36751,51.44245],[0.355176,51.442346],[0.342666,51.435836],[0.348727,51.429411],[0.36045,51.41698],[0.36381,51.41575],[0.36808,51.4141],[0.37209,51.4128],[0.38326,51.40957]]]},"properties":{"code":"G82067","name":"OLD ROAD WEST SURGERY","icb":"QKS"}}]}