{"type":"FeatureCollection","features":[{"type":"Feature","geometry":{"type":"Polygon","coordinates":[[[0.83683,51.35773],[0.83271,51.35816],[0.82598,51.35954],[0.824268,51.359791],[0.809555,51.314735],[0.788956,51.302287],[0.76689,51.29679],[0.76203,51.27907],[0.79649,51.25966],[0.8773,51.24239],[0.91844,51.25598],[0.94895,51.2687],[0.95937,51.27823],[0.970525,51.288938],[0.98444,51.29735],[0.99779,51.30962],[1.00141,51.32584],[1.00169,51.33144],[1.00104,51.33436],[0.9533,51.33662],[0.93218,51.33806],[0.91106,51.33844],[0.90208,51.33872],[0.88821,51.33763],[0.89147,51.34186],[0.89625,51.3436],[0.89217,51.3479],[0.88397,51.35092],[0.87086,51.35655],[0.86289,51.35884],[0.8513,51.35906],[0.84164,51.35808],[0.83683,51.35773]]]},"properties":{"code":"G82039","name":"NEWTON PLACE SURGERY","icb":"QKS"}}]}