{"type":"FeatureCollection","features":[{"type":"Feature","geometry":{"type":"Polygon","coordinates":[[[1.355615,51.330082],[1.355267,51.329492],[1.355096,51.328788],[1.35881,51.3281],[1.3614,51.32647],[1.366581,51.325787],[1.36797,51.32671],[1.37044,51.32649],[1.37294,51.32671],[1.3739,51.32753],[1.37598,51.32817],[1.37711,51.32814],[1.37805,51.32868],[1.37963,51.32864],[1.38094,51.32803],[1.38516,51.32706],[1.39184,51.32573],[1.39609,51.32519],[1.39947,51.32509],[1.41026,51.32449],[1.410842,51.323653],[1.412066,51.323519],[1.41464,51.323532],[1.4192,51.32324],[1.42302,51.323431],[1.425466,51.324169],[1.427622,51.325463],[1.429607,51.327206],[1.429597,51.328078],[1.43039,51.329251],[1.43103,51.33039],[1.43179,51.3315],[1.432954,51.332482],[1.434338,51.333467],[1.435658,51.334888],[1.43583,51.335485],[1.435745,51.336779],[1.435316,51.338568],[1.437708,51.339862],[1.43799,51.34193],[1.43825,51.34235],[1.43861,51.34418],[1.44099,51.346423],[1.441001,51.346966],[1.44112,51.3475],[1.442353,51.348581],[1.443018,51.350296],[1.443318,51.350892],[1.443437,51.352018],[1.443641,51.352527],[1.444059,51.353251],[1.444241,51.353894],[1.44423,51.354424],[1.443641,51.355221],[1.444166,51.356132],[1.444199,51.356869],[1.444069,51.357197],[1.443351,51.358142],[1.441269,51.358544],[1.437739,51.359388],[1.433372,51.360199],[1.431613,51.360426],[1.429853,51.360795],[1.428115,51.360493],[1.426002,51.360782],[1.422805,51.361378],[1.422472,51.361277],[1.422193,51.361405],[1.42171,51.361445],[1.420165,51.361405],[1.419983,51.361331],[1.419725,51.361297],[1.41921,51.361384],[1.418062,51.361652],[1.418041,51.36176],[1.418009,51.361706],[1.417075,51.362235],[1.416292,51.362831],[1.415895,51.362858],[1.414168,51.361927],[1.412612,51.361264],[1.412247,51.361023],[1.410906,51.360922],[1.408396,51.360359],[1.407623,51.360038],[1.405885,51.360118],[1.405327,51.360098],[1.404501,51.360346],[1.404394,51.360326],[1.403364,51.36048],[1.403171,51.36046],[1.403074,51.3604],[1.402999,51.36044],[1.402173,51.3604],[1.401637,51.36046],[1.40154,51.360514],[1.401358,51.360527],[1.401111,51.360688],[1.400939,51.360648],[1.400886,51.360808],[1.400671,51.360795],[1.400328,51.360902],[1.400338,51.360828],[1.399974,51.360882],[1.399652,51.360775],[1.398461,51.360527],[1.39815,51.360587],[1.396766,51.360587],[1.396465,51.360668],[1.395961,51.360708],[1.395607,51.360788],[1.39492,51.36109],[1.394717,51.360949],[1.394148,51.360741],[1.393193,51.360453],[1.392968,51.360447],[1.392818,51.360413],[1.392903,51.360393],[1.392324,51.360313],[1.390543,51.359669],[1.390189,51.359609],[1.389706,51.359207],[1.388987,51.359462],[1.388397,51.359509],[1.388183,51.359442],[1.387968,51.359509],[1.385736,51.359616],[1.38329,51.359348],[1.38053,51.35931],[1.378098,51.358705],[1.373506,51.358062],[1.370974,51.357097],[1.36713,51.35531],[1.3644,51.352],[1.3616,51.34769],[1.36066,51.34418],[1.35996,51.34066],[1.357156,51.338226],[1.357327,51.332489],[1.356618,51.331644],[1.355615,51.330082]]]},"properties":{"code":"G82020","name":"THE GRANGE PRACTICE","icb":"QKS"}}]}