{"type":"FeatureCollection","features":[{"type":"Feature","geometry":{"type":"Polygon","coordinates":[[[0.79054,51.02707],[0.794778,51.030362],[0.79461,51.035988],[0.805434,51.040077],[0.811339,51.0444],[0.823928,51.049155],[0.834136,51.054502],[0.840397,51.053098],[0.845238,51.053047],[0.851394,51.054605],[0.852442,51.055001],[0.85082,51.05725],[0.84944,51.06361],[0.84978,51.06918],[0.83946,51.07427],[0.84504,51.0786],[0.84529,51.08269],[0.8423,51.09169],[0.84437,51.09648],[0.85374,51.10481],[0.85663,51.1133],[0.85759,51.11923],[0.85128,51.12236],[0.83945,51.13195],[0.83641,51.14021],[0.83268,51.147],[0.82284,51.15059],[0.80928,51.15129],[0.77369,51.1499],[0.74531,51.1502],[0.71087,51.14803],[0.70006,51.1453],[0.6896,51.13847],[0.67801,51.13241],[0.67307,51.1288],[0.67612,51.12018],[0.68035,51.11152],[0.68055,51.10482],[0.68773,51.09609],[0.68953,51.08638],[0.69599,51.07544],[0.70091,51.06862],[0.71072,51.06467],[0.71808,51.05929],[0.72688,51.05834],[0.7335,51.05038],[0.74002,51.04092],[0.75065,51.04104],[0.76,51.03933],[0.76746,51.03581],[0.7758,51.0371],[0.78512,51.03501],[0.79054,51.02707]]]},"properties":{"code":"G82053","name":"WOODCHURCH SURGERY","icb":"QKS"}}]}