{"type":"FeatureCollection","features":[{"type":"Feature","geometry":{"type":"Polygon","coordinates":[[[1.346912,51.316913],[1.392332,51.322425],[1.413749,51.32734],[1.432834,51.336024],[1.433438,51.335742],[1.433139,51.336124],[1.432537,51.336278],[1.433453,51.336439],[1.433968,51.336955],[1.434715,51.337295],[1.442148,51.346329],[1.445702,51.353165],[1.44686,51.359294],[1.4474,51.36078],[1.4475,51.36217],[1.44656,51.36308],[1.44762,51.36368],[1.4479,51.36481],[1.44736,51.36559],[1.44723,51.36661],[1.44807,51.36696],[1.4481,51.36747],[1.44914,51.36782],[1.45002,51.36868],[1.44987,51.36944],[1.45032,51.37006],[1.45043,51.37145],[1.45032,51.37272],[1.45152,51.37522],[1.45185,51.37698],[1.45154,51.37813],[1.45159,51.37889],[1.45006,51.38008],[1.44903,51.37985],[1.44782,51.37989],[1.44792,51.38115],[1.44813,51.38127],[1.44865,51.38278],[1.4479,51.38356],[1.44694,51.38435],[1.44637,51.38475],[1.44475,51.38479],[1.44353,51.3847],[1.44257,51.38536],[1.44305,51.38636],[1.4435,51.38698],[1.44517,51.38769],[1.4448,51.38809],[1.44464,51.38872],[1.44288,51.38954],[1.44224,51.38905],[1.44221,51.38867],[1.44139,51.38857],[1.4408,51.38884],[1.44006,51.38975],[1.43946,51.38976],[1.43902,51.3894],[1.43825,51.38993],[1.43868,51.39017],[1.43873,51.39092],[1.43836,51.39132],[1.43792,51.39095],[1.43731,51.39084],[1.43666,51.39023],[1.43528,51.39077],[1.43551,51.39115],[1.43493,51.39154],[1.43516,51.39192],[1.43458,51.39219],[1.43358,51.39247],[1.43219,51.39276],[1.43099,51.39292],[1.42988,51.39435],[1.42874,51.3954],[1.42881,51.39628],[1.42824,51.39681],[1.4293,51.39741],[1.42912,51.39779],[1.43037,51.39826],[1.43116,51.39799],[1.43236,51.3977],[1.43198,51.39809],[1.43239,51.3982],[1.43242,51.39858],[1.43083,51.39888],[1.42898,51.39856],[1.42772,51.39796],[1.42589,51.39789],[1.42503,51.39715],[1.42538,51.39651],[1.42398,51.39668],[1.42252,51.39609],[1.42245,51.3952],[1.42137,51.39422],[1.41827,51.39342],[1.41625,51.39348],[1.41545,51.39363],[1.41422,51.39342],[1.41322,51.39357],[1.41159,51.39349],[1.41021,51.39391],[1.40945,51.39457],[1.4105,51.39517],[1.40851,51.39561],[1.40809,51.39537],[1.40748,51.39538],[1.40731,51.39577],[1.4061,51.39581],[1.40587,51.39543],[1.40524,51.3952],[1.40477,51.39432],[1.40374,51.3941],[1.40357,51.39449],[1.40277,51.39464],[1.40219,51.39503],[1.40134,51.39442],[1.40051,51.39419],[1.40026,51.39357],[1.39967,51.39384],[1.39932,51.39448],[1.39872,51.39463],[1.39829,51.39426],[1.39784,51.39364],[1.381544,51.392995],[1.378299,51.390668],[1.375183,51.389239],[1.373063,51.388521],[1.370406,51.388199],[1.367224,51.387376],[1.358292,51.387637],[1.357939,51.387208],[1.358568,51.387069],[1.358643,51.38701],[1.357182,51.387333],[1.331346,51.385558],[1.325994,51.383741],[1.323009,51.383378],[1.320853,51.382184],[1.321157,51.382554],[1.287035,51.382499],[1.234249,51.378834],[1.237263,51.345821],[1.23526,51.337574],[1.255894,51.324179],[1.30142,51.318229],[1.346912,51.316913]]]},"properties":{"code":"G82066","name":"NORTHDOWN & DASHWOOD SURGERY","icb":"QKS"}}]}