{"type":"FeatureCollection","features":[{"type":"Feature","geometry":{"type":"Polygon","coordinates":[[[0.394101,51.432293],[0.389,51.43577],[0.38828,51.43634],[0.38759,51.43729],[0.38748,51.43813],[0.3872,51.43851],[0.386411,51.438822],[0.385167,51.439026],[0.383892,51.439165],[0.38261,51.43907],[0.38098,51.43929],[0.377794,51.440061],[0.375328,51.441066],[0.374551,51.441331],[0.373866,51.441424],[0.373195,51.441763],[0.37419,51.443709],[0.372076,51.443938],[0.370759,51.444538],[0.370649,51.445379],[0.368608,51.445515],[0.366357,51.445482],[0.360662,51.445794],[0.35701,51.44574],[0.35463,51.44588],[0.35194,51.44584],[0.34957,51.44616],[0.34319,51.44685],[0.33861,51.4476],[0.33391,51.449205],[0.33101,51.44994],[0.328593,51.451221],[0.327146,51.452365],[0.324603,51.454918],[0.319661,51.460388],[0.316372,51.464662],[0.312843,51.466666],[0.310751,51.466811],[0.304269,51.461953],[0.301358,51.458957],[0.293836,51.456229],[0.295674,51.450376],[0.291463,51.448438],[0.289399,51.446636],[0.285924,51.445464],[0.286844,51.443243],[0.281424,51.443503],[0.280477,51.441635],[0.279168,51.438681],[0.278282,51.435734],[0.278917,51.434199],[0.296302,51.430679],[0.317877,51.430243],[0.321376,51.430074],[0.324405,51.429231],[0.327107,51.428117],[0.32992,51.426779],[0.33023,51.4267],[0.33125,51.42612],[0.33373,51.42514],[0.33593,51.424031],[0.337998,51.422854],[0.341528,51.421459],[0.346198,51.419479],[0.350281,51.418307],[0.35269,51.417696],[0.35798,51.41621],[0.364787,51.413978],[0.369907,51.413285],[0.376695,51.410963],[0.381458,51.409441],[0.386502,51.408415],[0.395336,51.405503],[0.404632,51.402963],[0.405381,51.404428],[0.405777,51.40602],[0.40549,51.409767],[0.403073,51.414201],[0.402271,51.415867],[0.400568,51.41752],[0.399968,51.418597],[0.399107,51.419952],[0.398478,51.421482],[0.399255,51.422486],[0.400439,51.425322],[0.402012,51.428316],[0.40212,51.428999],[0.402381,51.429696],[0.397995,51.430704],[0.394101,51.432293]]]},"properties":{"code":"G82044","name":"SPRINGHEAD HEALTH","icb":"QKS"}}]}