{"type":"FeatureCollection","features":[{"type":"Feature","geometry":{"type":"Polygon","coordinates":[[[0.699218,51.28435],[0.699679,51.284839],[0.700078,51.285583],[0.700338,51.286016],[0.665745,51.304553],[0.654136,51.31108],[0.65141,51.32147],[0.65069,51.3229],[0.650485,51.32368],[0.649628,51.324381],[0.64791,51.32588],[0.642273,51.329153],[0.639846,51.3307],[0.638048,51.33217],[0.634502,51.333852],[0.632395,51.334356],[0.62559,51.33541],[0.61773,51.33316],[0.61057,51.3309],[0.60129,51.32846],[0.59381,51.32687],[0.58842,51.32478],[0.57804,51.32149],[0.5665,51.31645],[0.55892,51.31287],[0.5492,51.30868],[0.54588,51.30589],[0.548379,51.304541],[0.550418,51.304143],[0.552545,51.303999],[0.554028,51.303516],[0.555677,51.303194],[0.556954,51.302504],[0.560243,51.301368],[0.562421,51.299775],[0.563739,51.299149],[0.565453,51.298357],[0.566659,51.297292],[0.56814,51.296209],[0.56815,51.29549],[0.56832,51.2924],[0.56675,51.28935],[0.567013,51.288827],[0.566677,51.288312],[0.565974,51.287327],[0.56547,51.286422],[0.565278,51.28596],[0.565145,51.285502],[0.56498,51.285085],[0.564784,51.284656],[0.564818,51.284578],[0.565357,51.284472],[0.565783,51.284291],[0.565986,51.284201],[0.566139,51.284017],[0.566189,51.283721],[0.566319,51.283538],[0.566426,51.283326],[0.566429,51.283091],[0.566265,51.28288],[0.565399,51.282123],[0.565134,51.281965],[0.564878,51.281817],[0.564531,51.281509],[0.56427,51.281168],[0.563673,51.280333],[0.563027,51.279646],[0.562285,51.279944],[0.561551,51.280238],[0.560397,51.280614],[0.559375,51.281001],[0.558712,51.281224],[0.558085,51.281475],[0.556945,51.282017],[0.555632,51.282273],[0.553365,51.282587],[0.552897,51.282513],[0.552673,51.28235],[0.55231,51.282045],[0.551961,51.281272],[0.551926,51.280867],[0.551931,51.280447],[0.551841,51.280075],[0.551623,51.279669],[0.551198,51.279073],[0.550998,51.278768],[0.550768,51.27847],[0.550621,51.278324],[0.550468,51.278184],[0.550156,51.277899],[0.549869,51.277703],[0.549561,51.277525],[0.549458,51.276986],[0.549269,51.276421],[0.548752,51.275071],[0.54849,51.274542],[0.546645,51.271145],[0.547338,51.271071],[0.547681,51.271044],[0.548029,51.270998],[0.550065,51.270511],[0.551576,51.27034],[0.553082,51.270106],[0.553739,51.270045],[0.554335,51.26999],[0.555003,51.26993],[0.556183,51.26985],[0.558393,51.269645],[0.558535,51.269178],[0.55865,51.268801],[0.558779,51.26845],[0.558903,51.268112],[0.559157,51.267422],[0.559661,51.266052],[0.559744,51.265561],[0.559728,51.264938],[0.559732,51.264625],[0.559704,51.264312],[0.559551,51.263714],[0.559388,51.263079],[0.559137,51.262445],[0.558841,51.261951],[0.559707,51.261604],[0.559841,51.261356],[0.559914,51.260921],[0.560056,51.260456],[0.560274,51.260023],[0.561123,51.259771],[0.56215,51.259753],[0.563544,51.259729],[0.564211,51.259505],[0.564854,51.259034],[0.563719,51.258262],[0.56631,51.257969],[0.56923,51.257698],[0.56953,51.260048],[0.569937,51.260344],[0.571138,51.260948],[0.57281,51.26217],[0.57352,51.262976],[0.57616,51.26293],[0.57927,51.26198],[0.57703,51.2596],[0.57514,51.25722],[0.57238,51.25177],[0.57247,51.24714],[0.57589,51.24553],[0.58503,51.23754],[0.588159,51.237068],[0.592485,51.236959],[0.597144,51.237047],[0.599558,51.237363],[0.601929,51.232112],[0.605341,51.231182],[0.610664,51.229732],[0.616924,51.228229],[0.627213,51.226674],[0.636114,51.224838],[0.659067,51.221269],[0.6818,51.24198],[0.653223,51.254937],[0.65702,51.25847],[0.661096,51.262035],[0.66366,51.26405],[0.66599,51.265881],[0.669369,51.268171],[0.670555,51.26873],[0.671202,51.269006],[0.671496,51.269177],[0.672035,51.269399],[0.673323,51.269837],[0.674115,51.270053],[0.675112,51.27028],[0.676137,51.270516],[0.677393,51.270859],[0.678422,51.271107],[0.679268,51.271436],[0.680713,51.272436],[0.682881,51.27402],[0.684409,51.275137],[0.686919,51.276556],[0.688533,51.277183],[0.691634,51.279328],[0.694425,51.280732],[0.697022,51.282503],[0.699218,51.28435]]]},"properties":{"code":"G82074","name":"BEARSTED","icb":"QKS"}}]}