{"type":"FeatureCollection","features":[{"type":"Feature","geometry":{"type":"Polygon","coordinates":[[[1.36025,51.367708],[1.361623,51.367922],[1.361102,51.368084],[1.361196,51.368416],[1.363009,51.368537],[1.366424,51.368351],[1.366515,51.368554],[1.366714,51.368645],[1.371568,51.368565],[1.371306,51.368617],[1.37135,51.368972],[1.375684,51.369399],[1.375471,51.369699],[1.378384,51.371317],[1.378532,51.371345],[1.382701,51.37098],[1.382727,51.370617],[1.376737,51.369637],[1.386342,51.369208],[1.386734,51.370432],[1.386989,51.370534],[1.386816,51.370691],[1.386994,51.371244],[1.387135,51.371338],[1.390718,51.371924],[1.39101,51.371728],[1.390463,51.370709],[1.392871,51.370066],[1.398706,51.37028],[1.399853,51.370369],[1.400072,51.37028],[1.400251,51.3704],[1.400661,51.370432],[1.40282,51.369851],[1.40145,51.370494],[1.400761,51.37044],[1.40037,51.370531],[1.400256,51.370683],[1.400758,51.37178],[1.399235,51.372854],[1.39496,51.37653],[1.390279,51.379607],[1.390411,51.379861],[1.396893,51.380606],[1.4016,51.38005],[1.406553,51.379762],[1.41038,51.37879],[1.41429,51.37925],[1.41552,51.379924],[1.416192,51.382016],[1.416279,51.382094],[1.419642,51.383352],[1.419507,51.383352],[1.419377,51.383698],[1.420351,51.383997],[1.422391,51.384209],[1.423079,51.384638],[1.425065,51.38691],[1.425289,51.386971],[1.426506,51.386781],[1.426513,51.388427],[1.426606,51.38853],[1.428231,51.389137],[1.427649,51.389621],[1.427643,51.389764],[1.427888,51.389994],[1.424503,51.391113],[1.424735,51.391486],[1.428116,51.390935],[1.428231,51.390881],[1.429259,51.38978],[1.429946,51.390637],[1.428266,51.39091],[1.428152,51.390965],[1.426977,51.392223],[1.427072,51.392413],[1.430387,51.393368],[1.43065,51.393317],[1.4308,51.39316],[1.43079,51.393025],[1.429256,51.391708],[1.431133,51.391579],[1.431316,51.391451],[1.431316,51.390423],[1.431854,51.39143],[1.432067,51.391515],[1.43477,51.39133],[1.43507,51.39232],[1.433505,51.392674],[1.433375,51.39279],[1.433375,51.393422],[1.433082,51.393239],[1.432731,51.393269],[1.432002,51.394065],[1.431558,51.393684],[1.430722,51.393465],[1.43046,51.393515],[1.428703,51.395385],[1.428856,51.397433],[1.428934,51.397523],[1.429947,51.397982],[1.430126,51.397997],[1.43205,51.39754],[1.43256,51.39823],[1.43123,51.39884],[1.42894,51.39862],[1.427296,51.398097],[1.42546,51.39773],[1.425164,51.396686],[1.425003,51.396585],[1.42193,51.39626],[1.422058,51.395231],[1.421358,51.394326],[1.419183,51.393641],[1.41468,51.39377],[1.411685,51.393718],[1.409433,51.394265],[1.409372,51.394523],[1.41069,51.39517],[1.40822,51.39567],[1.407617,51.395437],[1.407421,51.395435],[1.40619,51.39587],[1.404732,51.394501],[1.403955,51.394047],[1.403628,51.394071],[1.40249,51.39512],[1.401561,51.394592],[1.40061,51.39432],[1.400471,51.394096],[1.400102,51.394042],[1.39904,51.39465],[1.397725,51.394156],[1.397533,51.394154],[1.39674,51.39443],[1.39538,51.39447],[1.393305,51.394271],[1.393063,51.394385],[1.39292,51.39511],[1.39066,51.39532],[1.38815,51.39525],[1.38514,51.394911],[1.37994,51.39506],[1.36942,51.39138],[1.36726,51.38987],[1.365345,51.388121],[1.365222,51.388072],[1.358937,51.387406],[1.35464,51.38867],[1.35149,51.38918],[1.34918,51.38868],[1.34802,51.387634],[1.347855,51.387583],[1.34274,51.38772],[1.341848,51.387094],[1.341657,51.387058],[1.339488,51.387406],[1.33777,51.38829],[1.33298,51.38829],[1.335517,51.386999],[1.337139,51.385987],[1.336956,51.385709],[1.334837,51.385709],[1.336897,51.383846],[1.337032,51.38365],[1.336684,51.383434],[1.336205,51.383567],[1.338962,51.380338],[1.339638,51.378417],[1.34033,51.373709],[1.344893,51.371059],[1.344845,51.370829],[1.34095,51.36954],[1.346435,51.370088],[1.34963,51.36986],[1.355616,51.370967],[1.358408,51.371173],[1.359784,51.3709],[1.359855,51.370627],[1.359563,51.370494],[1.359952,51.368918],[1.35973,51.36876],[1.359562,51.368763],[1.359848,51.368708],[1.360029,51.368602],[1.36025,51.367708]]]},"properties":{"code":"G82052","name":"THE LIMES MEDICAL CENTRE","icb":"QKS"}}]}