{"type":"FeatureCollection","features":[{"type":"Feature","geometry":{"type":"Polygon","coordinates":[[[0.432478,51.334835],[0.437306,51.3334],[0.438793,51.33281],[0.440955,51.333347],[0.441062,51.333916],[0.441474,51.333994],[0.441556,51.334084],[0.442515,51.334261],[0.4425,51.334298],[0.442661,51.334288],[0.442629,51.334419],[0.44293,51.334342],[0.443203,51.334372],[0.443165,51.334416],[0.444066,51.334754],[0.444346,51.335492],[0.445634,51.336403],[0.447322,51.336259],[0.450182,51.336671],[0.452672,51.337476],[0.45443,51.33837],[0.45225,51.34049],[0.450611,51.345639],[0.447909,51.348279],[0.44986,51.349726],[0.452778,51.350303],[0.455116,51.351683],[0.453916,51.354712],[0.45014,51.357445],[0.448637,51.358839],[0.44767,51.36094],[0.45001,51.366315],[0.452929,51.367922],[0.455847,51.369396],[0.465289,51.374754],[0.470996,51.376442],[0.470183,51.379361],[0.467606,51.381263],[0.428261,51.379388],[0.430867,51.369637],[0.420909,51.338977],[0.427433,51.339192],[0.432544,51.334862],[0.432478,51.334835]]]},"properties":{"code":"G82106","name":"RIVERSIDE MEDICAL PRACTICE","icb":"QKS"}}]}