{"type":"FeatureCollection","features":[{"type":"Feature","geometry":{"type":"Polygon","coordinates":[[[0.54686,51.38701],[0.54658,51.3874],[0.54493,51.38772],[0.54315,51.38852],[0.54227,51.38911],[0.54127,51.38751],[0.54073,51.3861],[0.54054,51.38534],[0.5411,51.38448],[0.5405,51.38183],[0.537,51.37905],[0.5398,51.37738],[0.53992,51.3769],[0.54992,51.37107],[0.55835,51.36699],[0.56323,51.3647],[0.56383,51.3645],[0.56476,51.36476],[0.5648,51.36552],[0.56384,51.36744],[0.56411,51.36943],[0.56532,51.37216],[0.56628,51.37566],[0.56639,51.37775],[0.56656,51.37803],[0.5672,51.37868],[0.56744,51.38019],[0.56736,51.38143],[0.56683,51.38287],[0.56828,51.38426],[0.56364,51.3856],[0.55733,51.38678],[0.55505,51.38683],[0.55353,51.38677],[0.54913,51.38687],[0.54686,51.38701]]]},"properties":{"code":"G82129","name":"THE GLEBE FAMILY PRACTICE","icb":"QKS"}}]}