{"type":"FeatureCollection","features":[{"type":"Feature","geometry":{"type":"Polygon","coordinates":[[[1.107771,51.34615],[1.108238,51.343994],[1.108431,51.343232],[1.108563,51.342043],[1.108662,51.341148],[1.108793,51.340232],[1.108905,51.33923],[1.109272,51.33753],[1.111721,51.335718],[1.114792,51.333439],[1.117965,51.330736],[1.121206,51.327975],[1.141198,51.329759],[1.151923,51.330715],[1.177554,51.337078],[1.186036,51.341016],[1.18878,51.342401],[1.191509,51.343778],[1.197472,51.346787],[1.207227,51.351709],[1.214868,51.355562],[1.219712,51.361916],[1.200054,51.367788],[1.196005,51.369217],[1.190863,51.375856],[1.186882,51.380995],[1.06669,51.37485],[1.0795,51.36166],[1.08826,51.35047],[1.09631,51.35145],[1.106804,51.350623],[1.107771,51.34615]]]},"properties":{"code":"G82119","name":"PARK SURGERY","icb":"QKS"}}]}