{"type":"FeatureCollection","features":[{"type":"Feature","geometry":{"type":"Polygon","coordinates":[[[1.4059,51.18772],[1.40523,51.19431],[1.40478,51.20404],[1.40421,51.21299],[1.40529,51.22664],[1.4041,51.23153],[1.40106,51.24281],[1.39942,51.24674],[1.396821,51.25096],[1.36237,51.25115],[1.33779,51.24371],[1.32768,51.22996],[1.32769,51.22051],[1.32738,51.21438],[1.33325,51.2022],[1.33589,51.19754],[1.34175,51.18751],[1.3422,51.18756],[1.34259,51.18729],[1.402108,51.166074],[1.40533,51.1695],[1.40646,51.17433],[1.4059,51.18772]]]},"properties":{"code":"G82111","name":"THE CEDARS SURGERY","icb":"QKS"}}]}