{"type":"FeatureCollection","features":[{"type":"Feature","geometry":{"type":"Polygon","coordinates":[[[0.19561,51.44809],[0.18914,51.44927],[0.18403,51.44456],[0.18685,51.44229],[0.18821,51.44005],[0.18771,51.43976],[0.18585,51.43918],[0.18546,51.43866],[0.18556,51.43324],[0.18272,51.43245],[0.18073,51.4318],[0.18067,51.4305],[0.18074,51.42928],[0.17981,51.42785],[0.18126,51.42744],[0.18317,51.42656],[0.18774,51.42518],[0.18996,51.42567],[0.19167,51.42564],[0.19436,51.42574],[0.19658,51.42624],[0.19915,51.42634],[0.20125,51.42684],[0.20111,51.42646],[0.20089,51.42448],[0.20205,51.42308],[0.20285,51.42192],[0.20244,51.42109],[0.20175,51.41935],[0.23193,51.42015],[0.23418,51.42118],[0.23598,51.42297],[0.23751,51.42424],[0.23918,51.42604],[0.2419,51.42683],[0.24448,51.42701],[0.24754,51.42733],[0.24901,51.42738],[0.24809,51.42847],[0.24791,51.42977],[0.24859,51.43113],[0.25028,51.43323],[0.25115,51.4336],[0.25181,51.43458],[0.25282,51.43532],[0.25412,51.43682],[0.25488,51.43749],[0.25576,51.43801],[0.25359,51.43851],[0.24123,51.44058],[0.23543,51.44183],[0.22876,51.44265],[0.22222,51.44392],[0.22161,51.44385],[0.2203,51.44456],[0.21973,51.44541],[0.21953,51.44633],[0.2154,51.44679],[0.21358,51.44706],[0.21306,51.44638],[0.21264,51.44524],[0.21203,51.44518],[0.20998,51.44583],[0.20403,51.44655],[0.19561,51.44809]]]},"properties":{"code":"G82143","name":"LOWFIELD MEDICAL CENTRE","icb":"QKS"}}]}