{"type":"FeatureCollection","features":[{"type":"Feature","geometry":{"type":"Polygon","coordinates":[[[1.331855,51.293658],[1.31428,51.31697],[1.30931,51.31649],[1.30487,51.31661],[1.30095,51.31703],[1.29757,51.31806],[1.29179,51.32008],[1.28836,51.32048],[1.28489,51.32027],[1.28135,51.31913],[1.27591,51.31897],[1.27248,51.31938],[1.26818,51.32136],[1.26424,51.32147],[1.26225,51.32121],[1.25788,51.32226],[1.25458,51.32155],[1.25093,51.32184],[1.25085,51.3206],[1.25123,51.31904],[1.25009,51.31691],[1.24754,51.31574],[1.24548,51.31456],[1.24105,51.31469],[1.23854,51.31414],[1.23563,51.31484],[1.23061,51.31374],[1.21337,51.31421],[1.20934,51.31309],[1.2078,51.3122],[1.20465,51.3095],[1.19698,51.30569],[1.19327,51.30208],[1.19087,51.29596],[1.18764,51.29202],[1.18182,51.2863],[1.18218,51.28444],[1.17965,51.28358],[1.17396,51.27971],[1.17197,51.27945],[1.1703,51.27671],[1.16778,51.27585],[1.16521,51.27438],[1.16362,51.27287],[1.16121,51.26644],[1.15856,51.25661],[1.17639,51.24563],[1.19219,51.23207],[1.19634,51.23123],[1.20564,51.23383],[1.20626,51.2286],[1.2133,51.22085],[1.21478,51.2163],[1.22639,51.21497],[1.23164,51.21332],[1.23449,51.21038],[1.23912,51.2085],[1.25115,51.20479],[1.26182,51.20188],[1.27627,51.20422],[1.2787,51.20526],[1.28079,51.207],[1.28535,51.20792],[1.28992,51.20755],[1.29101,51.20645],[1.302,51.2051],[1.31189,51.20494],[1.31095,51.2227],[1.32254,51.2332],[1.3364,51.24085],[1.37164,51.26122],[1.37477,51.26284],[1.37672,51.26399],[1.38697,51.27157],[1.37997,51.28294],[1.350579,51.296428],[1.350447,51.296449],[1.350395,51.296425],[1.35053,51.29641],[1.350355,51.296407],[1.35023,51.29635],[1.350118,51.296375],[1.339682,51.295821],[1.33443,51.2936],[1.333119,51.293556],[1.33228,51.29325],[1.332075,51.293464],[1.332027,51.293448],[1.33224,51.29326],[1.332094,51.29334],[1.33217,51.29327],[1.33196,51.29323],[1.331769,51.293382],[1.3314,51.29325],[1.33171,51.293408],[1.33134,51.29359],[1.331855,51.293658]]]},"properties":{"code":"G82138","name":"ASH SURGERY","icb":"QKS"}}]}