{"type":"FeatureCollection","features":[{"type":"Feature","geometry":{"type":"Polygon","coordinates":[[[1.123522,51.071364],[1.124288,51.071481],[1.125583,51.07157],[1.12716,51.07154],[1.1332,51.0719],[1.14487,51.07311],[1.1568,51.07349],[1.1631,51.07317],[1.16654,51.07355],[1.16854,51.07372],[1.16974,51.07404],[1.17324,51.07511],[1.17223,51.07689],[1.17232,51.07686],[1.17092,51.07928],[1.1697,51.08102],[1.16936,51.08107],[1.169524,51.081186],[1.16897,51.08105],[1.169824,51.081405],[1.16952,51.08169],[1.17009,51.08188],[1.170822,51.082288],[1.17108,51.08262],[1.17086,51.08259],[1.17059,51.0828],[1.17038,51.08318],[1.17232,51.0849],[1.17517,51.08717],[1.17389,51.09014],[1.17176,51.09256],[1.17027,51.09655],[1.16614,51.0972],[1.15799,51.09514],[1.15852,51.09374],[1.15824,51.09231],[1.15704,51.0897],[1.15596,51.08711],[1.155508,51.085871],[1.152254,51.086349],[1.150102,51.086746],[1.146922,51.087408],[1.144972,51.08786],[1.142953,51.088156],[1.141829,51.087985],[1.140722,51.087757],[1.139553,51.087547],[1.13864,51.087384],[1.138289,51.087336],[1.137184,51.087595],[1.13668,51.087786],[1.136231,51.088017],[1.134758,51.088664],[1.133721,51.089119],[1.13318,51.089219],[1.13214,51.08949],[1.131594,51.089633],[1.131044,51.089744],[1.12904,51.090188],[1.128637,51.089633],[1.128467,51.089347],[1.128465,51.089183],[1.128328,51.089045],[1.128037,51.088442],[1.127866,51.088154],[1.127721,51.08791],[1.127441,51.087817],[1.127113,51.087484],[1.126555,51.086959],[1.126241,51.086664],[1.125959,51.086243],[1.125622,51.085837],[1.125108,51.085303],[1.124795,51.084901],[1.12463,51.084674],[1.124462,51.084092],[1.124383,51.083446],[1.124322,51.083131],[1.123509,51.082525],[1.123104,51.081753],[1.123285,51.080861],[1.122702,51.079262],[1.122739,51.078864],[1.12173,51.077075],[1.121572,51.076965],[1.120939,51.076787],[1.120218,51.076445],[1.119732,51.076215],[1.11936,51.075843],[1.11906,51.075456],[1.118947,51.075351],[1.118798,51.075065],[1.118648,51.074396],[1.118744,51.074053],[1.118946,51.073376],[1.118994,51.073042],[1.118991,51.072843],[1.118979,51.072757],[1.118891,51.072625],[1.117904,51.072675],[1.116813,51.072616],[1.114686,51.0724],[1.112892,51.072143],[1.112483,51.072127],[1.110948,51.072116],[1.109831,51.072761],[1.107843,51.072968],[1.107113,51.073137],[1.106278,51.073131],[1.105263,51.07307],[1.104701,51.072756],[1.104819,51.071928],[1.10235,51.071769],[1.101716,51.072129],[1.101175,51.07214],[1.100509,51.072094],[1.100502,51.07165],[1.0965,51.071971],[1.096058,51.072086],[1.095093,51.072447],[1.09406,51.072717],[1.093436,51.072767],[1.092508,51.072672],[1.091773,51.07256],[1.091801,51.072493],[1.0921,51.071493],[1.092265,51.071093],[1.092486,51.070488],[1.093547,51.067911],[1.094452,51.067729],[1.1001,51.06856],[1.10642,51.069467],[1.11285,51.070244],[1.11606,51.070603],[1.119295,51.070923],[1.121595,51.07115],[1.123522,51.071364]]]},"properties":{"code":"G82121","name":"SANDGATE ROAD","icb":"QKS"}}]}