{"type":"FeatureCollection","features":[{"type":"Feature","geometry":{"type":"Polygon","coordinates":[[[1.43401,51.34642],[1.43756,51.34887],[1.44001,51.35271],[1.44114,51.35508],[1.44309,51.35863],[1.44396,51.36056],[1.44573,51.36502],[1.44689,51.37085],[1.44772,51.37549],[1.44607,51.37915],[1.44366,51.38223],[1.44215,51.38453],[1.43876,51.38733],[1.43591,51.38787],[1.43381,51.38868],[1.433,51.3875],[1.42895,51.38476],[1.42606,51.38139],[1.42338,51.38102],[1.41784,51.38073],[1.41562,51.38004],[1.41533,51.3793],[1.41292,51.37606],[1.40993,51.37464],[1.40697,51.37352],[1.40374,51.37211],[1.371222,51.36744],[1.37002,51.363689],[1.370364,51.360795],[1.370192,51.358758],[1.370448,51.356829],[1.370791,51.35431],[1.371059,51.35313],[1.384453,51.347555],[1.419897,51.34643],[1.42775,51.34615],[1.4313,51.34544],[1.43401,51.34642]]]},"properties":{"code":"G82219","name":"ST PETER'S SURGERY","icb":"QKS"}}]}