{"type":"FeatureCollection","features":[{"type":"Feature","geometry":{"type":"Polygon","coordinates":[[[0.294081,51.397833],[0.293652,51.397947],[0.293405,51.398021],[0.29288,51.398148],[0.292429,51.398295],[0.291721,51.398362],[0.291334,51.398483],[0.291034,51.39859],[0.290497,51.398643],[0.290089,51.39867],[0.289596,51.398791],[0.288909,51.398884],[0.290025,51.399875],[0.28921,51.40041],[0.289039,51.40108],[0.288567,51.402151],[0.287923,51.403141],[0.295173,51.407264],[0.295409,51.407853],[0.295516,51.408174],[0.295602,51.408522],[0.295688,51.408924],[0.295902,51.409218],[0.295988,51.409526],[0.29608,51.40986],[0.295005,51.410878],[0.292344,51.414197],[0.291489,51.41591],[0.279381,51.430601],[0.267366,51.42838],[0.260501,51.427257],[0.246679,51.426293],[0.242815,51.425651],[0.240704,51.42814],[0.21372,51.427577],[0.20547,51.400769],[0.205449,51.400751],[0.20126,51.39749],[0.19738,51.3942],[0.1957,51.392052],[0.195678,51.392027],[0.195651,51.392005],[0.19562,51.391984],[0.195585,51.391967],[0.19389,51.39122],[0.191138,51.389614],[0.191106,51.389598],[0.191072,51.389584],[0.191036,51.389573],[0.190998,51.389564],[0.190959,51.389558],[0.190919,51.389555],[0.190878,51.389554],[0.190838,51.389557],[0.18698,51.38993],[0.181,51.38994],[0.175501,51.389531],[0.175459,51.38953],[0.170676,51.38952],[0.17063,51.389522],[0.170585,51.389527],[0.16356,51.39066],[0.16009,51.389],[0.157249,51.386535],[0.157218,51.386511],[0.157182,51.386491],[0.15507,51.38543],[0.15313,51.38211],[0.152832,51.379191],[0.152828,51.37917],[0.152821,51.379149],[0.15174,51.37655],[0.15022,51.3718],[0.1514,51.36588],[0.154042,51.363807],[0.154058,51.363793],[0.15653,51.36152],[0.15664,51.352916],[0.158698,51.352728],[0.160374,51.351978],[0.163507,51.351737],[0.167926,51.351951],[0.170158,51.352219],[0.172516,51.351469],[0.173825,51.351134],[0.175306,51.350651],[0.17698,51.34982],[0.177967,51.349592],[0.180994,51.349231],[0.182818,51.346751],[0.185135,51.343588],[0.18771,51.342248],[0.19268,51.34098],[0.20646,51.33782],[0.21835,51.33675],[0.223501,51.334661],[0.224918,51.333159],[0.227322,51.330344],[0.228781,51.328976],[0.235305,51.320609],[0.240154,51.321842],[0.243845,51.323291],[0.246418,51.32305],[0.258696,51.321816],[0.267623,51.323264],[0.28226,51.327796],[0.285219,51.328895],[0.286979,51.332355],[0.287709,51.333963],[0.28934,51.336135],[0.288738,51.339352],[0.290627,51.342194],[0.291314,51.344071],[0.292344,51.345518],[0.294404,51.346644],[0.297753,51.347395],[0.299126,51.350182],[0.300327,51.352326],[0.300069,51.353988],[0.298609,51.355489],[0.295605,51.357633],[0.297322,51.361813],[0.292772,51.361813],[0.290368,51.36192],[0.287707,51.362135],[0.284273,51.362617],[0.281611,51.363314],[0.278274,51.366388],[0.278129,51.36634],[0.277909,51.366251],[0.277824,51.366211],[0.277692,51.366152],[0.277601,51.366115],[0.277451,51.366043],[0.277316,51.365997],[0.277252,51.365963],[0.277196,51.365928],[0.27708,51.365933],[0.276997,51.366233],[0.276973,51.366311],[0.276946,51.366399],[0.276917,51.366469],[0.276879,51.366568],[0.276906,51.36665],[0.276884,51.366797],[0.276917,51.366928],[0.276933,51.367048],[0.276943,51.367192],[0.27741,51.367172],[0.277566,51.367517],[0.277759,51.368244],[0.277915,51.368562],[0.279867,51.371429],[0.28013,51.371831],[0.280227,51.371944],[0.280347,51.372053],[0.288821,51.377513],[0.29107,51.38468],[0.294404,51.397813],[0.294081,51.397833]]]},"properties":{"code":"G82218","name":"RIVER DARENT MEDICAL GROUP","icb":"QKS"}}]}