{"type":"FeatureCollection","features":[{"type":"Feature","geometry":{"type":"Polygon","coordinates":[[[1.118654,51.072266],[1.125931,51.071418],[1.129635,51.071823],[1.134298,51.072033],[1.138395,51.07248],[1.141443,51.072902],[1.146024,51.0737],[1.148485,51.073724],[1.152333,51.074851],[1.154014,51.075648],[1.155392,51.076097],[1.16349,51.07587],[1.165727,51.076301],[1.17251,51.076954],[1.174473,51.077759],[1.175726,51.078215],[1.175991,51.078952],[1.177478,51.078967],[1.1787,51.08],[1.178459,51.080266],[1.178669,51.080371],[1.180331,51.081744],[1.179485,51.08242],[1.1777,51.085487],[1.181597,51.089318],[1.182466,51.091333],[1.182399,51.09345],[1.18176,51.094548],[1.172964,51.096112],[1.171347,51.096568],[1.165575,51.098675],[1.161843,51.096515],[1.157733,51.096119],[1.157827,51.093194],[1.157369,51.09164],[1.156375,51.088866],[1.155699,51.086568],[1.149118,51.087737],[1.142959,51.088252],[1.141518,51.08783],[1.140471,51.086472],[1.138321,51.085453],[1.136994,51.083327],[1.136969,51.082531],[1.139978,51.08013],[1.139053,51.07967],[1.134723,51.080032],[1.129657,51.080622],[1.128384,51.076285],[1.130839,51.074962],[1.129314,51.074407],[1.125521,51.073295],[1.123914,51.073482],[1.121485,51.073255],[1.118965,51.073325],[1.118654,51.072266]]]},"properties":{"code":"G82232","name":"MANOR CLINIC","icb":"QKS"}}]}