{"type":"FeatureCollection","features":[{"type":"Feature","geometry":{"type":"MultiPolygon","coordinates":[[[[0.56908,51.37076],[0.569538,51.374021],[0.57397,51.37918],[0.57565,51.3815],[0.57863,51.38598],[0.5783,51.38932],[0.57577,51.39043],[0.571151,51.391338],[0.56693,51.39257],[0.56578,51.39284],[0.561818,51.393325],[0.55963,51.39427],[0.55513,51.3951],[0.551317,51.395188],[0.551187,51.395225],[0.54962,51.39628],[0.53645,51.39989],[0.5292,51.39323],[0.534291,51.391908],[0.535954,51.390973],[0.53708,51.39022],[0.542383,51.389086],[0.542511,51.388908],[0.541472,51.387362],[0.54049,51.38608],[0.540756,51.384036],[0.54012,51.38179],[0.544898,51.380281],[0.544989,51.380101],[0.542759,51.377464],[0.54062,51.37682],[0.54595,51.3746],[0.56908,51.37076]]],[[[0.560646,51.411841],[0.582619,51.416338],[0.625191,51.439885],[0.586739,51.450798],[0.529404,51.418693],[0.543823,51.413555],[0.560646,51.411841]]]]},"properties":{"code":"G82233","name":"ST. WERBURGH MED.PRACTICE","icb":"QKS"}}]}