{"type":"FeatureCollection","features":[{"type":"Feature","geometry":{"type":"Polygon","coordinates":[[[0.493346,51.340693],[0.523218,51.316023],[0.538329,51.332757],[0.545884,51.342623],[0.526309,51.316666],[0.610078,51.328895],[0.635515,51.369422],[0.571638,51.402846],[0.495056,51.396849],[0.495056,51.374352],[0.498154,51.362992],[0.52213,51.36981],[0.517386,51.368351],[0.501246,51.363421],[0.5205,51.36809],[0.498156,51.362564],[0.51728,51.36377],[0.499187,51.362563],[0.491632,51.358062],[0.494728,51.341551],[0.51419,51.34166],[0.525292,51.34198],[0.508459,51.341122],[0.493346,51.340693]]]},"properties":{"code":"G82697","name":"THE CHURCHILL CLINIC","icb":"QKS"}}]}