{"type":"FeatureCollection","features":[{"type":"Feature","geometry":{"type":"Polygon","coordinates":[[[1.33756,51.38809],[1.33666,51.38826],[1.33665,51.38812],[1.33732,51.38796],[1.33505,51.38816],[1.333,51.38822],[1.33156,51.38726],[1.33125,51.38613],[1.32771,51.38452],[1.32611,51.38442],[1.32606,51.38371],[1.32353,51.38349],[1.32194,51.38354],[1.32032,51.3833],[1.31942,51.38347],[1.31735,51.38324],[1.3155,51.38286],[1.31342,51.3825],[1.31187,51.38311],[1.30911,51.3829],[1.30684,51.38297],[1.30504,51.38345],[1.30306,51.38436],[1.30148,51.38469],[1.29832,51.38521],[1.29489,51.38502],[1.29403,51.38576],[1.29284,51.38508],[1.28872,51.38491],[1.28659,51.38382],[1.28193,51.38253],[1.27888,51.38133],[1.27906,51.38075],[1.27813,51.38049],[1.27676,51.38039],[1.27376,51.3799],[1.27056,51.37985],[1.26623,51.37997],[1.26324,51.37962],[1.2621,51.37965],[1.26092,51.37911],[1.2591,51.37917],[1.25472,51.37857],[1.25237,51.37764],[1.25102,51.37782],[1.2476,51.37791],[1.2438,51.37902],[1.24044,51.37983],[1.23681,51.38021],[1.23139,51.38093],[1.23006,51.37826],[1.22842,51.37116],[1.22733,51.3622],[1.22786,51.35676],[1.23533,51.34627],[1.23979,51.33843],[1.24482,51.33858],[1.24713,51.33894],[1.25078,51.33899],[1.25533,51.33886],[1.26385,51.34005],[1.27382,51.34248],[1.28047,51.34301],[1.28123,51.34399],[1.283,51.34651],[1.28755,51.34953],[1.28985,51.34975],[1.29841,51.3515],[1.30724,51.35383],[1.31112,51.35386],[1.31391,51.35449],[1.31267,51.35638],[1.3142,51.35863],[1.31914,51.36063],[1.322651,51.362349],[1.341405,51.350075],[1.343208,51.351361],[1.347327,51.349056],[1.36162,51.347368],[1.362433,51.349217],[1.363678,51.350825],[1.364493,51.351629],[1.365008,51.352514],[1.365738,51.353425],[1.366296,51.354015],[1.367369,51.355194],[1.368785,51.355944],[1.37278,51.357633],[1.37063,51.359107],[1.375314,51.360688],[1.376724,51.35975],[1.377625,51.358598],[1.386383,51.35967],[1.388891,51.360735],[1.390673,51.361793],[1.386037,51.364975],[1.380717,51.368539],[1.372819,51.375209],[1.370544,51.374808],[1.368012,51.373495],[1.365395,51.3732],[1.35767,51.371861],[1.341448,51.370066],[1.34079,51.37286],[1.34082,51.37643],[1.33919,51.37919],[1.33745,51.38038],[1.33671,51.38269],[1.33733,51.38496],[1.33756,51.38809]]]},"properties":{"code":"G82666","name":"BIRCHINGTON MEDICAL CENTRE","icb":"QKS"}}]}