{"type":"FeatureCollection","features":[{"type":"Feature","geometry":{"type":"MultiPolygon","coordinates":[[[[0.26196,51.43689],[0.319338,51.442623],[0.319522,51.442554],[0.31981,51.44267],[0.317938,51.445671],[0.31672,51.44802],[0.30951,51.45406],[0.309234,51.454073],[0.301308,51.459275],[0.301274,51.459069],[0.291515,51.454875],[0.27809,51.45358],[0.278084,51.453535],[0.2778,51.453414],[0.274132,51.454112],[0.269147,51.455413],[0.264866,51.457863],[0.26075,51.46053],[0.254387,51.462466],[0.245127,51.466732],[0.239813,51.469408],[0.23552,51.47176],[0.217539,51.459175],[0.217416,51.459136],[0.215432,51.45903],[0.21046,51.45903],[0.20823,51.45871],[0.206337,51.457639],[0.20411,51.45647],[0.206862,51.45507],[0.208746,51.453573],[0.21097,51.45123],[0.21355,51.44994],[0.217781,51.448253],[0.21786,51.448188],[0.21921,51.44534],[0.22161,51.44374],[0.22591,51.44288],[0.23329,51.4416],[0.240311,51.442557],[0.243501,51.442548],[0.26196,51.43689]]],[[[0.23037,51.32696],[0.230688,51.328373],[0.230866,51.32848],[0.30968,51.33361],[0.305901,51.368985],[0.30693,51.39899],[0.22213,51.38314],[0.2084,51.36492],[0.213018,51.366575],[0.213304,51.366526],[0.220075,51.359122],[0.226575,51.348654],[0.22488,51.33404],[0.23037,51.32696]]]]},"properties":{"code":"G82647","name":"TEMPLE HILL SURGERY","icb":"QKS"}}]}