{"type":"FeatureCollection","features":[{"type":"Feature","geometry":{"type":"Polygon","coordinates":[[[0.51005,51.3579],[0.511292,51.35875],[0.512428,51.359011],[0.515439,51.359518],[0.51684,51.35964],[0.51802,51.36019],[0.52065,51.36172],[0.521869,51.362649],[0.524578,51.363883],[0.527185,51.364833],[0.53512,51.36668],[0.54312,51.36947],[0.544372,51.370739],[0.544786,51.370731],[0.54686,51.36831],[0.54853,51.36681],[0.55107,51.36504],[0.55481,51.36387],[0.55494,51.36409],[0.554769,51.364327],[0.554774,51.364432],[0.55497,51.36466],[0.55537,51.36559],[0.55475,51.36691],[0.552957,51.368057],[0.552035,51.36992],[0.55185,51.37087],[0.551705,51.371181],[0.552235,51.37135],[0.55532,51.36885],[0.55956,51.3663],[0.56204,51.36516],[0.5634,51.36462],[0.56454,51.36453],[0.56455,51.36467],[0.564338,51.365047],[0.563337,51.367908],[0.563653,51.368081],[0.56655,51.36744],[0.56806,51.36756],[0.56884,51.36906],[0.568681,51.370423],[0.568705,51.370793],[0.568803,51.370893],[0.56936,51.37115],[0.569361,51.371587],[0.56951,51.37234],[0.569759,51.373517],[0.570036,51.374429],[0.570559,51.375279],[0.57447,51.37931],[0.579413,51.378807],[0.584761,51.377624],[0.593792,51.373962],[0.599948,51.372036],[0.60788,51.37054],[0.626768,51.369337],[0.635489,51.367408],[0.643905,51.365619],[0.661465,51.383416],[0.662635,51.385532],[0.656262,51.392969],[0.647858,51.397033],[0.640849,51.394961],[0.641871,51.392038],[0.640743,51.389814],[0.640839,51.387258],[0.638188,51.385717],[0.635822,51.383444],[0.632374,51.382104],[0.630241,51.380864],[0.627987,51.377175],[0.628251,51.373903],[0.623161,51.376365],[0.624653,51.379306],[0.626934,51.381795],[0.630573,51.38391],[0.633177,51.384516],[0.634056,51.385253],[0.634672,51.386132],[0.635418,51.3882],[0.634643,51.388896],[0.633466,51.389],[0.631827,51.388816],[0.629887,51.388862],[0.628715,51.388454],[0.62703,51.388487],[0.625863,51.388216],[0.623887,51.388588],[0.621263,51.388147],[0.621439,51.38357],[0.621507,51.382726],[0.621137,51.382057],[0.620042,51.380861],[0.618261,51.379826],[0.616424,51.379112],[0.615029,51.379236],[0.61336,51.379522],[0.611892,51.380046],[0.609779,51.380998],[0.607584,51.381358],[0.603667,51.382628],[0.601299,51.384546],[0.598024,51.386752],[0.601829,51.389939],[0.594972,51.387276],[0.589304,51.391224],[0.580527,51.389752],[0.5785,51.388727],[0.57858,51.389],[0.57852,51.38918],[0.578098,51.389389],[0.57714,51.39009],[0.5757,51.39058],[0.571845,51.391241],[0.570463,51.391529],[0.568929,51.391928],[0.568354,51.392119],[0.567726,51.392354],[0.56729,51.3926],[0.56658,51.39285],[0.56574,51.39302],[0.562774,51.393283],[0.561143,51.393667],[0.55953,51.39426],[0.55518,51.39508],[0.55439,51.39517],[0.552719,51.395189],[0.551806,51.395396],[0.550565,51.396015],[0.55043,51.3963],[0.549895,51.396704],[0.54989,51.39686],[0.54929,51.39732],[0.5478,51.39813],[0.54601,51.39879],[0.543989,51.399445],[0.541582,51.400529],[0.539473,51.401549],[0.53891,51.40206],[0.53839,51.40234],[0.53786,51.4025],[0.537214,51.402512],[0.535285,51.402771],[0.53228,51.40329],[0.53166,51.4033],[0.531478,51.402826],[0.53051,51.40092],[0.530237,51.399869],[0.52951,51.39926],[0.52852,51.39818],[0.5271,51.39643],[0.52622,51.39499],[0.52517,51.39303],[0.524709,51.391377],[0.5234,51.38775],[0.5235,51.38509],[0.523686,51.384426],[0.523478,51.384266],[0.52177,51.38424],[0.52071,51.3839],[0.520705,51.383783],[0.520538,51.383662],[0.518049,51.383382],[0.51563,51.38343],[0.512363,51.383965],[0.51096,51.38491],[0.50887,51.38598],[0.50824,51.386],[0.50753,51.38538],[0.50844,51.38323],[0.510525,51.379289],[0.510807,51.378053],[0.51063,51.37689],[0.51056,51.3735],[0.51077,51.371045],[0.51074,51.3704],[0.510452,51.369519],[0.50946,51.3681],[0.50894,51.3671],[0.509299,51.365294],[0.50951,51.36268],[0.509768,51.361172],[0.50926,51.35814],[0.51005,51.3579]]]},"properties":{"code":"G82753","name":"THE KINGS FAMILY PRACTICE","icb":"QKS"}}]}