{"type":"FeatureCollection","features":[{"type":"Feature","geometry":{"type":"Polygon","coordinates":[[[0.451563,51.398616],[0.457089,51.394078],[0.459335,51.392727],[0.461724,51.391289],[0.471247,51.381254],[0.475896,51.376233],[0.478258,51.373866],[0.47997,51.372885],[0.481282,51.371808],[0.494508,51.378812],[0.500631,51.383072],[0.508551,51.384992],[0.50646,51.387884],[0.503848,51.390705],[0.495584,51.395435],[0.46967,51.39835],[0.451563,51.398616]]]},"properties":{"code":"G82708","name":"MARLOWE PARK MEDICAL CTR.","icb":"QKS"}}]}