{"type":"FeatureCollection","features":[{"type":"Feature","geometry":{"type":"MultiPolygon","coordinates":[[[[0.18436,51.40499],[0.21011,51.42833],[0.177531,51.435593],[0.16171,51.44395],[0.1442,51.42362],[0.18436,51.40499]]],[[[0.36264,51.34904],[0.36574,51.34912],[0.366368,51.350502],[0.36646,51.350573],[0.3686,51.35129],[0.36834,51.352674],[0.368392,51.35277],[0.369506,51.353491],[0.372005,51.354525],[0.37568,51.35524],[0.37576,51.356742],[0.375986,51.358485],[0.377697,51.360094],[0.38219,51.36142],[0.3841,51.36282],[0.385741,51.36552],[0.38874,51.36839],[0.390778,51.370867],[0.390943,51.370933],[0.39737,51.37108],[0.400917,51.373464],[0.407597,51.377136],[0.45569,51.39377],[0.46895,51.3983],[0.47106,51.39919],[0.473886,51.401582],[0.47952,51.40274],[0.474769,51.406639],[0.474776,51.406798],[0.479426,51.410187],[0.484134,51.413168],[0.49071,51.41424],[0.49157,51.41613],[0.489054,51.418056],[0.489012,51.418134],[0.489099,51.41975],[0.490395,51.423595],[0.49139,51.42481],[0.49231,51.4297],[0.484764,51.431292],[0.47688,51.43337],[0.470901,51.432223],[0.470697,51.43226],[0.469184,51.433344],[0.469142,51.433449],[0.47105,51.43849],[0.45368,51.46224],[0.448781,51.457071],[0.443953,51.452252],[0.439885,51.448668],[0.433575,51.447259],[0.421111,51.444972],[0.40609,51.44342],[0.401913,51.428982],[0.39943,51.42521],[0.398076,51.420991],[0.397989,51.420913],[0.391496,51.418477],[0.38688,51.41855],[0.3852,51.41549],[0.389174,51.413313],[0.389231,51.413184],[0.38843,51.41161],[0.387115,51.407322],[0.386761,51.407229],[0.36877,51.41463],[0.35364,51.41969],[0.34131,51.42324],[0.332379,51.425635],[0.33057,51.42647],[0.3299,51.425744],[0.32841,51.425361],[0.32684,51.42539],[0.32419,51.42509],[0.32349,51.42488],[0.320709,51.423801],[0.3186,51.42355],[0.31581,51.42281],[0.311212,51.420815],[0.308697,51.420157],[0.30764,51.4201],[0.306746,51.418465],[0.303665,51.414225],[0.302933,51.413444],[0.30103,51.41191],[0.29934,51.41022],[0.29881,51.40894],[0.297751,51.403726],[0.29669,51.40094],[0.29698,51.39986],[0.29968,51.39888],[0.303096,51.398088],[0.308395,51.396551],[0.31201,51.39533],[0.31456,51.395272],[0.318919,51.394128],[0.32039,51.39323],[0.321709,51.393345],[0.3229,51.39296],[0.32393,51.39294],[0.324596,51.392989],[0.3248,51.392918],[0.35113,51.35702],[0.35625,51.35175],[0.36264,51.34904]]]]},"properties":{"code":"G82809","name":"DOWNS WAY MEDICAL PRACTICE","icb":"QKS"}}]}