{"type":"FeatureCollection","features":[{"type":"Feature","geometry":{"type":"Polygon","coordinates":[[[0.08463,51.43047],[0.084661,51.430439],[0.084683,51.430405],[0.084696,51.430369],[0.0847,51.430332],[0.084694,51.430295],[0.084678,51.43026],[0.084653,51.430226],[0.08462,51.430196],[0.08458,51.430169],[0.084533,51.430147],[0.08448,51.43013],[0.084425,51.430118],[0.084366,51.430113],[0.084307,51.430113],[0.084249,51.430119],[0.084194,51.430132],[0.08377,51.43025],[0.08377,51.42876],[0.08617,51.42661],[0.090972,51.423405],[0.090987,51.423395],[0.09579,51.41976],[0.10162,51.41591],[0.11536,51.41291],[0.12154,51.41398],[0.126911,51.415242],[0.12697,51.415252],[0.12703,51.415256],[0.127091,51.415254],[0.127151,51.415245],[0.135246,51.413555],[0.135293,51.413543],[0.140724,51.411851],[0.140759,51.411839],[0.140791,51.411824],[0.14317,51.41061],[0.144609,51.416297],[0.144616,51.416318],[0.144626,51.416339],[0.14464,51.416359],[0.144656,51.416378],[0.1502,51.42212],[0.150376,51.431981],[0.150378,51.432002],[0.150383,51.432022],[0.150391,51.432042],[0.150401,51.432061],[0.150414,51.432079],[0.15043,51.432097],[0.150449,51.432114],[0.150469,51.43213],[0.150492,51.432144],[0.150517,51.432157],[0.150544,51.432169],[0.150572,51.432179],[0.150601,51.432187],[0.150632,51.432194],[0.150664,51.432199],[0.150696,51.432202],[0.16557,51.43325],[0.164466,51.440004],[0.164464,51.440027],[0.164466,51.44005],[0.164471,51.440072],[0.16448,51.440094],[0.164493,51.440115],[0.164508,51.440136],[0.164528,51.440155],[0.16455,51.440173],[0.170265,51.444361],[0.170292,51.444379],[0.170321,51.444395],[0.180217,51.449079],[0.180266,51.449099],[0.19192,51.45294],[0.197707,51.457824],[0.19773,51.457841],[0.197755,51.457857],[0.197782,51.457871],[0.197812,51.457883],[0.20977,51.46235],[0.2108,51.46919],[0.211136,51.474471],[0.211142,51.474504],[0.211156,51.474537],[0.211177,51.474567],[0.211206,51.474596],[0.213467,51.4765],[0.213488,51.476516],[0.213511,51.476531],[0.213537,51.476544],[0.213564,51.476556],[0.213593,51.476566],[0.213623,51.476575],[0.213655,51.476582],[0.213687,51.476587],[0.21801,51.47711],[0.216913,51.478674],[0.216894,51.478706],[0.216884,51.478741],[0.216883,51.478775],[0.21689,51.47881],[0.216905,51.478843],[0.216929,51.478874],[0.21696,51.478903],[0.216997,51.478929],[0.21938,51.48031],[0.21544,51.48256],[0.21046,51.48352],[0.199585,51.480452],[0.199528,51.48044],[0.199468,51.480433],[0.199408,51.480433],[0.199348,51.480439],[0.181384,51.483292],[0.18133,51.483303],[0.18128,51.48332],[0.181235,51.483341],[0.181195,51.483367],[0.174888,51.488134],[0.174866,51.488152],[0.174847,51.488172],[0.174832,51.488193],[0.17482,51.488215],[0.17202,51.494375],[0.172012,51.494398],[0.172008,51.49442],[0.172007,51.494443],[0.17201,51.494466],[0.17256,51.49704],[0.17106,51.49987],[0.166,51.50404],[0.16145,51.50575],[0.15332,51.507025],[0.153262,51.507038],[0.142488,51.510018],[0.142473,51.510022],[0.13081,51.51366],[0.12119,51.51366],[0.12102,51.51077],[0.12119,51.507574],[0.12119,51.507566],[0.12119,51.500196],[0.121189,51.500184],[0.12068,51.49453],[0.12186,51.489377],[0.121863,51.489356],[0.121863,51.489335],[0.12186,51.489314],[0.121854,51.489294],[0.121845,51.489274],[0.121833,51.489254],[0.121818,51.489235],[0.1218,51.489218],[0.115082,51.483155],[0.115043,51.483126],[0.114997,51.483101],[0.114945,51.483081],[0.114888,51.483068],[0.09819,51.47999],[0.09115,51.4709],[0.087903,51.465582],[0.087888,51.465561],[0.08787,51.46554],[0.081752,51.459578],[0.083429,51.449305],[0.08343,51.449295],[0.08377,51.44545],[0.0848,51.44245],[0.085473,51.440781],[0.08548,51.440761],[0.085484,51.44074],[0.085484,51.440719],[0.085481,51.440698],[0.084978,51.438208],[0.084965,51.438171],[0.084942,51.438136],[0.08169,51.434079],[0.082086,51.433908],[0.08256,51.433948],[0.082607,51.43395],[0.082655,51.433948],[0.082702,51.433942],[0.082747,51.433933],[0.08279,51.433919],[0.08283,51.433902],[0.082865,51.433883],[0.082896,51.43386],[0.082922,51.433835],[0.082943,51.433808],[0.082957,51.433779],[0.082966,51.43375],[0.082968,51.43372],[0.082964,51.43369],[0.082953,51.433661],[0.082936,51.433633],[0.082884,51.433561],[0.082884,51.433537],[0.082879,51.433513],[0.08287,51.433489],[0.082857,51.433466],[0.08284,51.433445],[0.08282,51.433424],[0.082796,51.433405],[0.082769,51.433388],[0.08274,51.433372],[0.082708,51.433359],[0.082673,51.433348],[0.082637,51.433339],[0.0826,51.433333],[0.082562,51.433329],[0.082523,51.433328],[0.082484,51.433329],[0.082252,51.433346],[0.08463,51.43047]]]},"properties":{"code":"G83028","name":"BEXLEY GROUP PRACTICE","icb":"QKK"}}]}