{"type":"FeatureCollection","features":[{"type":"Feature","geometry":{"type":"Polygon","coordinates":[[[0.163681,51.477748],[0.16244,51.47797],[0.161577,51.478164],[0.160049,51.478753],[0.158555,51.478962],[0.157379,51.478925],[0.156295,51.478822],[0.155238,51.478467],[0.154486,51.479087],[0.153965,51.479841],[0.1539,51.48062],[0.153726,51.481237],[0.152597,51.483306],[0.152287,51.484407],[0.14976,51.484095],[0.148118,51.484252],[0.147636,51.484192],[0.145159,51.484228],[0.143337,51.484071],[0.141901,51.483893],[0.140328,51.483813],[0.139068,51.48379],[0.13812,51.483708],[0.136305,51.483153],[0.135247,51.48242],[0.133316,51.48172],[0.132099,51.481497],[0.130108,51.481484],[0.126961,51.481323],[0.122352,51.481388],[0.117742,51.481558],[0.115175,51.481742],[0.115364,51.481526],[0.118511,51.478934],[0.116983,51.477635],[0.115491,51.476062],[0.114068,51.475157],[0.11263,51.473528],[0.112057,51.473095],[0.11183,51.473093],[0.111465,51.472299],[0.1108,51.471456],[0.110325,51.469823],[0.109984,51.469271],[0.110007,51.468999],[0.110519,51.468063],[0.110473,51.466978],[0.110267,51.465907],[0.108694,51.464327],[0.108465,51.463956],[0.107954,51.46244],[0.110577,51.462025],[0.111459,51.462031],[0.112456,51.461936],[0.113612,51.461718],[0.115939,51.461143],[0.1173,51.460838],[0.118963,51.460575],[0.120917,51.460291],[0.123904,51.459729],[0.131996,51.458448],[0.138689,51.457475],[0.149457,51.45597],[0.151485,51.45558],[0.152977,51.455186],[0.153091,51.455934],[0.153139,51.457048],[0.152822,51.458821],[0.153157,51.461022],[0.15342,51.461924],[0.15363,51.462476],[0.154984,51.464008],[0.157745,51.466095],[0.157867,51.467111],[0.158345,51.468149],[0.158757,51.468759],[0.159559,51.469365],[0.16109,51.471227],[0.162317,51.472779],[0.162515,51.473208],[0.163369,51.477072],[0.163681,51.477748]]]},"properties":{"code":"G83033","name":"DR DAVIES & PARTNER","icb":"QKK"}}]}