{"type":"FeatureCollection","features":[{"type":"Feature","geometry":{"type":"Polygon","coordinates":[[[0.14141,51.4374],[0.14339,51.43783],[0.14653,51.43561],[0.15781,51.4354],[0.16445,51.43548],[0.16563,51.44075],[0.15171,51.44441],[0.1528,51.44577],[0.15335,51.44688],[0.15361,51.44718],[0.15334,51.44759],[0.15087,51.44809],[0.14963,51.44822],[0.14792,51.44826],[0.14484,51.4481],[0.13946,51.44829],[0.13499,51.44815],[0.13126,51.44809],[0.12887,51.44828],[0.12577,51.44861],[0.12173,51.44897],[0.12032,51.44795],[0.11906,51.44781],[0.11894,51.4474],[0.11939,51.44584],[0.11945,51.44475],[0.1199,51.44332],[0.11776,51.44175],[0.1175,51.44144],[0.11772,51.44058],[0.11834,51.43959],[0.1238,51.43793],[0.12721,51.43744],[0.13461,51.43764],[0.13662,51.43744],[0.14141,51.4374]]]},"properties":{"code":"G83029","name":"PLAS MEDDYG SURGERY","icb":"QKK"}}]}