{"type":"FeatureCollection","features":[{"type":"Feature","geometry":{"type":"Polygon","coordinates":[[[0.167607,51.470778],[0.16711,51.4716],[0.161585,51.471158],[0.16158,51.47123],[0.15467,51.47892],[0.15471,51.47898],[0.15226,51.48419],[0.12218,51.48136],[0.12394,51.48122],[0.123814,51.481172],[0.12205,51.48128],[0.12136,51.47826],[0.12201,51.47703],[0.12626,51.47251],[0.12184,51.46005],[0.12381,51.45962],[0.12132,51.45053],[0.11858,51.44807],[0.11965,51.44326],[0.11742,51.44133],[0.11845,51.43938],[0.12038,51.43419],[0.12141,51.4332],[0.12136,51.4332],[0.11909,51.42966],[0.12467,51.42835],[0.13523,51.43346],[0.1369,51.43748],[0.1511,51.4412],[0.15329,51.43999],[0.15286,51.43887],[0.15703,51.43627],[0.15793,51.43611],[0.15789,51.42849],[0.1651,51.42041],[0.16514,51.42019],[0.165507,51.420375],[0.1699,51.41813],[0.17454,51.42166],[0.17565,51.42389],[0.17909,51.42587],[0.180503,51.42754],[0.185952,51.429956],[0.18878,51.42972],[0.19097,51.43218],[0.190798,51.432104],[0.181101,51.44832],[0.18209,51.45002],[0.18097,51.45029],[0.178648,51.452538],[0.178533,51.452729],[0.1823,51.46363],[0.17956,51.47005],[0.167607,51.470778]]]},"properties":{"code":"G83006","name":"THE ALBION SURGERY","icb":"QKK"}}]}