{"type":"FeatureCollection","features":[{"type":"Feature","geometry":{"type":"Polygon","coordinates":[[[0.17673,51.48838],[0.17077,51.48744],[0.16825,51.48821],[0.1669,51.48945],[0.16453,51.48973],[0.16187,51.490266],[0.159603,51.490387],[0.156763,51.490154],[0.15386,51.49024],[0.15108,51.49103],[0.14984,51.49128],[0.14484,51.49109],[0.14294,51.48906],[0.14265,51.4885],[0.14273,51.48804],[0.14187,51.48767],[0.1416,51.48677],[0.13636,51.48484],[0.13008,51.48283],[0.1219,51.48301],[0.12197,51.48133],[0.12405,51.47699],[0.12637,51.47439],[0.1299,51.47288],[0.14329,51.46591],[0.14245,51.46466],[0.14855,51.46458],[0.15071,51.4636],[0.15278,51.46139],[0.153099,51.456965],[0.156157,51.456897],[0.157264,51.457306],[0.157385,51.459204],[0.159614,51.459686],[0.160692,51.45998],[0.160622,51.458891],[0.164604,51.457187],[0.169088,51.458546],[0.172627,51.457832],[0.172718,51.455644],[0.173779,51.454817],[0.174841,51.454264],[0.175188,51.454523],[0.176577,51.454576],[0.179157,51.454674],[0.183316,51.455015],[0.18827,51.455995],[0.188287,51.455578],[0.187269,51.455417],[0.178317,51.452975],[0.1789,51.452439],[0.188919,51.454464],[0.192849,51.454613],[0.194818,51.455269],[0.196165,51.456274],[0.18757,51.463292],[0.200795,51.468386],[0.200528,51.481617],[0.17673,51.48838]]]},"properties":{"code":"G83010","name":"NORTHUMBERLAND HEATH MED.CTR.","icb":"QKK"}}]}