{"type":"FeatureCollection","features":[{"type":"Feature","geometry":{"type":"Polygon","coordinates":[[[-0.02927,51.48887],[-0.02989,51.48953],[-0.030404,51.490188],[-0.031457,51.491677],[-0.032157,51.492979],[-0.03254,51.494333],[-0.034189,51.494379],[-0.034634,51.49272],[-0.034199,51.490838],[-0.034654,51.489834],[-0.034609,51.488582],[-0.034264,51.487941],[-0.034002,51.487662],[-0.033319,51.487087],[-0.03173,51.48557],[-0.032039,51.479791],[-0.032302,51.477504],[-0.031966,51.475887],[-0.021114,51.474193],[-0.018024,51.473097],[-0.014935,51.47291],[-0.013347,51.472402],[-0.012016,51.472295],[-0.008411,51.472776],[-0.001163,51.471864],[0,51.471879],[0.003196,51.472212],[0.018096,51.473897],[0.024584,51.474761],[0.020839,51.481748],[0.02067,51.483625],[0.019809,51.485488],[0.019657,51.487181],[0.019945,51.494788],[0.016193,51.495989],[0.013071,51.497975],[0.007225,51.502907],[0.004302,51.504766],[0.002211,51.505252],[-0.00037,51.504489],[-0.002126,51.502689],[-0.002489,51.500757],[-0.002195,51.499338],[-0.000981,51.496358],[0.001423,51.493797],[0.001964,51.491573],[0.001781,51.489037],[0.000859,51.487847],[-0.001118,51.486233],[-0.004133,51.484802],[-0.007761,51.483951],[-0.01093,51.483442],[-0.012959,51.483236],[-0.01524,51.483227],[-0.017465,51.483384],[-0.019947,51.48396],[-0.022386,51.48474],[-0.025006,51.485901],[-0.027783,51.487568],[-0.027825,51.487543],[-0.02927,51.48887]]]},"properties":{"code":"G83065","name":"BURNEY STREET PMS","icb":"QKK"}}]}