{"type":"FeatureCollection","features":[{"type":"Feature","geometry":{"type":"Polygon","coordinates":[[[0.090478,51.507097],[0.101747,51.497725],[0.101177,51.49811],[0.103234,51.496382],[0.108977,51.492891],[0.108168,51.492316],[0.108081,51.491588],[0.107962,51.485157],[0.110004,51.484215],[0.114698,51.482846],[0.118798,51.482415],[0.122317,51.481694],[0.132044,51.481585],[0.140578,51.483694],[0.153029,51.485056],[0.15203,51.488619],[0.155405,51.490808],[0.156106,51.492141],[0.159816,51.49138],[0.16656,51.5034],[0.16061,51.50615],[0.15237,51.50829],[0.13621,51.51196],[0.12776,51.51369],[0.11141,51.50965],[0.10454,51.50949],[0.09999,51.50954],[0.09622,51.50933],[0.09253,51.50885],[0.090478,51.507097]]]},"properties":{"code":"G83018","name":"LAKESIDE MEDICAL","icb":"QKK"}}]}