{"type":"FeatureCollection","features":[{"type":"Feature","geometry":{"type":"Polygon","coordinates":[[[0.17372,51.48758],[0.17286,51.49047],[0.17115,51.49902],[0.16651,51.50383],[0.1581,51.50618],[0.14299,51.50928],[0.1272,51.51366],[0.11124,51.5096],[0.09184,51.50896],[0.08171,51.49859],[0.07055,51.49496],[0.03725,51.49453],[0.01459,51.48106],[0.01665,51.45754],[0.04669,51.42961],[0.10866,51.42212],[0.16651,51.43603],[0.19913,51.45722],[0.17372,51.48758]]]},"properties":{"code":"G83633","name":"CONWAY PMS","icb":"QKK"}}]}