{"type":"FeatureCollection","features":[{"type":"Feature","geometry":{"type":"Polygon","coordinates":[[[-0.00889,51.41283],[-0.009032,51.412972],[-0.009053,51.412996],[-0.009069,51.413022],[-0.00908,51.413049],[-0.009086,51.413077],[-0.009151,51.41373],[-0.009152,51.413751],[-0.009149,51.413773],[-0.009143,51.413794],[-0.009134,51.413814],[-0.009121,51.413835],[-0.009106,51.413854],[-0.009088,51.413872],[-0.009067,51.413889],[-0.008756,51.414118],[-0.008727,51.414138],[-0.008694,51.414155],[-0.008658,51.414169],[-0.008619,51.414181],[-0.00785,51.41438],[-0.01094,51.41571],[-0.021969,51.420299],[-0.021971,51.420301],[-0.023452,51.420928],[-0.023496,51.420951],[-0.023535,51.420977],[-0.023566,51.421007],[-0.023589,51.42104],[-0.023907,51.421609],[-0.023917,51.421629],[-0.023923,51.421651],[-0.023927,51.421672],[-0.023927,51.421694],[-0.02387,51.42241],[-0.0245,51.42273],[-0.025106,51.422651],[-0.025145,51.422648],[-0.025184,51.422647],[-0.025223,51.422648],[-0.025262,51.422653],[-0.025299,51.422659],[-0.025335,51.422669],[-0.02537,51.422681],[-0.025402,51.422695],[-0.02594,51.42296],[-0.03068,51.42161],[-0.03373,51.41944],[-0.03461,51.41839],[-0.03487,51.41764],[-0.03521,51.41614],[-0.03484,51.41463],[-0.03386,51.41362],[-0.03255,51.41264],[-0.03098,51.41196],[-0.029425,51.411493],[-0.029379,51.411476],[-0.029337,51.411455],[-0.029301,51.411431],[-0.029271,51.411403],[-0.029247,51.411373],[-0.029231,51.411341],[-0.029223,51.411308],[-0.029223,51.411275],[-0.02923,51.411242],[-0.029246,51.41121],[-0.029268,51.41118],[-0.029298,51.411152],[-0.029334,51.411127],[-0.029375,51.411106],[-0.029421,51.411089],[-0.029471,51.411076],[-0.02965,51.41104],[-0.03028,51.4105],[-0.0309,51.40962],[-0.03178,51.40775],[-0.03219,51.40673],[-0.029833,51.406384],[-0.029772,51.406372],[-0.029716,51.406353],[-0.029666,51.406328],[-0.029624,51.406298],[-0.029591,51.406263],[-0.029568,51.406226],[-0.029557,51.406186],[-0.029557,51.406146],[-0.029767,51.404609],[-0.029778,51.404572],[-0.03011,51.40377],[-0.030305,51.403068],[-0.03032,51.403032],[-0.03076,51.40225],[-0.03101,51.40137],[-0.0306,51.39918],[-0.0299,51.39788],[-0.02869,51.39664],[-0.023259,51.398042],[-0.023199,51.398054],[-0.02169,51.39826],[-0.020259,51.398744],[-0.02022,51.398755],[-0.019113,51.399027],[-0.01906,51.399037],[-0.019005,51.399042],[-0.01895,51.399042],[-0.018895,51.399036],[-0.018842,51.399025],[-0.018793,51.39901],[-0.018748,51.398989],[-0.018709,51.398965],[-0.018676,51.398937],[-0.018651,51.398906],[-0.018633,51.398873],[-0.018624,51.398839],[-0.018623,51.398804],[-0.01863,51.39877],[-0.018646,51.398737],[-0.01867,51.398706],[-0.020227,51.397025],[-0.020252,51.397001],[-0.020282,51.39698],[-0.02121,51.39639],[-0.02274,51.39521],[-0.02324,51.39469],[-0.02358,51.38839],[-0.022478,51.388344],[-0.022426,51.38834],[-0.022376,51.388331],[-0.022328,51.388317],[-0.022284,51.388299],[-0.02172,51.38803],[-0.014147,51.3877],[-0.014133,51.3877],[-0.01028,51.38744],[-0.00662,51.38835],[-0.003312,51.390496],[-0.003265,51.390521],[-0.001077,51.391522],[-0.001042,51.391536],[0.00496,51.39367],[0.00651,51.39431],[0.00755,51.39487],[0.008977,51.395792],[0.009023,51.395817],[0.009075,51.395837],[0.01062,51.39632],[0.01224,51.39699],[0.0136,51.39775],[0.01055,51.39986],[0.00895,51.40073],[0.005707,51.402188],[0.005681,51.402201],[0.005657,51.402215],[0.003933,51.403342],[0.003909,51.403359],[0.001204,51.405529],[0.001179,51.405551],[0.00116,51.405574],[0.001144,51.405599],[0.001134,51.405625],[0.001129,51.405652],[0.001128,51.405678],[0.001133,51.405705],[0.001142,51.405731],[0.001281,51.406025],[0.0013,51.406056],[0.001326,51.406085],[0.001359,51.406111],[0.001397,51.406134],[0.001441,51.406153],[0.001488,51.406168],[0.001539,51.406179],[0.001591,51.406185],[0.00218,51.40622],[0.00178,51.40666],[-0.000585,51.408061],[-0.000613,51.40808],[-0.00234,51.40937],[-0.002566,51.409388],[-0.0026,51.409392],[-0.002633,51.409398],[-0.002665,51.409406],[-0.002696,51.409415],[-0.002725,51.409427],[-0.002753,51.40944],[-0.002778,51.409455],[-0.002801,51.409471],[-0.00374,51.41021],[-0.00421,51.41034],[-0.004993,51.41005],[-0.00505,51.410033],[-0.005534,51.40992],[-0.005577,51.409912],[-0.005621,51.409907],[-0.005666,51.409906],[-0.005711,51.409908],[-0.006071,51.40994],[-0.006123,51.409947],[-0.006173,51.409959],[-0.00622,51.409976],[-0.006262,51.409996],[-0.006657,51.410221],[-0.006688,51.410241],[-0.006715,51.410263],[-0.008177,51.411649],[-0.008198,51.411671],[-0.008214,51.411694],[-0.00889,51.41283]]]},"properties":{"code":"G84018","name":"CORNERWAYS SURGERY","icb":"QKK"}}]}