{"type":"FeatureCollection","features":[{"type":"Feature","geometry":{"type":"Polygon","coordinates":[[[0.0177,51.41515],[0.016866,51.414197],[0.016324,51.413779],[0.015702,51.413123],[0.015203,51.412434],[0.01458,51.411778],[0.014484,51.41154],[0.014387,51.410282],[0.014387,51.409058],[0.014157,51.408904],[0.013594,51.409145],[0.013261,51.409205],[0.012789,51.409178],[0.011898,51.408997],[0.010917,51.408676],[0.01167,51.40738],[0.012365,51.406839],[0.014924,51.405373],[0.015342,51.402793],[0.01709,51.40049],[0.01702,51.39954],[0.017273,51.399172],[0.017697,51.398981],[0.018502,51.398851],[0.019392,51.398623],[0.020385,51.398617],[0.02072,51.39818],[0.024612,51.396304],[0.02539,51.395725],[0.026259,51.395173],[0.0272,51.39465],[0.03121,51.39261],[0.032272,51.391976],[0.0332,51.391273],[0.035255,51.389449],[0.036049,51.389583],[0.037041,51.389636],[0.037733,51.38887],[0.040925,51.389221],[0.042374,51.389255],[0.04307,51.38955],[0.044809,51.389974],[0.04549,51.390065],[0.045978,51.389988],[0.047003,51.389646],[0.04768,51.38947],[0.048081,51.389419],[0.048645,51.389442],[0.051638,51.390038],[0.053655,51.390573],[0.054025,51.391544],[0.054438,51.393556],[0.054942,51.394403],[0.055661,51.395414],[0.05579,51.395762],[0.056015,51.397295],[0.056128,51.398831],[0.056064,51.399266],[0.055785,51.400558],[0.055109,51.40184],[0.055071,51.402288],[0.05517,51.40257],[0.055511,51.40283],[0.058247,51.404547],[0.053161,51.408603],[0.050855,51.410764],[0.04867,51.41294],[0.048403,51.412889],[0.048205,51.412915],[0.04534,51.413842],[0.04357,51.413859],[0.041505,51.413979],[0.041129,51.413849],[0.040512,51.41331],[0.040061,51.412467],[0.039691,51.411055],[0.039536,51.410844],[0.039032,51.410513],[0.038248,51.410289],[0.035035,51.409857],[0.031956,51.40969],[0.031039,51.409817],[0.03062,51.40993],[0.02992,51.41025],[0.029365,51.410396],[0.028785,51.410416],[0.027809,51.410269],[0.02746,51.410714],[0.026849,51.411149],[0.025942,51.411433],[0.02569,51.411587],[0.025535,51.411771],[0.0248,51.413401],[0.02443,51.413568],[0.025084,51.414264],[0.025894,51.414331],[0.027595,51.414384],[0.029832,51.415987],[0.029107,51.416522],[0.027793,51.417208],[0.027326,51.417322],[0.02664,51.417218],[0.024194,51.415552],[0.022697,51.414769],[0.022327,51.414398],[0.022278,51.414103],[0.02019,51.41428],[0.0177,51.41515]]]},"properties":{"code":"G84001","name":"SOUTH VIEW PARTNERSHIP","icb":"QKK"}}]}