{"type":"FeatureCollection","features":[{"type":"Feature","geometry":{"type":"Polygon","coordinates":[[[0.04377,51.38999],[0.044598,51.390023],[0.04588,51.39894],[0.04472,51.40156],[0.03566,51.40526],[0.0338,51.40611],[0.02621,51.407],[0.02242,51.40706],[0.019198,51.406461],[0.01901,51.40659],[0.018627,51.406626],[0.01761,51.40757],[0.01348,51.40916],[0.0109,51.40887],[0.011122,51.408745],[0.009572,51.406916],[0.00815,51.40673],[0.00579,51.40726],[0.00245,51.40638],[-0.00189,51.40676],[-0.00378,51.40761],[-0.00631,51.407],[-0.00549,51.40552],[-0.00768,51.40148],[-0.00863,51.39921],[-0.00451,51.3969],[-0.000127,51.392478],[0.00101,51.39105],[0.00273,51.38813],[0.006119,51.388501],[0.00978,51.38835],[0.01755,51.38828],[0.01781,51.39203],[0.0212,51.39385],[0.02588,51.39511],[0.03523,51.38959],[0.03601,51.38844],[0.037392,51.388704],[0.04236,51.38916],[0.045442,51.390056],[0.044598,51.390023],[0.04459,51.38997],[0.04377,51.38999]]]},"properties":{"code":"G84002","name":"DYSART SURGERY","icb":"QKK"}}]}