{"type":"FeatureCollection","features":[{"type":"Feature","geometry":{"type":"Polygon","coordinates":[[[0.048053,51.385511],[0.047911,51.385658],[0.023129,51.372128],[0.025297,51.372177],[0.022606,51.371731],[0.02468,51.36511],[0.0303,51.35929],[0.03176,51.35463],[0.03021,51.35184],[0.03347,51.35045],[0.03588,51.34954],[0.03622,51.34734],[0.03914,51.34659],[0.04429,51.34723],[0.04824,51.34959],[0.05116,51.35152],[0.05442,51.35152],[0.05854,51.35066],[0.06832,51.35088],[0.088333,51.352693],[0.108234,51.373426],[0.092479,51.384357],[0.087889,51.394532],[0.069727,51.396103],[0.06713,51.396645],[0.064794,51.392429],[0.063853,51.393672],[0.049168,51.385939],[0.048329,51.3858],[0.048053,51.385511]]]},"properties":{"code":"G84006","name":"SUMMERCROFT SURGERY","icb":"QKK"}}]}