{"type":"FeatureCollection","features":[{"type":"Feature","geometry":{"type":"Polygon","coordinates":[[[0.048752,51.350879],[0.05253,51.36651],[0.04617,51.37168],[0.045104,51.375116],[0.03499,51.38953],[0.02213,51.39747],[0.01564,51.39879],[0.01358,51.39777],[0.01062,51.39977],[0.00448,51.40307],[0.00127,51.40563],[0.00144,51.40625],[-0.00026,51.40654],[-0.00348,51.40756],[-0.00601,51.4071],[-0.01169,51.40666],[-0.01442,51.40623],[-0.01777,51.40705],[-0.02015,51.40718],[-0.01989,51.40694],[-0.01955,51.40634],[-0.01983,51.4057],[-0.01817,51.40121],[-0.01809,51.399],[-0.02013,51.39709],[-0.0229,51.39502],[-0.02322,51.3938],[-0.02341,51.39041],[-0.02375,51.38681],[-0.02423,51.38643],[-0.02573,51.38424],[-0.02779,51.37995],[-0.02871,51.37726],[-0.02616,51.3773],[-0.02534,51.37745],[-0.02438,51.37518],[-0.02388,51.37512],[-0.02338,51.37389],[-0.02313,51.37293],[-0.02285,51.37221],[-0.02251,51.37199],[-0.02284,51.37111],[-0.02283,51.37025],[-0.02231,51.36698],[-0.0216,51.36625],[-0.01697,51.36811],[-0.01655,51.36877],[-0.00662,51.36806],[-0.00211,51.36237],[-0.0029,51.3652],[0.00618,51.35774],[0.006695,51.354202],[0.022316,51.360849],[0.029869,51.349592],[0.033989,51.34584],[0.048752,51.350879]]]},"properties":{"code":"G84030","name":"FORGE CLOSE SURGERY","icb":"QKK"}}]}