{"type":"FeatureCollection","features":[{"type":"Feature","geometry":{"type":"Polygon","coordinates":[[[-0.042931,51.383036],[-0.043103,51.382822],[-0.041875,51.380299],[-0.041789,51.380366],[-0.040651,51.380085],[-0.04004,51.37912],[-0.037078,51.379683],[-0.037507,51.381478],[-0.03725,51.385013],[-0.036092,51.390985],[-0.032444,51.390342],[-0.028796,51.389271],[-0.026565,51.386432],[-0.024847,51.386218],[-0.027016,51.381737],[-0.027852,51.379661],[-0.027364,51.379709],[-0.027331,51.379711],[-0.027297,51.379711],[-0.027264,51.37971],[-0.027231,51.379706],[-0.027199,51.379701],[-0.027168,51.379694],[-0.027138,51.379684],[-0.027109,51.379674],[-0.027082,51.379661],[-0.027057,51.379647],[-0.027034,51.379632],[-0.027014,51.379615],[-0.026996,51.379598],[-0.026981,51.379579],[-0.026969,51.37956],[-0.026959,51.37954],[-0.026137,51.377411],[-0.024655,51.377647],[-0.024483,51.377607],[-0.021951,51.377192],[-0.020492,51.377018],[-0.019355,51.376763],[-0.016956,51.376205],[-0.016098,51.377049],[-0.015712,51.378134],[-0.015996,51.37925],[-0.016,51.379273],[-0.016,51.379296],[-0.015996,51.379319],[-0.015989,51.379341],[-0.015978,51.379363],[-0.015964,51.379384],[-0.015946,51.379404],[-0.015925,51.379423],[-0.015901,51.379441],[-0.015874,51.379456],[-0.015845,51.37947],[-0.015814,51.379482],[-0.015781,51.379492],[-0.015746,51.3795],[-0.01571,51.379506],[-0.015674,51.379509],[-0.014897,51.379554],[-0.0132,51.380903],[-0.013156,51.380932],[-0.013105,51.380956],[-0.013049,51.380973],[-0.012988,51.380985],[-0.012925,51.380989],[-0.012862,51.380986],[-0.0128,51.380977],[-0.012742,51.38096],[-0.006575,51.378804],[-0.000784,51.380665],[0.003441,51.382862],[0.00279,51.383687],[0.002775,51.38371],[0.002763,51.383733],[0.002756,51.383757],[0.002753,51.383782],[0.002583,51.388781],[0.000362,51.391781],[0.000349,51.3918],[0.00034,51.39182],[0.000333,51.39184],[0.000329,51.391861],[0.000329,51.391882],[0.000331,51.391902],[0.000337,51.391923],[0.000345,51.391943],[0.000357,51.391963],[0.000371,51.391981],[0.000388,51.391999],[0.000407,51.392016],[0.000429,51.392032],[0.000454,51.392046],[0.00048,51.392059],[0.000508,51.39207],[0.005665,51.393917],[0.009806,51.39614],[0.011201,51.396488],[0.012813,51.397331],[0.015364,51.398607],[0.014725,51.399363],[0.014058,51.400102],[0.011099,51.400498],[0.008972,51.401147],[0.005582,51.403034],[0.001997,51.405685],[0.001051,51.406461],[0.000086,51.40701],[-0.001051,51.407478],[-0.002446,51.407933],[-0.005341,51.410396],[-0.007594,51.414384],[-0.011652,51.413688],[-0.014505,51.413728],[-0.01434,51.414938],[-0.022404,51.415299],[-0.024356,51.412997],[-0.025236,51.411619],[-0.025144,51.410765],[-0.025143,51.410738],[-0.025148,51.41071],[-0.025159,51.410683],[-0.025175,51.410658],[-0.025195,51.410633],[-0.025221,51.41061],[-0.02525,51.41059],[-0.025283,51.410572],[-0.02532,51.410556],[-0.025359,51.410544],[-0.025401,51.410534],[-0.025444,51.410528],[-0.025488,51.410525],[-0.025532,51.410526],[-0.025576,51.41053],[-0.025618,51.410537],[-0.028861,51.411231],[-0.030147,51.410896],[-0.031859,51.407526],[-0.031871,51.407505],[-0.031886,51.407485],[-0.031905,51.407467],[-0.031926,51.407449],[-0.03195,51.407433],[-0.031976,51.407419],[-0.032005,51.407406],[-0.032035,51.407395],[-0.032067,51.407385],[-0.0321,51.407378],[-0.032134,51.407373],[-0.032169,51.40737],[-0.032204,51.407369],[-0.032239,51.40737],[-0.032274,51.407374],[-0.032308,51.407379],[-0.040383,51.408763],[-0.035706,51.411038],[-0.035189,51.416097],[-0.040062,51.416472],[-0.044373,51.417516],[-0.04593,51.414879],[-0.046821,51.413039],[-0.048955,51.414705],[-0.051359,51.417134],[-0.053,51.416254],[-0.053639,51.415927],[-0.0541,51.415843],[-0.054717,51.415321],[-0.057185,51.412915],[-0.058553,51.411734],[-0.060124,51.41063],[-0.060441,51.41045],[-0.061756,51.409593],[-0.059747,51.408661],[-0.056187,51.404634],[-0.056166,51.404606],[-0.056151,51.404575],[-0.056144,51.404544],[-0.056143,51.404512],[-0.052561,51.401018],[-0.050159,51.399251],[-0.047823,51.398395],[-0.047772,51.398372],[-0.047728,51.398345],[-0.047693,51.398312],[-0.047666,51.398277],[-0.04765,51.398239],[-0.047645,51.3982],[-0.047651,51.398161],[-0.047667,51.398124],[-0.047971,51.397604],[-0.048172,51.397102],[-0.048182,51.397081],[-0.048195,51.397062],[-0.048211,51.397043],[-0.048229,51.397025],[-0.04825,51.397008],[-0.048274,51.396993],[-0.0483,51.396979],[-0.048327,51.396967],[-0.049123,51.396648],[-0.049169,51.396633],[-0.049219,51.396621],[-0.04927,51.396615],[-0.049323,51.396613],[-0.050266,51.395462],[-0.050291,51.395436],[-0.050321,51.395413],[-0.051897,51.394337],[-0.051982,51.393467],[-0.051257,51.393136],[-0.051225,51.39312],[-0.051196,51.393101],[-0.051171,51.393081],[-0.05115,51.393059],[-0.049214,51.390746],[-0.049197,51.390721],[-0.049184,51.390695],[-0.048846,51.389829],[-0.048839,51.389807],[-0.048836,51.389785],[-0.048837,51.389762],[-0.04884,51.38974],[-0.049001,51.389115],[-0.04898,51.388781],[-0.047414,51.388058],[-0.045524,51.387334],[-0.045476,51.387312],[-0.045435,51.387286],[-0.045401,51.387256],[-0.045375,51.387222],[-0.043875,51.384737],[-0.042963,51.384335],[-0.042932,51.38432],[-0.042904,51.384303],[-0.042574,51.384077],[-0.042542,51.384051],[-0.042516,51.384023],[-0.042497,51.383992],[-0.042485,51.383961],[-0.042379,51.383544],[-0.042375,51.383519],[-0.042375,51.383494],[-0.04238,51.383469],[-0.042389,51.383445],[-0.042403,51.383421],[-0.04242,51.383399],[-0.042442,51.383378],[-0.042467,51.383358],[-0.042931,51.383036]]]},"properties":{"code":"G84028","name":"ST JAMES' PRACTICE","icb":"QKK"}}]}