{"type":"FeatureCollection","features":[{"type":"Feature","geometry":{"type":"Polygon","coordinates":[[[0.01734,51.37778],[0.02283,51.37071],[0.02369,51.37033],[0.02553,51.36591],[0.02667,51.36346],[0.02867,51.36106],[0.03068,51.35913],[0.03365,51.3594],[0.04214,51.35962],[0.04667,51.35979],[0.05317,51.3597],[0.05847,51.36006],[0.064,51.36077],[0.06618,51.35924],[0.07105,51.35979],[0.07575,51.35927],[0.08652,51.35699],[0.06669,51.36717],[0.05592,51.37885],[0.05345,51.39042],[0.05545,51.40199],[0.04618,51.40156],[0.04326,51.40199],[0.03794,51.40467],[0.03313,51.4067],[0.02472,51.40702],[0.01888,51.40659],[0.0194,51.39942],[0.00017,51.39192],[0.00223,51.38667],[0.00378,51.38207],[0.00755,51.37853],[0.01734,51.37778]]]},"properties":{"code":"G84024","name":"BROMLEY COMMON PRACTICE","icb":"QKK"}}]}