{"type":"FeatureCollection","features":[{"type":"Feature","geometry":{"type":"Polygon","coordinates":[[[-0.013302,51.428719],[-0.011137,51.429244],[-0.010334,51.428179],[-0.009428,51.426878],[-0.007615,51.424275],[-0.00399,51.41907],[-0.00313,51.41805],[-0.00232,51.41725],[-0.00159,51.41674],[-0.00064,51.41556],[-0.0003,51.41481],[0.0006,51.41329],[0.00086,51.41254],[0.00082,51.412],[0.00206,51.412],[0.00266,51.41187],[0.00262,51.41294],[0.00386,51.4112],[0.00378,51.4108],[0.00468,51.4097],[0.00614,51.40863],[0.007,51.40759],[0.00657,51.40734],[0.00721,51.40724],[0.0079,51.40697],[0.00841,51.40692],[0.00897,51.40726],[0.00957,51.4075],[0.01069,51.40724],[0.01142,51.40753],[0.01223,51.40753],[0.01343,51.40764],[0.01348,51.40812],[0.01378,51.40852],[0.01386,51.40887],[0.01459,51.40866],[0.01502,51.40839],[0.01704,51.40759],[0.01802,51.40684],[0.01841,51.40643],[0.01927,51.40659],[0.02172,51.40716],[0.02352,51.40729],[0.02665,51.40708],[0.02875,51.40684],[0.03064,51.4067],[0.03377,51.40627],[0.0342,51.40641],[0.03485,51.40681],[0.03493,51.40916],[0.03519,51.40973],[0.03571,51.40986],[0.03738,51.41013],[0.03927,51.41072],[0.0397,51.41152],[0.04004,51.41286],[0.03626,51.41631],[0.0297,51.41971],[0.02249,51.42137],[0.02287,51.42158],[0.02764,51.42244],[0.03111,51.42247],[0.03317,51.42223],[0.03442,51.42265],[0.04472,51.4207],[0.05094,51.41944],[0.0524,51.41926],[0.05373,51.41915],[0.05742,51.4181],[0.06098,51.41861],[0.06527,51.41982],[0.06665,51.42049],[0.06832,51.42108],[0.06918,51.42099],[0.06879,51.42247],[0.0666,51.42651],[0.06639,51.42961],[0.0633,51.43464],[0.06231,51.43515],[0.06085,51.43566],[0.05875,51.43659],[0.05502,51.43742],[0.05261,51.43801],[0.05043,51.43884],[0.04922,51.43914],[0.04184,51.44069],[0.03828,51.44165],[0.03493,51.4428],[0.03326,51.44031],[0.02734,51.43437],[0.02661,51.434],[0.02614,51.43288],[0.02408,51.43293],[0.02154,51.43306],[0.02176,51.43063],[0.01905,51.43223],[0.01738,51.4337],[0.01584,51.4348],[0.01373,51.43453],[0.01184,51.43416],[0.00936,51.43411],[0.00485,51.4325],[-0.00215,51.43127],[-0.009217,51.430027],[-0.012561,51.429237],[-0.013302,51.428719]]]},"properties":{"code":"G84003","name":"LINKS MEDICAL PRACTICE","icb":"QKK"}}]}