{"type":"FeatureCollection","features":[{"type":"Feature","geometry":{"type":"Polygon","coordinates":[[[-0.05588,51.4037],[-0.04991,51.39851],[-0.05018,51.39643],[-0.0508,51.39548],[-0.05194,51.39475],[-0.05179,51.39382],[-0.05066,51.39326],[-0.04858,51.39336],[-0.04712,51.39246],[-0.04528,51.39078],[-0.04344,51.38935],[-0.04239,51.38916],[-0.04131,51.38911],[-0.0321,51.38823],[-0.02594,51.38614],[-0.02442,51.38631],[-0.02652,51.38943],[-0.02622,51.38967],[-0.02714,51.39085],[-0.02704,51.39163],[-0.02446,51.39492],[-0.02141,51.39788],[-0.01852,51.39907],[-0.01854,51.39933],[-0.0221,51.39972],[-0.02372,51.40174],[-0.02442,51.40378],[-0.02454,51.40622],[-0.02506,51.40784],[-0.02485,51.41024],[-0.02786,51.41123],[-0.03061,51.41153],[-0.03237,51.41242],[-0.03475,51.41381],[-0.03528,51.41372],[-0.03534,51.41199],[-0.0442,51.40908],[-0.05588,51.4037]]]},"properties":{"code":"G84011","name":"EDEN PARK SURGERY","icb":"QKK"}}]}