{"type":"FeatureCollection","features":[{"type":"Feature","geometry":{"type":"Polygon","coordinates":[[[-0.0848,51.48128],[-0.08877,51.47499],[-0.08901,51.47379],[-0.09253,51.47133],[-0.09175,51.46926],[-0.09004,51.46712],[-0.08952,51.4631],[-0.08549,51.45529],[-0.08407,51.45411],[-0.08094,51.45438],[-0.07982,51.45385],[-0.0809,51.45203],[-0.07751,51.45042],[-0.07587,51.44802],[-0.07107,51.4447],[-0.06448,51.44093],[-0.05961,51.44411],[-0.05742,51.45069],[-0.04824,51.45625],[-0.04523,51.46072],[-0.04995,51.46572],[-0.03646,51.46596],[-0.03515,51.46973],[-0.03238,51.47176],[-0.03613,51.4754],[-0.04437,51.4739],[-0.0539,51.47871],[-0.04965,51.48205],[-0.0497,51.48432],[-0.05545,51.4824],[-0.06223,51.48146],[-0.06935,51.48202],[-0.06993,51.48384],[-0.07211,51.48432],[-0.07257,51.48309],[-0.0739,51.4817],[-0.0848,51.48128]]]},"properties":{"code":"G85006","name":"THE ACORN & GAUMONT HOUSE SURGERY","icb":"QKK"}}]}