{"type":"FeatureCollection","features":[{"type":"Feature","geometry":{"type":"Polygon","coordinates":[[[-0.102396,51.492339],[-0.112676,51.481704],[-0.101867,51.47732],[-0.10694,51.473712],[-0.107562,51.472415],[-0.107019,51.470745],[-0.105089,51.467483],[-0.10333,51.465932],[-0.102,51.465318],[-0.098311,51.465692],[-0.091234,51.467831],[-0.085658,51.469274],[-0.080382,51.469649],[-0.075964,51.469141],[-0.07279,51.469248],[-0.072833,51.472429],[-0.070002,51.473739],[-0.068414,51.474059],[-0.057199,51.473792],[-0.053773,51.479338],[-0.053022,51.480929],[-0.052764,51.482586],[-0.052679,51.483334],[-0.052872,51.484256],[-0.053,51.484991],[-0.053258,51.485833],[-0.053408,51.486327],[-0.053794,51.486861],[-0.054545,51.487944],[-0.050973,51.489657],[-0.0474,51.490389],[-0.046928,51.490536],[-0.046563,51.490603],[-0.043409,51.491124],[-0.041134,51.491818],[-0.040834,51.491898],[-0.040362,51.492112],[-0.039718,51.492286],[-0.038667,51.492446],[-0.037251,51.491912],[-0.034933,51.492553],[-0.032701,51.493568],[-0.032616,51.495385],[-0.031843,51.497309],[-0.031843,51.500889],[-0.031414,51.503934],[-0.033045,51.505804],[-0.034504,51.506819],[-0.037422,51.50746],[-0.040512,51.507834],[-0.043688,51.507514],[-0.047808,51.504682],[-0.053043,51.502438],[-0.056079,51.501136],[-0.061597,51.500746],[-0.06472,51.500964],[-0.068756,51.501849],[-0.078548,51.505522],[-0.09201,51.50746],[-0.095015,51.508475],[-0.098718,51.508733],[-0.103683,51.508849],[-0.109177,51.508715],[-0.113047,51.508323],[-0.116551,51.507416],[-0.117825,51.506539],[-0.118891,51.504995],[-0.120191,51.501743],[-0.121196,51.49469],[-0.110862,51.493125],[-0.110895,51.495458],[-0.105228,51.493836],[-0.102396,51.492339]]]},"properties":{"code":"G85034","name":"NEXUS HEALTH GROUP","icb":"QKK"}}]}