{"type":"FeatureCollection","features":[{"type":"Feature","geometry":{"type":"Polygon","coordinates":[[[-0.102634,51.432629],[-0.090652,51.435587],[-0.091447,51.441337],[-0.094224,51.445528],[-0.098439,51.449391],[-0.10242,51.453976],[-0.11223,51.46296],[-0.128718,51.459718],[-0.134228,51.442664],[-0.13798,51.440681],[-0.135045,51.429948],[-0.129988,51.423299],[-0.113679,51.423478],[-0.105796,51.422975],[-0.104368,51.431714],[-0.102634,51.432629]]]},"properties":{"code":"G85041","name":"PALACE ROAD SURGERY","icb":"QKK"}}]}