{"type":"FeatureCollection","features":[{"type":"Feature","geometry":{"type":"Polygon","coordinates":[[[-0.12407,51.48638],[-0.12625,51.48458],[-0.12809,51.48483],[-0.1363,51.48213],[-0.13943,51.48027],[-0.14256,51.47938],[-0.145054,51.478122],[-0.144968,51.477507],[-0.144539,51.477053],[-0.142822,51.475583],[-0.14235,51.475048],[-0.140655,51.472335],[-0.139732,51.471413],[-0.138896,51.470397],[-0.1381,51.47076],[-0.13595,51.46856],[-0.13513,51.46876],[-0.13133,51.46658],[-0.13095,51.46609],[-0.131,51.4656],[-0.129712,51.465224],[-0.128253,51.465237],[-0.126901,51.465465],[-0.1263,51.465478],[-0.123832,51.466093],[-0.121,51.467416],[-0.119476,51.468472],[-0.118361,51.469381],[-0.117137,51.469702],[-0.11585,51.47013],[-0.114455,51.470464],[-0.112481,51.470504],[-0.11278,51.472],[-0.11244,51.47651],[-0.11192,51.47876],[-0.11021,51.48101],[-0.11283,51.48232],[-0.11341,51.48274],[-0.11417,51.48273],[-0.11619,51.48309],[-0.11735,51.48428],[-0.12207,51.48622],[-0.12407,51.48638]]]},"properties":{"code":"G85086","name":"THE SOUTH LAMBETH RD PRACTICE","icb":"QKK"}}]}