{"type":"FeatureCollection","features":[{"type":"Feature","geometry":{"type":"Polygon","coordinates":[[[-0.106862,51.440268],[-0.10838,51.44036],[-0.1108,51.44067],[-0.11235,51.44093],[-0.11473,51.44202],[-0.11541,51.44255],[-0.11616,51.44291],[-0.116265,51.442887],[-0.11629,51.44298],[-0.11894,51.44371],[-0.12111,51.44422],[-0.12463,51.44523],[-0.12486,51.44389],[-0.12453,51.44255],[-0.12506,51.44095],[-0.126,51.43956],[-0.12737,51.43721],[-0.12817,51.43523],[-0.12831,51.43322],[-0.12905,51.43232],[-0.12938,51.43132],[-0.1309,51.42947],[-0.13125,51.42652],[-0.12923,51.42225],[-0.12836,51.42068],[-0.12784,51.41913],[-0.12651,51.4173],[-0.12455,51.41552],[-0.12304,51.41504],[-0.12079,51.41742],[-0.1182,51.41982],[-0.11746,51.42062],[-0.116507,51.42359],[-0.11419,51.4235],[-0.11211,51.42314],[-0.112092,51.423219],[-0.11208,51.42319],[-0.110345,51.423151],[-0.11038,51.42298],[-0.108817,51.42298],[-0.10706,51.42269],[-0.10582,51.42263],[-0.10437,51.42897],[-0.10411,51.43173],[-0.10373,51.43324],[-0.10401,51.43518],[-0.10422,51.43569],[-0.10521,51.4371],[-0.10562,51.43786],[-0.105992,51.438815],[-0.10623,51.44023],[-0.106862,51.440268]]]},"properties":{"code":"G85044","name":"VALLEY ROAD SURGERY","icb":"QKK"}}]}