{"type":"FeatureCollection","features":[{"type":"Feature","geometry":{"type":"Polygon","coordinates":[[[-0.03313,51.47652],[-0.034008,51.475589],[-0.036309,51.475565],[-0.03943,51.474793],[-0.046103,51.474061],[-0.052462,51.472822],[-0.060638,51.473744],[-0.066018,51.465498],[-0.066177,51.462175],[-0.074744,51.460505],[-0.075916,51.455555],[-0.075702,51.451327],[-0.07099,51.44593],[-0.067244,51.443648],[-0.062982,51.441051],[-0.054146,51.440405],[-0.04953,51.441194],[-0.041677,51.442537],[-0.034487,51.442613],[-0.027641,51.443553],[-0.022201,51.4449],[-0.018591,51.447807],[-0.017297,51.451106],[-0.01678,51.45278],[-0.01417,51.44991],[-0.01122,51.45175],[-0.00884,51.45339],[-0.007107,51.456042],[-0.005707,51.455188],[-0.000243,51.451854],[0.01373,51.449604],[0.023276,51.44852],[0.03117,51.450829],[0.036717,51.453506],[0.041354,51.456697],[0.034399,51.459355],[0.03071,51.460765],[0.028528,51.463167],[0.027692,51.468916],[0.024134,51.474368],[0.015082,51.473129],[0.005363,51.472163],[-0.002535,51.472083],[-0.004871,51.475659],[-0.009796,51.480668],[-0.01821,51.479032],[-0.022134,51.476868],[-0.023503,51.474772],[-0.03313,51.47652]]]},"properties":{"code":"G85038","name":"THE LEWISHAM CARE PARTNERSHIP","icb":"QKK"}}]}