{"type":"FeatureCollection","features":[{"type":"Feature","geometry":{"type":"Polygon","coordinates":[[[-0.07262,51.50335],[-0.07502,51.49918],[-0.0788,51.49234],[-0.08052,51.490395],[-0.077248,51.488578],[-0.074286,51.487035],[-0.067742,51.484657],[-0.064437,51.48328],[-0.061519,51.481784],[-0.061197,51.481476],[-0.06079,51.481209],[-0.059803,51.480755],[-0.057871,51.480047],[-0.054202,51.478617],[-0.047936,51.476144],[-0.0471,51.47569],[-0.046649,51.475195],[-0.046456,51.474808],[-0.045941,51.4745],[-0.04534,51.474413],[-0.044739,51.474327],[-0.043559,51.47434],[-0.042508,51.474407],[-0.041306,51.474701],[-0.040019,51.475042],[-0.03768,51.47561],[-0.035727,51.47581],[-0.0318,51.47589],[-0.032101,51.476986],[-0.032251,51.478055],[-0.031865,51.48022],[-0.032358,51.481944],[-0.034075,51.482759],[-0.03392,51.4837],[-0.02944,51.487984],[-0.032122,51.504482],[-0.032884,51.506051],[-0.034193,51.506492],[-0.0356,51.50687],[-0.04008,51.50794],[-0.045576,51.506926],[-0.05562,51.50156],[-0.07262,51.50335]]]},"properties":{"code":"G85087","name":"SILVERLOCK MEDICAL CENTRE","icb":"QKK"}}]}