{"type":"FeatureCollection","features":[{"type":"Feature","geometry":{"type":"Polygon","coordinates":[[[0.01596,51.43539],[0.01545,51.43614],[0.0115,51.43946],[0.00532,51.44545],[0.00017,51.45026],[-0.00163,51.45211],[-0.00722,51.4511],[-0.01006,51.44573],[-0.01695,51.4459],[-0.01822,51.44399],[-0.02013,51.44422],[-0.02026,51.43978],[-0.01734,51.4325],[-0.01322,51.42865],[-0.00223,51.4309],[0.00635,51.43282],[0.01596,51.43539]]]},"properties":{"code":"G85032","name":"TORRIDON ROAD MEDICAL PRACTICE","icb":"QKK"}}]}