{"type":"FeatureCollection","features":[{"type":"Feature","geometry":{"type":"Polygon","coordinates":[[[-0.07599,51.50425],[-0.07739,51.50228],[-0.07601,51.50143],[-0.07502,51.50092],[-0.07267,51.50003],[-0.07017,51.49872],[-0.07227,51.49814],[-0.06843,51.49627],[-0.06302,51.49387],[-0.06,51.49241],[-0.05939,51.49243],[-0.05709,51.49132],[-0.05488,51.49041],[-0.05253,51.49106],[-0.04972,51.49107],[-0.04486,51.49189],[-0.04473,51.49178],[-0.0417,51.49246],[-0.03981,51.49295],[-0.0391,51.49295],[-0.03812,51.49236],[-0.03763,51.49221],[-0.03637,51.49235],[-0.03357,51.49291],[-0.0334,51.49298],[-0.03327,51.49286],[-0.03175,51.49315],[-0.03235,51.49415],[-0.03237,51.49755],[-0.03197,51.49911],[-0.03153,51.5018],[-0.03139,51.50318],[-0.0323,51.50562],[-0.03329,51.50639],[-0.03583,51.50712],[-0.03861,51.50758],[-0.04096,51.50768],[-0.04355,51.50733],[-0.04451,51.50704],[-0.04614,51.50602],[-0.04736,51.50552],[-0.04893,51.50442],[-0.05235,51.50277],[-0.05393,51.50211],[-0.05714,51.50118],[-0.0593,51.50092],[-0.06078,51.50089],[-0.06225,51.50093],[-0.06422,51.50112],[-0.06613,51.50146],[-0.07091,51.50279],[-0.0727,51.50372],[-0.07386,51.50395],[-0.0757,51.50449],[-0.07599,51.50425]]]},"properties":{"code":"G85138","name":"ALBION STREET GROUP PRACTICE","icb":"QKK"}}]}