{"type":"FeatureCollection","features":[{"type":"Feature","geometry":{"type":"Polygon","coordinates":[[[-0.049315,51.464866],[-0.049417,51.464997],[-0.049739,51.465428],[-0.050082,51.465969],[-0.049578,51.465832],[-0.049042,51.466163],[-0.049422,51.466277],[-0.050415,51.466527],[-0.050597,51.46634],[-0.051457,51.466541],[-0.050769,51.46761],[-0.051337,51.468312],[-0.051831,51.468773],[-0.052207,51.469214],[-0.051616,51.469809],[-0.05182,51.470551],[-0.051981,51.471025],[-0.052657,51.472783],[-0.054964,51.47279],[-0.055785,51.472796],[-0.056106,51.47311],[-0.057067,51.472993],[-0.057163,51.473164],[-0.057313,51.47317],[-0.057142,51.472853],[-0.057179,51.472499],[-0.057963,51.472155],[-0.058424,51.471767],[-0.059762,51.471079],[-0.062603,51.470203],[-0.062238,51.469722],[-0.061723,51.469565],[-0.061176,51.469308],[-0.061122,51.469087],[-0.062506,51.46882],[-0.061551,51.466407],[-0.061251,51.465832],[-0.061755,51.465772],[-0.062689,51.465899],[-0.06404,51.465672],[-0.065939,51.465638],[-0.065864,51.46505],[-0.065854,51.464863],[-0.064974,51.463245],[-0.064727,51.462885],[-0.064641,51.462731],[-0.063343,51.461822],[-0.061841,51.461013],[-0.059792,51.460064],[-0.057112,51.459129],[-0.055827,51.45871],[-0.054374,51.458402],[-0.052968,51.457604],[-0.052593,51.457383],[-0.0513,51.456671],[-0.050468,51.45628],[-0.050597,51.455489],[-0.05057,51.455162],[-0.050401,51.454868],[-0.050173,51.454548],[-0.049878,51.454291],[-0.048666,51.454846],[-0.047497,51.455839],[-0.046971,51.45642],[-0.046629,51.457126],[-0.045907,51.458847],[-0.045555,51.459756],[-0.047185,51.461815],[-0.04815,51.463427],[-0.049315,51.464866]]]},"properties":{"code":"G85685","name":"THE NUNHEAD SURGERY","icb":"QKK"}}]}