{"type":"FeatureCollection","features":[{"type":"Feature","geometry":{"type":"Polygon","coordinates":[[[-0.148884,51.44718],[-0.124518,51.443595],[-0.122545,51.452796],[-0.114191,51.463081],[-0.118781,51.463268],[-0.122384,51.472118],[-0.124546,51.483384],[-0.150333,51.474044],[-0.168215,51.478586],[-0.165856,51.472438],[-0.169974,51.471262],[-0.169288,51.463188],[-0.171683,51.459917],[-0.169795,51.455478],[-0.166289,51.445915],[-0.16565,51.441597],[-0.161087,51.435989],[-0.148884,51.44718]]]},"properties":{"code":"G85674","name":"GRAFTON SQUARE SURGERY","icb":"QKK"}}]}