{"type":"FeatureCollection","features":[{"type":"Feature","geometry":{"type":"Polygon","coordinates":[[[-0.07479,51.46784],[-0.07564,51.46778],[-0.07644,51.46779],[-0.07803,51.46764],[-0.07922,51.46732],[-0.08387,51.4651],[-0.08199,51.46325],[-0.08117,51.46254],[-0.08026,51.4619],[-0.08214,51.45895],[-0.08454,51.45663],[-0.0855,51.45376],[-0.08544,51.45088],[-0.0818,51.44897],[-0.07585,51.44749],[-0.06894,51.44403],[-0.06519,51.44144],[-0.06382,51.44403],[-0.06257,51.44697],[-0.05768,51.45042],[-0.06442,51.45647],[-0.06682,51.46171],[-0.06566,51.46254],[-0.06472,51.46264],[-0.0597,51.46462],[-0.05573,51.46668],[-0.05582,51.46685],[-0.05713,51.46731],[-0.05839,51.46795],[-0.05948,51.46875],[-0.06073,51.46943],[-0.07128,51.46818],[-0.07479,51.46784]]]},"properties":{"code":"G85651","name":"THE DULWICH MEDICAL CENTRE","icb":"QKK"}}]}