{"type":"FeatureCollection","features":[{"type":"Feature","geometry":{"type":"Polygon","coordinates":[[[-0.12827,51.48456],[-0.13737,51.48144],[-0.14098,51.47986],[-0.14424,51.47855],[-0.14686,51.47679],[-0.14862,51.47262],[-0.15029,51.46751],[-0.1451,51.46909],[-0.13999,51.46251],[-0.13501,51.46318],[-0.13136,51.46494],[-0.12669,51.46978],[-0.12342,51.47232],[-0.126256,51.477373],[-0.127715,51.479671],[-0.128486,51.48015],[-0.12827,51.48456]]]},"properties":{"code":"G85673","name":"SPRINGFIELD MEDICAL CENTRE","icb":"QKK"}}]}