{"type":"FeatureCollection","features":[{"type":"Feature","geometry":{"type":"Polygon","coordinates":[[[-0.18024,51.46706],[-0.17887,51.4623],[-0.17509,51.45861],[-0.17269,51.45871],[-0.17063,51.45294],[-0.16136,51.44502],[-0.15072,51.44309],[-0.14454,51.43582],[-0.12806,51.43389],[-0.12154,51.45187],[-0.11398,51.46449],[-0.12445,51.48235],[-0.14591,51.48373],[-0.15759,51.48309],[-0.16994,51.48096],[-0.17492,51.47839],[-0.17853,51.47508],[-0.18024,51.46706]]]},"properties":{"code":"G85708","name":"DR CURRAN & PARTNERS","icb":"QKK"}}]}