{"type":"FeatureCollection","features":[{"type":"Feature","geometry":{"type":"Polygon","coordinates":[[[-0.017166,51.445877],[-0.020771,51.444111],[-0.020514,51.439992],[-0.018797,51.437691],[-0.017509,51.432769],[-0.014248,51.429183],[-0.010986,51.427364],[-0.004978,51.425384],[-0.002317,51.421744],[0.003605,51.417783],[0.006781,51.419175],[0.016651,51.419282],[0.018196,51.419978],[0.020514,51.420888],[0.022058,51.421798],[0.021715,51.42351],[0.02223,51.425277],[0.020943,51.426829],[0.021372,51.433036],[0.020256,51.435176],[0.017939,51.437424],[0.016222,51.440473],[0.014849,51.443683],[0.013647,51.445823],[0.008068,51.445663],[0.003176,51.445235],[-0.007725,51.445021],[-0.017166,51.445877]]]},"properties":{"code":"G85716","name":"OAKVIEW FAMILY PRACTICE","icb":"QKK"}}]}