{"type":"FeatureCollection","features":[{"type":"Feature","geometry":{"type":"Polygon","coordinates":[[[-0.01309,51.46895],[-0.01117,51.46666],[-0.01137,51.46514],[-0.01256,51.46445],[-0.0147,51.46445],[-0.01829,51.46532],[-0.01893,51.4646],[-0.01879,51.46313],[-0.01843,51.46095],[-0.01871,51.45898],[-0.0201,51.45712],[-0.01987,51.45657],[-0.01641,51.45664],[-0.01451,51.456333],[-0.0159,51.45506],[-0.01705,51.45039],[-0.01745,51.44843],[-0.01957,51.4462],[-0.01219,51.44518],[-0.00446,51.44507],[0.00463,51.4454],[0.01373,51.44598],[0.00586,51.45145],[0.00172,51.45863],[-0.00245,51.4587],[-0.00654,51.46162],[-0.01005,51.46273],[-0.0112,51.46431],[-0.01051,51.46605],[-0.00925,51.4675],[-0.00879,51.46921],[-0.00891,51.4703],[-0.01309,51.46895]]]},"properties":{"code":"G85722","name":"WOODLANDS HEALTH CENTRE","icb":"QKK"}}]}