{"type":"FeatureCollection","features":[{"type":"Feature","geometry":{"type":"Polygon","coordinates":[[[-0.64188,51.25507],[-0.63991,51.23618],[-0.61663,51.22828],[-0.61083,51.22786],[-0.60349,51.22824],[-0.59659,51.22896],[-0.58957,51.22645],[-0.58407,51.2263],[-0.57089,51.22551],[-0.54484,51.23656],[-0.54437,51.23649],[-0.5364,51.23751],[-0.53641,51.23741],[-0.53638,51.23749],[-0.5338,51.23833],[-0.53378,51.23838],[-0.52249,51.24322],[-0.5303,51.24682],[-0.534773,51.25137],[-0.534532,51.251484],[-0.534682,51.251628],[-0.535042,51.251759],[-0.53538,51.251967],[-0.54195,51.25768],[-0.54767,51.2578],[-0.54842,51.25605],[-0.55202,51.25294],[-0.56043,51.26221],[-0.5732,51.26343],[-0.57696,51.26693],[-0.58189,51.26704],[-0.58995,51.26663],[-0.59818,51.26702],[-0.61197,51.27923],[-0.61358,51.2751],[-0.61115,51.27069],[-0.61783,51.26711],[-0.62844,51.26427],[-0.63224,51.26514],[-0.6397,51.26484],[-0.64311,51.25958],[-0.64188,51.25507]]]},"properties":{"code":"H81090","name":"WOODBRIDGE HILL SURGERY","icb":"S9B9J"}}]}