{"type":"FeatureCollection","features":[{"type":"Feature","geometry":{"type":"Polygon","coordinates":[[[-0.6197,51.10568],[-0.617484,51.107485],[-0.613829,51.110463],[-0.612774,51.113229],[-0.612924,51.131822],[-0.611605,51.134714],[-0.610141,51.136759],[-0.604867,51.146415],[-0.601455,51.152204],[-0.60046,51.153196],[-0.591923,51.152371],[-0.588534,51.152043],[-0.585516,51.151585],[-0.582927,51.151191],[-0.57885,51.150572],[-0.57316,51.149723],[-0.568412,51.149107],[-0.563744,51.148361],[-0.559583,51.147585],[-0.553874,51.14652],[-0.551136,51.146155],[-0.549706,51.145825],[-0.54546,51.135244],[-0.534193,51.140915],[-0.533648,51.146528],[-0.533768,51.1494],[-0.533968,51.152184],[-0.534242,51.152518],[-0.534131,51.153249],[-0.533864,51.153945],[-0.533477,51.154789],[-0.53343,51.155004],[-0.533349,51.155215],[-0.533287,51.15565],[-0.533614,51.157146],[-0.535005,51.156776],[-0.535456,51.156704],[-0.536015,51.156698],[-0.536902,51.156733],[-0.537661,51.156777],[-0.538,51.156779],[-0.538405,51.156761],[-0.5399,51.156721],[-0.540388,51.156711],[-0.540885,51.156701],[-0.541511,51.15675],[-0.542049,51.156845],[-0.543916,51.157579],[-0.544379,51.157718],[-0.544836,51.157856],[-0.545882,51.158023],[-0.546847,51.158099],[-0.547884,51.158168],[-0.548386,51.158098],[-0.549591,51.157869],[-0.550303,51.15767],[-0.55057,51.157516],[-0.552403,51.156458],[-0.552713,51.156287],[-0.553219,51.15606],[-0.554033,51.155774],[-0.554457,51.15574],[-0.554897,51.155765],[-0.555793,51.155756],[-0.557101,51.155831],[-0.55764,51.155637],[-0.558107,51.155506],[-0.558482,51.155502],[-0.558828,51.155482],[-0.559551,51.155553],[-0.560053,51.155722],[-0.560421,51.156082],[-0.560407,51.156341],[-0.560384,51.156767],[-0.56064,51.157373],[-0.561008,51.158065],[-0.561251,51.158287],[-0.561483,51.1585],[-0.562094,51.158766],[-0.563767,51.159376],[-0.564391,51.159756],[-0.564943,51.160192],[-0.565269,51.160473],[-0.565573,51.160732],[-0.565974,51.16095],[-0.566564,51.161243],[-0.567158,51.161567],[-0.567739,51.161929],[-0.568242,51.16232],[-0.568424,51.162663],[-0.568375,51.163008],[-0.568212,51.163366],[-0.568046,51.163728],[-0.568814,51.164261],[-0.569253,51.164572],[-0.569719,51.16477],[-0.573019,51.166897],[-0.58549,51.160266],[-0.587123,51.159831],[-0.591122,51.159068],[-0.593588,51.158411],[-0.596379,51.158381],[-0.599265,51.158764],[-0.602703,51.159732],[-0.606509,51.162733],[-0.603284,51.167955],[-0.601196,51.175669],[-0.618467,51.178716],[-0.626219,51.17995],[-0.634512,51.18127],[-0.642466,51.182535],[-0.643029,51.181974],[-0.643664,51.181188],[-0.646396,51.180581],[-0.650882,51.180382],[-0.652045,51.180426],[-0.651756,51.180895],[-0.651498,51.181408],[-0.651294,51.181996],[-0.651209,51.182562],[-0.652208,51.182058],[-0.652738,51.181764],[-0.653881,51.181325],[-0.654857,51.180998],[-0.655348,51.18082],[-0.655871,51.180746],[-0.656532,51.180797],[-0.65706,51.180895],[-0.657404,51.181312],[-0.65753,51.181549],[-0.658085,51.181676],[-0.658739,51.181739],[-0.659453,51.181933],[-0.660149,51.182092],[-0.660551,51.182228],[-0.660963,51.18223],[-0.661372,51.182269],[-0.661798,51.18231],[-0.664858,51.178914],[-0.669181,51.166426],[-0.686342,51.156884],[-0.715455,51.156545],[-0.71442,51.151887],[-0.715658,51.149873],[-0.715767,51.148849],[-0.715756,51.147774],[-0.715854,51.145675],[-0.71605,51.141476],[-0.716411,51.13376],[-0.716585,51.130016],[-0.716311,51.126403],[-0.716208,51.125046],[-0.716107,51.123704],[-0.716559,51.121091],[-0.717285,51.118546],[-0.717962,51.1173],[-0.718615,51.116099],[-0.705976,51.116028],[-0.707367,51.1231],[-0.708735,51.130048],[-0.701696,51.137092],[-0.696053,51.144089],[-0.695432,51.130362],[-0.672085,51.12856],[-0.657452,51.118418],[-0.652284,51.115602],[-0.645003,51.111854],[-0.639281,51.10817],[-0.635815,51.105816],[-0.630364,51.103977],[-0.624885,51.104295],[-0.622169,51.10485],[-0.6197,51.10568]]]},"properties":{"code":"H81031","name":"WITLEY SURGERY","icb":"S9B9J"}}]}