{"type":"FeatureCollection","features":[{"type":"Feature","geometry":{"type":"Polygon","coordinates":[[[-0.527494,51.245927],[-0.525756,51.247257],[-0.526893,51.252542],[-0.528701,51.25365],[-0.530364,51.253982],[-0.531807,51.254509],[-0.532172,51.255026],[-0.533733,51.255681],[-0.535069,51.257108],[-0.535519,51.259954],[-0.535347,51.26405],[-0.536785,51.266064],[-0.545111,51.264869],[-0.54936,51.264359],[-0.552535,51.261834],[-0.553737,51.260733],[-0.55438,51.259364],[-0.556569,51.256799],[-0.56026,51.253549],[-0.563672,51.250903],[-0.565667,51.24995],[-0.567319,51.249506],[-0.568886,51.249171],[-0.573821,51.249399],[-0.575924,51.249614],[-0.57734,51.249829],[-0.580237,51.249627],[-0.581717,51.249318],[-0.582919,51.248982],[-0.5844,51.248694],[-0.586696,51.247787],[-0.592489,51.247901],[-0.594753,51.246786],[-0.596298,51.245779],[-0.596416,51.24322],[-0.597896,51.241823],[-0.600439,51.239741],[-0.600943,51.238169],[-0.603079,51.234374],[-0.605342,51.233312],[-0.607896,51.232553],[-0.611919,51.230961],[-0.613453,51.230605],[-0.615052,51.230121],[-0.616157,51.229725],[-0.618324,51.228603],[-0.611458,51.229785],[-0.603993,51.230215],[-0.6006,51.230618],[-0.597253,51.231881],[-0.59442,51.232567],[-0.590343,51.23341],[-0.584979,51.231945],[-0.581685,51.230366],[-0.578692,51.230575],[-0.578445,51.230088],[-0.575795,51.23002],[-0.572732,51.23166],[-0.572346,51.230309],[-0.572222,51.228589],[-0.571128,51.2256],[-0.570806,51.224202],[-0.576954,51.223977],[-0.578048,51.223997],[-0.578826,51.223567],[-0.578955,51.222102],[-0.579566,51.220879],[-0.580033,51.220382],[-0.58058,51.219952],[-0.578885,51.215419],[-0.582254,51.214082],[-0.582114,51.212919],[-0.581213,51.212079],[-0.569133,51.211992],[-0.560668,51.212677],[-0.56232,51.22143],[-0.563489,51.226097],[-0.563725,51.227273],[-0.563425,51.228223],[-0.562904,51.229197],[-0.557299,51.230242],[-0.552514,51.229597],[-0.545862,51.22781],[-0.541527,51.227434],[-0.537139,51.227884],[-0.533116,51.228032],[-0.529361,51.228542],[-0.526915,51.228388],[-0.524232,51.228012],[-0.520574,51.227407],[-0.516701,51.225425],[-0.512946,51.224726],[-0.509298,51.22357],[-0.505199,51.222717],[-0.502453,51.221494],[-0.506551,51.234367],[-0.507903,51.235509],[-0.511894,51.237094],[-0.513353,51.237954],[-0.515757,51.239217],[-0.524683,51.2423],[-0.527494,51.245927]]]},"properties":{"code":"H81085","name":"ST. LUKE'S SURGERY","icb":"S9B9J"}}]}