{"type":"FeatureCollection","features":[{"type":"Feature","geometry":{"type":"Polygon","coordinates":[[[-0.32298,51.30773],[-0.32212,51.30604],[-0.32066,51.30416],[-0.31736,51.30095],[-0.315168,51.29858],[-0.311629,51.296523],[-0.31544,51.2934],[-0.31279,51.29053],[-0.30878,51.28955],[-0.30187,51.28933],[-0.29697,51.29126],[-0.29517,51.2915],[-0.28931,51.28907],[-0.28755,51.28772],[-0.28993,51.28701],[-0.28721,51.2861],[-0.28507,51.28544],[-0.28302,51.28434],[-0.28117,51.28407],[-0.27913,51.28334],[-0.27785,51.28311],[-0.27721,51.28281],[-0.277,51.28283],[-0.27658,51.28313],[-0.27408,51.28572],[-0.2739,51.28622],[-0.273933,51.286683],[-0.273129,51.286944],[-0.27193,51.28837],[-0.27098,51.2895],[-0.27107,51.29078],[-0.27744,51.29704],[-0.28023,51.30178],[-0.27885,51.30318],[-0.27709,51.30375],[-0.27533,51.30383],[-0.27141,51.30626],[-0.26829,51.30512],[-0.26552,51.30429],[-0.26234,51.30384],[-0.25766,51.30384],[-0.25809,51.30462],[-0.2582,51.3118],[-0.25869,51.3136],[-0.25977,51.31492],[-0.26378,51.31908],[-0.26564,51.32112],[-0.26635,51.32206],[-0.26672,51.32316],[-0.26751,51.32397],[-0.26882,51.32469],[-0.26994,51.32517],[-0.27534,51.32256],[-0.27698,51.32162],[-0.27861,51.32115],[-0.27912,51.32105],[-0.27946,51.32132],[-0.27951,51.32306],[-0.2797,51.32419],[-0.28041,51.32474],[-0.2835,51.32388],[-0.28805,51.3284],[-0.28934,51.3289],[-0.29019,51.32899],[-0.29118,51.32898],[-0.29197,51.32877],[-0.2928,51.32843],[-0.29342,51.32795],[-0.29357,51.32737],[-0.294086,51.322502],[-0.29649,51.32134],[-0.299018,51.320844],[-0.300564,51.322072],[-0.30292,51.323725],[-0.305743,51.322042],[-0.307209,51.321333],[-0.308592,51.320562],[-0.306994,51.318608],[-0.307234,51.318323],[-0.31072,51.31726],[-0.31132,51.31834],[-0.312335,51.319683],[-0.31389,51.32035],[-0.316656,51.322066],[-0.320267,51.320827],[-0.324297,51.318879],[-0.323376,51.317884],[-0.32251,51.31722],[-0.32338,51.31384],[-0.323373,51.313402],[-0.321618,51.31129],[-0.321306,51.310146],[-0.32103,51.309604],[-0.32298,51.30773]]]},"properties":{"code":"H81074","name":"ST STEPHENS HOUSE SURGERY","icb":"S9B9J"}}]}