{"type":"FeatureCollection","features":[{"type":"Feature","geometry":{"type":"Polygon","coordinates":[[[-0.540133,51.23129],[-0.520906,51.231828],[-0.521898,51.24011],[-0.521514,51.240252],[-0.505886,51.233816],[-0.505802,51.233816],[-0.454934,51.257362],[-0.457804,51.256841],[-0.460971,51.256409],[-0.461211,51.256739],[-0.460504,51.257071],[-0.457048,51.257833],[-0.45928,51.259014],[-0.463572,51.257618],[-0.468885,51.255687],[-0.472647,51.254617],[-0.477473,51.25418],[-0.48209,51.253859],[-0.486231,51.25418],[-0.493097,51.253213],[-0.498077,51.251493],[-0.502582,51.250032],[-0.502812,51.250054],[-0.505203,51.251549],[-0.505251,51.251671],[-0.503397,51.255469],[-0.502882,51.259766],[-0.504771,51.263861],[-0.505285,51.269219],[-0.509577,51.279636],[-0.512559,51.278342],[-0.522494,51.275985],[-0.52891,51.269938],[-0.535462,51.267402],[-0.535738,51.267437],[-0.54481,51.27534],[-0.555282,51.28232],[-0.572791,51.28087],[-0.572963,51.279904],[-0.57305,51.277804],[-0.573474,51.275843],[-0.574851,51.274159],[-0.576138,51.272226],[-0.577083,51.270346],[-0.576307,51.26915],[-0.575967,51.267393],[-0.575194,51.266211],[-0.573645,51.265097],[-0.573306,51.261275],[-0.573478,51.258853],[-0.573564,51.255953],[-0.573392,51.253804],[-0.57184,51.252848],[-0.571507,51.250729],[-0.572019,51.248217],[-0.571075,51.241076],[-0.571074,51.23833],[-0.570216,51.236557],[-0.566742,51.237724],[-0.565152,51.237685],[-0.561547,51.237847],[-0.557899,51.238366],[-0.557696,51.238317],[-0.55511,51.23602],[-0.544728,51.236656],[-0.544535,51.23659],[-0.540133,51.23129]]]},"properties":{"code":"H81035","name":"MERROW PARK SURGERY","icb":"S9B9J"}}]}