{"type":"FeatureCollection","features":[{"type":"Feature","geometry":{"type":"Polygon","coordinates":[[[-0.18807,51.23906],[-0.18582,51.23868],[-0.18482,51.2377],[-0.182745,51.237509],[-0.182999,51.236745],[-0.182468,51.236644],[-0.182789,51.236276],[-0.18282,51.23607],[-0.18033,51.23645],[-0.17664,51.23548],[-0.174382,51.232853],[-0.172146,51.232429],[-0.16949,51.23242],[-0.165354,51.232142],[-0.163581,51.232472],[-0.1621,51.231865],[-0.160588,51.231351],[-0.159926,51.231964],[-0.156826,51.231948],[-0.153686,51.231938],[-0.150904,51.232283],[-0.148231,51.231905],[-0.147329,51.228429],[-0.146547,51.227453],[-0.145572,51.227146],[-0.144555,51.226946],[-0.142426,51.226581],[-0.140846,51.226083],[-0.138232,51.225149],[-0.136281,51.223779],[-0.135523,51.223154],[-0.135468,51.222385],[-0.135315,51.221892],[-0.133888,51.2214],[-0.132474,51.220995],[-0.131746,51.221055],[-0.130933,51.221231],[-0.129454,51.221656],[-0.126346,51.222437],[-0.124685,51.222643],[-0.123114,51.222725],[-0.121049,51.222692],[-0.118358,51.223102],[-0.116942,51.225177],[-0.116292,51.226414],[-0.115712,51.22772],[-0.11546,51.229049],[-0.115492,51.230353],[-0.115791,51.231686],[-0.117076,51.234534],[-0.117539,51.235822],[-0.117867,51.237281],[-0.117843,51.238328],[-0.117689,51.239334],[-0.117585,51.240198],[-0.117421,51.241059],[-0.116664,51.241152],[-0.115648,51.241292],[-0.113041,51.241251],[-0.10989,51.240712],[-0.106541,51.240486],[-0.106841,51.24124],[-0.106815,51.242353],[-0.108269,51.243693],[-0.1089,51.244213],[-0.109746,51.244729],[-0.111531,51.244894],[-0.112342,51.245463],[-0.107802,51.249502],[-0.109451,51.259183],[-0.109083,51.264475],[-0.108331,51.265337],[-0.107377,51.265959],[-0.114642,51.266073],[-0.119055,51.266941],[-0.118993,51.267838],[-0.120196,51.268268],[-0.120923,51.269081],[-0.121166,51.270733],[-0.122398,51.271867],[-0.121497,51.272455],[-0.120416,51.275966],[-0.120479,51.278524],[-0.124472,51.278587],[-0.127009,51.279069],[-0.129648,51.279371],[-0.133986,51.280113],[-0.138258,51.280401],[-0.142073,51.280846],[-0.143146,51.281029],[-0.14378,51.28129],[-0.14525,51.281985],[-0.145796,51.282541],[-0.145844,51.283222],[-0.146494,51.284573],[-0.147526,51.284996],[-0.148869,51.285251],[-0.150044,51.285966],[-0.151491,51.286716],[-0.152003,51.286926],[-0.152846,51.287022],[-0.154043,51.287016],[-0.155241,51.286953],[-0.155287,51.287593],[-0.155241,51.288256],[-0.153069,51.295324],[-0.157009,51.295688],[-0.158425,51.294715],[-0.158812,51.293705],[-0.160481,51.293128],[-0.1608,51.292763],[-0.161546,51.292276],[-0.163467,51.291372],[-0.164973,51.291092],[-0.170981,51.288079],[-0.171989,51.286256],[-0.17476,51.282537],[-0.173381,51.281971],[-0.172695,51.28149],[-0.171957,51.280344],[-0.171539,51.278735],[-0.171098,51.278241],[-0.171098,51.277323],[-0.17063,51.27674],[-0.170247,51.276262],[-0.169901,51.27583],[-0.170013,51.275091],[-0.170289,51.274264],[-0.171641,51.273041],[-0.171965,51.272193],[-0.171934,51.271491],[-0.171987,51.270569],[-0.172044,51.269575],[-0.17042,51.268238],[-0.169815,51.266981],[-0.172754,51.266058],[-0.176051,51.264794],[-0.179291,51.263745],[-0.181817,51.262008],[-0.182604,51.261467],[-0.18149,51.26101],[-0.179431,51.260421],[-0.17891,51.260361],[-0.178445,51.260462],[-0.178508,51.260046],[-0.178652,51.259612],[-0.179407,51.259295],[-0.179664,51.259089],[-0.179781,51.258866],[-0.179399,51.25639],[-0.179399,51.255089],[-0.180043,51.254351],[-0.180787,51.253864],[-0.181188,51.253493],[-0.181415,51.25327],[-0.181752,51.25266],[-0.181914,51.252174],[-0.18208,51.251291],[-0.182185,51.250598],[-0.182306,51.249955],[-0.182056,51.249676],[-0.18423,51.24905],[-0.186654,51.246558],[-0.187974,51.245334],[-0.189464,51.244201],[-0.18862,51.24149],[-0.18807,51.23906]]]},"properties":{"code":"H81030","name":"THE HOUSE PARTNERSHIP","icb":"S9B9J"}}]}