{"type":"FeatureCollection","features":[{"type":"Feature","geometry":{"type":"Polygon","coordinates":[[[-0.62609,51.30545],[-0.619643,51.307131],[-0.6145,51.30714],[-0.613617,51.311331],[-0.613477,51.311432],[-0.607009,51.312589],[-0.6003,51.31231],[-0.598087,51.316235],[-0.597696,51.316289],[-0.59545,51.31483],[-0.59197,51.31417],[-0.58625,51.31557],[-0.579922,51.317624],[-0.579711,51.317611],[-0.578673,51.317082],[-0.575174,51.313304],[-0.57234,51.3095],[-0.568559,51.309432],[-0.56498,51.30852],[-0.55964,51.30752],[-0.55708,51.30787],[-0.552859,51.311767],[-0.552621,51.311814],[-0.5496,51.31109],[-0.546835,51.311372],[-0.546698,51.311353],[-0.54387,51.31011],[-0.541584,51.310413],[-0.53949,51.30991],[-0.53803,51.31479],[-0.54112,51.32302],[-0.5456,51.33321],[-0.562291,51.331999],[-0.562536,51.33215],[-0.56253,51.33219],[-0.56871,51.33404],[-0.572939,51.334273],[-0.573005,51.334639],[-0.57275,51.33469],[-0.57644,51.3349],[-0.59691,51.33061],[-0.613306,51.32661],[-0.61601,51.32605],[-0.627228,51.314543],[-0.63025,51.31334],[-0.62811,51.31012],[-0.62708,51.310163],[-0.62687,51.310066],[-0.626349,51.308719],[-0.62609,51.30545]]]},"properties":{"code":"H81032","name":"HEATHCOT MEDICAL PRACTICE","icb":"S9B9J"}}]}