{"type":"FeatureCollection","features":[{"type":"Feature","geometry":{"type":"Polygon","coordinates":[[[-0.38735,51.40328],[-0.39125,51.39942],[-0.39343,51.40199],[-0.397787,51.399716],[-0.398321,51.399126],[-0.39917,51.39618],[-0.401712,51.397668],[-0.402179,51.397425],[-0.40243,51.39643],[-0.41184,51.3917],[-0.42468,51.38869],[-0.43555,51.37663],[-0.4456,51.37158],[-0.40755,51.3552],[-0.41486,51.33025],[-0.40186,51.32592],[-0.37601,51.31596],[-0.35565,51.31631],[-0.33485,51.31699],[-0.307379,51.361233],[-0.30519,51.368701],[-0.309497,51.394512],[-0.34289,51.4029],[-0.34641,51.40456],[-0.35302,51.40622],[-0.36006,51.40734],[-0.36564,51.40777],[-0.37276,51.40686],[-0.37946,51.4052],[-0.38486,51.4052],[-0.38375,51.4036],[-0.388816,51.404125],[-0.38956,51.40346],[-0.39237,51.40269],[-0.38735,51.40328]]]},"properties":{"code":"H81038","name":"LITTLETON SURGERY","icb":"S9B9J"}}]}