{"type":"FeatureCollection","features":[{"type":"Feature","geometry":{"type":"Polygon","coordinates":[[[-0.424712,51.359157],[-0.424711,51.359157],[-0.42158,51.35995],[-0.42129,51.3599],[-0.4131,51.36191],[-0.41072,51.36243],[-0.40936,51.36123],[-0.4072,51.36154],[-0.40536,51.36226],[-0.40585,51.36346],[-0.40203,51.36458],[-0.39961,51.36547],[-0.39876,51.3662],[-0.39837,51.3663],[-0.39767,51.36682],[-0.397227,51.367721],[-0.396489,51.368522],[-0.39866,51.368647],[-0.401733,51.368965],[-0.40285,51.36877],[-0.40379,51.37124],[-0.40528,51.37218],[-0.40617,51.37307],[-0.40868,51.37536],[-0.41034,51.37696],[-0.41482,51.3815],[-0.41555,51.38218],[-0.41611,51.38288],[-0.416428,51.383446],[-0.417237,51.384028],[-0.41767,51.384269],[-0.418663,51.385261],[-0.419851,51.386288],[-0.420524,51.385971],[-0.421295,51.385757],[-0.422112,51.385677],[-0.422977,51.385734],[-0.423793,51.385963],[-0.424642,51.38623],[-0.425425,51.386029],[-0.426432,51.385874],[-0.427338,51.386034],[-0.42892,51.38662],[-0.43017,51.38697],[-0.4308,51.38669],[-0.43126,51.38603],[-0.43184,51.38485],[-0.43447,51.38408],[-0.43661,51.38431],[-0.43849,51.38479],[-0.44233,51.38391],[-0.44489,51.38314],[-0.44866,51.38296],[-0.45028,51.38312],[-0.452,51.38231],[-0.45351,51.38222],[-0.45477,51.38242],[-0.45709,51.38266],[-0.45763,51.38188],[-0.45786,51.38133],[-0.45942,51.38017],[-0.46146,51.37927],[-0.46205,51.37844],[-0.46307,51.37891],[-0.46169,51.38035],[-0.46065,51.38201],[-0.46243,51.38209],[-0.46473,51.38196],[-0.46977,51.38193],[-0.47148,51.38223],[-0.47277,51.38307],[-0.47374,51.3829],[-0.47413,51.38265],[-0.47447,51.38207],[-0.47499,51.38075],[-0.47791,51.38078],[-0.48121,51.3807],[-0.48409,51.38081],[-0.4862,51.38106],[-0.48833,51.38147],[-0.4908,51.38161],[-0.49318,51.38043],[-0.494095,51.380025],[-0.494925,51.379552],[-0.496493,51.378658],[-0.502227,51.37649],[-0.508825,51.375053],[-0.507353,51.371471],[-0.504941,51.368056],[-0.498157,51.361751],[-0.490487,51.35364],[-0.488551,51.355051],[-0.487603,51.355868],[-0.487018,51.357269],[-0.48604,51.357214],[-0.485288,51.356867],[-0.485019,51.355746],[-0.484743,51.354305],[-0.48203,51.34949],[-0.47958,51.34514],[-0.47669,51.34321],[-0.47566,51.34232],[-0.4744,51.34092],[-0.473,51.34071],[-0.47203,51.34075],[-0.47171,51.34052],[-0.47101,51.34042],[-0.46901,51.34025],[-0.46668,51.34048],[-0.4625,51.34139],[-0.45961,51.3406],[-0.45456,51.34008],[-0.45047,51.33879],[-0.43486,51.33564],[-0.43544,51.34966],[-0.43471,51.3525],[-0.43387,51.35541],[-0.43366,51.35669],[-0.43301,51.35706],[-0.43086,51.35764],[-0.42825,51.35821],[-0.427502,51.358444],[-0.4262,51.358774],[-0.424712,51.359157]]]},"properties":{"code":"H81073","name":"PHOENIX FAMILY PRACTICE","icb":"S9B9J"}}]}