{"type":"FeatureCollection","features":[{"type":"Feature","geometry":{"type":"Polygon","coordinates":[[[-0.122395,51.26213],[-0.12454,51.26127],[-0.125055,51.259981],[-0.125055,51.258477],[-0.12188,51.252783],[-0.117502,51.246713],[-0.116901,51.244348],[-0.117073,51.240641],[-0.117459,51.238572],[-0.117416,51.237041],[-0.117245,51.235939],[-0.116858,51.234757],[-0.115614,51.232123],[-0.115356,51.231371],[-0.115056,51.229355],[-0.115185,51.228764],[-0.109391,51.225002],[-0.108318,51.218739],[-0.106645,51.214115],[-0.105443,51.213121],[-0.103898,51.211346],[-0.079844,51.205539],[-0.057678,51.205405],[-0.030148,51.221306],[-0.030534,51.225351],[-0.037165,51.249533],[-0.049363,51.257712],[-0.051295,51.257799],[-0.053591,51.257987],[-0.057185,51.25845],[-0.058215,51.258504],[-0.059438,51.258712],[-0.060811,51.258806],[-0.063268,51.258833],[-0.065843,51.258739],[-0.078771,51.257645],[-0.084007,51.257316],[-0.088803,51.257249],[-0.093706,51.257356],[-0.0998,51.257833],[-0.105937,51.258692],[-0.108887,51.259236],[-0.111998,51.259887],[-0.11247,51.259921],[-0.120989,51.262076],[-0.122083,51.262251],[-0.122395,51.26213]]]},"properties":{"code":"H81005","name":"POND TAIL SURGERY","icb":"S9B9J"}}]}