{"type":"FeatureCollection","features":[{"type":"Feature","geometry":{"type":"Polygon","coordinates":[[[-0.383835,51.359347],[-0.379457,51.363367],[-0.377655,51.367707],[-0.379457,51.369208],[-0.379543,51.379065],[-0.387783,51.381744],[-0.387268,51.38437],[-0.379887,51.383781],[-0.376797,51.388816],[-0.384865,51.392565],[-0.404091,51.396421],[-0.416279,51.399206],[-0.420227,51.393422],[-0.438423,51.378531],[-0.445375,51.376763],[-0.457649,51.37821],[-0.465975,51.371566],[-0.466232,51.367869],[-0.460224,51.366368],[-0.457821,51.362564],[-0.456533,51.361063],[-0.457134,51.358276],[-0.456362,51.356078],[-0.460482,51.35104],[-0.4634,51.344446],[-0.462713,51.341497],[-0.454044,51.339781],[-0.442543,51.3371],[-0.434732,51.335653],[-0.429668,51.33635],[-0.428381,51.335384],[-0.423746,51.337905],[-0.415764,51.339728],[-0.411644,51.341551],[-0.408726,51.342301],[-0.404434,51.344875],[-0.404091,51.349592],[-0.396709,51.353452],[-0.383835,51.359347]]]},"properties":{"code":"H81065","name":"HERSHAM SURGERY","icb":"S9B9J"}}]}