{"type":"FeatureCollection","features":[{"type":"Feature","geometry":{"type":"Polygon","coordinates":[[[-0.467424,51.232289],[-0.458863,51.235167],[-0.448374,51.237221],[-0.445108,51.239789],[-0.432051,51.250048],[-0.416917,51.241064],[-0.413453,51.237756],[-0.404885,51.236463],[-0.385782,51.240194],[-0.385453,51.245879],[-0.389568,51.252196],[-0.393285,51.260005],[-0.396877,51.267549],[-0.396535,51.269071],[-0.397518,51.268977],[-0.398659,51.268904],[-0.397585,51.287524],[-0.404864,51.306873],[-0.42509,51.311708],[-0.449753,51.322245],[-0.47995,51.305944],[-0.498505,51.299711],[-0.507752,51.290786],[-0.507892,51.290733],[-0.510507,51.279283],[-0.510511,51.279265],[-0.510501,51.279271],[-0.508439,51.274967],[-0.502691,51.248693],[-0.484827,51.253693],[-0.481872,51.245867],[-0.477249,51.243128],[-0.477829,51.242671],[-0.477423,51.241821],[-0.467424,51.232289]]]},"properties":{"code":"H81084","name":"THE HORSLEY MEDICAL PRACTICE","icb":"S9B9J"}}]}