{"type":"FeatureCollection","features":[{"type":"Feature","geometry":{"type":"Polygon","coordinates":[[[-0.5274,51.32145],[-0.5338,51.32565],[-0.53811,51.32669],[-0.54578,51.33361],[-0.54704,51.33337],[-0.55461,51.33283],[-0.56203,51.33245],[-0.56329,51.33257],[-0.56616,51.33364],[-0.56835,51.33392],[-0.56862,51.33358],[-0.57524,51.33204],[-0.57774,51.3314],[-0.58175,51.33007],[-0.58993,51.32722],[-0.59082,51.32723],[-0.59452,51.32695],[-0.59976,51.32579],[-0.60385,51.32498],[-0.60554,51.32447],[-0.60759,51.32393],[-0.60933,51.3227],[-0.60978,51.32204],[-0.61421,51.3198],[-0.6146,51.31945],[-0.61641,51.31862],[-0.62449,51.31363],[-0.62576,51.31287],[-0.62672,51.31238],[-0.62641,51.31043],[-0.62618,51.30769],[-0.6265,51.30632],[-0.62614,51.30544],[-0.62028,51.30718],[-0.61693,51.30691],[-0.61527,51.30705],[-0.61443,51.30732],[-0.61353,51.30671],[-0.61303,51.30539],[-0.60894,51.30188],[-0.60597,51.29872],[-0.60369,51.29607],[-0.60013,51.29363],[-0.59147,51.29393],[-0.59017,51.28912],[-0.5895,51.28871],[-0.58886,51.28912],[-0.58295,51.2892],[-0.57664,51.28915],[-0.57511,51.28855],[-0.57527,51.2883],[-0.57496,51.28803],[-0.57539,51.28767],[-0.57078,51.28684],[-0.5696,51.28667],[-0.56827,51.28669],[-0.56806,51.2866],[-0.56707,51.28478],[-0.56019,51.28524],[-0.55972,51.2882],[-0.55101,51.29449],[-0.54481,51.29879],[-0.53964,51.30137],[-0.52981,51.30128],[-0.52952,51.30516],[-0.5274,51.32145]]]},"properties":{"code":"H81061","name":"HILLVIEW MEDICAL CENTRE","icb":"S9B9J"}}]}