{"type":"FeatureCollection","features":[{"type":"Feature","geometry":{"type":"Polygon","coordinates":[[[-0.72724,51.22578],[-0.711858,51.227528],[-0.70396,51.22742],[-0.70433,51.22948],[-0.706647,51.230413],[-0.706735,51.230519],[-0.706497,51.234073],[-0.706338,51.23419],[-0.70265,51.23468],[-0.69573,51.23645],[-0.68864,51.23857],[-0.694748,51.240068],[-0.694864,51.24015],[-0.69589,51.24276],[-0.69767,51.24543],[-0.698594,51.246185],[-0.698974,51.246583],[-0.69929,51.24756],[-0.700184,51.248636],[-0.701005,51.249972],[-0.702008,51.252765],[-0.70251,51.25525],[-0.706501,51.254732],[-0.710464,51.25476],[-0.71319,51.255946],[-0.71593,51.260938],[-0.71599,51.263663],[-0.71507,51.26565],[-0.71492,51.27025],[-0.71613,51.27282],[-0.718649,51.273919],[-0.718728,51.274004],[-0.71906,51.27612],[-0.721039,51.278278],[-0.72286,51.280414],[-0.722724,51.280613],[-0.717443,51.281511],[-0.710095,51.28188],[-0.68952,51.28212],[-0.68922,51.30308],[-0.6896,51.311061],[-0.68908,51.31347],[-0.691574,51.314907],[-0.691634,51.315014],[-0.69078,51.31834],[-0.69662,51.32094],[-0.71497,51.31904],[-0.71697,51.318],[-0.718016,51.316925],[-0.71942,51.316143],[-0.719559,51.316114],[-0.72101,51.31619],[-0.72186,51.31609],[-0.722742,51.315849],[-0.724088,51.31575],[-0.725059,51.315759],[-0.725232,51.315829],[-0.72612,51.31701],[-0.72998,51.31617],[-0.729775,51.315172],[-0.730015,51.315016],[-0.73358,51.31523],[-0.7378,51.31358],[-0.734688,51.31037],[-0.734685,51.310249],[-0.7376,51.307],[-0.732554,51.301469],[-0.732553,51.301351],[-0.73853,51.29464],[-0.73793,51.29277],[-0.734881,51.288116],[-0.734027,51.28662],[-0.733681,51.285756],[-0.732479,51.28436],[-0.731277,51.283608],[-0.729561,51.282749],[-0.727713,51.282778],[-0.727536,51.282475],[-0.72973,51.28137],[-0.73002,51.28088],[-0.72947,51.28021],[-0.728102,51.280117],[-0.727933,51.279883],[-0.72825,51.2796],[-0.727706,51.279174],[-0.727755,51.278979],[-0.728465,51.278714],[-0.7299,51.2788],[-0.73057,51.2785],[-0.729237,51.277885],[-0.729161,51.277765],[-0.729423,51.276858],[-0.729525,51.276773],[-0.73062,51.27643],[-0.73231,51.2758],[-0.731082,51.273402],[-0.731088,51.27332],[-0.7317,51.27245],[-0.730918,51.271679],[-0.730773,51.269808],[-0.73179,51.2688],[-0.73226,51.26665],[-0.731509,51.265722],[-0.731889,51.264186],[-0.731959,51.264112],[-0.73295,51.26363],[-0.73271,51.26274],[-0.732207,51.262166],[-0.732231,51.262025],[-0.73315,51.26137],[-0.73358,51.2603],[-0.730241,51.257432],[-0.728749,51.254448],[-0.728859,51.251635],[-0.73272,51.24671],[-0.73458,51.24401],[-0.73505,51.24172],[-0.733774,51.236813],[-0.734613,51.233189],[-0.74029,51.22852],[-0.72724,51.22578]]]},"properties":{"code":"H81013","name":"BARTLETT GROUP PRACTICE","icb":"S9B9J"}}]}