{"type":"FeatureCollection","features":[{"type":"Feature","geometry":{"type":"Polygon","coordinates":[[[-0.189887,51.226686],[-0.187187,51.226557],[-0.187091,51.227119],[-0.185829,51.226759],[-0.18538,51.226299],[-0.184628,51.225959],[-0.182728,51.22565],[-0.181288,51.225613],[-0.177383,51.225514],[-0.175606,51.225601],[-0.17342,51.225545],[-0.171199,51.218032],[-0.169183,51.217913],[-0.167758,51.217998],[-0.166469,51.218241],[-0.165858,51.218066],[-0.163847,51.217155],[-0.160449,51.216889],[-0.155874,51.213454],[-0.156582,51.215602],[-0.156762,51.221541],[-0.155351,51.221965],[-0.149099,51.220623],[-0.143608,51.220893],[-0.136585,51.218932],[-0.133229,51.2185],[-0.130006,51.218618],[-0.12956,51.217922],[-0.124901,51.218173],[-0.12291,51.21828],[-0.11371,51.220467],[-0.105253,51.220278],[-0.09991,51.22086],[-0.100705,51.222338],[-0.100816,51.223873],[-0.100753,51.225505],[-0.100885,51.227334],[-0.10111,51.229255],[-0.100621,51.230658],[-0.10057,51.23136],[-0.100682,51.231499],[-0.101521,51.233059],[-0.100922,51.234796],[-0.10044,51.23551],[-0.10034,51.2361],[-0.10031,51.23687],[-0.100378,51.236976],[-0.100818,51.237722],[-0.100907,51.238049],[-0.100912,51.238242],[-0.100818,51.238465],[-0.10004,51.239302],[-0.099453,51.240143],[-0.09922,51.2404],[-0.09918,51.24067],[-0.09896,51.24102],[-0.09896,51.24181],[-0.098157,51.242469],[-0.09692,51.24424],[-0.09632,51.24611],[-0.09577,51.24741],[-0.09577,51.24869],[-0.09553,51.24943],[-0.09486,51.25054],[-0.093415,51.252447],[-0.093383,51.253257],[-0.093001,51.253955],[-0.092309,51.255634],[-0.092001,51.256595],[-0.09194,51.257363],[-0.094689,51.257456],[-0.101699,51.258256],[-0.108689,51.25939],[-0.115635,51.260987],[-0.12222,51.26299],[-0.128031,51.264031],[-0.134591,51.264677],[-0.141089,51.265194],[-0.145162,51.265512],[-0.149,51.26621],[-0.154329,51.267633],[-0.157152,51.268323],[-0.15999,51.268647],[-0.163055,51.268738],[-0.16617,51.26857],[-0.168092,51.268209],[-0.169645,51.267917],[-0.171274,51.26753],[-0.17518,51.26655],[-0.178242,51.265455],[-0.18133,51.263979],[-0.183289,51.263044],[-0.186095,51.261899],[-0.186731,51.260671],[-0.187778,51.259813],[-0.192869,51.257048],[-0.197401,51.254961],[-0.203629,51.251363],[-0.201401,51.250768],[-0.202015,51.250264],[-0.202281,51.249542],[-0.202441,51.249164],[-0.202583,51.248721],[-0.20325,51.2472],[-0.204248,51.246304],[-0.204723,51.245012],[-0.204924,51.243658],[-0.20565,51.24032],[-0.20582,51.2372],[-0.204272,51.23514],[-0.202913,51.232169],[-0.202678,51.230166],[-0.20257,51.229245],[-0.202444,51.228163],[-0.201582,51.227281],[-0.20162,51.22726],[-0.20033,51.22594],[-0.197071,51.226016],[-0.19222,51.22592],[-0.191956,51.225118],[-0.190848,51.225261],[-0.190049,51.225587],[-0.189994,51.225963],[-0.189887,51.226686]]]},"properties":{"code":"H81048","name":"HOLMHURST MEDICAL CENTRE","icb":"S9B9J"}}]}