{"type":"FeatureCollection","features":[{"type":"Feature","geometry":{"type":"Polygon","coordinates":[[[-0.635641,51.218144],[-0.639567,51.21801],[-0.640426,51.217539],[-0.642335,51.216921],[-0.64358,51.215846],[-0.648558,51.213601],[-0.649524,51.212539],[-0.650511,51.210724],[-0.650232,51.206611],[-0.649738,51.204621],[-0.647142,51.201045],[-0.644975,51.195736],[-0.647078,51.194828],[-0.650489,51.191338],[-0.651337,51.18879],[-0.65123,51.187028],[-0.651466,51.18608],[-0.652034,51.180142],[-0.651423,51.179402],[-0.642164,51.17538],[-0.640683,51.17464],[-0.628356,51.166258],[-0.627004,51.165706],[-0.625545,51.165794],[-0.621908,51.166702],[-0.620234,51.167893],[-0.613335,51.169292],[-0.611286,51.169211],[-0.608904,51.167677],[-0.606061,51.164542],[-0.604784,51.162605],[-0.602961,51.158904],[-0.597982,51.157773],[-0.593026,51.157639],[-0.590848,51.15883],[-0.586674,51.162093],[-0.588691,51.163437],[-0.589185,51.165455],[-0.589828,51.167233],[-0.59132,51.168525],[-0.594034,51.172225],[-0.598884,51.175178],[-0.599806,51.176052],[-0.6006,51.177404],[-0.600289,51.184742],[-0.595998,51.187364],[-0.592103,51.188716],[-0.587146,51.190511],[-0.582125,51.191458],[-0.577683,51.193636],[-0.57278,51.197867],[-0.574679,51.201542],[-0.575559,51.203721],[-0.578628,51.207041],[-0.583091,51.20938],[-0.609055,51.212311],[-0.617681,51.210294],[-0.624976,51.211303],[-0.631242,51.213131],[-0.634203,51.215187],[-0.635641,51.218144]]]},"properties":{"code":"H81021","name":"THE MILL MEDICAL PRACTICE","icb":"S9B9J"}}]}