{"type":"FeatureCollection","features":[{"type":"Feature","geometry":{"type":"Polygon","coordinates":[[[-0.54554,51.33363],[-0.53077,51.33831],[-0.52757,51.33885],[-0.52437,51.33967],[-0.52063,51.340628],[-0.518672,51.340885],[-0.51494,51.34158],[-0.510222,51.341996],[-0.50916,51.34224],[-0.50428,51.34379],[-0.50011,51.34502],[-0.495322,51.346245],[-0.496355,51.347232],[-0.495152,51.348897],[-0.496852,51.350089],[-0.493861,51.351762],[-0.492171,51.350428],[-0.490245,51.351096],[-0.488877,51.35157],[-0.486508,51.348727],[-0.485505,51.345939],[-0.485366,51.342269],[-0.482653,51.342508],[-0.480425,51.342542],[-0.474854,51.343095],[-0.478209,51.344596],[-0.478925,51.363609],[-0.476809,51.366921],[-0.475212,51.370751],[-0.474746,51.372246],[-0.47393,51.37486],[-0.474561,51.37726],[-0.474898,51.38004],[-0.48641,51.384751],[-0.487653,51.3852],[-0.490155,51.386499],[-0.494817,51.387944],[-0.495012,51.386582],[-0.494389,51.385326],[-0.49461,51.38379],[-0.49714,51.38408],[-0.49897,51.38454],[-0.50188,51.38584],[-0.50273,51.38604],[-0.50503,51.387234],[-0.507911,51.388176],[-0.509211,51.388398],[-0.510116,51.388724],[-0.510792,51.387098],[-0.510669,51.386453],[-0.511251,51.386052],[-0.51278,51.38607],[-0.51537,51.38523],[-0.51784,51.38435],[-0.52167,51.38483],[-0.52424,51.38424],[-0.52779,51.38026],[-0.53777,51.37588],[-0.570193,51.360647],[-0.563345,51.359335],[-0.559752,51.358725],[-0.554414,51.356186],[-0.54848,51.348911],[-0.54554,51.33363]]]},"properties":{"code":"H81042","name":"CROUCH OAK FAMILY PRACTICE","icb":"S9B9J"}}]}