{"type":"FeatureCollection","features":[{"type":"Feature","geometry":{"type":"Polygon","coordinates":[[[-0.406887,51.236613],[-0.406884,51.236616],[-0.415918,51.229541],[-0.422164,51.225794],[-0.42766,51.222498],[-0.434232,51.220175],[-0.442108,51.217738],[-0.442771,51.21272],[-0.442896,51.211379],[-0.443524,51.208869],[-0.443947,51.202447],[-0.445599,51.196143],[-0.445198,51.190744],[-0.443053,51.181435],[-0.44293,51.167766],[-0.441084,51.157834],[-0.438165,51.15002],[-0.415258,51.147726],[-0.403635,51.147871],[-0.390854,51.148302],[-0.382634,51.148828],[-0.374178,51.149113],[-0.358572,51.150111],[-0.352703,51.149838],[-0.347632,51.149761],[-0.337819,51.147314],[-0.328371,51.146368],[-0.311078,51.146582],[-0.300586,51.146423],[-0.289914,51.147105],[-0.282262,51.146561],[-0.274565,51.146821],[-0.264066,51.146951],[-0.248454,51.147145],[-0.233284,51.148484],[-0.234538,51.148732],[-0.235162,51.149214],[-0.235526,51.149833],[-0.236305,51.150434],[-0.236567,51.151574],[-0.237517,51.152312],[-0.237681,51.153472],[-0.240154,51.157682],[-0.240188,51.161436],[-0.241042,51.166031],[-0.241791,51.171324],[-0.243128,51.177133],[-0.243173,51.182048],[-0.243215,51.186708],[-0.243264,51.192113],[-0.243656,51.197391],[-0.243339,51.202216],[-0.243012,51.208923],[-0.240279,51.212369],[-0.239418,51.215652],[-0.238856,51.219913],[-0.239404,51.223783],[-0.239912,51.225984],[-0.240443,51.227405],[-0.240641,51.229105],[-0.240657,51.230878],[-0.24106,51.232624],[-0.241653,51.23681],[-0.242439,51.243564],[-0.244935,51.245499],[-0.250193,51.248884],[-0.253675,51.252271],[-0.256767,51.254928],[-0.2617,51.25875],[-0.26367,51.26234],[-0.264754,51.269472],[-0.266278,51.279498],[-0.271509,51.286974],[-0.283727,51.306695],[-0.291943,51.305558],[-0.315188,51.289532],[-0.327897,51.280768],[-0.350563,51.279714],[-0.36547,51.27765],[-0.37002,51.27765],[-0.37302,51.27776],[-0.384885,51.267909],[-0.389347,51.261831],[-0.39129,51.258627],[-0.392702,51.25595],[-0.395258,51.252963],[-0.397016,51.250139],[-0.398461,51.246801],[-0.399701,51.245513],[-0.400888,51.243896],[-0.401567,51.242389],[-0.402111,51.240815],[-0.406884,51.236616],[-0.40435,51.2386],[-0.406887,51.236613]]]},"properties":{"code":"H81072","name":"MEDWYN SURGERY","icb":"S9B9J"}}]}