{"type":"FeatureCollection","features":[{"type":"Feature","geometry":{"type":"Polygon","coordinates":[[[-0.560785,51.271671],[-0.55896,51.27508],[-0.557833,51.277538],[-0.549847,51.28504],[-0.54588,51.2879],[-0.53026,51.29499],[-0.51035,51.30626],[-0.510433,51.308752],[-0.51066,51.311217],[-0.51069,51.31323],[-0.51138,51.31903],[-0.511425,51.321017],[-0.511189,51.324856],[-0.50829,51.33179],[-0.50923,51.33458],[-0.5125,51.33672],[-0.516504,51.334987],[-0.541136,51.332575],[-0.54588,51.33361],[-0.549169,51.333337],[-0.555599,51.332959],[-0.56803,51.33388],[-0.575663,51.331975],[-0.598467,51.332365],[-0.601083,51.333104],[-0.60397,51.334],[-0.61034,51.33447],[-0.612683,51.331036],[-0.616453,51.326109],[-0.61724,51.324788],[-0.618575,51.32302],[-0.621995,51.319069],[-0.62716,51.31393],[-0.626556,51.310212],[-0.62646,51.306837],[-0.62656,51.30594],[-0.62553,51.30363],[-0.623246,51.299687],[-0.62056,51.292232],[-0.61996,51.28973],[-0.619567,51.288976],[-0.61927,51.28865],[-0.5903,51.28887],[-0.574487,51.281617],[-0.57369,51.28087],[-0.56625,51.26849],[-0.562964,51.268447],[-0.5626,51.26828],[-0.560785,51.271671]]]},"properties":{"code":"H81041","name":"SOUTHVIEW MEDICAL PRACTICE","icb":"S9B9J"}}]}