{"type":"FeatureCollection","features":[{"type":"Feature","geometry":{"type":"Polygon","coordinates":[[[-0.382976,51.369744],[-0.36804,51.374781],[-0.36118,51.38657],[-0.356366,51.39203],[-0.356021,51.396421],[-0.358861,51.396508],[-0.36079,51.398272],[-0.371918,51.401704],[-0.383796,51.405366],[-0.410229,51.400571],[-0.423489,51.397278],[-0.4416,51.389325],[-0.442717,51.377192],[-0.443234,51.371405],[-0.444351,51.362564],[-0.407094,51.363207],[-0.382976,51.369744]]]},"properties":{"code":"H81131","name":"THE WHITE PRACTICE","icb":"S9B9J"}}]}