{"type":"FeatureCollection","features":[{"type":"Feature","geometry":{"type":"Polygon","coordinates":[[[0.006114,51.315785],[0.005258,51.318335],[0.004777,51.321021],[0.002747,51.32664],[0.002079,51.328627],[0.000945,51.328882],[0,51.328701],[-0.000697,51.329069],[-0.001752,51.3301],[-0.003368,51.331023],[-0.004782,51.331898],[-0.006122,51.332664],[-0.007572,51.333493],[-0.008495,51.333701],[-0.009549,51.333719],[-0.010102,51.333473],[-0.010756,51.332922],[-0.011698,51.332745],[-0.012598,51.331825],[-0.01305,51.331223],[-0.013461,51.330675],[-0.014941,51.330311],[-0.016258,51.332019],[-0.017767,51.332647],[-0.019988,51.335524],[-0.021,51.337123],[-0.021818,51.33768],[-0.023675,51.338192],[-0.025853,51.338252],[-0.029011,51.337708],[-0.031347,51.337241],[-0.033397,51.337241],[-0.035053,51.337931],[-0.037005,51.338156],[-0.037751,51.338397],[-0.038402,51.338059],[-0.039263,51.337178],[-0.040547,51.335469],[-0.04089,51.334541],[-0.04163,51.333555],[-0.042057,51.332399],[-0.043602,51.33138],[-0.04446,51.330039],[-0.052185,51.327787],[-0.056477,51.326929],[-0.060138,51.326614],[-0.060905,51.326703],[-0.061419,51.327048],[-0.062557,51.327752],[-0.063598,51.328859],[-0.064721,51.329873],[-0.06649,51.331078],[-0.067583,51.331824],[-0.068421,51.332095],[-0.069318,51.33216],[-0.070456,51.332559],[-0.073561,51.334574],[-0.074857,51.335602],[-0.075732,51.336133],[-0.076247,51.336391],[-0.076572,51.336316],[-0.076981,51.335836],[-0.077133,51.335273],[-0.074984,51.331129],[-0.074578,51.330713],[-0.073791,51.329748],[-0.074015,51.329399],[-0.074321,51.329407],[-0.076045,51.329381],[-0.077629,51.329688],[-0.078398,51.329777],[-0.079476,51.329668],[-0.080942,51.329487],[-0.082397,51.329718],[-0.084715,51.330468],[-0.086131,51.329274],[-0.086807,51.328194],[-0.085551,51.327198],[-0.085144,51.326071],[-0.085659,51.325051],[-0.085316,51.323335],[-0.0842,51.32135],[-0.082827,51.320009],[-0.082312,51.318829],[-0.081766,51.317603],[-0.080554,51.316313],[-0.078106,51.312284],[-0.077591,51.30869],[-0.075445,51.304987],[-0.073214,51.302251],[-0.070896,51.300104],[-0.069516,51.298689],[-0.0692,51.29798],[-0.069346,51.297268],[-0.06879,51.29602],[-0.068356,51.295247],[-0.0684,51.293979],[-0.068367,51.293046],[-0.067691,51.292386],[-0.066403,51.291363],[-0.066192,51.289547],[-0.066666,51.288605],[-0.067817,51.287428],[-0.06905,51.286456],[-0.069952,51.285398],[-0.070439,51.283946],[-0.07014,51.282446],[-0.069523,51.280029],[-0.070097,51.278474],[-0.070038,51.276808],[-0.06772,51.274714],[-0.06609,51.272136],[-0.065145,51.268431],[-0.062141,51.266927],[-0.052443,51.266659],[-0.041885,51.26682],[-0.034847,51.267786],[-0.030384,51.268914],[-0.025835,51.270525],[-0.020599,51.271814],[-0.012188,51.274069],[-0.005407,51.276056],[-0.000343,51.278687],[0.001185,51.279696],[0.002379,51.280637],[0.003361,51.281642],[0.004567,51.282069],[0.005904,51.282512],[0.008678,51.283151],[0.011402,51.283426],[0.014184,51.28377],[0.016693,51.284272],[0.018411,51.284419],[0.020042,51.284642],[0.023893,51.285168],[0.02721,51.285451],[0.030034,51.28545],[0.033198,51.285995],[0.035471,51.286423],[0.036882,51.286398],[0.038046,51.286497],[0.039252,51.286514],[0.041393,51.287087],[0.042363,51.28728],[0.043146,51.28728],[0.04398,51.287183],[0.045066,51.287817],[0.046986,51.288178],[0.046229,51.288987],[0.045334,51.290089],[0.04402,51.290988],[0.042613,51.291951],[0.041262,51.293175],[0.04136,51.294557],[0.041316,51.295883],[0.042129,51.296715],[0.042941,51.297662],[0.043551,51.298797],[0.042912,51.299307],[0.042953,51.299458],[0.042688,51.300804],[0.042518,51.301223],[0.042343,51.301525],[0.039247,51.303446],[0.037387,51.304443],[0.036054,51.305311],[0.034778,51.306142],[0.03371,51.306821],[0.033214,51.307216],[0.032749,51.30741],[0.03248,51.307052],[0.031531,51.30656],[0.030376,51.305961],[0.02934,51.305503],[0.027575,51.304472],[0.025902,51.303155],[0.024856,51.302274],[0.024336,51.301306],[0.023252,51.299291],[0.021864,51.297875],[0.020504,51.296284],[0.020877,51.295504],[0.020761,51.293866],[0.020678,51.292687],[0.019806,51.291329],[0.017213,51.291629],[0.015929,51.291664],[0.015299,51.291556],[0.014738,51.291664],[0.013846,51.293524],[0.013451,51.295499],[0.012636,51.296842],[0.012282,51.298352],[0.011431,51.300575],[0.010908,51.301664],[0.010772,51.302833],[0.010092,51.305497],[0.008999,51.307607],[0.008648,51.309364],[0.008248,51.310136],[0.008039,51.310954],[0.008978,51.3127],[0.009625,51.314626],[0.009654,51.31546],[0.009116,51.315684],[0.008449,51.315617],[0.007512,51.315202],[0.0067,51.315385],[0.006258,51.315507],[0.006114,51.315785]]]},"properties":{"code":"H81116","name":"ELIZABETH HOUSE MEDICAL PRACTICE","icb":"S9B9J"}}]}