{"type":"FeatureCollection","features":[{"type":"Feature","geometry":{"type":"Polygon","coordinates":[[[-0.212275,51.357741],[-0.21259,51.35892],[-0.21643,51.35806],[-0.22055,51.36338],[-0.22852,51.37109],[-0.23703,51.37624],[-0.24884,51.38207],[-0.25406,51.38669],[-0.25296,51.38909],[-0.25378,51.39441],[-0.26093,51.39218],[-0.27081,51.38772],[-0.27631,51.38378],[-0.28098,51.3783],[-0.28564,51.37504],[-0.29333,51.37332],[-0.30405,51.37487],[-0.30789,51.36406],[-0.30817,51.36166],[-0.31146,51.35875],[-0.31174,51.35446],[-0.31366,51.3488],[-0.31929,51.33885],[-0.32423,51.32993],[-0.3289,51.32186],[-0.33138,51.31688],[-0.3289,51.31242],[-0.32176,51.30555],[-0.31352,51.29731],[-0.30254,51.29336],[-0.28688,51.29181],[-0.27672,51.28923],[-0.26367,51.2806],[-0.2612,51.27734],[-0.24994,51.26857],[-0.24568,51.27257],[-0.2336,51.28116],[-0.22316,51.29112],[-0.21767,51.30761],[-0.21073,51.31319],[-0.210785,51.321167],[-0.20998,51.32774],[-0.207088,51.331708],[-0.201,51.33831],[-0.201574,51.339274],[-0.20146,51.33943],[-0.212275,51.357741]]]},"properties":{"code":"H81133","name":"INTEGRATED CARE PARTNERSHIP - OCH","icb":"S9B9J"}}]}