{"type":"FeatureCollection","features":[{"type":"Feature","geometry":{"type":"Polygon","coordinates":[[[-0.345766,51.335309],[-0.34717,51.342175],[-0.35345,51.34496],[-0.362718,51.344839],[-0.362377,51.348199],[-0.368214,51.347126],[-0.368906,51.341023],[-0.373812,51.342803],[-0.379056,51.34406],[-0.380451,51.342231],[-0.381775,51.340639],[-0.386066,51.34021],[-0.386185,51.337098],[-0.390157,51.335788],[-0.395107,51.333077],[-0.395522,51.332895],[-0.398888,51.332504],[-0.404642,51.328642],[-0.40564,51.3275],[-0.402538,51.325773],[-0.39954,51.321655],[-0.392075,51.318973],[-0.38492,51.319254],[-0.383234,51.311033],[-0.382359,51.31143],[-0.382324,51.311445],[-0.382286,51.311456],[-0.382246,51.311465],[-0.382205,51.31147],[-0.380144,51.311677],[-0.376038,51.312586],[-0.37601,51.312591],[-0.372863,51.313109],[-0.372813,51.313114],[-0.372763,51.313116],[-0.372713,51.313113],[-0.372665,51.313106],[-0.368836,51.312625],[-0.368683,51.312895],[-0.368692,51.312919],[-0.368697,51.312943],[-0.368698,51.312968],[-0.368694,51.312992],[-0.368686,51.313016],[-0.368674,51.313039],[-0.368658,51.313062],[-0.368639,51.313083],[-0.368615,51.313103],[-0.368589,51.313121],[-0.368559,51.313137],[-0.368527,51.313151],[-0.368493,51.313162],[-0.368457,51.313172],[-0.368419,51.313178],[-0.368381,51.313182],[-0.367699,51.313232],[-0.366079,51.313941],[-0.36603,51.31396],[-0.365977,51.313973],[-0.365921,51.31398],[-0.365864,51.313982],[-0.362892,51.31393],[-0.359781,51.314613],[-0.359749,51.314619],[-0.359715,51.314623],[-0.359681,51.314625],[-0.359647,51.314625],[-0.356026,51.313554],[-0.351391,51.314198],[-0.350181,51.315996],[-0.350103,51.315915],[-0.350142,51.316007],[-0.3501,51.316015],[-0.350058,51.31602],[-0.350014,51.316022],[-0.346069,51.316022],[-0.345163,51.316965],[-0.345133,51.316993],[-0.345096,51.317017],[-0.345054,51.317037],[-0.345008,51.317053],[-0.344958,51.317065],[-0.344906,51.317072],[-0.344854,51.317074],[-0.344801,51.317072],[-0.340662,51.316666],[-0.338397,51.316928],[-0.338345,51.316932],[-0.338292,51.31693],[-0.33208,51.316022],[-0.330881,51.318812],[-0.328223,51.325677],[-0.331055,51.327715],[-0.342811,51.325409],[-0.345641,51.328091],[-0.345766,51.335309]]]},"properties":{"code":"H81107","name":"OXSHOTT MEDICAL PRACTICE","icb":"S9B9J"}}]}