{"type":"FeatureCollection","features":[{"type":"Feature","geometry":{"type":"Polygon","coordinates":[[[-0.615404,51.305945],[-0.626321,51.304969],[-0.626874,51.306804],[-0.626785,51.309304],[-0.626888,51.31055],[-0.627318,51.312197],[-0.627977,51.314723],[-0.629576,51.318773],[-0.63377,51.32267],[-0.6512,51.31828],[-0.66278,51.3113],[-0.67257,51.30019],[-0.67399,51.29357],[-0.67025,51.27929],[-0.66665,51.26737],[-0.67369,51.26336],[-0.67008,51.25601],[-0.66973,51.25649],[-0.66201,51.25778],[-0.65626,51.2574],[-0.64939,51.26272],[-0.64356,51.26535],[-0.64502,51.2675],[-0.64922,51.27051],[-0.65463,51.2733],[-0.6251,51.28329],[-0.61824,51.28549],[-0.608883,51.28849],[-0.59469,51.293565],[-0.601297,51.300828],[-0.603517,51.302229],[-0.604978,51.303417],[-0.606381,51.304558],[-0.607154,51.305408],[-0.608226,51.306586],[-0.615404,51.305945]]]},"properties":{"code":"H81129","name":"PIRBRIGHT SURGERY","icb":"S9B9J"}}]}