{"type":"FeatureCollection","features":[{"type":"Feature","geometry":{"type":"Polygon","coordinates":[[[-0.833588,51.208765],[-0.828438,51.207206],[-0.827923,51.204947],[-0.825691,51.202097],[-0.825005,51.19333],[-0.83436,51.189565],[-0.840969,51.183055],[-0.848608,51.172832],[-0.849037,51.168473],[-0.846977,51.168473],[-0.844016,51.164813],[-0.840368,51.162418],[-0.835176,51.160642],[-0.831313,51.158731],[-0.828953,51.159054],[-0.816336,51.158058],[-0.813246,51.157546],[-0.803976,51.15359],[-0.798054,51.152755],[-0.793891,51.151867],[-0.788655,51.151355],[-0.789084,51.150467],[-0.788527,51.145621],[-0.786467,51.144221],[-0.784364,51.14414],[-0.781488,51.144706],[-0.780244,51.145837],[-0.775695,51.146375],[-0.771489,51.144975],[-0.768571,51.144975],[-0.765395,51.144114],[-0.763035,51.144464],[-0.760589,51.145783],[-0.756512,51.146402],[-0.755396,51.146052],[-0.753765,51.147129],[-0.752821,51.154316],[-0.749474,51.16153],[-0.748143,51.166993],[-0.747757,51.176464],[-0.751405,51.18171],[-0.74604,51.18397],[-0.740805,51.185907],[-0.73617,51.185799],[-0.736427,51.187575],[-0.737972,51.191017],[-0.735397,51.193223],[-0.730591,51.192255],[-0.720892,51.189888],[-0.715227,51.188328],[-0.71342,51.19182],[-0.716429,51.199516],[-0.716686,51.205431],[-0.716515,51.211669],[-0.71454,51.216992],[-0.714712,51.221346],[-0.71703,51.223281],[-0.722265,51.2257],[-0.720377,51.226668],[-0.718489,51.230538],[-0.718746,51.234999],[-0.722952,51.237847],[-0.730419,51.238169],[-0.732822,51.237954],[-0.735312,51.242092],[-0.7372,51.241823],[-0.751104,51.242737],[-0.753679,51.244778],[-0.756941,51.249184],[-0.769472,51.251494],[-0.772219,51.249882],[-0.778484,51.250742],[-0.791445,51.239459],[-0.797453,51.239083],[-0.80801,51.237309],[-0.809641,51.23602],[-0.815649,51.235805],[-0.825605,51.236449],[-0.825348,51.239727],[-0.833502,51.240211],[-0.834017,51.238706],[-0.833845,51.234515],[-0.839167,51.223443],[-0.839338,51.215917],[-0.835476,51.212207],[-0.833588,51.208765]]]},"properties":{"code":"H81615","name":"FARNHAM DENE MEDICAL PRACTICE","icb":"S9B9J"}}]}