{"type":"FeatureCollection","features":[{"type":"Feature","geometry":{"type":"Polygon","coordinates":[[[-0.54211,50.80008],[-0.54502,50.80648],[-0.55472,50.81011],[-0.56408,50.81808],[-0.57301,50.8157],[-0.57346,50.82262],[-0.57665,50.82759],[-0.56931,50.83016],[-0.5718,50.83616],[-0.56425,50.83776],[-0.5664,50.84196],[-0.56631,50.84345],[-0.56116,50.85126],[-0.55163,50.85424],[-0.55241,50.8557],[-0.56103,50.85871],[-0.63386,50.86778],[-0.67326,50.85928],[-0.71514,50.85884],[-0.72372,50.83782],[-0.71445,50.77512],[-0.6433,50.78676],[-0.59618,50.79188],[-0.55756,50.79997],[-0.54211,50.80008]]]},"properties":{"code":"H82048","name":"AVISFORD MEDICAL GROUP","icb":"S9B9J"}}]}