{"type":"FeatureCollection","features":[{"type":"Feature","geometry":{"type":"Polygon","coordinates":[[[-0.91118,50.80463],[-0.911179,50.811365],[-0.90981,50.82047],[-0.913235,50.82805],[-0.91393,50.83305],[-0.915934,50.838108],[-0.915761,50.838273],[-0.909442,50.8389],[-0.901231,50.83868],[-0.893373,50.837861],[-0.893226,50.837622],[-0.89676,50.83478],[-0.89367,50.82394],[-0.88921,50.81548],[-0.87822,50.81201],[-0.87341,50.81483],[-0.870494,50.817699],[-0.870125,50.817708],[-0.86483,50.81331],[-0.85625,50.8081],[-0.84457,50.80572],[-0.8353,50.80984],[-0.82397,50.81613],[-0.80612,50.8363],[-0.843489,50.865954],[-0.872106,50.903414],[-0.872099,50.903526],[-0.871884,50.903734],[-0.87032,50.90433],[-0.870959,50.904281],[-0.871201,50.904513],[-0.86861,50.90736],[-0.87101,50.91992],[-0.893672,50.931601],[-0.893722,50.931759],[-0.89367,50.93182],[-0.90912,50.9316],[-0.92663,50.92944],[-0.94311,50.91992],[-0.9486,50.9039],[-0.95135,50.88766],[-0.942094,50.882039],[-0.938731,50.878818],[-0.938722,50.878694],[-0.94552,50.870712],[-0.954256,50.868054],[-0.96285,50.86654],[-0.964746,50.865113],[-0.964948,50.865074],[-0.96525,50.86513],[-0.965715,50.864392],[-0.96645,50.86383],[-0.966265,50.86368],[-0.966238,50.863562],[-0.97435,50.85072],[-0.974093,50.850702],[-0.97391,50.850536],[-0.97469,50.84844],[-0.96577,50.84237],[-0.95409,50.84237],[-0.930427,50.842793],[-0.930209,50.842588],[-0.93658,50.83348],[-0.94105,50.82524],[-0.938667,50.819239],[-0.938722,50.819121],[-0.94448,50.8157],[-0.932076,50.814581],[-0.9177,50.80507],[-0.91118,50.80463]]]},"properties":{"code":"H82078","name":"SOUTHBOURNE SURGERY","icb":"S9B9J"}}]}