{"type":"FeatureCollection","features":[{"type":"Feature","geometry":{"type":"Polygon","coordinates":[[[-0.4225,50.92051],[-0.42855,50.90439],[-0.42516,50.88395],[-0.41353,50.88257],[-0.394138,50.87412],[-0.357239,50.845081],[-0.30247,50.85082],[-0.28187,50.85516],[-0.28118,50.87813],[-0.27586,50.89047],[-0.29114,50.89805],[-0.29483,50.91245],[-0.30912,50.92895],[-0.29998,50.93901],[-0.30884,50.94765],[-0.353794,50.954588],[-0.40044,50.95002],[-0.4225,50.92051]]]},"properties":{"code":"H82022","name":"STEYNING HEALTH CENTRE","icb":"S9B9J"}}]}