{"type":"FeatureCollection","features":[{"type":"Feature","geometry":{"type":"Polygon","coordinates":[[[-0.23166,51.09794],[-0.23131,51.09789],[-0.22887,51.09802],[-0.22852,51.09816],[-0.22797,51.09819],[-0.21488,51.10072],[-0.21436,51.10102],[-0.21359,51.10096],[-0.21119,51.10161],[-0.2087,51.10266],[-0.20801,51.10358],[-0.20728,51.1042],[-0.21119,51.10441],[-0.21273,51.10438],[-0.21402,51.10468],[-0.21398,51.10527],[-0.21428,51.10581],[-0.21471,51.10622],[-0.21458,51.10689],[-0.21582,51.107],[-0.21707,51.10719],[-0.21874,51.10719],[-0.22058,51.10754],[-0.22131,51.10756],[-0.22282,51.10864],[-0.22325,51.1081],[-0.22621,51.10859],[-0.22634,51.1091],[-0.22479,51.11018],[-0.22428,51.11096],[-0.2241,51.11171],[-0.23149,51.10791],[-0.2299,51.10436],[-0.2299,51.10131],[-0.23071,51.10083],[-0.23088,51.10053],[-0.23084,51.09991],[-0.23101,51.09883],[-0.23166,51.0984],[-0.23166,51.09794]]]},"properties":{"code":"H82088","name":"BEWBUSH MEDICAL CENTRE","icb":"S9B9J"}}]}