{"type":"FeatureCollection","features":[{"type":"Feature","geometry":{"type":"Polygon","coordinates":[[[-0.209033,50.84086],[-0.207968,50.846652],[-0.211701,50.851989],[-0.215993,50.855078],[-0.222559,50.857516],[-0.229254,50.858816],[-0.236206,50.857679],[-0.25876,50.84879],[-0.26827,50.8523],[-0.26801,50.85975],[-0.26831,50.87722],[-0.27856,50.87726],[-0.28412,50.84476],[-0.29186,50.84401],[-0.29547,50.84435],[-0.29805,50.84478],[-0.29917,50.84603],[-0.30271,50.848],[-0.31233,50.84774],[-0.30645,50.84259],[-0.29611,50.84123],[-0.28607,50.83321],[-0.30624,50.82996],[-0.30693,50.82383],[-0.30633,50.82367],[-0.30539,50.82367],[-0.26286,50.82649],[-0.25278,50.82589],[-0.24331,50.82801],[-0.22213,50.827789],[-0.210199,50.826894],[-0.208987,50.830133],[-0.20874,50.830445],[-0.207573,50.833271],[-0.205607,50.836733],[-0.206766,50.838359],[-0.208502,50.840632],[-0.209033,50.84086]]]},"properties":{"code":"H82023","name":"ADUR HEALTH PARTNERSHIP","icb":"S9B9J"}}]}