{"type":"FeatureCollection","features":[{"type":"Feature","geometry":{"type":"Polygon","coordinates":[[[-0.409886,50.818484],[-0.391601,50.81863],[-0.38229,50.81865],[-0.37298,50.81876],[-0.37321,50.82306],[-0.37444,50.82825],[-0.380957,50.832208],[-0.383563,50.833949],[-0.38534,50.83608],[-0.38826,50.8378],[-0.38991,50.83823],[-0.390114,50.838163],[-0.41112,50.84022],[-0.41241,50.82947],[-0.409958,50.818612],[-0.41001,50.81851],[-0.409886,50.818484]]]},"properties":{"code":"H82009","name":"ST. LAWRENCE SURGERY","icb":"S9B9J"}}]}