{"type":"FeatureCollection","features":[{"type":"Feature","geometry":{"type":"Polygon","coordinates":[[[-0.50097,50.818867],[-0.50131,50.81916],[-0.5022,50.81925],[-0.50306,50.81942],[-0.50381,50.81958],[-0.50485,50.81991],[-0.50691,50.82081],[-0.50891,50.82181],[-0.510414,50.823099],[-0.511337,50.824034],[-0.51168,50.824481],[-0.512324,50.824834],[-0.513225,50.825132],[-0.514191,50.825362],[-0.514792,50.825755],[-0.515607,50.825932],[-0.516187,50.826135],[-0.517238,50.826406],[-0.518739,50.826718],[-0.520305,50.827192],[-0.521164,50.827274],[-0.521529,50.827545],[-0.521465,50.827856],[-0.521766,50.828209],[-0.522516,50.82848],[-0.524576,50.828954],[-0.527386,50.829781],[-0.528201,50.830133],[-0.529167,50.830282],[-0.529725,50.830323],[-0.532407,50.830282],[-0.536011,50.830608],[-0.537171,50.830662],[-0.538158,50.830825],[-0.540347,50.830228],[-0.544765,50.830038],[-0.544758,50.829415],[-0.544146,50.827382],[-0.543781,50.827111],[-0.542494,50.826908],[-0.5423,50.826582],[-0.542236,50.825647],[-0.542429,50.824929],[-0.542493,50.824373],[-0.542729,50.823837],[-0.543158,50.823329],[-0.543309,50.823011],[-0.543384,50.822191],[-0.543492,50.821886],[-0.543684,50.821689],[-0.543706,50.821574],[-0.544478,50.821547],[-0.545604,50.821594],[-0.550156,50.821906],[-0.551121,50.821892],[-0.552477,50.821797],[-0.554064,50.821499],[-0.555372,50.821093],[-0.557065,50.820306],[-0.558008,50.819588],[-0.558523,50.819073],[-0.559187,50.817839],[-0.55927,50.81678],[-0.55841,50.81396],[-0.56013,50.81244],[-0.55687,50.81125],[-0.55309,50.81147],[-0.55069,50.81049],[-0.54674,50.80854],[-0.54331,50.80626],[-0.54228,50.80214],[-0.53213,50.80267],[-0.52507,50.80238],[-0.50767,50.80294],[-0.50722,50.80347],[-0.50708,50.80384],[-0.50675,50.80533],[-0.50562,50.80859],[-0.50509,50.81041],[-0.50486,50.81091],[-0.50499,50.81102],[-0.50497,50.81112],[-0.50478,50.81149],[-0.5047,50.81184],[-0.50453,50.81198],[-0.50442,50.81267],[-0.50412,50.81267],[-0.50405,50.81307],[-0.50385,50.81322],[-0.50354,50.81334],[-0.50364,50.81362],[-0.50357,50.81401],[-0.50281,50.81549],[-0.50272,50.81581],[-0.50285,50.81595],[-0.5028,50.81606],[-0.5026,50.81612],[-0.50242,50.816413],[-0.50211,50.81723],[-0.50134,50.81795],[-0.50135,50.81791],[-0.5013,50.81793],[-0.50114,50.81814],[-0.50091,50.81885],[-0.50095,50.8189],[-0.50097,50.818867]]]},"properties":{"code":"H82039","name":"PARK SURGERY","icb":"S9B9J"}}]}