{"type":"FeatureCollection","features":[{"type":"Feature","geometry":{"type":"Polygon","coordinates":[[[-0.672313,50.803458],[-0.676433,50.803602],[-0.682526,50.80702],[-0.691364,50.808213],[-0.703295,50.804796],[-0.696776,50.79731],[-0.700467,50.795519],[-0.708792,50.789931],[-0.719431,50.790311],[-0.721149,50.786892],[-0.726214,50.788032],[-0.727501,50.785536],[-0.730591,50.783365],[-0.737286,50.780326],[-0.754967,50.756224],[-0.705204,50.776428],[-0.705466,50.776522],[-0.681513,50.780566],[-0.666043,50.787706],[-0.659862,50.792807],[-0.66158,50.794923],[-0.663814,50.797527],[-0.663384,50.80051],[-0.665702,50.806043],[-0.669221,50.80626],[-0.672999,50.806694],[-0.672313,50.803458]]]},"properties":{"code":"H82099","name":"WEST MEADS SURGERY","icb":"S9B9J"}}]}