{"type":"FeatureCollection","features":[{"type":"Feature","geometry":{"type":"Polygon","coordinates":[[[-0.294053,51.072143],[-0.29425,51.0715],[-0.29449,51.0711],[-0.29486,51.0707],[-0.29575,51.07013],[-0.29694,51.06975],[-0.30085,51.06909],[-0.30353,51.06877],[-0.30359,51.06892],[-0.30376,51.06904],[-0.30426,51.06904],[-0.304516,51.068784],[-0.30453,51.06853],[-0.30443,51.06843],[-0.30413,51.06833],[-0.30388,51.06832],[-0.30374,51.06812],[-0.30367,51.06783],[-0.304,51.06781],[-0.30408,51.06761],[-0.30398,51.06731],[-0.30359,51.06731],[-0.30359,51.06722],[-0.30398,51.0672],[-0.30384,51.06675],[-0.30387,51.06666],[-0.30379,51.06659],[-0.3041,51.0667],[-0.30429,51.06642],[-0.30352,51.06637],[-0.30341,51.06643],[-0.30343,51.06587],[-0.30381,51.06588],[-0.30385,51.06581],[-0.30381,51.0657],[-0.30393,51.06496],[-0.30371,51.06405],[-0.3029,51.06236],[-0.30313,51.06177],[-0.30235,51.0612],[-0.3022,51.06097],[-0.30221,51.0607],[-0.30236,51.06054],[-0.303,51.05912],[-0.30413,51.05843],[-0.30489,51.05806],[-0.3043,51.05757],[-0.30363,51.05727],[-0.30267,51.05658],[-0.30205,51.05645],[-0.30168,51.05626],[-0.30137,51.05598],[-0.30153,51.05578],[-0.30185,51.05514],[-0.30228,51.05453],[-0.30284,51.05387],[-0.30351,51.05325],[-0.30117,51.05273],[-0.30045,51.0523],[-0.29986,51.05185],[-0.2995,51.05138],[-0.29933,51.05029],[-0.29887,51.04983],[-0.29674,51.04832],[-0.29347,51.04699],[-0.29109,51.04555],[-0.29165,51.04533],[-0.29022,51.04462],[-0.28992,51.04476],[-0.28968,51.04453],[-0.2892,51.04436],[-0.28893,51.0444],[-0.28812,51.04385],[-0.28839,51.04368],[-0.28793,51.04337],[-0.28741,51.04324],[-0.28691,51.04327],[-0.28618,51.04268],[-0.28606,51.0422],[-0.28629,51.04173],[-0.28721,51.04059],[-0.28728,51.04031],[-0.28705,51.03974],[-0.28672,51.03931],[-0.28572,51.03841],[-0.28529,51.03784],[-0.28529,51.03754],[-0.28538,51.03723],[-0.28579,51.03672],[-0.28594,51.03606],[-0.28597,51.03555],[-0.28574,51.03512],[-0.2852,51.0346],[-0.2845,51.03442],[-0.28381,51.03431],[-0.28304,51.03407],[-0.28254,51.03383],[-0.28122,51.03294],[-0.27895,51.03168],[-0.27891,51.03146],[-0.27846,51.03145],[-0.27798,51.03138],[-0.27601,51.03094],[-0.27418,51.0306],[-0.27252,51.03018],[-0.27214,51.02982],[-0.27088,51.02942],[-0.26956,51.02828],[-0.26936,51.0282],[-0.26818,51.02735],[-0.26533,51.0259],[-0.26505,51.02569],[-0.26391,51.02435],[-0.26258,51.02253],[-0.2627,51.02192],[-0.26286,51.02188],[-0.26287,51.02178],[-0.2627,51.02174],[-0.2632,51.01963],[-0.26314,51.01894],[-0.2629,51.01805],[-0.26236,51.01682],[-0.26191,51.01608],[-0.26191,51.01547],[-0.26176,51.01528],[-0.26205,51.01508],[-0.2621,51.01483],[-0.26178,51.01478],[-0.26179,51.01471],[-0.26217,51.01472],[-0.26243,51.01396],[-0.26273,51.01205],[-0.26389,51.00946],[-0.26409,51.00828],[-0.26495,51.00738],[-0.26686,51.0062],[-0.26714,51.00574],[-0.26736,51.00526],[-0.26754,51.00454],[-0.2676,51.0038],[-0.26783,51.00315],[-0.26826,51.00255],[-0.26939,51.0016],[-0.26961,51.00105],[-0.26996,50.99934],[-0.27053,50.99877],[-0.27109,50.99832],[-0.27169,50.99761],[-0.27207,50.99673],[-0.27231,50.99581],[-0.27251,50.99389],[-0.27322,50.99366],[-0.2728,50.99305],[-0.27308,50.99324],[-0.27331,50.99303],[-0.27331,50.99281],[-0.27286,50.99263],[-0.27599,50.9924],[-0.27614,50.99098],[-0.27684,50.99048],[-0.27661,50.98982],[-0.27404,50.98928],[-0.27487,50.98734],[-0.27396,50.98698],[-0.27323,50.98681],[-0.27338,50.98665],[-0.2735,50.98632],[-0.27352,50.98595],[-0.27227,50.9857],[-0.27195,50.98558],[-0.27138,50.98551],[-0.26811,50.98574],[-0.26633,50.98536],[-0.26532,50.98584],[-0.2651,50.98639],[-0.26617,50.98678],[-0.26609,50.98716],[-0.26505,50.98794],[-0.26611,50.98853],[-0.26688,50.98868],[-0.26731,50.98907],[-0.26657,50.98926],[-0.26529,50.98943],[-0.26285,50.98933],[-0.26083,50.98935],[-0.25779,50.98948],[-0.25576,50.99001],[-0.25317,50.99098],[-0.25145,50.99122],[-0.24007,50.99061],[-0.2382,50.99045],[-0.23168,50.99037],[-0.22427,50.9895],[-0.22137,50.98923],[-0.21805,50.98856],[-0.21647,50.98806],[-0.21557,50.98785],[-0.21466,50.98773],[-0.21344,50.98772],[-0.21272,50.98762],[-0.21155,50.98737],[-0.20868,50.9871],[-0.20767,50.98695],[-0.20723,50.98739],[-0.20524,50.9883],[-0.20054,50.98769],[-0.19826,50.98719],[-0.1969,50.98679],[-0.1939,50.98681],[-0.1922,50.98705],[-0.18938,50.98764],[-0.18653,50.98809],[-0.1844,50.98852],[-0.17929,50.98945],[-0.17703,50.98993],[-0.175,50.99063],[-0.17379,50.99117],[-0.17271,50.99158],[-0.17225,50.99168],[-0.16878,50.99208],[-0.16772,50.99206],[-0.167,50.99223],[-0.16494,50.99303],[-0.16346,50.99396],[-0.1627,50.99428],[-0.16173,50.99447],[-0.16164,50.99432],[-0.16108,50.9943],[-0.15873,50.99659],[-0.15617,50.99861],[-0.15252,51.00048],[-0.15171,51.00048],[-0.15008,51.00025],[-0.14271,50.99955],[-0.14127,50.99945],[-0.13957,50.99948],[-0.13774,50.99967],[-0.12863,51.00209],[-0.12969,51.00398],[-0.13011,51.00492],[-0.12707,51.0062],[-0.13084,51.01111],[-0.13479,51.00896],[-0.13431,51.01338],[-0.13364,51.01511],[-0.13089,51.01544],[-0.13082,51.01499],[-0.13011,51.01487],[-0.12964,51.015],[-0.12901,51.01572],[-0.12686,51.01606],[-0.12373,51.01544],[-0.12193,51.01501],[-0.12,51.01531],[-0.11894,51.01558],[-0.11823,51.01568],[-0.11669,51.01565],[-0.11449,51.01542],[-0.114,51.01541],[-0.11345,51.01546],[-0.11281,51.016],[-0.11316,51.01631],[-0.11349,51.01696],[-0.11345,51.01757],[-0.11301,51.01978],[-0.11247,51.02167],[-0.11262,51.02266],[-0.11217,51.0237],[-0.11116,51.02375],[-0.10738,51.02355],[-0.10585,51.02381],[-0.10441,51.02425],[-0.10379,51.02437],[-0.10317,51.02481],[-0.10214,51.02572],[-0.1016,51.02584],[-0.10105,51.02586],[-0.10055,51.02607],[-0.09942,51.02633],[-0.09876,51.02659],[-0.0984,51.02667],[-0.09542,51.02692],[-0.09448,51.02705],[-0.09392,51.02704],[-0.09218,51.02649],[-0.09186,51.02629],[-0.0917,51.0261],[-0.09155,51.02605],[-0.09104,51.02652],[-0.09073,51.02664],[-0.09046,51.02689],[-0.08999,51.02759],[-0.08967,51.02845],[-0.08959,51.02925],[-0.08989,51.03058],[-0.08996,51.03153],[-0.0903,51.0325],[-0.09053,51.03395],[-0.09057,51.03541],[-0.09048,51.03622],[-0.09016,51.03696],[-0.08878,51.03872],[-0.0878,51.03959],[-0.08758,51.03992],[-0.08707,51.04006],[-0.08727,51.04044],[-0.08659,51.04119],[-0.08636,51.04153],[-0.08563,51.04222],[-0.08512,51.04262],[-0.08316,51.0436],[-0.08211,51.04423],[-0.08192,51.0444],[-0.0814,51.04436],[-0.08071,51.0451],[-0.07888,51.04654],[-0.07839,51.04714],[-0.07828,51.0476],[-0.07806,51.04798],[-0.07781,51.04817],[-0.07813,51.0483],[-0.07792,51.04842],[-0.078,51.04873],[-0.07801,51.04943],[-0.07831,51.05043],[-0.07875,51.05077],[-0.07891,51.0512],[-0.07918,51.0513],[-0.07941,51.0517],[-0.07941,51.05184],[-0.07913,51.05212],[-0.07898,51.05244],[-0.0798,51.05327],[-0.08171,51.05487],[-0.08208,51.05617],[-0.08368,51.0567],[-0.08471,51.05736],[-0.08505,51.05779],[-0.08523,51.05824],[-0.08485,51.05943],[-0.08497,51.05991],[-0.08533,51.06032],[-0.08471,51.06172],[-0.08446,51.06246],[-0.0836,51.06302],[-0.08375,51.06586],[-0.08359,51.06985],[-0.08304,51.07055],[-0.08268,51.07137],[-0.08155,51.07347],[-0.08142,51.07424],[-0.08064,51.07737],[-0.07974,51.0787],[-0.07828,51.08157],[-0.07631,51.08571],[-0.07616,51.08641],[-0.07626,51.08706],[-0.07626,51.08771],[-0.076,51.08897],[-0.07578,51.09109],[-0.07585,51.09139],[-0.07709,51.09242],[-0.07849,51.09338],[-0.07893,51.09394],[-0.07921,51.09445],[-0.0795,51.09482],[-0.08032,51.0953],[-0.08104,51.09581],[-0.08231,51.09684],[-0.08217,51.09701],[-0.08214,51.0972],[-0.08264,51.09749],[-0.0833,51.09768],[-0.08386,51.09826],[-0.08389,51.09855],[-0.08468,51.09922],[-0.08459,51.09939],[-0.08502,51.09985],[-0.08546,51.0999],[-0.08553,51.10039],[-0.08578,51.10085],[-0.0857,51.1012],[-0.08551,51.10158],[-0.0849,51.10223],[-0.0851,51.1027],[-0.08507,51.10327],[-0.08534,51.10356],[-0.08576,51.10351],[-0.08571,51.10344],[-0.08646,51.10327],[-0.08772,51.10275],[-0.08804,51.10267],[-0.08873,51.10255],[-0.09001,51.10246],[-0.0915,51.10256],[-0.09617,51.10309],[-0.09767,51.10335],[-0.10186,51.10393],[-0.10285,51.10411],[-0.1042,51.10459],[-0.10524,51.10483],[-0.10613,51.10518],[-0.10861,51.10663],[-0.11244,51.11046],[-0.1124,51.11178],[-0.1144,51.11221],[-0.11601,51.11305],[-0.11717,51.11321],[-0.11794,51.11324],[-0.1195,51.11319],[-0.12152,51.11297],[-0.12258,51.11292],[-0.12314,51.11377],[-0.12334,51.11469],[-0.12431,51.11512],[-0.12518,51.11507],[-0.12747,51.11532],[-0.12815,51.11544],[-0.1286,51.11594],[-0.12937,51.11607],[-0.12976,51.11597],[-0.1298,51.1157],[-0.13202,51.11584],[-0.13368,51.11602],[-0.13569,51.11585],[-0.13707,51.11589],[-0.13713,51.1166],[-0.137346,51.117591],[-0.133785,51.118092],[-0.133462,51.12102],[-0.136828,51.123171],[-0.14028,51.122465],[-0.14128,51.12461],[-0.1414,51.12538],[-0.14477,51.12426],[-0.14742,51.12331],[-0.14783,51.12323],[-0.14824,51.12323],[-0.14833,51.12312],[-0.14852,51.12304],[-0.14953,51.12301],[-0.15015,51.12292],[-0.15082,51.12277],[-0.15211,51.12229],[-0.15371,51.12162],[-0.15494,51.12098],[-0.15558,51.12052],[-0.15659,51.11955],[-0.1572,51.11928],[-0.15754,51.11917],[-0.15895,51.11893],[-0.16008,51.11881],[-0.16185,51.11851],[-0.16271,51.11818],[-0.1632,51.11794],[-0.16397,51.1174],[-0.16528,51.11583],[-0.1663,51.11518],[-0.1675,51.11473],[-0.16839,51.1145],[-0.16931,51.11441],[-0.17208,51.1144],[-0.17193,51.11345],[-0.17222,51.11294],[-0.17216,51.11236],[-0.17224,51.11174],[-0.17249,51.1115],[-0.17282,51.11137],[-0.17265,51.11105],[-0.1729,51.11078],[-0.17476,51.10941],[-0.17674,51.1083],[-0.17958,51.10723],[-0.18243,51.10736],[-0.18287,51.10634],[-0.18344,51.10556],[-0.18468,51.10455],[-0.18526,51.10423],[-0.18642,51.10374],[-0.19373,51.10125],[-0.19423,51.10127],[-0.19524,51.10198],[-0.20152,51.10445],[-0.2023,51.10492],[-0.2028,51.1053],[-0.2031,51.10574],[-0.20362,51.1063],[-0.20363,51.10667],[-0.2039,51.10693],[-0.20436,51.10692],[-0.20461,51.10664],[-0.2053,51.10626],[-0.20618,51.10559],[-0.20655,51.1051],[-0.207,51.1052],[-0.20715,51.10505],[-0.20743,51.10473],[-0.2077,51.10413],[-0.20768,51.10368],[-0.20797,51.10358],[-0.20805,51.1032],[-0.20821,51.10289],[-0.20889,51.10238],[-0.20979,51.10198],[-0.2108,51.10164],[-0.21284,51.10102],[-0.21362,51.10086],[-0.21415,51.10088],[-0.21452,51.10078],[-0.21478,51.10062],[-0.2154,51.10046],[-0.22803,51.09809],[-0.22831,51.09809],[-0.22856,51.09803],[-0.22872,51.09793],[-0.23277,51.09764],[-0.231317,51.099774],[-0.230716,51.101988],[-0.232326,51.10627],[-0.233897,51.105615],[-0.23499,51.10525],[-0.23709,51.10536],[-0.24975,51.10107],[-0.24997,51.09895],[-0.24838,51.0964],[-0.25112,51.09579],[-0.25383,51.09541],[-0.25509,51.09516],[-0.25634,51.09486],[-0.25729,51.09456],[-0.2581,51.09422],[-0.2591,51.09501],[-0.26002,51.09507],[-0.26015,51.09459],[-0.26018,51.09406],[-0.26052,51.094],[-0.26085,51.09402],[-0.26184,51.09451],[-0.26194,51.09579],[-0.26244,51.09692],[-0.263,51.09638],[-0.26349,51.09606],[-0.26498,51.09573],[-0.26348,51.09483],[-0.26295,51.0937],[-0.26494,51.09228],[-0.26367,51.09204],[-0.26608,51.09127],[-0.26844,51.09045],[-0.27245,51.08863],[-0.27391,51.08812],[-0.27576,51.08769],[-0.27773,51.08731],[-0.28169,51.08679],[-0.28414,51.0863],[-0.28634,51.08552],[-0.29003,51.08383],[-0.29002,51.08366],[-0.2899,51.08357],[-0.28936,51.08343],[-0.2889,51.08304],[-0.28865,51.08263],[-0.2886,51.08189],[-0.28862,51.08184],[-0.28895,51.08192],[-0.2889,51.08158],[-0.28906,51.08097],[-0.28968,51.0802],[-0.28998,51.08012],[-0.29055,51.07976],[-0.29048,51.07949],[-0.29203,51.07834],[-0.29239,51.07801],[-0.29303,51.07776],[-0.29299,51.07735],[-0.29404,51.07587],[-0.29392,51.07378],[-0.29393,51.07305],[-0.294053,51.072143]]]},"properties":{"code":"H82615","name":"OUSE VALLEY PRACTICE","icb":"S9B9J"}}]}