{"type":"FeatureCollection","features":[{"type":"Feature","geometry":{"type":"Polygon","coordinates":[[[-0.109876,51.411754],[-0.109149,51.411391],[-0.108735,51.411179],[-0.108218,51.410843],[-0.107329,51.410129],[-0.10697,51.409699],[-0.106764,51.409453],[-0.106565,51.409187],[-0.105528,51.407801],[-0.105006,51.407138],[-0.104721,51.406776],[-0.104483,51.40649],[-0.104177,51.406181],[-0.103758,51.405799],[-0.103373,51.405463],[-0.102987,51.405127],[-0.102293,51.404519],[-0.101919,51.404195],[-0.101622,51.403909],[-0.101389,51.403686],[-0.101261,51.403565],[-0.101046,51.403352],[-0.10094,51.403237],[-0.100879,51.403146],[-0.102923,51.400732],[-0.101164,51.399614],[-0.099907,51.39851],[-0.09845,51.397278],[-0.097505,51.396809],[-0.096453,51.396301],[-0.095637,51.395926],[-0.095229,51.395819],[-0.094285,51.395444],[-0.094221,51.395377],[-0.094307,51.395685],[-0.093663,51.395216],[-0.092461,51.394814],[-0.091753,51.394399],[-0.091238,51.394158],[-0.087998,51.391454],[-0.087632,51.392418],[-0.087396,51.392887],[-0.086904,51.393623],[-0.086409,51.393931],[-0.08598,51.394158],[-0.085486,51.394547],[-0.085079,51.394788],[-0.084585,51.395082],[-0.084113,51.39535],[-0.083813,51.395618],[-0.083512,51.395872],[-0.083233,51.396006],[-0.082912,51.396073],[-0.082783,51.396314],[-0.082611,51.396448],[-0.082418,51.396448],[-0.082289,51.396501],[-0.082096,51.396515],[-0.081861,51.396475],[-0.081668,51.396528],[-0.081804,51.396657],[-0.08079,51.396927],[-0.080273,51.397072],[-0.079778,51.397221],[-0.078827,51.397514],[-0.077861,51.397841],[-0.076848,51.39819],[-0.076282,51.398436],[-0.075833,51.398675],[-0.075656,51.398779],[-0.075429,51.398937],[-0.075216,51.399084],[-0.075011,51.399221],[-0.074631,51.399476],[-0.073903,51.39911],[-0.073479,51.398883],[-0.073294,51.398762],[-0.073101,51.398552],[-0.072748,51.398333],[-0.07211,51.397937],[-0.071479,51.397547],[-0.070233,51.396792],[-0.068925,51.396011],[-0.068222,51.396367],[-0.067503,51.396722],[-0.066774,51.397091],[-0.066084,51.39744],[-0.065164,51.397906],[-0.064573,51.398143],[-0.063078,51.398433],[-0.062198,51.3986],[-0.061191,51.39876],[-0.060965,51.398947],[-0.060743,51.399107],[-0.060586,51.399213],[-0.060137,51.399477],[-0.060767,51.399858],[-0.061174,51.400131],[-0.06152,51.40035],[-0.062292,51.400898],[-0.062377,51.401254],[-0.062141,51.401562],[-0.060638,51.401883],[-0.059629,51.402044],[-0.058341,51.402579],[-0.056946,51.403168],[-0.055465,51.403904],[-0.057246,51.405926],[-0.057633,51.406381],[-0.058148,51.406862],[-0.058492,51.407184],[-0.059008,51.407933],[-0.059094,51.408308],[-0.059515,51.408621],[-0.058493,51.409272],[-0.057377,51.409673],[-0.056346,51.410343],[-0.054801,51.41144],[-0.053258,51.412604],[-0.051623,51.413822],[-0.052053,51.414304],[-0.052654,51.415],[-0.053642,51.415803],[-0.056604,51.416847],[-0.05948,51.417997],[-0.061428,51.418903],[-0.06146,51.419112],[-0.06157,51.420379],[-0.061797,51.421049],[-0.062141,51.421653],[-0.062558,51.42226],[-0.06344,51.423063],[-0.064668,51.42391],[-0.064012,51.424508],[-0.064377,51.424971],[-0.064635,51.42497],[-0.064918,51.425118],[-0.064921,51.425299],[-0.064921,51.425972],[-0.064921,51.426449],[-0.064907,51.426694],[-0.064937,51.426893],[-0.065994,51.426663],[-0.066953,51.426576],[-0.069479,51.426338],[-0.069694,51.426817],[-0.069935,51.427179],[-0.070218,51.427412],[-0.070527,51.427626],[-0.070851,51.427791],[-0.070984,51.427913],[-0.07118,51.428134],[-0.071446,51.428408],[-0.071656,51.428577],[-0.071919,51.428676],[-0.072239,51.428718],[-0.072366,51.428706],[-0.072819,51.428748],[-0.073696,51.428742],[-0.075485,51.428808],[-0.078063,51.428799],[-0.078087,51.428767],[-0.078207,51.428658],[-0.078165,51.428312],[-0.078142,51.428161],[-0.077849,51.427734],[-0.07696,51.427059],[-0.076949,51.426986],[-0.077667,51.426912],[-0.077869,51.426841],[-0.078229,51.426616],[-0.078506,51.426458],[-0.078624,51.426389],[-0.079003,51.426255],[-0.079515,51.426202],[-0.080004,51.426255],[-0.08067,51.426474],[-0.081409,51.426889],[-0.083776,51.424246],[-0.094307,51.426883],[-0.09508,51.42677],[-0.097186,51.42634],[-0.098023,51.426252],[-0.099043,51.426059],[-0.099186,51.426276],[-0.099272,51.42626],[-0.098135,51.424446],[-0.097704,51.423691],[-0.096937,51.422717],[-0.097525,51.422664],[-0.098396,51.422612],[-0.1007,51.422633],[-0.104212,51.422696],[-0.105438,51.422624],[-0.106282,51.422639],[-0.10772,51.422878],[-0.109161,51.423213],[-0.109695,51.423206],[-0.111576,51.42318],[-0.117577,51.420418],[-0.119857,51.419143],[-0.120234,51.418991],[-0.120518,51.418832],[-0.120626,51.418687],[-0.121248,51.417468],[-0.121712,51.416846],[-0.122226,51.416255],[-0.122721,51.415684],[-0.122939,51.415434],[-0.122991,51.415222],[-0.123021,51.415047],[-0.122691,51.415026],[-0.122399,51.415008],[-0.121991,51.415011],[-0.121548,51.415007],[-0.120101,51.415018],[-0.119237,51.415025],[-0.118964,51.415029],[-0.118891,51.415029],[-0.118782,51.415036],[-0.118219,51.415039],[-0.117666,51.415047],[-0.117253,51.415047],[-0.117033,51.415034],[-0.116431,51.414912],[-0.115874,51.414703],[-0.114671,51.414103],[-0.114202,51.413883],[-0.113801,51.413668],[-0.113656,51.413596],[-0.113469,51.413508],[-0.112546,51.413028],[-0.111568,51.412569],[-0.109876,51.411754]]]},"properties":{"code":"H83005","name":"UPPER NORWOOD GROUP PRACTICE","icb":"QWE"}}]}