{"type":"FeatureCollection","features":[{"type":"Feature","geometry":{"type":"Polygon","coordinates":[[[-0.093584,51.327706],[-0.09543,51.32598],[-0.08821,51.32117],[-0.07848,51.31453],[-0.0748,51.31278],[-0.07156,51.31199],[-0.06303,51.31761],[-0.06166,51.31419],[-0.05572,51.30901],[-0.05133,51.30789],[-0.04242,51.30675],[-0.04133,51.30792],[-0.03819,51.31076],[-0.03785,51.32026],[-0.03699,51.33801],[-0.00927,51.3316],[0.00067,51.33403],[-0.00161,51.338],[-0.0045,51.34057],[-0.0083,51.35266],[-0.00933,51.35385],[-0.00969,51.35382],[-0.00976,51.35392],[-0.00967,51.35453],[-0.00973,51.35514],[-0.01004,51.35531],[-0.01053,51.35542],[-0.01161,51.35558],[-0.01303,51.35565],[-0.01388,51.35598],[-0.01379,51.35654],[-0.01531,51.35651],[-0.01606,51.35687],[-0.01637,51.35729],[-0.0179,51.3587],[-0.01812,51.35921],[-0.0206,51.35908],[-0.02213,51.35858],[-0.02299,51.35933],[-0.02648,51.36059],[-0.02776,51.36055],[-0.02816,51.36102],[-0.02991,51.36152],[-0.04745,51.36158],[-0.05562,51.35861],[-0.06065,51.35989],[-0.06355,51.36074],[-0.06452,51.36197],[-0.06869,51.363],[-0.07345,51.36351],[-0.07216,51.37536],[-0.08791,51.37496],[-0.09923,51.37286],[-0.10085,51.36977],[-0.09634,51.36739],[-0.0964,51.36535],[-0.09703,51.36409],[-0.09636,51.36356],[-0.09783,51.35737],[-0.09794,51.35458],[-0.09822,51.353],[-0.09901,51.35166],[-0.11611,51.33939],[-0.11442,51.33706],[-0.11084,51.33346],[-0.10334,51.33023],[-0.09918,51.32782],[-0.09584,51.32642],[-0.093584,51.327706]]]},"properties":{"code":"H83014","name":"QUEENHILL MEDICAL PRACTICE","icb":"QWE"}}]}