{"type":"FeatureCollection","features":[{"type":"Feature","geometry":{"type":"Polygon","coordinates":[[[-0.10789,51.38314],[-0.10759,51.38303],[-0.1036,51.37917],[-0.10184,51.37912],[-0.10021,51.37826],[-0.09682,51.37928],[-0.093593,51.378567],[-0.0936,51.37867],[-0.09227,51.3814],[-0.09089,51.38126],[-0.08974,51.38424],[-0.08918,51.38737],[-0.08759,51.38793],[-0.08785,51.38949],[-0.08875,51.38962],[-0.08639,51.39406],[-0.08137,51.39682],[-0.07879,51.39757],[-0.07999,51.39875],[-0.08454,51.40253],[-0.08549,51.40317],[-0.0869,51.40271],[-0.08875,51.40124],[-0.08592,51.40004],[-0.08733,51.39913],[-0.09034,51.39856],[-0.0933,51.39779],[-0.0945,51.39859],[-0.0966,51.3987],[-0.09836,51.39894],[-0.10291,51.39776],[-0.1142,51.39329],[-0.11227,51.39064],[-0.110807,51.387477],[-0.11561,51.38568],[-0.11652,51.38306],[-0.11295,51.38086],[-0.10789,51.38314]]]},"properties":{"code":"H83034","name":"WHITEHORSE PRACTICE","icb":"QWE"}}]}