{"type":"FeatureCollection","features":[{"type":"Feature","geometry":{"type":"Polygon","coordinates":[[[-0.03219,51.35812],[-0.03073,51.3587],[-0.031496,51.359925],[-0.031407,51.360858],[-0.03094,51.369518],[-0.028741,51.377186],[-0.033151,51.377135],[-0.033713,51.377533],[-0.03686,51.38785],[-0.03713,51.387923],[-0.037365,51.388078],[-0.037525,51.388375],[-0.03742,51.388582],[-0.037288,51.38904],[-0.038725,51.390501],[-0.041968,51.39328],[-0.04686,51.39374],[-0.047818,51.39374],[-0.04867,51.39393],[-0.04952,51.39401],[-0.051508,51.396237],[-0.054017,51.394433],[-0.055608,51.39329],[-0.064185,51.387542],[-0.059426,51.382704],[-0.063172,51.380929],[-0.062793,51.380229],[-0.055193,51.359664],[-0.0554,51.35956],[-0.0533,51.35892],[-0.04862,51.35911],[-0.04787,51.359613],[-0.047737,51.35965],[-0.041948,51.359718],[-0.041747,51.359663],[-0.040938,51.359232],[-0.040872,51.359126],[-0.04098,51.35857],[-0.03219,51.35812]]]},"properties":{"code":"H83043","name":"SHIRLEY MEDICAL CENTRE","icb":"QWE"}}]}