{"type":"FeatureCollection","features":[{"type":"Feature","geometry":{"type":"Polygon","coordinates":[[[-0.116176,51.340233],[-0.11759,51.34005],[-0.11656,51.3393],[-0.11484,51.33662],[-0.11192,51.33404],[-0.10317,51.3304],[-0.09819,51.33029],[-0.08995,51.3305],[-0.08566,51.33115],[-0.08257,51.33437],[-0.07381,51.33812],[-0.06763,51.34069],[-0.064736,51.342359],[-0.06317,51.34305],[-0.063321,51.343175],[-0.063072,51.343318],[-0.06283,51.34316],[-0.063027,51.343345],[-0.06111,51.34445],[-0.05407,51.34734],[-0.04755,51.34809],[-0.04189,51.34981],[-0.066541,51.346638],[-0.06729,51.34734],[-0.06817,51.349075],[-0.06969,51.35356],[-0.071256,51.354473],[-0.07244,51.35565],[-0.0757,51.35742],[-0.076832,51.357721],[-0.07999,51.35956],[-0.079941,51.359763],[-0.07892,51.36144],[-0.07802,51.36382],[-0.080325,51.364083],[-0.086267,51.365095],[-0.09137,51.3664],[-0.10081,51.36795],[-0.100026,51.367439],[-0.10162,51.36771],[-0.103815,51.367815],[-0.10072,51.36787],[-0.10334,51.36835],[-0.10424,51.3684],[-0.106277,51.367933],[-0.108463,51.368037],[-0.11025,51.36832],[-0.112809,51.368245],[-0.11501,51.36835],[-0.115272,51.368173],[-0.1157,51.36816],[-0.115806,51.367811],[-0.11913,51.36556],[-0.11467,51.34455],[-0.116176,51.340233]]]},"properties":{"code":"H83031","name":"HALING PARK MEDICAL PRACTICE","icb":"QWE"}}]}