{"type":"FeatureCollection","features":[{"type":"Feature","geometry":{"type":"MultiPolygon","coordinates":[[[[-0.096345,51.371566],[-0.089148,51.372609],[-0.083041,51.372932],[-0.081711,51.374031],[-0.080824,51.375137],[-0.080637,51.375204],[-0.076566,51.375022],[-0.074746,51.374864],[-0.072699,51.374218],[-0.068708,51.374406],[-0.06802,51.376147],[-0.068621,51.378719],[-0.071282,51.381317],[-0.073703,51.382214],[-0.076905,51.384477],[-0.081147,51.385139],[-0.083557,51.38662],[-0.095556,51.386493],[-0.095739,51.386567],[-0.096259,51.387316],[-0.098363,51.387745],[-0.10101,51.387435],[-0.101195,51.387477],[-0.101323,51.38737],[-0.101181,51.387157],[-0.101276,51.386993],[-0.101838,51.386807],[-0.101351,51.385388],[-0.101431,51.385261],[-0.104456,51.383942],[-0.106301,51.382549],[-0.105357,51.380861],[-0.09961,51.381533],[-0.09934,51.381346],[-0.100121,51.379549],[-0.100165,51.378853],[-0.098626,51.376825],[-0.098276,51.376147],[-0.09666,51.374078],[-0.096345,51.371566]]],[[[-0.00549,51.33361],[0,51.33522],[-0.003986,51.348217],[-0.00429,51.35217],[-0.01863,51.35935],[-0.03236,51.35678],[-0.025525,51.35294],[-0.022741,51.347869],[-0.022835,51.347717],[-0.023,51.34766],[-0.02498,51.34407],[-0.02317,51.33962],[-0.01081,51.33399],[-0.00549,51.33361]]]]},"properties":{"code":"H83012","name":"ST JAMES MEDICAL CENTRE","icb":"QWE"}}]}