{"type":"FeatureCollection","features":[{"type":"Feature","geometry":{"type":"Polygon","coordinates":[[[-0.0975,51.39813],[-0.113861,51.393586],[-0.119355,51.390439],[-0.120418,51.385733],[-0.114574,51.378955],[-0.10717,51.373989],[-0.103181,51.372632],[-0.100521,51.372336],[-0.096468,51.372569],[-0.087304,51.373096],[-0.072469,51.370933],[-0.061177,51.376705],[-0.06145,51.3886],[-0.06884,51.40499],[-0.0975,51.39813]]]},"properties":{"code":"H83611","name":"SELHURST MEDICAL CENTRE","icb":"QWE"}}]}