{"type":"FeatureCollection","features":[{"type":"Feature","geometry":{"type":"Polygon","coordinates":[[[-0.35205,51.42724],[-0.35066,51.427],[-0.350581,51.427259],[-0.350563,51.427297],[-0.350535,51.427333],[-0.350497,51.427365],[-0.350451,51.427393],[-0.350397,51.427415],[-0.350338,51.42743],[-0.350276,51.427439],[-0.350212,51.427441],[-0.350149,51.427436],[-0.350088,51.427424],[-0.350032,51.427405],[-0.349981,51.42738],[-0.349939,51.427351],[-0.349905,51.427316],[-0.349882,51.427279],[-0.34987,51.42724],[-0.34969,51.42687],[-0.34591,51.42619],[-0.345359,51.427103],[-0.345346,51.427122],[-0.345329,51.427141],[-0.34531,51.427158],[-0.345289,51.427175],[-0.345265,51.42719],[-0.345239,51.427203],[-0.345211,51.427215],[-0.345181,51.427225],[-0.34515,51.427234],[-0.345118,51.42724],[-0.345085,51.427245],[-0.345051,51.427247],[-0.345018,51.427248],[-0.344984,51.427247],[-0.34495,51.427244],[-0.344918,51.427238],[-0.33985,51.42627],[-0.34207,51.42842],[-0.344824,51.430207],[-0.344854,51.430229],[-0.344879,51.430254],[-0.344899,51.43028],[-0.344913,51.430308],[-0.34635,51.43388],[-0.34728,51.43541],[-0.35083,51.43606],[-0.353048,51.431302],[-0.353062,51.431277],[-0.353082,51.431253],[-0.353105,51.43123],[-0.353133,51.43121],[-0.353164,51.431191],[-0.353199,51.431175],[-0.353237,51.431162],[-0.353276,51.431152],[-0.355441,51.430688],[-0.355472,51.430682],[-0.355504,51.430678],[-0.355537,51.430676],[-0.355569,51.430676],[-0.355602,51.430677],[-0.355634,51.430681],[-0.355665,51.430686],[-0.355696,51.430693],[-0.36193,51.43231],[-0.366852,51.433095],[-0.366907,51.433107],[-0.37937,51.43651],[-0.38916,51.43425],[-0.398589,51.431463],[-0.398611,51.431457],[-0.40104,51.43086],[-0.40332,51.42984],[-0.407216,51.424615],[-0.407225,51.424605],[-0.408343,51.423293],[-0.408363,51.423273],[-0.408386,51.423253],[-0.408413,51.423236],[-0.408443,51.42322],[-0.41126,51.42188],[-0.41028,51.42009],[-0.409239,51.418344],[-0.409225,51.418315],[-0.409218,51.418285],[-0.409216,51.418255],[-0.409222,51.418225],[-0.409233,51.418196],[-0.409251,51.418168],[-0.409275,51.418142],[-0.409303,51.418118],[-0.409337,51.418097],[-0.409375,51.418079],[-0.409417,51.418064],[-0.409461,51.418052],[-0.409507,51.418044],[-0.409555,51.418041],[-0.409603,51.418041],[-0.40965,51.418045],[-0.41817,51.41918],[-0.41929,51.41868],[-0.41809,51.41277],[-0.41543,51.40836],[-0.41243,51.40401],[-0.40814,51.405672],[-0.408098,51.405686],[-0.40295,51.40713],[-0.393017,51.410073],[-0.392959,51.410087],[-0.392897,51.410094],[-0.388649,51.410339],[-0.388631,51.41034],[-0.386392,51.410399],[-0.38635,51.410398],[-0.386309,51.410395],[-0.38328,51.41003],[-0.37888,51.41004],[-0.37495,51.41016],[-0.36899,51.41224],[-0.368359,51.412999],[-0.368331,51.413027],[-0.368298,51.413052],[-0.368259,51.413074],[-0.368216,51.413092],[-0.368168,51.413105],[-0.368119,51.413115],[-0.368067,51.41312],[-0.368015,51.41312],[-0.360499,51.412792],[-0.360451,51.412788],[-0.360404,51.41278],[-0.35798,51.41224],[-0.35757,51.4133],[-0.357869,51.414515],[-0.357873,51.414537],[-0.357873,51.41456],[-0.357869,51.414582],[-0.357862,51.414604],[-0.35728,51.41605],[-0.358825,51.422466],[-0.358829,51.422497],[-0.358826,51.422529],[-0.358815,51.42256],[-0.358799,51.422589],[-0.354373,51.42893],[-0.354358,51.428949],[-0.35434,51.428967],[-0.35432,51.428983],[-0.354298,51.428999],[-0.354273,51.429013],[-0.354246,51.429026],[-0.354218,51.429037],[-0.354188,51.429046],[-0.354157,51.429053],[-0.354124,51.429059],[-0.354092,51.429063],[-0.354058,51.429065],[-0.354025,51.429065],[-0.353992,51.429063],[-0.353959,51.429059],[-0.353927,51.429053],[-0.351842,51.428607],[-0.351811,51.428599],[-0.351782,51.42859],[-0.351753,51.428579],[-0.351727,51.428566],[-0.351702,51.428552],[-0.35168,51.428536],[-0.35166,51.428519],[-0.351643,51.428502],[-0.351628,51.428483],[-0.351617,51.428463],[-0.351608,51.428443],[-0.351602,51.428423],[-0.3516,51.428402],[-0.3516,51.428381],[-0.351604,51.42836],[-0.35161,51.42834],[-0.35205,51.42724]]]},"properties":{"code":"H84040","name":"HAMPTON MEDICAL CENTRE","icb":"QWE"}}]}