{"type":"FeatureCollection","features":[{"type":"Feature","geometry":{"type":"Polygon","coordinates":[[[-0.28873,51.465395],[-0.28925,51.46171],[-0.2968,51.45058],[-0.29354,51.45208],[-0.28427,51.45529],[-0.2726,51.45679],[-0.26608,51.457],[-0.25955,51.45572],[-0.24084,51.44299],[-0.23552,51.44491],[-0.2308,51.44566],[-0.22642,51.44759],[-0.22179,51.44951],[-0.2187,51.45807],[-0.21544,51.46427],[-0.21406,51.46588],[-0.21767,51.46748],[-0.22316,51.4709],[-0.22625,51.47604],[-0.22728,51.48288],[-0.23106,51.48716],[-0.23689,51.48929],[-0.24307,51.4878],[-0.24719,51.48373],[-0.24925,51.48138],[-0.2496,51.47775],[-0.25063,51.47497],[-0.25269,51.47304],[-0.25595,51.47088],[-0.25921,51.47022],[-0.26264,51.47021],[-0.26736,51.47125],[-0.27054,51.47262],[-0.2774,51.46887],[-0.28839,51.4678],[-0.288588,51.466401],[-0.28899,51.46572],[-0.28873,51.465395]]]},"properties":{"code":"H84023","name":"ESSEX HOUSE SURGERY","icb":"QWE"}}]}