{"type":"FeatureCollection","features":[{"type":"Feature","geometry":{"type":"Polygon","coordinates":[[[-0.310192,51.47299],[-0.317316,51.470317],[-0.319204,51.465237],[-0.315514,51.46251],[-0.311995,51.460371],[-0.315943,51.457911],[-0.315256,51.455825],[-0.31251,51.452777],[-0.309248,51.451333],[-0.307789,51.450263],[-0.30333,51.45026],[-0.30985,51.44705],[-0.31757,51.44513],[-0.32204,51.44459],[-0.3235,51.4432],[-0.32204,51.43946],[-0.32187,51.43689],[-0.31929,51.43443],[-0.31946,51.43229],[-0.31603,51.43229],[-0.31139,51.43154],[-0.3071,51.43025],[-0.30333,51.42854],[-0.29509,51.42587],[-0.290194,51.426668],[-0.285473,51.420995],[-0.281138,51.421798],[-0.254188,51.436996],[-0.254531,51.437745],[-0.255604,51.440634],[-0.254703,51.442212],[-0.254617,51.444459],[-0.25466,51.446572],[-0.255861,51.4493],[-0.256462,51.453205],[-0.262728,51.456574],[-0.26865,51.456628],[-0.269594,51.457002],[-0.272684,51.456842],[-0.274401,51.461441],[-0.275688,51.464275],[-0.270624,51.472455],[-0.277147,51.481276],[-0.279636,51.483147],[-0.28367,51.485766],[-0.287962,51.486193],[-0.29294,51.485285],[-0.299206,51.48165],[-0.305986,51.475182],[-0.310192,51.47299]]]},"properties":{"code":"H84041","name":"VINEYARD SURGERY","icb":"QWE"}}]}