{"type":"FeatureCollection","features":[{"type":"Feature","geometry":{"type":"Polygon","coordinates":[[[-0.2702,51.42876],[-0.27569,51.42362],[-0.27843,51.41923],[-0.28135,51.41698],[-0.27998,51.41537],[-0.28032,51.41281],[-0.28067,51.41098],[-0.2853,51.40799],[-0.27655,51.4036],[-0.27895,51.40188],[-0.278434,51.398135],[-0.280837,51.398349],[-0.282897,51.397278],[-0.283927,51.396207],[-0.28839,51.395564],[-0.287702,51.394922],[-0.293196,51.394279],[-0.291819,51.393422],[-0.290105,51.392137],[-0.289419,51.390423],[-0.288044,51.38828],[-0.286673,51.387209],[-0.284612,51.385924],[-0.285642,51.385709],[-0.279124,51.381424],[-0.277748,51.381424],[-0.278091,51.380353],[-0.277748,51.378853],[-0.277405,51.380567],[-0.277405,51.381424],[-0.279807,51.382281],[-0.273628,51.382067],[-0.272941,51.381424],[-0.271912,51.382281],[-0.269166,51.381853],[-0.264016,51.381638],[-0.26041,51.37917],[-0.24496,51.38067],[-0.23741,51.40038],[-0.24427,51.40349],[-0.24788,51.40991],[-0.25131,51.41409],[-0.25337,51.41495],[-0.25217,51.41719],[-0.25698,51.42715],[-0.2702,51.42876]]]},"properties":{"code":"H84042","name":"HOLMWOOD CORNER SURGERY","icb":"QWE"}}]}