{"type":"FeatureCollection","features":[{"type":"Feature","geometry":{"type":"Polygon","coordinates":[[[-0.314419,51.440848],[-0.315256,51.442667],[-0.315942,51.442479],[-0.318946,51.44161],[-0.320363,51.441035],[-0.322166,51.4405],[-0.322788,51.439818],[-0.32238,51.43947],[-0.323882,51.437263],[-0.323239,51.435926],[-0.32238,51.43515],[-0.321865,51.434829],[-0.319848,51.43333],[-0.319913,51.432327],[-0.318775,51.431431],[-0.317466,51.430334],[-0.315943,51.429049],[-0.31311,51.427819],[-0.3106,51.426534],[-0.308347,51.425062],[-0.306759,51.423484],[-0.306115,51.421102],[-0.307746,51.416365],[-0.308261,51.415107],[-0.308304,51.413849],[-0.308132,51.411125],[-0.308561,51.40968],[-0.308518,51.408127],[-0.308604,51.407746],[-0.309119,51.399206],[-0.306887,51.398724],[-0.306029,51.398536],[-0.304956,51.398349],[-0.304055,51.398188],[-0.302768,51.399206],[-0.302167,51.399661],[-0.301652,51.400089],[-0.301052,51.400277],[-0.30058,51.400411],[-0.300065,51.400491],[-0.299378,51.400518],[-0.298563,51.400678],[-0.297919,51.400946],[-0.297189,51.40108],[-0.296674,51.401267],[-0.295987,51.401401],[-0.294871,51.401562],[-0.294442,51.402659],[-0.29427,51.404426],[-0.294185,51.406193],[-0.294099,51.407184],[-0.294313,51.408067],[-0.293627,51.408208],[-0.291996,51.408843],[-0.290365,51.409406],[-0.288777,51.409647],[-0.286245,51.40877],[-0.285001,51.408228],[-0.280538,51.410851],[-0.278606,51.410771],[-0.274916,51.408636],[-0.273457,51.408629],[-0.269337,51.408951],[-0.270066,51.410858],[-0.267406,51.41134],[-0.268736,51.414357],[-0.265045,51.416157],[-0.267277,51.424822],[-0.266172,51.425022],[-0.265206,51.42525],[-0.263093,51.425624],[-0.262685,51.425678],[-0.262417,51.425711],[-0.262277,51.425725],[-0.262052,51.425752],[-0.26187,51.425798],[-0.261687,51.425832],[-0.261526,51.425872],[-0.261344,51.425925],[-0.261161,51.425986],[-0.260946,51.426019],[-0.260786,51.426066],[-0.260582,51.426086],[-0.260335,51.426146],[-0.260142,51.4262],[-0.259885,51.426247],[-0.259606,51.42632],[-0.259294,51.426394],[-0.259048,51.426454],[-0.258822,51.426501],[-0.258125,51.426648],[-0.257202,51.426842],[-0.256226,51.427036],[-0.255969,51.427089],[-0.255883,51.427116],[-0.255829,51.42711],[-0.25586,51.42739],[-0.255859,51.42739],[-0.255859,51.42739],[-0.256052,51.428126],[-0.256416,51.429772],[-0.256698,51.43131],[-0.256805,51.432876],[-0.256763,51.433638],[-0.256591,51.434481],[-0.255733,51.436086],[-0.25702,51.435872],[-0.258347,51.435497],[-0.263756,51.433625],[-0.268134,51.431484],[-0.275559,51.426681],[-0.279046,51.423678],[-0.280216,51.42256],[-0.281138,51.42248],[-0.28204,51.422373],[-0.283091,51.422186],[-0.28455,51.421905],[-0.285945,51.421664],[-0.285795,51.423136],[-0.286267,51.425812],[-0.287619,51.4283],[-0.288477,51.431016],[-0.286846,51.4323],[-0.28691,51.433009],[-0.292168,51.43214],[-0.305214,51.435511],[-0.304699,51.43638],[-0.304613,51.437276],[-0.302553,51.44363],[-0.30384,51.443309],[-0.304784,51.443148],[-0.306244,51.442774],[-0.307617,51.442346],[-0.309591,51.441704],[-0.311308,51.440473],[-0.313797,51.439738],[-0.314419,51.440848]]]},"properties":{"code":"H84033","name":"ST ALBANS MEDICAL CENTRE","icb":"QWE"}}]}