{"type":"FeatureCollection","features":[{"type":"Feature","geometry":{"type":"Polygon","coordinates":[[[-0.38519,51.44822],[-0.38379,51.44638],[-0.382847,51.446802],[-0.381223,51.446132],[-0.3767,51.44439],[-0.367147,51.441459],[-0.36727,51.44138],[-0.370658,51.438312],[-0.370134,51.437868],[-0.368029,51.438227],[-0.365434,51.43867],[-0.361838,51.439428],[-0.359146,51.437856],[-0.35665,51.436661],[-0.351434,51.435378],[-0.348887,51.438891],[-0.346437,51.440903],[-0.341099,51.443863],[-0.340545,51.444318],[-0.340209,51.444857],[-0.33882,51.44504],[-0.338404,51.447293],[-0.337498,51.447874],[-0.33638,51.44832],[-0.333906,51.449364],[-0.332849,51.449708],[-0.330529,51.452],[-0.330297,51.452312],[-0.330179,51.452635],[-0.330165,51.452781],[-0.330115,51.452925],[-0.330057,51.453081],[-0.330091,51.453278],[-0.330108,51.453876],[-0.330124,51.454486],[-0.330208,51.454972],[-0.330293,51.455467],[-0.330531,51.455623],[-0.331217,51.455365],[-0.332151,51.455092],[-0.333836,51.454706],[-0.333989,51.455083],[-0.334305,51.455291],[-0.335212,51.455346],[-0.336154,51.455381],[-0.336499,51.454804],[-0.336643,51.454221],[-0.337906,51.454094],[-0.338474,51.454841],[-0.338976,51.455608],[-0.340718,51.457085],[-0.340863,51.45738],[-0.340905,51.457689],[-0.340381,51.457683],[-0.340301,51.457674],[-0.340153,51.458269],[-0.340764,51.458337],[-0.340341,51.459017],[-0.34044,51.459338],[-0.342198,51.459127],[-0.343949,51.458985],[-0.344606,51.458671],[-0.34531,51.458578],[-0.345326,51.458778],[-0.34582,51.459197],[-0.346477,51.459398],[-0.347451,51.459484],[-0.349516,51.459317],[-0.350166,51.458443],[-0.350583,51.458335],[-0.351522,51.458849],[-0.353253,51.458991],[-0.353389,51.459998],[-0.357125,51.460654],[-0.363742,51.46012],[-0.364566,51.459852],[-0.365325,51.459488],[-0.366084,51.459067],[-0.366741,51.458539],[-0.371222,51.454936],[-0.37261,51.45676],[-0.37589,51.453653],[-0.377773,51.454378],[-0.38,51.45255],[-0.38538,51.45184],[-0.387543,51.451555],[-0.389269,51.450906],[-0.38519,51.44822]]]},"properties":{"code":"H84031","name":"JUBILEE SURGERY","icb":"QWE"}}]}