{"type":"FeatureCollection","features":[{"type":"Feature","geometry":{"type":"Polygon","coordinates":[[[-0.280541,51.376203],[-0.273006,51.379818],[-0.265515,51.382963],[-0.27036,51.38869],[-0.27532,51.39509],[-0.27826,51.40004],[-0.29221,51.40202],[-0.29631,51.40235],[-0.29878,51.40274],[-0.30263,51.40302],[-0.30488,51.40324],[-0.30695,51.40333],[-0.30798,51.40353],[-0.31002,51.39867],[-0.31379,51.39564],[-0.31825,51.39293],[-0.32116,51.39202],[-0.3256,51.39104],[-0.32516,51.38707],[-0.32128,51.38487],[-0.31834,51.38046],[-0.31794,51.37592],[-0.31222,51.37602],[-0.3065,51.37553],[-0.3,51.37455],[-0.29607,51.37373],[-0.29181,51.37333],[-0.28853,51.37398],[-0.286773,51.373323],[-0.286216,51.373497],[-0.285351,51.373961],[-0.284783,51.374349],[-0.283458,51.374985],[-0.282041,51.375734],[-0.280541,51.376203]]]},"properties":{"code":"H84053","name":"BERRYLANDS SURGERY","icb":"QWE"}}]}