{"type":"FeatureCollection","features":[{"type":"Feature","geometry":{"type":"Polygon","coordinates":[[[-0.317007,51.373962],[-0.31701,51.37393],[-0.31702,51.373899],[-0.317038,51.373868],[-0.317062,51.37384],[-0.317092,51.373814],[-0.317129,51.373791],[-0.31717,51.373771],[-0.317215,51.373755],[-0.317841,51.367674],[-0.317844,51.367656],[-0.320449,51.356518],[-0.316887,51.350086],[-0.313102,51.343524],[-0.277951,51.343138],[-0.277947,51.343138],[-0.260236,51.342795],[-0.198305,51.368908],[-0.18739,51.397749],[-0.199407,51.425929],[-0.28564,51.416509],[-0.306375,51.411627],[-0.305556,51.400807],[-0.305557,51.400778],[-0.305564,51.40075],[-0.305577,51.400722],[-0.305595,51.400695],[-0.309922,51.395338],[-0.30995,51.395309],[-0.309986,51.395282],[-0.313967,51.39274],[-0.315256,51.38739],[-0.31232,51.386867],[-0.312272,51.386856],[-0.312228,51.386841],[-0.312187,51.386823],[-0.312151,51.386801],[-0.31212,51.386776],[-0.312095,51.386748],[-0.312076,51.386719],[-0.312064,51.386688],[-0.312059,51.386657],[-0.312061,51.386625],[-0.312071,51.386594],[-0.312087,51.386564],[-0.312109,51.386536],[-0.312138,51.38651],[-0.312172,51.386487],[-0.312211,51.386467],[-0.315867,51.384855],[-0.317158,51.379495],[-0.317098,51.377205],[-0.316901,51.376805],[-0.316857,51.376782],[-0.31682,51.376754],[-0.316791,51.376723],[-0.31677,51.37669],[-0.316757,51.376655],[-0.316754,51.376619],[-0.31676,51.376584],[-0.316774,51.376549],[-0.316189,51.375361],[-0.316181,51.375341],[-0.316175,51.37532],[-0.316173,51.375298],[-0.316174,51.375277],[-0.316178,51.375256],[-0.316186,51.375235],[-0.316197,51.375215],[-0.31621,51.375196],[-0.316227,51.375177],[-0.316246,51.375159],[-0.316268,51.375143],[-0.316292,51.375128],[-0.316318,51.375115],[-0.316346,51.375103],[-0.316376,51.375093],[-0.316407,51.375084],[-0.31644,51.375078],[-0.316473,51.375073],[-0.316507,51.375071],[-0.316541,51.37507],[-0.316575,51.375072],[-0.316608,51.375075],[-0.316641,51.375081],[-0.316673,51.375088],[-0.316704,51.375098],[-0.316733,51.375109],[-0.31676,51.375121],[-0.316785,51.375136],[-0.316808,51.375151],[-0.316829,51.375168],[-0.316847,51.375186],[-0.316862,51.375206],[-0.317039,51.375461],[-0.317007,51.373962]]]},"properties":{"code":"H84618","name":"SUNRAY SURGERY","icb":"QWE"}}]}