{"type":"FeatureCollection","features":[{"type":"Feature","geometry":{"type":"Polygon","coordinates":[[[-0.242987,51.454809],[-0.24342,51.45187],[-0.23209,51.44416],[-0.212345,51.453953],[-0.205564,51.455718],[-0.197926,51.457002],[-0.199127,51.462671],[-0.206079,51.463366],[-0.212259,51.465291],[-0.217495,51.467483],[-0.221615,51.470905],[-0.244274,51.469943],[-0.266418,51.470156],[-0.267277,51.452242],[-0.254059,51.455291],[-0.242987,51.454809]]]},"properties":{"code":"H85012","name":"PUTNEYMEAD GROUP MEDICAL PRACTICE","icb":"QWE"}}]}