{"type":"FeatureCollection","features":[{"type":"Feature","geometry":{"type":"MultiPolygon","coordinates":[[[[-0.1905,51.36157],[-0.190384,51.36163],[-0.184975,51.362619],[-0.18308,51.36289],[-0.18248,51.36728],[-0.182858,51.368471],[-0.18273,51.36865],[-0.18454,51.37269],[-0.18745,51.37349],[-0.190648,51.372989],[-0.19419,51.37288],[-0.19526,51.3683],[-0.19479,51.36768],[-0.193626,51.367724],[-0.193418,51.367629],[-0.19239,51.36516],[-0.1905,51.36157]]],[[[-0.20153,51.33983],[-0.198619,51.34374],[-0.198339,51.343804],[-0.18848,51.34091],[-0.179109,51.351051],[-0.17896,51.35112],[-0.17368,51.35718],[-0.17934,51.35986],[-0.183322,51.359461],[-0.184003,51.359429],[-0.19082,51.35796],[-0.191116,51.358085],[-0.19123,51.3594],[-0.192149,51.35872],[-0.21144,51.35554],[-0.209118,51.352562],[-0.209135,51.352438],[-0.20926,51.35233],[-0.20153,51.33983]]]]},"properties":{"code":"H85031","name":"BENHILL & BELMONT GP CENTRE","icb":"QWE"}}]}