{"type":"FeatureCollection","features":[{"type":"Feature","geometry":{"type":"Polygon","coordinates":[[[-0.175407,51.334137],[-0.174377,51.333992],[-0.171106,51.334865],[-0.168701,51.334949],[-0.1668,51.335116],[-0.163734,51.335294],[-0.161135,51.335866],[-0.157548,51.337666],[-0.152922,51.337935],[-0.148333,51.338694],[-0.143902,51.33981],[-0.142095,51.340567],[-0.141375,51.341316],[-0.140591,51.341884],[-0.139364,51.342399],[-0.13586,51.343334],[-0.132242,51.343109],[-0.129089,51.342722],[-0.126141,51.342173],[-0.125714,51.341841],[-0.12537,51.341928],[-0.125332,51.342351],[-0.125642,51.342912],[-0.125471,51.343207],[-0.12559,51.343395],[-0.125698,51.343971],[-0.125642,51.344606],[-0.125524,51.344809],[-0.125744,51.345155],[-0.125772,51.346595],[-0.126947,51.348039],[-0.122165,51.351217],[-0.122432,51.352648],[-0.124,51.356828],[-0.124657,51.358277],[-0.125212,51.359925],[-0.125068,51.360183],[-0.125191,51.360524],[-0.12545,51.360875],[-0.123312,51.361576],[-0.121779,51.362267],[-0.119616,51.363833],[-0.118464,51.364851],[-0.118281,51.36636],[-0.118503,51.36684],[-0.118975,51.367526],[-0.119046,51.367917],[-0.118853,51.36831],[-0.117803,51.369401],[-0.117346,51.369987],[-0.117215,51.370414],[-0.11748,51.37249],[-0.118912,51.374279],[-0.120006,51.376586],[-0.120874,51.376513],[-0.123501,51.376677],[-0.126536,51.376925],[-0.126737,51.377086],[-0.12694,51.377079],[-0.127828,51.376663],[-0.129284,51.37665],[-0.129347,51.377301],[-0.129465,51.377425],[-0.129984,51.377473],[-0.130727,51.377353],[-0.130981,51.377263],[-0.131035,51.377032],[-0.131694,51.376994],[-0.131889,51.378037],[-0.132437,51.379029],[-0.132667,51.379813],[-0.133167,51.380427],[-0.133548,51.380774],[-0.134295,51.381053],[-0.13619,51.382111],[-0.137392,51.383071],[-0.140196,51.386645],[-0.141895,51.389415],[-0.142225,51.389759],[-0.143545,51.390699],[-0.143905,51.390781],[-0.144059,51.390711],[-0.144609,51.390721],[-0.14498,51.390605],[-0.146587,51.390441],[-0.148193,51.390183],[-0.150258,51.390001],[-0.153568,51.389809],[-0.158288,51.389121],[-0.158354,51.390108],[-0.158521,51.390803],[-0.158623,51.391748],[-0.158687,51.39478],[-0.158798,51.39511],[-0.15887,51.39578],[-0.158966,51.395474],[-0.159419,51.395122],[-0.160703,51.394478],[-0.162092,51.394043],[-0.163542,51.394979],[-0.166444,51.397029],[-0.167898,51.397716],[-0.170006,51.397973],[-0.172115,51.398415],[-0.17264,51.397935],[-0.172986,51.397231],[-0.173175,51.396482],[-0.173276,51.395346],[-0.171633,51.394783],[-0.170161,51.394692],[-0.16955,51.394204],[-0.168704,51.39332],[-0.168652,51.3924],[-0.169688,51.392033],[-0.169845,51.391606],[-0.169671,51.391141],[-0.16818,51.390661],[-0.165879,51.388501],[-0.163712,51.386772],[-0.167401,51.386234],[-0.170006,51.385757],[-0.174601,51.384802],[-0.178181,51.382017],[-0.182199,51.380395],[-0.183266,51.378866],[-0.184118,51.378087],[-0.18404,51.377145],[-0.184678,51.376878],[-0.18444,51.376243],[-0.1844,51.375531],[-0.184732,51.374856],[-0.186402,51.372379],[-0.187017,51.371697],[-0.187663,51.369808],[-0.186017,51.369607],[-0.186004,51.368925],[-0.186074,51.368355],[-0.186267,51.367928],[-0.186257,51.367438],[-0.186061,51.366369],[-0.186366,51.365561],[-0.185801,51.36461],[-0.185089,51.362712],[-0.187812,51.362398],[-0.190226,51.361753],[-0.189811,51.361243],[-0.189768,51.360766],[-0.190684,51.360735],[-0.191833,51.360428],[-0.19129,51.359233],[-0.192268,51.352113],[-0.192413,51.35164],[-0.192758,51.351112],[-0.193092,51.35028],[-0.193321,51.350102],[-0.193404,51.349919],[-0.193654,51.349752],[-0.194176,51.348836],[-0.194922,51.34786],[-0.194325,51.347702],[-0.194194,51.347757],[-0.192921,51.347527],[-0.191933,51.347158],[-0.190436,51.346853],[-0.187867,51.346578],[-0.18514,51.346507],[-0.18239,51.346544],[-0.18247,51.346381],[-0.183003,51.34579],[-0.183608,51.345319],[-0.184136,51.344734],[-0.184835,51.344116],[-0.185132,51.343728],[-0.185632,51.343285],[-0.186011,51.343127],[-0.186268,51.34279],[-0.186672,51.342495],[-0.187841,51.341344],[-0.18826,51.341103],[-0.184445,51.339259],[-0.175407,51.334137]]]},"properties":{"code":"H85113","name":"MALDON ROAD SURGERY","icb":"QWE"}}]}