{"type":"FeatureCollection","features":[{"type":"Feature","geometry":{"type":"Polygon","coordinates":[[[-0.17183,51.46267],[-0.17784,51.45379],[-0.17286,51.44919],[-0.18059,51.44545],[-0.16359,51.43314],[-0.15999,51.43582],[-0.15415,51.43325],[-0.14437,51.43593],[-0.14162,51.43881],[-0.14385,51.44181],[-0.14591,51.4462],[-0.1442,51.44909],[-0.13853,51.45593],[-0.14299,51.45807],[-0.13819,51.46203],[-0.149,51.46139],[-0.15055,51.46652],[-0.17183,51.46267]]]},"properties":{"code":"H85114","name":"THURLEIGH ROAD PRACTICE","icb":"QWE"}}]}