{"type":"FeatureCollection","features":[{"type":"Feature","geometry":{"type":"Polygon","coordinates":[[[-0.164416,51.362948],[-0.156651,51.363725],[-0.152362,51.365547],[-0.145238,51.369444],[-0.151918,51.370532],[-0.150144,51.373692],[-0.15361,51.378455],[-0.152985,51.383713],[-0.157115,51.384603],[-0.157369,51.386096],[-0.158443,51.389081],[-0.16308,51.386969],[-0.164422,51.387455],[-0.163533,51.386686],[-0.170482,51.385225],[-0.172717,51.382085],[-0.171933,51.380266],[-0.166681,51.365661],[-0.165498,51.365579],[-0.164416,51.362948]]]},"properties":{"code":"H85103","name":"HACKBRIDGE MEDICAL CENTRE","icb":"QWE"}}]}