{"type":"FeatureCollection","features":[{"type":"Feature","geometry":{"type":"Polygon","coordinates":[[[-0.17226,51.37392],[-0.172224,51.373449],[-0.171656,51.372089],[-0.17183,51.3717],[-0.1708,51.37138],[-0.16819,51.37074],[-0.16758,51.36924],[-0.16733,51.36669],[-0.16432,51.3668],[-0.16342,51.36744],[-0.1599,51.37066],[-0.15977,51.37146],[-0.15977,51.37229],[-0.15956,51.37274],[-0.15862,51.37371],[-0.15784,51.37478],[-0.1602,51.37679],[-0.15986,51.3773],[-0.15836,51.37805],[-0.15724,51.37909],[-0.1557,51.37947],[-0.15531,51.38],[-0.15703,51.38215],[-0.15746,51.38504],[-0.15836,51.38705],[-0.15892,51.39554],[-0.15947,51.39498],[-0.161835,51.393999],[-0.16419,51.39514],[-0.16608,51.39661],[-0.16746,51.3976],[-0.17067,51.39789],[-0.17222,51.39851],[-0.17299,51.39773],[-0.17484,51.39851],[-0.17673,51.39859],[-0.17934,51.39923],[-0.18269,51.4003],[-0.18342,51.40028],[-0.18376,51.39937],[-0.18458,51.39851],[-0.18724,51.39905],[-0.19192,51.39589],[-0.19535,51.39441],[-0.19951,51.39315],[-0.20192,51.39216],[-0.19908,51.39048],[-0.19642,51.38922],[-0.19938,51.38694],[-0.199635,51.385184],[-0.19973,51.38523],[-0.20423,51.38287],[-0.2008,51.37888],[-0.20252,51.37789],[-0.20338,51.37644],[-0.20428,51.37475],[-0.20016,51.37307],[-0.19617,51.37191],[-0.19479,51.37167],[-0.19462,51.37119],[-0.19252,51.37052],[-0.19003,51.37039],[-0.18784,51.3698],[-0.18509,51.36966],[-0.18033,51.36974],[-0.1757,51.37124],[-0.172181,51.371731],[-0.17209,51.37167],[-0.172096,51.371743],[-0.17183,51.37178],[-0.172108,51.371914],[-0.172224,51.373449],[-0.172456,51.374001],[-0.17226,51.37392]]]},"properties":{"code":"H85693","name":"CIRCLE GP SURGERY","icb":"QWE"}}]}