{"type":"FeatureCollection","features":[{"type":"Feature","geometry":{"type":"Polygon","coordinates":[[[-2.523492,50.949603],[-2.524543,50.949495],[-2.524903,50.949526],[-2.525048,50.949418],[-2.525906,50.949242],[-2.526979,50.948917],[-2.529683,50.947721],[-2.532848,50.946673],[-2.54208,50.942938],[-2.543077,50.9426],[-2.54547,50.941962],[-2.547895,50.941106],[-2.551634,50.939666],[-2.55253,50.939399],[-2.55372,50.939234],[-2.557186,50.939],[-2.557755,50.938835],[-2.558393,50.938612],[-2.559906,50.937969],[-2.562985,50.93636],[-2.563478,50.936154],[-2.564095,50.935995],[-2.56534,50.935782],[-2.568725,50.935089],[-2.572855,50.934342],[-2.577147,50.933926],[-2.58235,50.933595],[-2.583675,50.933575],[-2.585016,50.933625],[-2.587817,50.933591],[-2.601093,50.933199],[-2.616098,50.928209],[-2.615089,50.92289],[-2.618244,50.914831],[-2.621226,50.910854],[-2.62629,50.911659],[-2.638607,50.904312],[-2.640452,50.902992],[-2.642523,50.901889],[-2.64586,50.899569],[-2.645924,50.899393],[-2.646182,50.896429],[-2.644937,50.894859],[-2.645023,50.894317],[-2.646374,50.891556],[-2.646504,50.891056],[-2.646482,50.890446],[-2.646804,50.889851],[-2.647984,50.888592],[-2.648285,50.887929],[-2.648349,50.887387],[-2.648992,50.885763],[-2.649443,50.885154],[-2.65013,50.884612],[-2.650902,50.883475],[-2.652425,50.884165],[-2.653713,50.884612],[-2.654893,50.885282],[-2.655268,50.88535],[-2.656031,50.88558],[-2.657092,50.886122],[-2.659249,50.886873],[-2.659783,50.887008],[-2.660226,50.887022],[-2.66058,50.88711],[-2.661449,50.886379],[-2.662168,50.886],[-2.664345,50.885093],[-2.66456,50.885052],[-2.6656,50.88422],[-2.666094,50.883719],[-2.667435,50.883028],[-2.668241,50.882737],[-2.668906,50.882426],[-2.671491,50.88072],[-2.671727,50.880612],[-2.671909,50.880632],[-2.673068,50.880158],[-2.662598,50.866238],[-2.663111,50.857408],[-2.663455,50.855213],[-2.663841,50.854645],[-2.665986,50.854753],[-2.666416,50.854739],[-2.666867,50.854631],[-2.667317,50.853791],[-2.667961,50.853452],[-2.66927,50.852531],[-2.673088,50.852558],[-2.673346,50.852436],[-2.673411,50.852138],[-2.673346,50.851217],[-2.673582,50.851028],[-2.67457,50.85073],[-2.675471,50.850553],[-2.674742,50.849348],[-2.674591,50.848494],[-2.673924,50.847126],[-2.673905,50.846408],[-2.674109,50.845913],[-2.674516,50.845547],[-2.674881,50.84531],[-2.67501,50.844999],[-2.674742,50.842465],[-2.674452,50.842038],[-2.674409,50.841733],[-2.674291,50.841496],[-2.674066,50.841388],[-2.673765,50.841374],[-2.67354,50.841144],[-2.67324,50.839559],[-2.673347,50.83905],[-2.673679,50.83861],[-2.67354,50.837729],[-2.673562,50.837174],[-2.673808,50.836882],[-2.674012,50.83651],[-2.673733,50.835683],[-2.673132,50.834972],[-2.672521,50.834795],[-2.670536,50.833942],[-2.669989,50.833935],[-2.668315,50.833196],[-2.667543,50.832525],[-2.667221,50.832126],[-2.665976,50.831021],[-2.665311,50.830567],[-2.66427,50.83035],[-2.663122,50.830262],[-2.662736,50.830106],[-2.662693,50.829998],[-2.662425,50.829896],[-2.660461,50.82993],[-2.658927,50.830032],[-2.65529,50.83117],[-2.652759,50.832322],[-2.649053,50.833643],[-2.648542,50.833671],[-2.647319,50.833982],[-2.646332,50.834009],[-2.644422,50.833833],[-2.643776,50.833833],[-2.642255,50.833494],[-2.641117,50.832925],[-2.63925,50.832532],[-2.638392,50.831719],[-2.637684,50.831353],[-2.636933,50.830689],[-2.636546,50.829279],[-2.635645,50.828277],[-2.635211,50.827501],[-2.63512,50.82662],[-2.635335,50.825864],[-2.635345,50.825596],[-2.634396,50.82357],[-2.634251,50.823383],[-2.633334,50.822767],[-2.632797,50.822062],[-2.632508,50.821801],[-2.63217,50.821614],[-2.631526,50.82136],[-2.631011,50.82133],[-2.629412,50.821496],[-2.629096,50.821479],[-2.628039,50.821008],[-2.626827,50.820672],[-2.626537,50.82051],[-2.625663,50.819842],[-2.62422,50.819283],[-2.623833,50.818625],[-2.622267,50.818368],[-2.621301,50.817687],[-2.620856,50.817144],[-2.620497,50.816449],[-2.620175,50.816141],[-2.61988,50.815961],[-2.618179,50.815158],[-2.617053,50.814358],[-2.616121,50.813568],[-2.613732,50.812294],[-2.611822,50.810687],[-2.611549,50.810514],[-2.554579,50.811738],[-2.555652,50.814531],[-2.557968,50.821608],[-2.558998,50.823153],[-2.556511,50.824346],[-2.552733,50.825972],[-2.547423,50.82769],[-2.544917,50.828331],[-2.537434,50.830879],[-2.53502,50.831553],[-2.532333,50.832085],[-2.531689,50.832159],[-2.530836,50.832122],[-2.529795,50.832149],[-2.527478,50.832027],[-2.526035,50.832071],[-2.524624,50.83221],[-2.523653,50.832454],[-2.523283,50.832495],[-2.52295,50.832519],[-2.521926,50.832481],[-2.520059,50.832613],[-2.518841,50.832996],[-2.5175,50.833603],[-2.516282,50.834016],[-2.515724,50.834409],[-2.514786,50.835625],[-2.514351,50.8361],[-2.512597,50.837763],[-2.512152,50.838092],[-2.510789,50.839562],[-2.510038,50.840612],[-2.508997,50.841456],[-2.508289,50.841913],[-2.507495,50.842296],[-2.506701,50.842536],[-2.505972,50.842628],[-2.505307,50.84279],[-2.503531,50.843901],[-2.503365,50.8438],[-2.503129,50.843295],[-2.502673,50.842824],[-2.501771,50.842455],[-2.500355,50.842235],[-2.498982,50.842296],[-2.496884,50.842851],[-2.494991,50.843119],[-2.494503,50.843254],[-2.493559,50.843654],[-2.493097,50.843698],[-2.492631,50.843671],[-2.491638,50.8434],[-2.491225,50.843149],[-2.490726,50.843607],[-2.490415,50.843745],[-2.490157,50.843928],[-2.489718,50.844724],[-2.489691,50.844904],[-2.489868,50.845724],[-2.489009,50.846662],[-2.487899,50.847529],[-2.487679,50.847891],[-2.487432,50.848569],[-2.487255,50.84883],[-2.486676,50.849371],[-2.48387,50.851722],[-2.483259,50.852135],[-2.481714,50.852789],[-2.479273,50.853334],[-2.476339,50.854878],[-2.474595,50.856229],[-2.473769,50.856981],[-2.472144,50.85774],[-2.469547,50.859917],[-2.468206,50.860838],[-2.468029,50.861055],[-2.467831,50.861512],[-2.467788,50.861776],[-2.468099,50.862555],[-2.468228,50.862795],[-2.468426,50.862964],[-2.469242,50.863333],[-2.470111,50.863885],[-2.470888,50.864474],[-2.471822,50.865385],[-2.472251,50.865575],[-2.475067,50.866475],[-2.477181,50.867715],[-2.477535,50.868026],[-2.484085,50.879143],[-2.489063,50.88693],[-2.491429,50.890264],[-2.491799,50.89112],[-2.49328,50.896635],[-2.493666,50.897809],[-2.495758,50.902001],[-2.496965,50.904004],[-2.497104,50.904887],[-2.497453,50.905837],[-2.498086,50.906845],[-2.498403,50.907126],[-2.499368,50.907586],[-2.499921,50.907945],[-2.50042,50.90854],[-2.500682,50.908997],[-2.50079,50.909453],[-2.500806,50.910691],[-2.501283,50.911479],[-2.501332,50.911716],[-2.501423,50.912717],[-2.501305,50.913634],[-2.501353,50.914865],[-2.502678,50.916854],[-2.50337,50.917483],[-2.505156,50.918697],[-2.506079,50.919542],[-2.507662,50.922058],[-2.508788,50.923698],[-2.509292,50.924605],[-2.509722,50.925572],[-2.509925,50.926464],[-2.510033,50.927438],[-2.51,50.928824],[-2.510387,50.929812],[-2.510462,50.93044],[-2.510644,50.931036],[-2.511234,50.931793],[-2.511513,50.932381],[-2.511663,50.9337],[-2.512007,50.934721],[-2.512039,50.935775],[-2.511567,50.936837],[-2.511663,50.937249],[-2.512114,50.93781],[-2.512844,50.938176],[-2.51368,50.938318],[-2.515751,50.938189],[-2.516824,50.938216],[-2.517757,50.938439],[-2.518144,50.938581],[-2.518347,50.938804],[-2.518423,50.939122],[-2.517843,50.939595],[-2.515172,50.941427],[-2.511814,50.943381],[-2.511073,50.943668],[-2.508965,50.94426],[-2.508107,50.944442],[-2.507549,50.944753],[-2.507163,50.945173],[-2.507034,50.945531],[-2.506685,50.948143],[-2.506755,50.94835],[-2.507865,50.949353],[-2.508262,50.949387],[-2.510682,50.94987],[-2.512066,50.949965],[-2.514035,50.950188],[-2.515585,50.950202],[-2.516974,50.949941],[-2.517242,50.95012],[-2.518503,50.950391],[-2.518997,50.950296],[-2.519887,50.950225],[-2.520778,50.950408],[-2.521099,50.950354],[-2.521523,50.950141],[-2.523492,50.949603]]]},"properties":{"code":"J81017","name":"YETMINSTER HEALTH CENTRE","icb":"QVV"}}]}