{"type":"FeatureCollection","features":[{"type":"Feature","geometry":{"type":"Polygon","coordinates":[[[-1.778146,50.729738],[-1.776849,50.729964],[-1.776841,50.729996],[-1.776827,50.730026],[-1.776805,50.730055],[-1.776778,50.730082],[-1.776744,50.730106],[-1.776706,50.730126],[-1.776664,50.730143],[-1.776618,50.730156],[-1.776471,50.730191],[-1.776429,50.730198],[-1.776387,50.730203],[-1.775892,50.730236],[-1.77584,50.730237],[-1.775788,50.730234],[-1.775034,50.730143],[-1.774986,50.730135],[-1.773631,50.729842],[-1.773583,50.729829],[-1.773539,50.729812],[-1.773499,50.729791],[-1.773465,50.729766],[-1.772,50.72856],[-1.77132,50.7281],[-1.769603,50.727567],[-1.769559,50.727551],[-1.767767,50.726776],[-1.767719,50.726751],[-1.767679,50.726721],[-1.767647,50.726687],[-1.767625,50.726651],[-1.76668,50.72448],[-1.76462,50.72292],[-1.75834,50.72196],[-1.751328,50.723515],[-1.751294,50.723521],[-1.751259,50.723525],[-1.751224,50.723527],[-1.751188,50.723527],[-1.74273,50.72318],[-1.74071,50.72392],[-1.73652,50.72726],[-1.73695,50.72752],[-1.737351,50.727666],[-1.737388,50.727681],[-1.737422,50.7277],[-1.737801,50.727934],[-1.737832,50.727956],[-1.737858,50.72798],[-1.737879,50.728006],[-1.737895,50.728033],[-1.737904,50.728061],[-1.737908,50.72809],[-1.737907,50.728119],[-1.737899,50.728148],[-1.737885,50.728175],[-1.737866,50.728202],[-1.737842,50.728226],[-1.737813,50.728249],[-1.73778,50.728269],[-1.737743,50.728286],[-1.737703,50.7283],[-1.73766,50.72831],[-1.73754,50.72839],[-1.73755,50.729237],[-1.737548,50.729263],[-1.737493,50.729581],[-1.737482,50.729618],[-1.73665,50.7315],[-1.736583,50.731824],[-1.736573,50.731855],[-1.736268,50.732552],[-1.736247,50.732587],[-1.735589,50.733474],[-1.735568,50.733499],[-1.735542,50.733522],[-1.73458,50.73426],[-1.73421,50.73467],[-1.7341,50.73499],[-1.7341,50.73553],[-1.73434,50.7361],[-1.734571,50.736441],[-1.734587,50.73647],[-1.734596,50.736501],[-1.734682,50.736911],[-1.734685,50.73695],[-1.734677,50.736989],[-1.734531,50.737409],[-1.734517,50.737439],[-1.734497,50.737467],[-1.73354,50.7386],[-1.73303,50.73934],[-1.73293,50.7396],[-1.73289,50.7402],[-1.73305,50.74072],[-1.7332,50.7409],[-1.73351,50.74108],[-1.73387,50.74121],[-1.73553,50.74161],[-1.73738,50.74197],[-1.739528,50.742126],[-1.739579,50.742132],[-1.739628,50.742143],[-1.739835,50.7422],[-1.739869,50.742211],[-1.739901,50.742224],[-1.74057,50.74253],[-1.74071,50.74257],[-1.74101,50.74255],[-1.74143,50.74243],[-1.742687,50.741693],[-1.742736,50.741669],[-1.74397,50.741164],[-1.743991,50.741156],[-1.74704,50.74009],[-1.74907,50.739154],[-1.74909,50.739146],[-1.752828,50.737659],[-1.752874,50.737643],[-1.757642,50.736325],[-1.757678,50.736316],[-1.758733,50.736107],[-1.75877,50.736101],[-1.758808,50.736098],[-1.759329,50.736069],[-1.759367,50.736068],[-1.759405,50.73607],[-1.759442,50.736074],[-1.759478,50.736081],[-1.759513,50.73609],[-1.759546,50.736102],[-1.759578,50.736116],[-1.759606,50.736131],[-1.759721,50.736202],[-1.759757,50.736227],[-1.759786,50.736255],[-1.759808,50.736286],[-1.759822,50.736318],[-1.75995,50.73671],[-1.76024,50.73702],[-1.76089,50.73732],[-1.76466,50.73833],[-1.76839,50.73924],[-1.768851,50.73903],[-1.768896,50.739013],[-1.768945,50.739],[-1.768997,50.738992],[-1.769049,50.738988],[-1.769553,50.738981],[-1.769596,50.738982],[-1.769638,50.738986],[-1.769679,50.738994],[-1.769718,50.739004],[-1.76989,50.739059],[-1.769936,50.739076],[-1.769978,50.739098],[-1.770014,50.739123],[-1.770044,50.739152],[-1.77018,50.73931],[-1.773958,50.737669],[-1.774013,50.73765],[-1.774073,50.737636],[-1.774135,50.73763],[-1.774198,50.737631],[-1.774259,50.737639],[-1.774318,50.737654],[-1.774371,50.737675],[-1.774418,50.737701],[-1.77515,50.7382],[-1.775745,50.738416],[-1.775776,50.738429],[-1.775805,50.738444],[-1.775831,50.73846],[-1.775854,50.738478],[-1.77633,50.73889],[-1.77683,50.73914],[-1.77757,50.73919],[-1.777841,50.739072],[-1.77789,50.739054],[-1.777943,50.739042],[-1.777998,50.739034],[-1.778055,50.739033],[-1.778111,50.739037],[-1.778165,50.739047],[-1.778217,50.739062],[-1.778263,50.739083],[-1.778304,50.739107],[-1.778339,50.739136],[-1.778366,50.739168],[-1.778384,50.739202],[-1.778394,50.739237],[-1.778394,50.739273],[-1.778386,50.739308],[-1.778369,50.739343],[-1.7783,50.73945],[-1.778967,50.739631],[-1.778999,50.739641],[-1.779029,50.739653],[-1.779367,50.7398],[-1.779393,50.739813],[-1.779417,50.739827],[-1.779439,50.739842],[-1.779459,50.739859],[-1.779476,50.739877],[-1.77949,50.739895],[-1.779502,50.739915],[-1.779511,50.739935],[-1.779601,50.740182],[-1.77961,50.74022],[-1.779608,50.740258],[-1.779596,50.740296],[-1.779574,50.740332],[-1.77925,50.74075],[-1.77921,50.74094],[-1.780301,50.742221],[-1.780325,50.742255],[-1.780339,50.742292],[-1.780344,50.74233],[-1.780338,50.742367],[-1.78003,50.74346],[-1.78153,50.74517],[-1.78233,50.745502],[-1.782361,50.745516],[-1.78239,50.745533],[-1.782416,50.745552],[-1.782438,50.745572],[-1.782456,50.745594],[-1.782471,50.745617],[-1.782482,50.745641],[-1.782488,50.745666],[-1.782653,50.746631],[-1.782655,50.74667],[-1.782646,50.746708],[-1.782336,50.747532],[-1.782319,50.747564],[-1.782295,50.747594],[-1.782265,50.747622],[-1.782227,50.747647],[-1.781625,50.747989],[-1.781594,50.748005],[-1.781561,50.748018],[-1.781526,50.748029],[-1.781489,50.748037],[-1.781451,50.748043],[-1.781412,50.748046],[-1.781373,50.748046],[-1.781334,50.748044],[-1.77784,50.7477],[-1.77722,50.7479],[-1.77709,50.74816],[-1.77752,50.74863],[-1.778558,50.749022],[-1.7786,50.74904],[-1.7793,50.749398],[-1.779327,50.749414],[-1.779351,50.749431],[-1.779373,50.74945],[-1.779392,50.749469],[-1.779407,50.74949],[-1.779418,50.749512],[-1.779426,50.749535],[-1.779431,50.749558],[-1.779465,50.749867],[-1.779465,50.749897],[-1.779459,50.749927],[-1.779447,50.749956],[-1.779428,50.749984],[-1.779404,50.750009],[-1.779375,50.750033],[-1.779341,50.750054],[-1.779303,50.750072],[-1.77788,50.75065],[-1.77718,50.7511],[-1.77664,50.75164],[-1.77729,50.75214],[-1.780207,50.752091],[-1.780269,50.752094],[-1.78033,50.752103],[-1.781232,50.752298],[-1.781288,50.752313],[-1.781338,50.752334],[-1.783076,50.753203],[-1.783102,50.753217],[-1.783126,50.753233],[-1.783147,50.753251],[-1.783165,50.753269],[-1.783181,50.753288],[-1.783193,50.753309],[-1.783202,50.75333],[-1.783208,50.753351],[-1.783391,50.754256],[-1.783394,50.754278],[-1.783393,50.7543],[-1.783389,50.754322],[-1.783381,50.754343],[-1.782833,50.755619],[-1.782817,50.755649],[-1.782794,50.755677],[-1.782285,50.756204],[-1.782257,50.756229],[-1.782224,50.756251],[-1.781378,50.75675],[-1.781343,50.756768],[-1.781304,50.756783],[-1.781263,50.756795],[-1.78122,50.756804],[-1.780372,50.756935],[-1.78034,50.756939],[-1.780307,50.756941],[-1.77912,50.75698],[-1.77797,50.75711],[-1.77732,50.75723],[-1.77674,50.75772],[-1.776583,50.758495],[-1.776574,50.758524],[-1.7762,50.75942],[-1.77681,50.76079],[-1.79029,50.76602],[-1.81082,50.76335],[-1.81122,50.76258],[-1.809808,50.762116],[-1.809774,50.762103],[-1.80909,50.761813],[-1.809061,50.761799],[-1.809034,50.761784],[-1.808445,50.761403],[-1.808413,50.761379],[-1.808386,50.761352],[-1.807961,50.760854],[-1.807942,50.760829],[-1.807929,50.760803],[-1.807066,50.758674],[-1.807057,50.758645],[-1.806956,50.758113],[-1.806954,50.75808],[-1.806959,50.758047],[-1.807099,50.757548],[-1.807115,50.757511],[-1.80714,50.757476],[-1.80803,50.75648],[-1.80854,50.75535],[-1.80832,50.75485],[-1.807824,50.754401],[-1.807802,50.754379],[-1.807785,50.754356],[-1.807354,50.753675],[-1.807343,50.753655],[-1.807335,50.753633],[-1.80733,50.753612],[-1.807328,50.75359],[-1.80733,50.753568],[-1.807335,50.753547],[-1.807344,50.753526],[-1.807356,50.753505],[-1.807623,50.753097],[-1.807638,50.753077],[-1.807656,50.753058],[-1.807677,50.75304],[-1.807701,50.753023],[-1.807727,50.753009],[-1.807756,50.752995],[-1.807786,50.752984],[-1.807818,50.752975],[-1.808697,50.752751],[-1.808741,50.752742],[-1.808786,50.752736],[-1.80977,50.75266],[-1.81081,50.75219],[-1.81092,50.75167],[-1.810438,50.750828],[-1.810426,50.750804],[-1.810419,50.750779],[-1.810416,50.750754],[-1.810418,50.750729],[-1.810496,50.750225],[-1.810502,50.7502],[-1.810513,50.750176],[-1.810786,50.749656],[-1.810802,50.749631],[-1.810823,50.749607],[-1.81208,50.74835],[-1.81231,50.74801],[-1.81242,50.74769],[-1.81193,50.74711],[-1.811425,50.746716],[-1.811406,50.7467],[-1.811389,50.746682],[-1.811375,50.746664],[-1.811363,50.746645],[-1.811355,50.746625],[-1.811349,50.746605],[-1.811346,50.746585],[-1.811346,50.746565],[-1.811379,50.746081],[-1.811381,50.74606],[-1.811387,50.74604],[-1.811494,50.745747],[-1.81151,50.745714],[-1.811879,50.745128],[-1.811906,50.745093],[-1.81278,50.74419],[-1.81291,50.74377],[-1.81283,50.74335],[-1.81253,50.74287],[-1.81202,50.7424],[-1.81083,50.74201],[-1.80931,50.74193],[-1.808172,50.741975],[-1.808113,50.741974],[-1.808056,50.741967],[-1.808,50.741954],[-1.807949,50.741936],[-1.8062,50.74117],[-1.804654,50.741141],[-1.80461,50.741138],[-1.804568,50.741132],[-1.804143,50.741056],[-1.80411,50.741049],[-1.804078,50.741039],[-1.804047,50.741028],[-1.804019,50.741015],[-1.803992,50.741],[-1.803968,50.740984],[-1.803947,50.740966],[-1.803929,50.740947],[-1.8032,50.7401],[-1.80287,50.73985],[-1.80248,50.73969],[-1.80152,50.73942],[-1.8002,50.73918],[-1.79827,50.73898],[-1.79727,50.73919],[-1.796832,50.73933],[-1.796777,50.739344],[-1.796719,50.739352],[-1.796659,50.739353],[-1.7966,50.739349],[-1.796543,50.739338],[-1.79649,50.739321],[-1.796442,50.739299],[-1.7964,50.739272],[-1.796061,50.739012],[-1.796042,50.738995],[-1.796025,50.738978],[-1.796011,50.73896],[-1.795999,50.738941],[-1.79516,50.73738],[-1.79472,50.73708],[-1.793378,50.736833],[-1.79332,50.736819],[-1.793267,50.736798],[-1.79322,50.736772],[-1.793181,50.736741],[-1.793152,50.736707],[-1.793132,50.73667],[-1.793123,50.736631],[-1.793124,50.736591],[-1.793227,50.736025],[-1.793236,50.735996],[-1.793509,50.735302],[-1.793522,50.735277],[-1.793539,50.735253],[-1.79356,50.73523],[-1.793586,50.735209],[-1.792011,50.733587],[-1.791452,50.732207],[-1.792524,50.73177],[-1.794231,50.731947],[-1.794706,50.731222],[-1.793486,50.730514],[-1.792052,50.730204],[-1.790133,50.729911],[-1.788572,50.729783],[-1.787461,50.729544],[-1.785835,50.72967],[-1.784534,50.730134],[-1.783401,50.730088],[-1.782043,50.729947],[-1.780569,50.729552],[-1.779418,50.729414],[-1.778146,50.729738]]]},"properties":{"code":"J81066","name":"STOUR SURGERY","icb":"QVV"}}]}