{"type":"FeatureCollection","features":[{"type":"Feature","geometry":{"type":"Polygon","coordinates":[[[-2.351149,51.0684],[-2.352602,51.068248],[-2.35313,51.06859],[-2.353414,51.068163],[-2.353868,51.068115],[-2.35451,51.06859],[-2.354665,51.068032],[-2.35554,51.06794],[-2.354771,51.067649],[-2.355503,51.065017],[-2.355024,51.065739],[-2.3686,51.013307],[-2.37133,51.01332],[-2.34249,50.99409],[-2.31468,50.97486],[-2.28104,50.9714],[-2.24876,50.98048],[-2.210143,51.011761],[-2.20688,51.01203],[-2.208369,51.012593],[-2.19177,51.03794],[-2.19212,51.05974],[-2.26078,51.0949],[-2.28447,51.09317],[-2.29374,51.09102],[-2.30541,51.08692],[-2.30988,51.07657],[-2.33013,51.0688],[-2.34112,51.06945],[-2.350923,51.068424],[-2.35176,51.06902],[-2.351149,51.0684]]]},"properties":{"code":"J81081","name":"GILLINGHAM MEDICAL PRACTICE","icb":"QVV"}}]}