{"type":"FeatureCollection","features":[{"type":"Feature","geometry":{"type":"Polygon","coordinates":[[[-1.890893,50.753536],[-1.898146,50.753808],[-1.900011,50.753781],[-1.900044,50.753781],[-1.900076,50.753784],[-1.900108,50.753788],[-1.900139,50.753794],[-1.903627,50.754592],[-1.903651,50.754598],[-1.906128,50.755301],[-1.908519,50.753266],[-1.908544,50.753248],[-1.908571,50.753231],[-1.908602,50.753216],[-1.908634,50.753203],[-1.908669,50.753193],[-1.908705,50.753185],[-1.908742,50.753179],[-1.908781,50.753176],[-1.911891,50.75305],[-1.911927,50.75305],[-1.911963,50.753052],[-1.911999,50.753056],[-1.912033,50.753063],[-1.917355,50.754273],[-1.917404,50.754286],[-1.917448,50.754304],[-1.917488,50.754326],[-1.917522,50.754352],[-1.920287,50.756764],[-1.920293,50.75677],[-1.923079,50.759346],[-1.924018,50.758981],[-1.924059,50.758967],[-1.924103,50.758957],[-1.924149,50.75895],[-1.924196,50.758948],[-1.924243,50.758949],[-1.924289,50.758955],[-1.924334,50.758964],[-1.924376,50.758977],[-1.926144,50.759605],[-1.926194,50.759627],[-1.926238,50.759654],[-1.926274,50.759686],[-1.926301,50.759721],[-1.928142,50.762749],[-1.928159,50.762785],[-1.928166,50.762821],[-1.928163,50.762858],[-1.928151,50.762895],[-1.927929,50.763364],[-1.931405,50.764042],[-1.948264,50.754425],[-1.948305,50.754404],[-1.948351,50.754388],[-1.948401,50.754376],[-1.948452,50.754369],[-1.948505,50.754367],[-1.948557,50.75437],[-1.948608,50.754378],[-1.948657,50.75439],[-1.958013,50.75731],[-1.974717,50.758637],[-1.97475,50.758641],[-1.974781,50.758646],[-1.980243,50.759753],[-1.980368,50.759276],[-1.980383,50.75924],[-1.980406,50.759206],[-1.980439,50.759175],[-1.980479,50.759147],[-1.980526,50.759124],[-1.980578,50.759107],[-1.980634,50.759095],[-1.980692,50.759089],[-1.981015,50.759074],[-1.982161,50.754088],[-1.982166,50.754071],[-1.982913,50.751967],[-1.982929,50.751935],[-1.982952,50.751905],[-1.984205,50.750523],[-1.984231,50.750498],[-1.984261,50.750476],[-1.984296,50.750456],[-1.984335,50.75044],[-1.984377,50.750427],[-1.984421,50.750418],[-1.984466,50.750412],[-1.984513,50.75041],[-1.984559,50.750412],[-1.984605,50.750418],[-1.984649,50.750427],[-1.98469,50.75044],[-1.984729,50.750457],[-1.984764,50.750476],[-1.984794,50.750499],[-1.98482,50.750523],[-1.98668,50.752586],[-1.987387,50.753047],[-1.987427,50.753078],[-1.988289,50.753889],[-1.989475,50.75381],[-1.989512,50.753809],[-1.989549,50.75381],[-1.992581,50.754011],[-1.993532,50.75267],[-1.993553,50.752645],[-1.993578,50.752623],[-1.993607,50.752602],[-1.993641,50.752584],[-1.993677,50.752568],[-1.993716,50.752556],[-1.993758,50.752546],[-1.993801,50.75254],[-1.997026,50.752222],[-1.997062,50.75222],[-1.997098,50.75222],[-1.997134,50.752222],[-1.997169,50.752226],[-1.997204,50.752233],[-1.997237,50.752242],[-1.997269,50.752254],[-1.997298,50.752267],[-1.997326,50.752282],[-1.99735,50.752299],[-1.997372,50.752317],[-1.997391,50.752336],[-1.997407,50.752357],[-1.997419,50.752379],[-1.997428,50.752401],[-1.997433,50.752424],[-1.997495,50.752857],[-2.000408,50.752323],[-2.000457,50.752316],[-2.000506,50.752314],[-2.001657,50.752314],[-2.002927,50.7519],[-2.002958,50.751891],[-2.00299,50.751884],[-2.003022,50.751879],[-2.003056,50.751876],[-2.00434,50.751798],[-2.005182,50.75092],[-2.005202,50.750902],[-2.005224,50.750885],[-2.005249,50.750869],[-2.005276,50.750856],[-2.00778,50.749692],[-2.007833,50.749671],[-2.012344,50.748269],[-2.012259,50.742839],[-2.012261,50.742811],[-2.012268,50.742784],[-2.012281,50.742758],[-2.012298,50.742733],[-2.014747,50.739714],[-1.998568,50.736129],[-1.994947,50.735842],[-1.994911,50.735838],[-1.994875,50.735832],[-1.994841,50.735823],[-1.994808,50.735812],[-1.994778,50.735799],[-1.994749,50.735784],[-1.994724,50.735767],[-1.994701,50.735748],[-1.991093,50.73248],[-1.991076,50.732462],[-1.991061,50.732444],[-1.991049,50.732424],[-1.991039,50.732404],[-1.991033,50.732384],[-1.99103,50.732363],[-1.99103,50.732342],[-1.991032,50.732321],[-1.992474,50.725535],[-1.990242,50.723036],[-1.985969,50.721839],[-1.985927,50.721825],[-1.985889,50.721808],[-1.985854,50.721788],[-1.985825,50.721765],[-1.9858,50.72174],[-1.98578,50.721713],[-1.985767,50.721684],[-1.985759,50.721655],[-1.985203,50.717987],[-1.985203,50.71795],[-1.985211,50.717915],[-1.985228,50.71788],[-1.985253,50.717848],[-1.985287,50.717819],[-1.985327,50.717793],[-1.985373,50.717772],[-1.985424,50.717756],[-1.989126,50.716814],[-1.99228,50.712942],[-1.990864,50.712371],[-1.989448,50.712208],[-1.97512,50.711479],[-1.975076,50.711475],[-1.975033,50.711467],[-1.974992,50.711456],[-1.974953,50.711442],[-1.973226,50.710713],[-1.972475,50.710754],[-1.969278,50.712317],[-1.967316,50.714814],[-1.9673,50.714832],[-1.967282,50.714849],[-1.967261,50.714865],[-1.967239,50.714879],[-1.967214,50.714892],[-1.967188,50.714904],[-1.96716,50.714914],[-1.96713,50.714922],[-1.9671,50.714929],[-1.967069,50.714934],[-1.967037,50.714937],[-1.967005,50.714939],[-1.966973,50.714938],[-1.966941,50.714936],[-1.96691,50.714931],[-1.966879,50.714925],[-1.960471,50.713462],[-1.96044,50.713453],[-1.960411,50.713444],[-1.960383,50.713432],[-1.960357,50.713419],[-1.960333,50.713404],[-1.960311,50.713388],[-1.960292,50.71337],[-1.960276,50.713352],[-1.960262,50.713333],[-1.960251,50.713313],[-1.960243,50.713292],[-1.960239,50.713271],[-1.960237,50.71325],[-1.960239,50.713229],[-1.960243,50.713208],[-1.960251,50.713187],[-1.960738,50.712126],[-1.956452,50.709832],[-1.956426,50.709816],[-1.956403,50.709799],[-1.951168,50.705604],[-1.933628,50.698158],[-1.933583,50.698135],[-1.933545,50.698108],[-1.933513,50.698078],[-1.93349,50.698044],[-1.932551,50.696312],[-1.932537,50.696277],[-1.932153,50.694838],[-1.932148,50.694806],[-1.93215,50.694773],[-1.93216,50.694741],[-1.932177,50.694711],[-1.933115,50.693345],[-1.93313,50.693325],[-1.933149,50.693307],[-1.93317,50.693289],[-1.933195,50.693273],[-1.935159,50.692081],[-1.935208,50.692056],[-1.9384,50.690708],[-1.940455,50.689485],[-1.940491,50.689467],[-1.940531,50.689451],[-1.940573,50.689439],[-1.940618,50.68943],[-1.944509,50.68886],[-1.944555,50.688855],[-1.944602,50.688854],[-1.944648,50.688857],[-1.944693,50.688864],[-1.947026,50.689321],[-1.951432,50.686659],[-1.951479,50.686636],[-1.951532,50.686617],[-1.951589,50.686605],[-1.951648,50.686598],[-1.951708,50.686598],[-1.951767,50.686605],[-1.951824,50.686618],[-1.951876,50.686637],[-1.957476,50.689077],[-1.959171,50.688397],[-1.952391,50.685303],[-1.952351,50.685282],[-1.952316,50.685258],[-1.949837,50.683204],[-1.947627,50.682415],[-1.945632,50.682565],[-1.942778,50.68319],[-1.93928,50.68546],[-1.934734,50.68959],[-1.934728,50.689596],[-1.9312,50.692617],[-1.931179,50.692633],[-1.925303,50.696788],[-1.925276,50.696805],[-1.918197,50.700855],[-1.918176,50.700866],[-1.908124,50.705797],[-1.908078,50.705816],[-1.892706,50.711158],[-1.892684,50.711165],[-1.887145,50.712783],[-1.887116,50.712791],[-1.887085,50.712797],[-1.856816,50.71767],[-1.857719,50.720917],[-1.860692,50.722375],[-1.860726,50.722394],[-1.860756,50.722416],[-1.860782,50.72244],[-1.860802,50.722466],[-1.862697,50.725359],[-1.866687,50.72642],[-1.86673,50.726434],[-1.866771,50.726452],[-1.867963,50.727056],[-1.86799,50.727071],[-1.868014,50.727087],[-1.868035,50.727105],[-1.868053,50.727124],[-1.870465,50.729936],[-1.873927,50.731857],[-1.873954,50.731874],[-1.878791,50.735179],[-1.88334,50.737772],[-1.888135,50.740171],[-1.888156,50.740182],[-1.890914,50.741792],[-1.891369,50.741679],[-1.891426,50.741668],[-1.891485,50.741664],[-1.891544,50.741665],[-1.891602,50.741673],[-1.891657,50.741687],[-1.891708,50.741707],[-1.891753,50.741732],[-1.89179,50.741761],[-1.89182,50.741794],[-1.89184,50.741829],[-1.891851,50.741866],[-1.891852,50.741904],[-1.891843,50.741941],[-1.891824,50.741977],[-1.891796,50.74201],[-1.89176,50.74204],[-1.88952,50.743598],[-1.886086,50.751473],[-1.889863,50.75207],[-1.891189,50.752031],[-1.891232,50.752032],[-1.891274,50.752035],[-1.891316,50.752042],[-1.891356,50.752052],[-1.891394,50.752065],[-1.891429,50.752081],[-1.891461,50.7521],[-1.891488,50.752121],[-1.891512,50.752143],[-1.891531,50.752168],[-1.891546,50.752194],[-1.891555,50.75222],[-1.891559,50.752248],[-1.891558,50.752275],[-1.891552,50.752302],[-1.891541,50.752328],[-1.890893,50.753536]]]},"properties":{"code":"J81012","name":"SHORE MEDICAL","icb":"QVV"}}]}