{"type":"FeatureCollection","features":[{"type":"Feature","geometry":{"type":"Polygon","coordinates":[[[-1.86769,50.726],[-1.86704,50.72685],[-1.86659,50.72717],[-1.86574,50.72801],[-1.86488,50.72854],[-1.864,50.72886],[-1.8614,50.7292],[-1.86018,50.72946],[-1.85891,50.72992],[-1.85679,50.73091],[-1.85482,50.73204],[-1.85319,50.7329],[-1.85058,50.73405],[-1.85079,50.73453],[-1.85071,50.73519],[-1.85084,50.73548],[-1.85153,50.73606],[-1.85159,50.73619],[-1.85093,50.73651],[-1.85039,50.73669],[-1.85034,50.73684],[-1.85059,50.73709],[-1.85066,50.73736],[-1.85056,50.73796],[-1.85061,50.73817],[-1.85078,50.7383],[-1.85108,50.73838],[-1.85311,50.73846],[-1.85347,50.73868],[-1.85381,50.73869],[-1.8538,50.73948],[-1.85367,50.73972],[-1.85337,50.73995],[-1.85308,50.74009],[-1.85251,50.7402],[-1.85075,50.74028],[-1.85026,50.74051],[-1.85016,50.74073],[-1.84991,50.74235],[-1.84839,50.74253],[-1.84623,50.74291],[-1.84435,50.74354],[-1.84499,50.74403],[-1.84653,50.74483],[-1.8468,50.74544],[-1.84684,50.74585],[-1.84663,50.74662],[-1.84606,50.75093],[-1.84569,50.75187],[-1.84498,50.75293],[-1.84442,50.75347],[-1.83898,50.7578],[-1.83831,50.75823],[-1.83759,50.75898],[-1.83822,50.75957],[-1.83866,50.75984],[-1.84,50.76021],[-1.84241,50.76138],[-1.84341,50.76206],[-1.84416,50.76235],[-1.8444,50.76239],[-1.84455,50.76237],[-1.84467,50.76253],[-1.8449,50.76266],[-1.84602,50.76306],[-1.84724,50.76429],[-1.84784,50.76443],[-1.84814,50.76426],[-1.84796,50.76405],[-1.84908,50.76258],[-1.84983,50.76295],[-1.85035,50.76311],[-1.8507,50.76315],[-1.85237,50.76313],[-1.85293,50.76322],[-1.85354,50.76338],[-1.85585,50.76434],[-1.856297,50.764485],[-1.85678,50.7646],[-1.85719,50.76465],[-1.85806,50.76462],[-1.858648,50.764531],[-1.85922,50.76442],[-1.8599,50.76419],[-1.86037,50.76393],[-1.86041,50.76414],[-1.86114,50.76491],[-1.861952,50.764615],[-1.8628,50.76432],[-1.862912,50.764113],[-1.863217,50.764035],[-1.863418,50.76396],[-1.864181,50.763694],[-1.86493,50.76334],[-1.86461,50.76225],[-1.86477,50.76198],[-1.86507,50.76188],[-1.86518,50.76209],[-1.86533,50.7622],[-1.86559,50.76225],[-1.86579,50.76242],[-1.86611,50.763],[-1.86636,50.76328],[-1.866555,50.76317],[-1.8667,50.76318],[-1.86861,50.76281],[-1.86927,50.76274],[-1.87001,50.76278],[-1.87066,50.76289],[-1.87132,50.76308],[-1.871543,50.763148],[-1.871883,50.763144],[-1.87225,50.76314],[-1.87257,50.76306],[-1.87283,50.76291],[-1.87266,50.76267],[-1.87436,50.763758],[-1.87486,50.76414],[-1.875045,50.764093],[-1.87531,50.763739],[-1.875771,50.76343],[-1.87714,50.76308],[-1.877803,50.763271],[-1.878379,50.763508],[-1.879568,50.763968],[-1.881934,50.764942],[-1.882193,50.765096],[-1.882419,50.76526],[-1.882807,50.765585],[-1.883089,50.765883],[-1.883324,50.766218],[-1.883442,50.766422],[-1.883522,50.766627],[-1.883696,50.767034],[-1.883801,50.767261],[-1.883893,50.767487],[-1.883829,50.767732],[-1.884906,50.767702],[-1.886118,50.767655],[-1.886411,50.767661],[-1.886707,50.767653],[-1.887283,50.767666],[-1.887869,50.767691],[-1.888465,50.767664],[-1.888792,50.767525],[-1.889113,50.76737],[-1.889312,50.767317],[-1.889505,50.767265],[-1.889797,50.767238],[-1.890096,50.767238],[-1.890643,50.767259],[-1.891186,50.767292],[-1.893323,50.767498],[-1.895377,50.767774],[-1.895809,50.767847],[-1.896249,50.767932],[-1.897095,50.768092],[-1.898794,50.768404],[-1.899622,50.768592],[-1.900007,50.76871],[-1.900321,50.768871],[-1.900828,50.768857],[-1.901446,50.7689],[-1.901761,50.7677],[-1.901723,50.766972],[-1.901772,50.76624],[-1.901737,50.765882],[-1.901719,50.765526],[-1.901807,50.765203],[-1.901915,50.76488],[-1.902386,50.763561],[-1.902332,50.763275],[-1.90218,50.762888],[-1.90205,50.76251],[-1.901713,50.761494],[-1.90145,50.76048],[-1.90131,50.76026],[-1.900659,50.759789],[-1.900564,50.759621],[-1.900534,50.759386],[-1.90055,50.75915],[-1.900579,50.758884],[-1.900626,50.758617],[-1.90077,50.75809],[-1.900901,50.757803],[-1.901078,50.757514],[-1.901255,50.757215],[-1.9015,50.756921],[-1.901986,50.756344],[-1.90496,50.75292],[-1.90583,50.75212],[-1.90586,50.75193],[-1.90613,50.75157],[-1.91068,50.7465],[-1.91025,50.74636],[-1.90651,50.7457],[-1.90011,50.74449],[-1.89966,50.74437],[-1.899,50.74404],[-1.8981,50.74385],[-1.89759,50.74392],[-1.89702,50.74392],[-1.89649,50.74384],[-1.89364,50.7433],[-1.89302,50.74306],[-1.89134,50.74194],[-1.88948,50.74094],[-1.88911,50.74068],[-1.8888,50.74028],[-1.88794,50.74016],[-1.88023,50.736],[-1.8739,50.73183],[-1.87339,50.73117],[-1.87315,50.73102],[-1.87233,50.73072],[-1.87144,50.73028],[-1.8705,50.72972],[-1.86951,50.72893],[-1.86896,50.72827],[-1.86808,50.72701],[-1.8679,50.72668],[-1.86769,50.726]]]},"properties":{"code":"J81039","name":"MOORDOWN MEDICAL CENTRE","icb":"QVV"}}]}