{"type":"FeatureCollection","features":[{"type":"Feature","geometry":{"type":"Polygon","coordinates":[[[-2.604721,50.926973],[-2.615295,50.921822],[-2.616394,50.916281],[-2.623535,50.909008],[-2.624084,50.905891],[-2.620239,50.901387],[-2.618042,50.893765],[-2.610901,50.888568],[-2.601563,50.876784],[-2.597168,50.867425],[-2.591126,50.859797],[-2.584396,50.848353],[-2.579453,50.839335],[-2.558578,50.822681],[-2.482773,50.833091],[-2.440475,50.847833],[-2.38472,50.864391],[-2.353958,50.872841],[-2.346268,50.906107],[-2.37648,50.9239],[-2.381973,50.932902],[-2.370987,50.943633],[-2.377855,50.948478],[-2.384722,50.956264],[-2.387193,50.963444],[-2.392274,50.965346],[-2.393645,50.965779],[-2.394608,50.968892],[-2.405594,50.964395],[-2.41713,50.962665],[-2.420425,50.965779],[-2.428665,50.96993],[-2.447891,50.967163],[-2.445694,50.963011],[-2.443497,50.958167],[-2.44899,50.952285],[-2.458328,50.950554],[-2.458878,50.952285],[-2.463821,50.956091],[-2.467117,50.958859],[-2.474258,50.957475],[-2.476456,50.962665],[-2.4814,50.968892],[-2.491287,50.973735],[-2.487442,50.975119],[-2.498978,50.986877],[-2.504471,50.994484],[-2.514359,50.993792],[-2.525345,50.992064],[-2.535233,50.995175],[-2.535782,50.999324],[-2.547867,51.000015],[-2.547318,50.99725],[-2.550613,50.993447],[-2.542923,50.991026],[-2.548965,50.984067],[-2.554733,50.982511],[-2.557755,50.979226],[-2.562424,50.978015],[-2.575058,50.986661],[-2.575333,50.983203],[-2.58165,50.980955],[-2.585495,50.978188],[-2.58934,50.976805],[-2.595383,50.981301],[-2.603622,50.976286],[-2.602249,50.974729],[-2.598129,50.971962],[-2.600052,50.967638],[-2.595108,50.961584],[-2.598679,50.958124],[-2.598953,50.953626],[-2.596207,50.949992],[-2.600327,50.947223],[-2.606644,50.945839],[-2.612686,50.944974],[-2.618729,50.940993],[-2.620102,50.937359],[-2.614609,50.935801],[-2.607468,50.934416],[-2.604721,50.926973]]]},"properties":{"code":"J81078","name":"THE GROVE MEDICAL CENTRE","icb":"QVV"}}]}