{"type":"FeatureCollection","features":[{"type":"Feature","geometry":{"type":"Polygon","coordinates":[[[-1.829744,50.758939],[-1.830085,50.759264],[-1.8306,50.75905],[-1.84124,50.76252],[-1.84639,50.76947],[-1.8536,50.77425],[-1.85875,50.76969],[-1.8663,50.76383],[-1.87283,50.76383],[-1.87901,50.76904],[-1.88484,50.77229],[-1.89411,50.78054],[-1.90544,50.77794],[-1.91334,50.77446],[-1.9202,50.76991],[-1.92913,50.77121],[-1.93737,50.77468],[-1.94149,50.77338],[-1.94767,50.76643],[-1.94595,50.7597],[-1.93977,50.75579],[-1.93085,50.75383],[-1.94046,50.74797],[-1.94836,50.74189],[-1.95042,50.73624],[-1.95316,50.72972],[-1.93668,50.7282],[-1.9099,50.7245],[-1.89342,50.72298],[-1.88107,50.72363],[-1.86871,50.72581],[-1.85738,50.72972],[-1.84605,50.7358],[-1.83781,50.74276],[-1.8251,50.75014],[-1.81892,50.75166],[-1.829744,50.758939]]]},"properties":{"code":"J81042","name":"VILLAGE SURGERY","icb":"QVV"}}]}