{"type":"FeatureCollection","features":[{"type":"Feature","geometry":{"type":"Polygon","coordinates":[[[-1.925456,50.707488],[-1.926224,50.709366],[-1.925706,50.718474],[-1.925255,50.726398],[-1.922881,50.727583],[-1.919125,50.72668],[-1.919173,50.726694],[-1.919217,50.726712],[-1.919256,50.726734],[-1.91929,50.726759],[-1.919318,50.726788],[-1.919339,50.726818],[-1.919352,50.726851],[-1.919358,50.726884],[-1.919356,50.726917],[-1.919346,50.72695],[-1.919329,50.726981],[-1.919305,50.727011],[-1.919274,50.727038],[-1.919237,50.727061],[-1.919195,50.727081],[-1.919149,50.727097],[-1.91568,50.72808],[-1.91446,50.72904],[-1.913983,50.729673],[-1.913959,50.7297],[-1.91393,50.729724],[-1.913896,50.729746],[-1.913857,50.729765],[-1.91115,50.73089],[-1.90578,50.73531],[-1.90604,50.73702],[-1.90884,50.742531],[-1.908852,50.74256],[-1.908857,50.74259],[-1.908856,50.742621],[-1.908848,50.742651],[-1.90763,50.746],[-1.917465,50.747794],[-1.917499,50.747801],[-1.917532,50.747811],[-1.921301,50.749064],[-1.921338,50.749078],[-1.929157,50.752504],[-1.929182,50.752516],[-1.932347,50.754187],[-1.932387,50.754212],[-1.93242,50.75424],[-1.932647,50.754467],[-1.932665,50.754487],[-1.932679,50.754508],[-1.93269,50.75453],[-1.932698,50.754553],[-1.932702,50.754576],[-1.932702,50.754599],[-1.932698,50.754622],[-1.93269,50.754645],[-1.9326,50.75486],[-1.93285,50.75508],[-1.93555,50.75619],[-1.93579,50.75612],[-1.936666,50.755592],[-1.936703,50.755573],[-1.936744,50.755557],[-1.936787,50.755545],[-1.936833,50.755536],[-1.93688,50.755531],[-1.936928,50.755531],[-1.936975,50.755534],[-1.937021,50.755542],[-1.937704,50.755684],[-1.937741,50.755693],[-1.937775,50.755705],[-1.937808,50.755719],[-1.937838,50.755735],[-1.93856,50.75617],[-1.93914,50.75509],[-1.93782,50.75468],[-1.936827,50.754447],[-1.936789,50.754437],[-1.936753,50.754423],[-1.93672,50.754407],[-1.93669,50.754389],[-1.936663,50.754368],[-1.936641,50.754346],[-1.936623,50.754322],[-1.936609,50.754297],[-1.9366,50.754271],[-1.936596,50.754245],[-1.936597,50.754219],[-1.936603,50.754192],[-1.936613,50.754167],[-1.936628,50.754142],[-1.936648,50.754119],[-1.936672,50.754097],[-1.93683,50.75397],[-1.936569,50.753659],[-1.936546,50.753626],[-1.936532,50.753592],[-1.936527,50.753557],[-1.93653,50.753521],[-1.936543,50.753486],[-1.936564,50.753454],[-1.936592,50.753423],[-1.936628,50.753396],[-1.93667,50.753372],[-1.936718,50.753354],[-1.936769,50.75334],[-1.936824,50.753331],[-1.93688,50.753328],[-1.936935,50.753331],[-1.93699,50.753339],[-1.937042,50.753353],[-1.93753,50.75351],[-1.94331,50.75468],[-1.943087,50.753457],[-1.943084,50.753428],[-1.943088,50.753399],[-1.943097,50.753371],[-1.943112,50.753344],[-1.943132,50.753318],[-1.943157,50.753294],[-1.943187,50.753273],[-1.943221,50.753254],[-1.943258,50.753237],[-1.943299,50.753224],[-1.943342,50.753215],[-1.943386,50.753209],[-1.943431,50.753206],[-1.943476,50.753207],[-1.943521,50.753212],[-1.943564,50.753221],[-1.94723,50.7541],[-1.94819,50.75427],[-1.94894,50.7542],[-1.949538,50.754007],[-1.949579,50.753995],[-1.949623,50.753987],[-1.949667,50.753983],[-1.949712,50.753982],[-1.952024,50.75404],[-1.952036,50.75404],[-1.95555,50.7542],[-1.9571,50.75418],[-1.9589,50.75394],[-1.960676,50.753054],[-1.962873,50.751996],[-1.964132,50.751472],[-1.966303,50.750459],[-1.967437,50.750055],[-1.969403,50.749536],[-1.970557,50.74933],[-1.973611,50.74929],[-1.975887,50.749511],[-1.978923,50.749953],[-1.980912,50.750042],[-1.982249,50.750215],[-1.983169,50.750334],[-1.983691,50.749904],[-1.983564,50.749594],[-1.985428,50.744011],[-1.986612,50.741801],[-1.987386,50.740019],[-1.987801,50.739516],[-1.988001,50.738918],[-1.987821,50.73848],[-1.988065,50.738023],[-1.987955,50.73742],[-1.987013,50.73648],[-1.986864,50.735512],[-1.986698,50.732929],[-1.986553,50.73067],[-1.986608,50.72968],[-1.986391,50.728976],[-1.985378,50.728292],[-1.984915,50.727353],[-1.986123,50.726215],[-1.985871,50.725397],[-1.983667,50.722641],[-1.983522,50.721698],[-1.983737,50.721103],[-1.984338,50.72074],[-1.984099,50.720272],[-1.983813,50.719691],[-1.984072,50.718915],[-1.984876,50.717845],[-1.984021,50.717762],[-1.982675,50.719032],[-1.981997,50.719348],[-1.980477,50.719436],[-1.980148,50.719249],[-1.979435,50.718771],[-1.979231,50.719259],[-1.978593,50.719612],[-1.976789,50.719781],[-1.976264,50.719953],[-1.973388,50.720335],[-1.973145,50.720197],[-1.972908,50.719977],[-1.972332,50.720245],[-1.969882,50.720651],[-1.96791,50.721004],[-1.967399,50.721218],[-1.964426,50.72249],[-1.963533,50.722744],[-1.963291,50.722655],[-1.962028,50.722037],[-1.96139,50.721801],[-1.96083,50.721674],[-1.960631,50.721662],[-1.960025,50.721647],[-1.959571,50.72169],[-1.959344,50.72159],[-1.958058,50.721579],[-1.956434,50.720978],[-1.955201,50.720622],[-1.954627,50.719939],[-1.953923,50.719467],[-1.953521,50.719093],[-1.953109,50.718258],[-1.95336,50.717691],[-1.953967,50.716318],[-1.953691,50.714805],[-1.952493,50.713691],[-1.950723,50.713322],[-1.949922,50.712688],[-1.949014,50.711607],[-1.947812,50.710793],[-1.94708,50.710297],[-1.946662,50.7098],[-1.945992,50.709221],[-1.945783,50.708541],[-1.944996,50.707917],[-1.932184,50.708509],[-1.930139,50.708227],[-1.928375,50.708127],[-1.927451,50.708007],[-1.926075,50.707549],[-1.925456,50.707488]]]},"properties":{"code":"J81036","name":"THE ROSEMARY HEALTH CTR","icb":"QVV"}}]}