{"type":"FeatureCollection","features":[{"type":"Feature","geometry":{"type":"Polygon","coordinates":[[[-2.601436,50.948586],[-2.604961,50.947396],[-2.610626,50.945666],[-2.616806,50.940258],[-2.604618,50.933335],[-2.60788,50.926194],[-2.619553,50.918835],[-2.624788,50.908987],[-2.588224,50.857543],[-2.578011,50.838901],[-2.571831,50.829795],[-2.559729,50.823505],[-2.551403,50.825999],[-2.531834,50.832288],[-2.52265,50.845622],[-2.495098,50.843346],[-2.497917,50.843255],[-2.495613,50.842479],[-2.493725,50.843888],[-2.489948,50.845622],[-2.486343,50.849578],[-2.482567,50.852667],[-2.475271,50.855593],[-2.468147,50.862257],[-2.467117,50.864803],[-2.45759,50.868703],[-2.457445,50.868609],[-2.457075,50.868757],[-2.453625,50.866385],[-2.44832,50.863069],[-2.440767,50.858031],[-2.430468,50.862528],[-2.424202,50.867132],[-2.425232,50.872007],[-2.412872,50.87894],[-2.405148,50.884951],[-2.395878,50.890528],[-2.392359,50.897457],[-2.390814,50.905414],[-2.394333,50.909474],[-2.37751,50.920621],[-2.382145,50.931279],[-2.382317,50.93393],[-2.370043,50.942692],[-2.373746,50.94922],[-2.374592,50.949559],[-2.374755,50.950998],[-2.376823,50.954642],[-2.374935,50.952588],[-2.378197,50.957237],[-2.380943,50.96167],[-2.386093,50.966427],[-2.398281,50.980047],[-2.414417,50.997228],[-2.419739,51.005546],[-2.42707,51.010656],[-2.43849,51.020617],[-2.43948,51.021908],[-2.440252,51.025147],[-2.439394,51.028494],[-2.434931,51.038588],[-2.433558,51.043013],[-2.434072,51.044956],[-2.436132,51.046305],[-2.463083,51.041934],[-2.491322,51.03848],[-2.505999,51.037184],[-2.535439,51.034378],[-2.555952,51.037292],[-2.563848,51.037184],[-2.57329,51.030491],[-2.577496,51.021638],[-2.576637,51.018506],[-2.579985,51.00371],[-2.583504,50.999767],[-2.585392,50.994851],[-2.594748,50.99242],[-2.597752,50.990475],[-2.601185,50.982154],[-2.589873,50.975684],[-2.586079,50.974643],[-2.586079,50.972805],[-2.591228,50.969454],[-2.59037,50.965887],[-2.594318,50.96167],[-2.596893,50.956156],[-2.601436,50.948586]]]},"properties":{"code":"J81029","name":"THE APPLES MEDICAL CENTRE","icb":"QVV"}}]}