{"type":"FeatureCollection","features":[{"type":"Feature","geometry":{"type":"Polygon","coordinates":[[[-2.72598,50.72211],[-2.72641,50.71445],[-2.73006,50.71423],[-2.73997,50.70891],[-2.74219,50.70323],[-2.73454,50.70011],[-2.72164,50.69659],[-2.71389,50.6935],[-2.70476,50.69096],[-2.67616,50.67991],[-2.61861,50.65694],[-2.58762,50.64558],[-2.5732,50.63879],[-2.55535,50.63645],[-2.54277,50.63855],[-2.53327,50.63968],[-2.495158,50.642842],[-2.489478,50.666609],[-2.365523,50.65169],[-2.335553,50.69117],[-2.365088,50.743985],[-2.475117,50.772959],[-2.533107,50.753071],[-2.579065,50.728415],[-2.590049,50.733413],[-2.600689,50.740475],[-2.618194,50.739823],[-2.630546,50.740366],[-2.639812,50.743299],[-2.643417,50.74873],[-2.649768,50.741344],[-2.660064,50.738519],[-2.663325,50.736346],[-2.668643,50.737107],[-2.667445,50.732435],[-2.661438,50.727111],[-2.66739,50.72725],[-2.67627,50.72901],[-2.69556,50.73298],[-2.70495,50.73298],[-2.70796,50.73284],[-2.71412,50.73233],[-2.72062,50.7329],[-2.71637,50.7257],[-2.71933,50.72355],[-2.72598,50.72211]]]},"properties":{"code":"J81609","name":"PRINCE OF WALES SURGERY","icb":"QVV"}}]}