{"type":"FeatureCollection","features":[{"type":"Feature","geometry":{"type":"Polygon","coordinates":[[[-2.33314,50.83511],[-2.43038,50.82432],[-2.42729,50.74118],[-2.41433,50.72021],[-2.3897,50.70314],[-2.34043,50.69901],[-2.27408,50.70217],[-2.2419,50.75563],[-2.27752,50.80056],[-2.28507,50.80241],[-2.28833,50.80442],[-2.29297,50.80556],[-2.29829,50.80762],[-2.3055,50.81239],[-2.31365,50.81754],[-2.3158,50.82275],[-2.31949,50.82584],[-2.32601,50.83272],[-2.33314,50.83511]]]},"properties":{"code":"J81616","name":"PUDDLETOWN SURGERY","icb":"QVV"}}]}