{"type":"FeatureCollection","features":[{"type":"Feature","geometry":{"type":"Polygon","coordinates":[[[-1.946983,50.681858],[-1.906815,50.707085],[-1.907158,50.724041],[-1.922951,50.72817],[-1.909561,50.746422],[-1.93222,50.753808],[-1.936684,50.750767],[-1.948013,50.754459],[-1.979256,50.759237],[-1.978912,50.766187],[-2.000885,50.768385],[-2.031441,50.784451],[-2.0438,50.75188],[-2.05719,50.762522],[-2.088432,50.764694],[-2.088432,50.737759],[-1.946983,50.681858]]]},"properties":{"code":"J81648","name":"THE NEWMAN PRACTICE (DR NEWMANS SURGERY)","icb":"QVV"}}]}