{"type":"FeatureCollection","features":[{"type":"Feature","geometry":{"type":"Polygon","coordinates":[[[-1.04885,51.17439],[-1.05632,51.1762],[-1.0631,51.18101],[-1.08224,51.18219],[-1.11503,51.17375],[-1.12988,51.17547],[-1.13918,51.16817],[-1.14301,51.16352],[-1.14848,51.16022],[-1.15757,51.15623],[-1.16301,51.15408],[-1.16614,51.15379],[-1.16927,51.15302],[-1.17805,51.14889],[-1.18348,51.14374],[-1.18603,51.1382],[-1.18744,51.13546],[-1.18844,51.13407],[-1.18996,51.13283],[-1.19461,51.11127],[-1.1912,51.09185],[-1.18845,51.08744],[-1.18724,51.08302],[-1.18174,51.0744],[-1.17176,51.05737],[-1.16112,51.03319],[-1.11889,51.03168],[-1.07786,51.0306],[-1.03786,51.03859],[-1.00267,51.06325],[-0.98748,51.07131],[-0.97967,51.07743],[-0.97383,51.08023],[-0.96894,51.08142],[-0.96637,51.08654],[-0.96517,51.08724],[-0.9559,51.09204],[-0.95023,51.09385],[-0.94457,51.09652],[-0.94573,51.10708],[-0.94699,51.11255],[-0.94732,51.11531],[-0.94954,51.11963],[-0.95899,51.14077],[-0.95298,51.16207],[-1.00538,51.16414],[-1.0278,51.16841],[-1.04885,51.17439]]]},"properties":{"code":"J82059","name":"THE WATERCRESS MEDICAL GROUP","icb":"QRL"}}]}