{"type":"FeatureCollection","features":[{"type":"Feature","geometry":{"type":"MultiPolygon","coordinates":[[[[-1.546369,50.736021],[-1.542249,50.73803],[-1.537338,50.74469],[-1.537232,50.744753],[-1.536953,50.744778],[-1.535393,50.74429],[-1.534936,50.744666],[-1.534576,50.74466],[-1.533612,50.743774],[-1.532851,50.74418],[-1.532536,50.744151],[-1.530769,50.742457],[-1.530597,50.742484],[-1.530258,50.742679],[-1.529878,50.742736],[-1.525995,50.744562],[-1.525973,50.744616],[-1.527257,50.747161],[-1.527241,50.747255],[-1.525512,50.749165],[-1.529637,50.751045],[-1.529686,50.751226],[-1.527658,50.753074],[-1.536498,50.759427],[-1.550197,50.770672],[-1.550453,50.770712],[-1.551787,50.771556],[-1.558514,50.771322],[-1.579184,50.768931],[-1.579048,50.768293],[-1.578783,50.767629],[-1.577418,50.764925],[-1.576269,50.763608],[-1.575981,50.76281],[-1.576049,50.762203],[-1.576221,50.761613],[-1.577517,50.760922],[-1.577902,50.760606],[-1.57781,50.760179],[-1.577398,50.7598],[-1.576641,50.75935],[-1.576446,50.758935],[-1.576652,50.75698],[-1.57906,50.75338],[-1.577167,50.752394],[-1.576546,50.751949],[-1.576502,50.75185],[-1.576741,50.751032],[-1.577143,50.750058],[-1.57805,50.749337],[-1.578051,50.743953],[-1.574541,50.744504],[-1.572042,50.744697],[-1.569756,50.745559],[-1.567505,50.745775],[-1.562914,50.746677],[-1.562656,50.746593],[-1.561228,50.743856],[-1.555942,50.744085],[-1.552427,50.743798],[-1.552267,50.743711],[-1.551698,50.742457],[-1.550521,50.737691],[-1.546369,50.736021]]],[[[-1.632691,50.729948],[-1.6282,50.73268],[-1.627725,50.733092],[-1.627401,50.733109],[-1.62689,50.732788],[-1.626389,50.732582],[-1.626007,50.732532],[-1.625646,50.732525],[-1.624261,50.732784],[-1.623557,50.73285],[-1.622937,50.7328],[-1.622542,50.732676],[-1.622202,50.732476],[-1.621584,50.731786],[-1.62151,50.732353],[-1.621188,50.732932],[-1.620578,50.7336],[-1.62042,50.733878],[-1.619708,50.735516],[-1.619724,50.736131],[-1.619931,50.737263],[-1.61991,50.737758],[-1.620032,50.738343],[-1.619564,50.739325],[-1.619752,50.740318],[-1.619612,50.740455],[-1.618833,50.740583],[-1.615627,50.740853],[-1.614626,50.741188],[-1.613635,50.741444],[-1.612659,50.741824],[-1.611693,50.742047],[-1.60931,50.742283],[-1.605317,50.742787],[-1.604245,50.743226],[-1.603204,50.743747],[-1.602097,50.743962],[-1.598676,50.744394],[-1.597351,50.744413],[-1.596053,50.744276],[-1.590752,50.743496],[-1.589891,50.743462],[-1.588749,50.743639],[-1.589336,50.744504],[-1.589776,50.744895],[-1.590125,50.745372],[-1.589978,50.746214],[-1.589921,50.747095],[-1.590066,50.747929],[-1.590499,50.749487],[-1.591037,50.750347],[-1.591039,50.750431],[-1.590563,50.751233],[-1.591442,50.751738],[-1.591545,50.751996],[-1.591418,50.752282],[-1.590739,50.752992],[-1.588627,50.758769],[-1.58951,50.760069],[-1.589435,50.760978],[-1.589662,50.761369],[-1.589666,50.761708],[-1.589559,50.762014],[-1.589634,50.762442],[-1.590084,50.763573],[-1.589947,50.763734],[-1.58928,50.763865],[-1.587659,50.763963],[-1.58747,50.764033],[-1.587467,50.764079],[-1.592782,50.769585],[-1.604639,50.772583],[-1.616239,50.782252],[-1.623584,50.785283],[-1.630366,50.791258],[-1.632734,50.792541],[-1.633783,50.793197],[-1.634942,50.793786],[-1.637665,50.794755],[-1.641409,50.795523],[-1.644008,50.795944],[-1.64512,50.79589],[-1.645344,50.795991],[-1.645826,50.796873],[-1.645813,50.798416],[-1.645688,50.79932],[-1.64675,50.799418],[-1.654075,50.8006],[-1.662445,50.801975],[-1.664053,50.802294],[-1.665665,50.802683],[-1.668868,50.803725],[-1.671173,50.804747],[-1.673023,50.805673],[-1.673075,50.805282],[-1.67297,50.804856],[-1.672661,50.804449],[-1.672332,50.804138],[-1.672311,50.804031],[-1.673337,50.80217],[-1.673582,50.801433],[-1.674013,50.800525],[-1.674877,50.799823],[-1.675881,50.799214],[-1.677738,50.797871],[-1.680944,50.794791],[-1.682353,50.793561],[-1.692975,50.786251],[-1.693642,50.785424],[-1.694105,50.784545],[-1.694432,50.782045],[-1.694995,50.779635],[-1.695562,50.777303],[-1.696369,50.775044],[-1.696471,50.77252],[-1.697192,50.770233],[-1.697789,50.765299],[-1.698019,50.763971],[-1.698183,50.763521],[-1.698564,50.763048],[-1.699064,50.762609],[-1.700915,50.761304],[-1.702944,50.759706],[-1.705817,50.757815],[-1.706692,50.757447],[-1.709377,50.756657],[-1.708747,50.756146],[-1.707449,50.755584],[-1.701323,50.751957],[-1.698317,50.750643],[-1.698244,50.750483],[-1.699546,50.748706],[-1.697385,50.745037],[-1.697694,50.744223],[-1.69772,50.743814],[-1.697586,50.743419],[-1.696786,50.742226],[-1.691196,50.743895],[-1.688883,50.744764],[-1.688677,50.744944],[-1.68847,50.744991],[-1.687879,50.744893],[-1.687075,50.744838],[-1.685834,50.744502],[-1.685222,50.744244],[-1.684257,50.743565],[-1.683756,50.743286],[-1.68317,50.743166],[-1.682878,50.743179],[-1.682653,50.743046],[-1.682549,50.740978],[-1.682742,50.740842],[-1.684903,50.740749],[-1.686892,50.737259],[-1.681168,50.736657],[-1.67544,50.735966],[-1.674259,50.735874],[-1.673183,50.735675],[-1.672977,50.73557],[-1.672726,50.735611],[-1.671736,50.735409],[-1.670956,50.735348],[-1.670765,50.735241],[-1.670583,50.735226],[-1.670451,50.735341],[-1.670272,50.73539],[-1.667308,50.735112],[-1.666882,50.735034],[-1.666596,50.734704],[-1.666506,50.735027],[-1.666231,50.735136],[-1.6626,50.734694],[-1.662206,50.734725],[-1.661866,50.734693],[-1.661696,50.734547],[-1.661733,50.73437],[-1.661666,50.734262],[-1.661638,50.734496],[-1.661427,50.734616],[-1.658682,50.734424],[-1.655098,50.73377],[-1.654829,50.73362],[-1.654724,50.733772],[-1.654501,50.733845],[-1.652913,50.733636],[-1.650568,50.73309],[-1.65009,50.732958],[-1.649902,50.732815],[-1.649732,50.732982],[-1.649475,50.733071],[-1.648842,50.733002],[-1.648525,50.733016],[-1.648055,50.733186],[-1.647558,50.733162],[-1.647312,50.733249],[-1.647097,50.733244],[-1.645519,50.732863],[-1.641987,50.731905],[-1.64155,50.732133],[-1.641002,50.732223],[-1.632691,50.729948]]]]},"properties":{"code":"J82007","name":"COASTAL MEDICAL PARTNERSHIP","icb":"QRL"}}]}