{"type":"FeatureCollection","features":[{"type":"Feature","geometry":{"type":"Polygon","coordinates":[[[-1.46976,51.17611],[-1.47766,51.18386],[-1.48144,51.19462],[-1.49139,51.19634],[-1.47869,51.20495],[-1.48247,51.20538],[-1.48521,51.21377],[-1.47594,51.2157],[-1.48521,51.22129],[-1.47989,51.2328],[-1.49997,51.26449],[-1.55783,51.24354],[-1.54435,51.23457],[-1.55594,51.21785],[-1.57499,51.19451],[-1.52255,51.17445],[-1.48921,51.17124],[-1.46976,51.17611]]]},"properties":{"code":"J82017","name":"THE ANDOVER HEALTH CENTRE MEDICAL PRACT","icb":"QRL"}}]}