{"type":"FeatureCollection","features":[{"type":"Feature","geometry":{"type":"Polygon","coordinates":[[[-1.11211,51.27566],[-1.11906,51.27612],[-1.12533,51.27797],[-1.12824,51.27357],[-1.13648,51.27303],[-1.14429,51.27008],[-1.14678,51.26578],[-1.14567,51.25891],[-1.13872,51.25606],[-1.14129,51.25249],[-1.150475,51.244295],[-1.151161,51.241071],[-1.154594,51.238169],[-1.163864,51.233977],[-1.171932,51.231398],[-1.183605,51.225808],[-1.203346,51.217637],[-1.205235,51.212691],[-1.19545,51.201398],[-1.166954,51.196235],[-1.13863,51.202043],[-1.132107,51.202474],[-1.107216,51.207206],[-1.091938,51.207744],[-1.074429,51.210701],[-1.075459,51.223228],[-1.07456,51.24233],[-1.062927,51.25837],[-1.053314,51.260518],[-1.037521,51.262237],[-1.030998,51.263526],[-1.02808,51.269111],[-1.028595,51.271367],[-1.033745,51.273837],[-1.040955,51.276307],[-1.049881,51.282105],[-1.048937,51.288279],[-1.04516,51.2937],[-1.0425,51.297671],[-1.042156,51.302179],[-1.054773,51.304648],[-1.057434,51.298852],[-1.063957,51.294076],[-1.069708,51.287688],[-1.075459,51.277434],[-1.08404,51.27942],[-1.09108,51.27888],[-1.10159,51.27754],[-1.11211,51.27566]]]},"properties":{"code":"J82069","name":"CAMROSE GILLIES AND HACKWOOD PARTNERSHIP","icb":"QRL"}}]}