{"type":"FeatureCollection","features":[{"type":"Feature","geometry":{"type":"Polygon","coordinates":[[[-1.332376,50.857617],[-1.33269,50.8576],[-1.33175,50.85706],[-1.3251,50.85356],[-1.32098,50.85164],[-1.31531,50.85026],[-1.314562,50.850119],[-1.31415,50.84993],[-1.3139,50.84952],[-1.31347,50.84955],[-1.31385,50.84928],[-1.31304,50.84885],[-1.31184,50.84885],[-1.31072,50.84904],[-1.310353,50.849303],[-1.31021,50.84925],[-1.310232,50.849301],[-1.31012,50.84928],[-1.31026,50.849369],[-1.31012,50.84947],[-1.31003,50.85009],[-1.31025,50.85074],[-1.31089,50.8512],[-1.311001,50.851128],[-1.31252,50.85473],[-1.31278,50.85865],[-1.314645,50.858552],[-1.31488,50.85925],[-1.31488,50.859603],[-1.31475,50.85922],[-1.31407,50.85863],[-1.31312,50.8589],[-1.31312,50.86058],[-1.312974,50.861015],[-1.31287,50.85865],[-1.306713,50.876461],[-1.304995,50.877353],[-1.307974,50.851761],[-1.30602,50.842638],[-1.298104,50.844835],[-1.270283,50.872023],[-1.254568,50.868387],[-1.252707,50.874609],[-1.248656,50.878563],[-1.261665,50.883228],[-1.267859,50.881512],[-1.270661,50.883192],[-1.283272,50.895993],[-1.287968,50.894945],[-1.288321,50.891935],[-1.29243,50.890636],[-1.293158,50.888536],[-1.296318,50.886896],[-1.30257,50.88598],[-1.302647,50.886023],[-1.300551,50.887111],[-1.29935,50.888397],[-1.297859,50.888356],[-1.2966,50.8888],[-1.295995,50.889078],[-1.296036,50.889694],[-1.294381,50.890885],[-1.289978,50.892438],[-1.288866,50.895651],[-1.287504,50.896369],[-1.277988,50.897547],[-1.275173,50.898436],[-1.272232,50.89859],[-1.268334,50.899459],[-1.264813,50.898198],[-1.262218,50.899112],[-1.26249,50.900388],[-1.260791,50.901609],[-1.260831,50.902546],[-1.259928,50.903195],[-1.256872,50.902523],[-1.255676,50.903802],[-1.254755,50.904464],[-1.254321,50.905372],[-1.252487,50.90532],[-1.248841,50.904934],[-1.248315,50.906915],[-1.249687,50.908907],[-1.251319,50.909935],[-1.252846,50.910483],[-1.254402,50.911041],[-1.250186,50.912126],[-1.248572,50.91208],[-1.246151,50.912206],[-1.245216,50.91269],[-1.243382,50.912639],[-1.241591,50.913078],[-1.240903,50.914256],[-1.23895,50.915084],[-1.237214,50.916146],[-1.235884,50.917101],[-1.234742,50.918214],[-1.232759,50.919638],[-1.231248,50.920724],[-1.229924,50.92119],[-1.229024,50.921656],[-1.228601,50.924117],[-1.22803,50.925311],[-1.229321,50.926264],[-1.233748,50.927238],[-1.239286,50.928142],[-1.240387,50.929442],[-1.243512,50.932366],[-1.246502,50.934976],[-1.249878,50.935718],[-1.252293,50.937349],[-1.253967,50.937871],[-1.253046,50.939447],[-1.253354,50.940179],[-1.257483,50.940852],[-1.261821,50.941076],[-1.264955,50.942466],[-1.264758,50.943032],[-1.267917,50.946758],[-1.272584,50.947894],[-1.277218,50.946947],[-1.282196,50.945537],[-1.287939,50.943514],[-1.291468,50.943219],[-1.292826,50.942671],[-1.29504,50.941778],[-1.297623,50.940594],[-1.301893,50.938499],[-1.303741,50.937369],[-1.307095,50.934472],[-1.307719,50.933538],[-1.308017,50.932538],[-1.308165,50.931668],[-1.308017,50.930979],[-1.309008,50.92928],[-1.309243,50.927272],[-1.311651,50.924919],[-1.312642,50.924064],[-1.313142,50.923015],[-1.312143,50.921163],[-1.310249,50.920148],[-1.312284,50.91839],[-1.314613,50.91732],[-1.315825,50.91717],[-1.31693,50.917514],[-1.318563,50.917514],[-1.321382,50.917036],[-1.323448,50.916503],[-1.32566,50.915324],[-1.32766,50.914406],[-1.323438,50.910128],[-1.322751,50.908854],[-1.31913,50.90214],[-1.32351,50.90095],[-1.323244,50.900944],[-1.32643,50.90006],[-1.32656,50.90008],[-1.32965,50.89932],[-1.33059,50.89892],[-1.33385,50.8961],[-1.33158,50.8938],[-1.33175,50.89234],[-1.33171,50.89234],[-1.332338,50.892005],[-1.33179,50.8924],[-1.33475,50.89074],[-1.3349,50.890159],[-1.337553,50.888246],[-1.33866,50.88796],[-1.34153,50.8862],[-1.341605,50.886079],[-1.34171,50.88603],[-1.34277,50.884207],[-1.344882,50.883091],[-1.36462,50.88019],[-1.35977,50.87664],[-1.35818,50.87542],[-1.356391,50.874296],[-1.35647,50.87426],[-1.35518,50.8732],[-1.35389,50.87168],[-1.35201,50.87038],[-1.34853,50.86819],[-1.343786,50.865649],[-1.33771,50.86155],[-1.33591,50.85998],[-1.33462,50.85903],[-1.332376,50.857617]]]},"properties":{"code":"J82051","name":"HAMBLE VALLEY HEALTH","icb":"QRL"}}]}