{"type":"FeatureCollection","features":[{"type":"Feature","geometry":{"type":"Polygon","coordinates":[[[-1.351613,50.934451],[-1.355157,50.935835],[-1.358095,50.93743],[-1.361587,50.936845],[-1.36557,50.93701],[-1.37604,50.93442],[-1.37878,50.93274],[-1.3805,50.92825],[-1.37896,50.92473],[-1.37638,50.92187],[-1.38908,50.9171],[-1.37054,50.91299],[-1.37878,50.90747],[-1.38531,50.90493],[-1.38222,50.90065],[-1.3784,50.89882],[-1.37458,50.8983],[-1.36591,50.89659],[-1.346199,50.893076],[-1.344707,50.894229],[-1.342313,50.89516],[-1.339532,50.895847],[-1.336506,50.896596],[-1.334602,50.897281],[-1.332349,50.898093],[-1.331643,50.898063],[-1.330104,50.898661],[-1.32864,50.899188],[-1.321399,50.896713],[-1.31946,50.898982],[-1.322103,50.905046],[-1.326697,50.911959],[-1.331191,50.916948],[-1.336982,50.921762],[-1.342323,50.925744],[-1.343917,50.927954],[-1.346801,50.92952],[-1.347684,50.931543],[-1.349064,50.933456],[-1.351613,50.934451]]]},"properties":{"code":"J82040","name":"WEST END ROAD SURGERY","icb":"QRL"}}]}