{"type":"FeatureCollection","features":[{"type":"Feature","geometry":{"type":"Polygon","coordinates":[[[-1.477195,50.817976],[-1.47748,50.818423],[-1.48144,50.81797],[-1.49002,50.81743],[-1.49809,50.81624],[-1.5053,50.81537],[-1.518,50.81244],[-1.52641,50.81082],[-1.53757,50.80897],[-1.55422,50.80463],[-1.558385,50.802887],[-1.561445,50.802543],[-1.562573,50.80249],[-1.565008,50.802417],[-1.565879,50.802224],[-1.566822,50.801862],[-1.568035,50.801698],[-1.569162,50.801392],[-1.570704,50.800866],[-1.571133,50.800894],[-1.572193,50.800728],[-1.571491,50.799488],[-1.570655,50.798175],[-1.568503,50.794499],[-1.567629,50.793169],[-1.567279,50.792603],[-1.567615,50.792648],[-1.56813,50.79254],[-1.568874,50.792265],[-1.5696,50.791861],[-1.570429,50.791444],[-1.571277,50.791053],[-1.571691,50.790546],[-1.57207,50.78999],[-1.572406,50.788978],[-1.572446,50.788538],[-1.572794,50.787927],[-1.573375,50.787488],[-1.574062,50.787134],[-1.574531,50.786733],[-1.574467,50.786599],[-1.574086,50.786346],[-1.572577,50.785479],[-1.571626,50.784908],[-1.570718,50.784391],[-1.570191,50.783292],[-1.570501,50.783258],[-1.5713,50.78331],[-1.572538,50.783377],[-1.573806,50.783429],[-1.574478,50.783549],[-1.57551,50.7838],[-1.576427,50.784107],[-1.577298,50.784582],[-1.577862,50.784824],[-1.578505,50.785039],[-1.579015,50.785076],[-1.579805,50.785152],[-1.580527,50.785191],[-1.582367,50.785055],[-1.583518,50.78504],[-1.584134,50.784982],[-1.584987,50.784734],[-1.585596,50.784509],[-1.586257,50.784218],[-1.586681,50.784374],[-1.587493,50.784805],[-1.588475,50.785035],[-1.589055,50.785155],[-1.589599,50.785116],[-1.589984,50.784973],[-1.59044,50.78483],[-1.590763,50.784807],[-1.591084,50.78483],[-1.591699,50.784974],[-1.59256,50.785072],[-1.593473,50.78522],[-1.594073,50.785421],[-1.594662,50.785656],[-1.595123,50.785904],[-1.595658,50.786092],[-1.596671,50.786535],[-1.598193,50.787498],[-1.599046,50.788112],[-1.599969,50.786931],[-1.600545,50.786098],[-1.601023,50.78526],[-1.600949,50.784895],[-1.600617,50.784023],[-1.600687,50.783632],[-1.600871,50.782604],[-1.601512,50.781958],[-1.60193,50.781648],[-1.60246,50.78157],[-1.603745,50.781032],[-1.60495,50.78027],[-1.60536,50.779947],[-1.60563,50.779585],[-1.60563,50.77902],[-1.605951,50.778476],[-1.606459,50.777936],[-1.606982,50.777478],[-1.607487,50.777045],[-1.607872,50.776787],[-1.608393,50.776511],[-1.609578,50.776078],[-1.610411,50.775857],[-1.611286,50.775684],[-1.61241,50.775397],[-1.613543,50.774898],[-1.61327,50.77408],[-1.613446,50.773885],[-1.614341,50.773652],[-1.615289,50.773455],[-1.616261,50.773363],[-1.616753,50.77334],[-1.617263,50.773393],[-1.61808,50.77365],[-1.619052,50.773792],[-1.619577,50.773748],[-1.620604,50.773574],[-1.62169,50.77343],[-1.623222,50.773269],[-1.626146,50.773303],[-1.628304,50.773121],[-1.630893,50.773291],[-1.633436,50.773291],[-1.634374,50.773135],[-1.63284,50.77197],[-1.6313,50.77072],[-1.63001,50.76974],[-1.627687,50.768151],[-1.626722,50.767368],[-1.625522,50.766572],[-1.624602,50.765581],[-1.623934,50.764501],[-1.62306,50.76317],[-1.621837,50.761627],[-1.623376,50.761115],[-1.62486,50.76062],[-1.6268,50.759936],[-1.62738,50.759745],[-1.627836,50.759439],[-1.628194,50.75887],[-1.628058,50.758461],[-1.628051,50.758074],[-1.627586,50.757779],[-1.62709,50.75769],[-1.62606,50.7572],[-1.624654,50.7561],[-1.624085,50.755585],[-1.623889,50.755593],[-1.623579,50.755081],[-1.621878,50.754218],[-1.62108,50.75481],[-1.620515,50.754975],[-1.620461,50.754582],[-1.619985,50.753834],[-1.61938,50.753569],[-1.61894,50.75329],[-1.618104,50.752866],[-1.617652,50.752325],[-1.617092,50.750942],[-1.617585,50.74938],[-1.617782,50.748429],[-1.61791,50.74781],[-1.618149,50.747265],[-1.618509,50.746709],[-1.619212,50.745673],[-1.619629,50.744287],[-1.619661,50.743836],[-1.619816,50.74359],[-1.620103,50.742872],[-1.619808,50.741755],[-1.61952,50.74128],[-1.61967,50.740805],[-1.619664,50.740438],[-1.617406,50.740689],[-1.61542,50.74091],[-1.613214,50.741605],[-1.611984,50.742024],[-1.61113,50.74216],[-1.609806,50.742222],[-1.60864,50.74238],[-1.606772,50.742588],[-1.60503,50.74286],[-1.60375,50.74352],[-1.602677,50.743858],[-1.601508,50.744056],[-1.600663,50.744158],[-1.599778,50.744276],[-1.598127,50.744414],[-1.597317,50.744414],[-1.596508,50.74433],[-1.594756,50.744092],[-1.593795,50.743932],[-1.592902,50.743812],[-1.592031,50.743696],[-1.591276,50.743583],[-1.590516,50.743509],[-1.590027,50.743449],[-1.589509,50.74352],[-1.588585,50.743645],[-1.588276,50.74319],[-1.588021,50.742656],[-1.58787,50.74259],[-1.587532,50.74236],[-1.587338,50.742016],[-1.587149,50.7413],[-1.586974,50.740534],[-1.586757,50.740149],[-1.58667,50.739724],[-1.586535,50.739317],[-1.586213,50.73897],[-1.585496,50.738409],[-1.584132,50.737633],[-1.58395,50.737437],[-1.583208,50.736765],[-1.582638,50.736045],[-1.582264,50.7354],[-1.581903,50.734778],[-1.581954,50.734214],[-1.5816,50.73363],[-1.580509,50.732323],[-1.58013,50.731817],[-1.5797,50.731304],[-1.57903,50.73075],[-1.578263,50.729961],[-1.577735,50.729627],[-1.576926,50.729217],[-1.576308,50.728681],[-1.574134,50.726711],[-1.57371,50.72668],[-1.572877,50.726759],[-1.572076,50.726748],[-1.571546,50.726677],[-1.571091,50.726517],[-1.570414,50.725957],[-1.570336,50.725378],[-1.570136,50.724504],[-1.57009,50.723795],[-1.57004,50.723429],[-1.569972,50.722932],[-1.569492,50.722873],[-1.569164,50.72282],[-1.568871,50.722644],[-1.568388,50.722265],[-1.567402,50.721502],[-1.56512,50.72103],[-1.564956,50.721213],[-1.557031,50.721024],[-1.54924,50.72429],[-1.543068,50.727613],[-1.53946,50.73102],[-1.53345,50.73548],[-1.52023,50.74102],[-1.51096,50.74601],[-1.50118,50.74786],[-1.49242,50.75003],[-1.48796,50.75166],[-1.48521,50.75383],[-1.48468,50.75551],[-1.476008,50.75824],[-1.465786,50.759475],[-1.46197,50.760777],[-1.460191,50.761294],[-1.458283,50.761735],[-1.4479,50.762196],[-1.445324,50.762599],[-1.442799,50.763122],[-1.43955,50.76437],[-1.434175,50.764861],[-1.429082,50.765326],[-1.42668,50.76578],[-1.419229,50.766437],[-1.41432,50.76741],[-1.4138,50.76871],[-1.416981,50.77205],[-1.418289,50.77398],[-1.420031,50.775171],[-1.420166,50.776167],[-1.421765,50.777694],[-1.423404,50.779019],[-1.425492,50.780909],[-1.428594,50.785175],[-1.43543,50.79335],[-1.44676,50.80105],[-1.45432,50.80463],[-1.47045,50.81168],[-1.47526,50.81396],[-1.477195,50.817976]]]},"properties":{"code":"J82075","name":"CHAWTON HOUSE SURGERY","icb":"QRL"}}]}