{"type":"FeatureCollection","features":[{"type":"Feature","geometry":{"type":"Polygon","coordinates":[[[-1.404362,51.185902],[-1.387024,51.193756],[-1.377068,51.19709],[-1.365395,51.202038],[-1.358528,51.206556],[-1.359901,51.210535],[-1.364708,51.210212],[-1.380844,51.210535],[-1.386337,51.218707],[-1.378613,51.22247],[-1.387367,51.237519],[-1.389427,51.241711],[-1.367283,51.256324],[-1.367798,51.264166],[-1.377239,51.291333],[-1.420326,51.293588],[-1.427708,51.297452],[-1.426334,51.303999],[-1.425476,51.31076],[-1.418953,51.327174],[-1.423759,51.331357],[-1.4217,51.335111],[-1.427193,51.337685],[-1.482296,51.331465],[-1.496372,51.329427],[-1.5168,51.339079],[-1.527786,51.338221],[-1.533451,51.31709],[-1.52504,51.307326],[-1.528301,51.29992],[-1.539631,51.295949],[-1.57156,51.294876],[-1.58083,51.283818],[-1.578426,51.260406],[-1.585979,51.239561],[-1.614475,51.242033],[-1.619797,51.241388],[-1.633873,51.217954],[-1.643658,51.218922],[-1.639366,51.158564],[-1.613102,51.159102],[-1.574306,51.161686],[-1.560574,51.160071],[-1.503754,51.151243],[-1.460152,51.14952],[-1.443329,51.164593],[-1.415005,51.172988],[-1.404362,51.185902]]]},"properties":{"code":"J82025","name":"CHARLTON HILL SURGERY","icb":"QRL"}}]}