{"type":"FeatureCollection","features":[{"type":"Feature","geometry":{"type":"Polygon","coordinates":[[[-1.068832,51.28451],[-1.07005,51.2842],[-1.07172,51.28071],[-1.07434,51.27797],[-1.06932,51.27064],[-1.06861,51.2666],[-1.06636,51.2631],[-1.0655,51.2574],[-1.06267,51.22785],[-1.06515,51.22502],[-1.06213,51.22175],[-1.05679,51.21393],[-1.04336,51.20301],[-0.98087,51.18451],[-0.91066,51.18913],[-0.86174,51.22882],[-0.86226,51.26487],[-0.90191,51.30454],[-0.93899,51.3065],[-0.98225,51.3003],[-1.02121,51.29252],[-1.03246,51.29375],[-1.045294,51.293084],[-1.043839,51.293614],[-1.038057,51.296544],[-1.035202,51.299765],[-1.044731,51.302528],[-1.054861,51.303896],[-1.055632,51.301831],[-1.054516,51.299925],[-1.048935,51.299067],[-1.043335,51.298061],[-1.043744,51.296866],[-1.044344,51.295672],[-1.045158,51.294465],[-1.047134,51.292224],[-1.051639,51.290869],[-1.06046,51.288896],[-1.062412,51.288399],[-1.064172,51.287702],[-1.068832,51.28451]]]},"properties":{"code":"J82061","name":"ODIHAM HEALTH CENTRE","icb":"QRL"}}]}