{"type":"FeatureCollection","features":[{"type":"Feature","geometry":{"type":"Polygon","coordinates":[[[-1.31046,50.92057],[-1.31149,50.91884],[-1.31596,50.9171],[-1.3242,50.9171],[-1.327568,50.914308],[-1.32351,50.90909],[-1.32042,50.90433],[-1.319388,50.901517],[-1.31899,50.898738],[-1.3187,50.89589],[-1.312408,50.898269],[-1.310034,50.894841],[-1.306685,50.891754],[-1.301279,50.889824],[-1.295817,50.888813],[-1.28986,50.89221],[-1.28849,50.89654],[-1.28128,50.89632],[-1.2751,50.89827],[-1.26858,50.89935],[-1.26377,50.89827],[-1.26034,50.90303],[-1.25725,50.90303],[-1.25313,50.9065],[-1.24798,50.90736],[-1.25416,50.91148],[-1.24626,50.91169],[-1.2339,50.91862],[-1.2291,50.92165],[-1.22772,50.92403],[-1.2291,50.92619],[-1.24111,50.92944],[-1.24798,50.93593],[-1.25072,50.93701],[-1.25381,50.93831],[-1.25622,50.93896],[-1.25656,50.94047],[-1.26274,50.94264],[-1.26617,50.94567],[-1.26995,50.94718],[-1.27407,50.94805],[-1.28506,50.94502],[-1.29364,50.94285],[-1.29742,50.94112],[-1.30257,50.93831],[-1.30737,50.93463],[-1.30875,50.93247],[-1.30875,50.92944],[-1.31184,50.92468],[-1.31596,50.921],[-1.31046,50.92057]]]},"properties":{"code":"J82089","name":"","icb":""}}]}