{"type":"FeatureCollection","features":[{"type":"Feature","geometry":{"type":"Polygon","coordinates":[[[-1.19579,51.38892],[-1.20463,51.38686],[-1.2121,51.38051],[-1.22128,51.37802],[-1.23253,51.3751],[-1.24283,51.36862],[-1.25793,51.35999],[-1.25845,51.34509],[-1.25854,51.33882],[-1.25901,51.33622],[-1.25811,51.33383],[-1.25133,51.33018],[-1.24678,51.32997],[-1.23781,51.32726],[-1.22901,51.32326],[-1.21073,51.32106],[-1.20163,51.31237],[-1.17571,51.29574],[-1.16374,51.2904],[-1.14627,51.28849],[-1.11546,51.2864],[-1.08833,51.28962],[-1.06911,51.29821],[-1.05606,51.32203],[-1.06018,51.3289],[-1.06258,51.33662],[-1.0631,51.34423],[-1.06155,51.35184],[-1.06258,51.36878],[-1.07323,51.38292],[-1.10001,51.39364],[-1.12301,51.39439],[-1.14601,51.39257],[-1.19579,51.38892]]]},"properties":{"code":"J82094","name":"TADLEY MEDICAL P'SHIP","icb":"QRL"}}]}