{"type":"FeatureCollection","features":[{"type":"Feature","geometry":{"type":"Polygon","coordinates":[[[-1.43938,50.94815],[-1.44985,50.94723],[-1.45586,50.95432],[-1.46633,50.94891],[-1.46968,50.94529],[-1.46032,50.94275],[-1.46247,50.93566],[-1.47285,50.93139],[-1.46916,50.92506],[-1.46479,50.92089],[-1.45037,50.91548],[-1.41672,50.90845],[-1.41483,50.91521],[-1.40312,50.91651],[-1.40831,50.94134],[-1.41887,50.94258],[-1.43938,50.94815]]]},"properties":{"code":"J82088","name":"THE SHIRLEY HEALTH PARTNERSHIP","icb":"QRL"}}]}