{"type":"FeatureCollection","features":[{"type":"Feature","geometry":{"type":"Polygon","coordinates":[[[-1.4111,50.95518],[-1.41393,50.95145],[-1.41376,50.94723],[-1.41333,50.94396],[-1.41595,50.93931],[-1.4202,50.93747],[-1.41994,50.9359],[-1.41844,50.93371],[-1.41599,50.92757],[-1.41496,50.92368],[-1.41488,50.9226],[-1.41526,50.92135],[-1.41548,50.9141],[-1.41569,50.9125],[-1.41535,50.90991],[-1.41466,50.90877],[-1.410091,50.907751],[-1.408494,50.905998],[-1.404583,50.906863],[-1.404039,50.899515],[-1.396289,50.898827],[-1.395284,50.900362],[-1.397298,50.901399],[-1.397983,50.902504],[-1.397491,50.903976],[-1.397762,50.907636],[-1.39927,50.910168],[-1.399655,50.911194],[-1.4,50.912592],[-1.398461,50.91388],[-1.39655,50.91521],[-1.39492,50.91721],[-1.3938,50.91892],[-1.39041,50.91967],[-1.38878,50.91919],[-1.38166,50.92068],[-1.37831,50.92462],[-1.37973,50.92687],[-1.38054,50.92903],[-1.3799,50.93055],[-1.38011,50.93241],[-1.37908,50.9335],[-1.3796,50.93423],[-1.37655,50.93534],[-1.37398,50.93655],[-1.37398,50.93942],[-1.37351,50.94064],[-1.37587,50.94256],[-1.37355,50.9445],[-1.37269,50.94707],[-1.37183,50.94869],[-1.37325,50.94942],[-1.37398,50.94953],[-1.37758,50.94959],[-1.38539,50.94807],[-1.38835,50.94778],[-1.39316,50.94796],[-1.39574,50.94872],[-1.39827,50.94964],[-1.4002,50.95124],[-1.40209,50.95175],[-1.40518,50.95286],[-1.40981,50.95462],[-1.4111,50.95518]]]},"properties":{"code":"J82080","name":"UNIVERSITY HEALTH SERVICE SOUTHAMPTON","icb":"QRL"}}]}