{"type":"FeatureCollection","features":[{"type":"Feature","geometry":{"type":"Polygon","coordinates":[[[-1.100275,50.785795],[-1.09827,50.78415],[-1.09576,50.78174],[-1.08904,50.7778],[-1.07846,50.77902],[-1.06887,50.78041],[-1.06455,50.7811],[-1.06022,50.78244],[-1.05741,50.78554],[-1.05503,50.78879],[-1.05466,50.79126],[-1.0615,50.79374],[-1.07432,50.79597],[-1.077002,50.796942],[-1.076695,50.799001],[-1.077391,50.801052],[-1.077377,50.803025],[-1.077354,50.806474],[-1.078825,50.810806],[-1.08073,50.813221],[-1.084735,50.81356],[-1.104572,50.810389],[-1.111983,50.806949],[-1.112027,50.79965],[-1.10885,50.79031],[-1.1046,50.78833],[-1.100275,50.785795]]]},"properties":{"code":"J82199","name":"THE UNICITY MEDICAL CENTRE","icb":"QRL"}}]}