{"type":"FeatureCollection","features":[{"type":"Feature","geometry":{"type":"Polygon","coordinates":[[[-1.37409,51.044594],[-1.374652,51.040302],[-1.373035,51.037005],[-1.368793,51.035637],[-1.368663,51.027155],[-1.368123,51.023267],[-1.366472,51.022458],[-1.366436,51.020122],[-1.362446,51.01198],[-1.338966,51.006862],[-1.327617,51.031563],[-1.310903,51.03932],[-1.293365,51.055453],[-1.280838,51.089384],[-1.276486,51.094832],[-1.280253,51.116661],[-1.298202,51.115431],[-1.3198,51.126007],[-1.345701,51.118329],[-1.347668,51.118979],[-1.347054,51.114556],[-1.36215,51.117018],[-1.368062,51.117327],[-1.374991,51.116848],[-1.398065,51.111057],[-1.397662,51.085794],[-1.377114,51.066312],[-1.37409,51.044594]]]},"properties":{"code":"J82130","name":"FRIARSGATE PRACTICE","icb":"QRL"}}]}