{"type":"FeatureCollection","features":[{"type":"Feature","geometry":{"type":"Polygon","coordinates":[[[-1.09324,50.77972],[-1.09213,50.77901],[-1.08881,50.77761],[-1.087344,50.777759],[-1.087315,50.777761],[-1.08567,50.77784],[-1.085523,50.77795],[-1.0855,50.777966],[-1.085474,50.77798],[-1.085446,50.777993],[-1.085417,50.778004],[-1.085386,50.778013],[-1.085353,50.77802],[-1.08532,50.778026],[-1.085286,50.778029],[-1.08113,50.77828],[-1.07651,50.77893],[-1.06421,50.78081],[-1.06204,50.78121],[-1.055933,50.782894],[-1.055886,50.782904],[-1.051107,50.783739],[-1.051093,50.783741],[-1.04753,50.78426],[-1.043274,50.784989],[-1.043266,50.784991],[-1.037532,50.785888],[-1.037508,50.785891],[-1.03626,50.78603],[-1.035047,50.786336],[-1.035013,50.786343],[-1.03247,50.7868],[-1.03044,50.78745],[-1.030178,50.787897],[-1.03016,50.787922],[-1.02981,50.788348],[-1.029788,50.788371],[-1.02938,50.78875],[-1.02917,50.78941],[-1.029235,50.78966],[-1.029239,50.78968],[-1.029239,50.7897],[-1.02923,50.79002],[-1.029322,50.790041],[-1.02936,50.790052],[-1.029396,50.790065],[-1.029429,50.79008],[-1.029459,50.790099],[-1.029485,50.790119],[-1.029508,50.790141],[-1.029527,50.790164],[-1.029541,50.790189],[-1.029857,50.790871],[-1.029866,50.790895],[-1.029871,50.79092],[-1.029871,50.790946],[-1.029867,50.790971],[-1.02941,50.79273],[-1.02929,50.79372],[-1.02956,50.79517],[-1.02997,50.79622],[-1.03081,50.79617],[-1.030431,50.79586],[-1.030404,50.795834],[-1.030383,50.795807],[-1.030368,50.795778],[-1.030359,50.795747],[-1.030325,50.79556],[-1.030323,50.79553],[-1.030327,50.7955],[-1.03046,50.79495],[-1.030302,50.793677],[-1.030302,50.793643],[-1.030336,50.793339],[-1.030345,50.793301],[-1.030365,50.793264],[-1.030529,50.793026],[-1.030555,50.792995],[-1.030909,50.792641],[-1.030932,50.792621],[-1.030957,50.792603],[-1.031374,50.792336],[-1.031401,50.792321],[-1.03143,50.792307],[-1.032019,50.792061],[-1.032049,50.79205],[-1.03208,50.79204],[-1.032112,50.792033],[-1.032146,50.792028],[-1.03218,50.792024],[-1.032214,50.792023],[-1.032248,50.792024],[-1.032282,50.792028],[-1.03474,50.79233],[-1.037416,50.791096],[-1.037445,50.791084],[-1.039933,50.790156],[-1.039968,50.790145],[-1.041905,50.789594],[-1.041948,50.789584],[-1.041992,50.789578],[-1.042037,50.789575],[-1.042083,50.789575],[-1.04339,50.789652],[-1.043452,50.789659],[-1.04351,50.789673],[-1.043564,50.789693],[-1.043611,50.789719],[-1.043791,50.789836],[-1.043822,50.789859],[-1.043848,50.789884],[-1.043869,50.789912],[-1.043883,50.78994],[-1.044057,50.7904],[-1.044065,50.790432],[-1.044066,50.790464],[-1.04406,50.790495],[-1.044047,50.790526],[-1.044027,50.790556],[-1.044001,50.790583],[-1.043969,50.790608],[-1.043932,50.790629],[-1.043724,50.790733],[-1.043676,50.790753],[-1.043623,50.790768],[-1.043568,50.790778],[-1.04351,50.790781],[-1.04273,50.79079],[-1.042355,50.791964],[-1.042346,50.791986],[-1.042333,50.792008],[-1.042317,50.792029],[-1.042297,50.792049],[-1.041104,50.793117],[-1.041073,50.793142],[-1.039794,50.794],[-1.039771,50.794014],[-1.039747,50.794027],[-1.03972,50.794038],[-1.039692,50.794048],[-1.03859,50.79439],[-1.03841,50.79498],[-1.038704,50.795506],[-1.038718,50.795538],[-1.038724,50.795571],[-1.038723,50.795603],[-1.038715,50.795636],[-1.03851,50.79616],[-1.03854,50.79749],[-1.041048,50.802776],[-1.041052,50.802785],[-1.041822,50.804691],[-1.041832,50.804729],[-1.042143,50.807191],[-1.042143,50.80722],[-1.042138,50.807249],[-1.042127,50.807277],[-1.042111,50.807303],[-1.04121,50.80854],[-1.04121,50.809359],[-1.041206,50.809393],[-1.041194,50.809427],[-1.041174,50.809459],[-1.041146,50.809488],[-1.04046,50.81011],[-1.04027,50.81092],[-1.042298,50.813883],[-1.042312,50.813907],[-1.042321,50.813931],[-1.042326,50.813956],[-1.042327,50.813981],[-1.04216,50.817],[-1.042558,50.817531],[-1.042577,50.817561],[-1.042588,50.817592],[-1.042748,50.818232],[-1.042751,50.818248],[-1.042987,50.819916],[-1.042988,50.819938],[-1.042986,50.819961],[-1.04298,50.819983],[-1.042971,50.820004],[-1.042959,50.820025],[-1.042943,50.820045],[-1.042925,50.820064],[-1.042903,50.820082],[-1.04195,50.82079],[-1.04166,50.82146],[-1.04144,50.82266],[-1.041939,50.82363],[-1.041949,50.823654],[-1.041955,50.823678],[-1.041956,50.823703],[-1.041954,50.823727],[-1.041947,50.823751],[-1.041936,50.823775],[-1.041921,50.823797],[-1.041902,50.823819],[-1.0413,50.82443],[-1.0417,50.8252],[-1.04215,50.82576],[-1.043801,50.825918],[-1.043838,50.825923],[-1.044005,50.825951],[-1.044058,50.825963],[-1.044108,50.82598],[-1.044314,50.826065],[-1.044354,50.826084],[-1.044389,50.826106],[-1.044419,50.826131],[-1.044443,50.826159],[-1.044568,50.826329],[-1.044586,50.826361],[-1.044597,50.826394],[-1.044658,50.826678],[-1.044661,50.826702],[-1.04469,50.827459],[-1.044689,50.827481],[-1.04455,50.82873],[-1.04456,50.829378],[-1.044557,50.82941],[-1.044547,50.829441],[-1.0441,50.83045],[-1.044397,50.830747],[-1.044413,50.830765],[-1.044427,50.830784],[-1.044437,50.830803],[-1.044445,50.830823],[-1.04445,50.830844],[-1.044452,50.830864],[-1.044451,50.830885],[-1.044447,50.830906],[-1.043862,50.833033],[-1.043857,50.833047],[-1.043613,50.83369],[-1.043599,50.833718],[-1.043578,50.833746],[-1.043552,50.833771],[-1.043521,50.833794],[-1.043287,50.833946],[-1.043248,50.833968],[-1.043203,50.833986],[-1.0427,50.83416],[-1.0424,50.83437],[-1.04222,50.83468],[-1.04229,50.83494],[-1.04248,50.83512],[-1.042772,50.83527],[-1.042808,50.835291],[-1.042839,50.835315],[-1.042864,50.835341],[-1.042883,50.835369],[-1.042909,50.835416],[-1.042922,50.835443],[-1.042929,50.835471],[-1.04293,50.835499],[-1.042926,50.835526],[-1.042481,50.837305],[-1.042478,50.837314],[-1.041142,50.841492],[-1.041137,50.841507],[-1.040777,50.842333],[-1.040758,50.842366],[-1.04014,50.843225],[-1.040116,50.843253],[-1.039255,50.844105],[-1.039245,50.844115],[-1.03813,50.8451],[-1.03784,50.84548],[-1.03756,50.84627],[-1.03765,50.84697],[-1.0393,50.84683],[-1.039938,50.846714],[-1.039983,50.846708],[-1.042521,50.846464],[-1.04256,50.846461],[-1.042599,50.846462],[-1.044117,50.846529],[-1.044143,50.846531],[-1.04621,50.84672],[-1.0474,50.84671],[-1.04992,50.84663],[-1.05139,50.84655],[-1.052811,50.846392],[-1.052849,50.846389],[-1.057405,50.846201],[-1.05744,50.846201],[-1.057475,50.846203],[-1.06248,50.84662],[-1.063311,50.846553],[-1.06335,50.846551],[-1.063389,50.846552],[-1.0657,50.84669],[-1.066848,50.846612],[-1.066892,50.84661],[-1.067851,50.84662],[-1.0679,50.846622],[-1.067947,50.846629],[-1.068193,50.846676],[-1.068252,50.846691],[-1.068306,50.846712],[-1.068352,50.846739],[-1.068391,50.846771],[-1.06844,50.84682],[-1.06861,50.84687],[-1.068726,50.84684],[-1.068783,50.846828],[-1.068841,50.846823],[-1.0689,50.846824],[-1.068958,50.846831],[-1.07118,50.84723],[-1.07473,50.84778],[-1.09177,50.84974],[-1.09211,50.84844],[-1.08533,50.84394],[-1.080021,50.842929],[-1.079973,50.842918],[-1.079929,50.842902],[-1.079888,50.842882],[-1.079852,50.842859],[-1.073874,50.838361],[-1.073853,50.838344],[-1.073836,50.838326],[-1.073821,50.838307],[-1.073809,50.838287],[-1.0738,50.838267],[-1.073794,50.838246],[-1.073791,50.838225],[-1.073791,50.838204],[-1.073794,50.838183],[-1.073801,50.838162],[-1.07381,50.838142],[-1.073822,50.838122],[-1.073838,50.838104],[-1.073856,50.838086],[-1.073876,50.838069],[-1.073899,50.838054],[-1.07838,50.83532],[-1.079639,50.83294],[-1.079651,50.832921],[-1.079666,50.832902],[-1.079683,50.832884],[-1.079703,50.832867],[-1.08404,50.8296],[-1.083683,50.826704],[-1.083682,50.82668],[-1.083685,50.826655],[-1.083959,50.825432],[-1.083966,50.825406],[-1.083979,50.825382],[-1.083995,50.825359],[-1.084016,50.825337],[-1.084508,50.824877],[-1.084547,50.824847],[-1.084593,50.824822],[-1.084646,50.824802],[-1.084704,50.824788],[-1.084936,50.824745],[-1.084981,50.824739],[-1.085026,50.824737],[-1.085072,50.824738],[-1.085117,50.824743],[-1.085161,50.824752],[-1.085203,50.824764],[-1.085242,50.824779],[-1.085277,50.824798],[-1.0856,50.82499],[-1.085834,50.82503],[-1.085884,50.825041],[-1.085932,50.825057],[-1.085974,50.825077],[-1.086012,50.825101],[-1.086044,50.825129],[-1.086068,50.825159],[-1.086085,50.825191],[-1.086095,50.825224],[-1.08623,50.82606],[-1.08698,50.8263],[-1.087421,50.826284],[-1.08747,50.826284],[-1.087517,50.826288],[-1.087563,50.826297],[-1.087607,50.826309],[-1.087849,50.82639],[-1.087891,50.826406],[-1.08793,50.826427],[-1.087963,50.82645],[-1.087991,50.826476],[-1.08844,50.82697],[-1.08872,50.82688],[-1.088541,50.826601],[-1.088525,50.826571],[-1.088517,50.82654],[-1.088515,50.826508],[-1.08852,50.826477],[-1.088532,50.826446],[-1.088551,50.826417],[-1.088576,50.82639],[-1.088606,50.826365],[-1.088642,50.826343],[-1.088682,50.826325],[-1.088726,50.82631],[-1.088773,50.8263],[-1.088822,50.826293],[-1.088871,50.826291],[-1.088921,50.826294],[-1.088969,50.8263],[-1.09001,50.826493],[-1.090053,50.826503],[-1.090094,50.826517],[-1.090131,50.826533],[-1.090165,50.826553],[-1.091,50.8271],[-1.091971,50.827661],[-1.091997,50.827678],[-1.092021,50.827697],[-1.092041,50.827717],[-1.092058,50.827738],[-1.092071,50.827761],[-1.09208,50.827784],[-1.092085,50.827808],[-1.092086,50.827832],[-1.09207,50.82831],[-1.09311,50.82904],[-1.09372,50.82908],[-1.094,50.82905],[-1.09399,50.82891],[-1.093316,50.828378],[-1.093297,50.828361],[-1.09328,50.828343],[-1.093266,50.828324],[-1.093254,50.828305],[-1.093246,50.828285],[-1.09324,50.828264],[-1.093238,50.828244],[-1.093238,50.828223],[-1.093251,50.828088],[-1.093255,50.828067],[-1.093262,50.828047],[-1.093271,50.828026],[-1.093284,50.828007],[-1.0933,50.827988],[-1.093318,50.827971],[-1.093339,50.827954],[-1.093362,50.827939],[-1.094794,50.827081],[-1.094839,50.827059],[-1.094888,50.827041],[-1.094941,50.827028],[-1.094997,50.827021],[-1.09843,50.826765],[-1.098465,50.826764],[-1.098499,50.826764],[-1.098534,50.826767],[-1.098568,50.826772],[-1.099331,50.826908],[-1.099372,50.826917],[-1.09941,50.826929],[-1.099446,50.826944],[-1.099479,50.826961],[-1.099508,50.826981],[-1.099533,50.827003],[-1.099554,50.827026],[-1.099571,50.827051],[-1.09969,50.82727],[-1.10016,50.82704],[-1.10033,50.82643],[-1.100299,50.826405],[-1.100274,50.826377],[-1.100256,50.826347],[-1.100244,50.826316],[-1.10024,50.826284],[-1.100243,50.826252],[-1.100253,50.82622],[-1.10027,50.82619],[-1.09985,50.82518],[-1.09748,50.82296],[-1.09708,50.82286],[-1.095009,50.823166],[-1.094947,50.823171],[-1.094884,50.82317],[-1.094822,50.823161],[-1.094763,50.823146],[-1.09471,50.823124],[-1.094664,50.823097],[-1.094626,50.823065],[-1.094598,50.823029],[-1.090666,50.816653],[-1.090649,50.816615],[-1.090642,50.816577],[-1.090646,50.816538],[-1.09066,50.816501],[-1.090684,50.816465],[-1.090717,50.816433],[-1.090758,50.816404],[-1.090807,50.816381],[-1.09198,50.81591],[-1.091199,50.814965],[-1.091177,50.814932],[-1.091164,50.814898],[-1.091159,50.814863],[-1.091163,50.814828],[-1.091175,50.814793],[-1.091196,50.814761],[-1.091224,50.81473],[-1.09126,50.814703],[-1.09242,50.81395],[-1.09394,50.81271],[-1.093898,50.812578],[-1.093893,50.812557],[-1.093891,50.812536],[-1.093893,50.812514],[-1.093897,50.812493],[-1.093905,50.812472],[-1.093916,50.812452],[-1.09393,50.812432],[-1.093946,50.812414],[-1.09453,50.81183],[-1.09461,50.81135],[-1.094576,50.811283],[-1.094565,50.811253],[-1.09456,50.811222],[-1.094562,50.81119],[-1.094571,50.81116],[-1.094586,50.81113],[-1.094608,50.811102],[-1.094635,50.811076],[-1.094668,50.811053],[-1.09487,50.81093],[-1.092867,50.811327],[-1.092809,50.811335],[-1.092751,50.811337],[-1.092692,50.811333],[-1.092636,50.811323],[-1.09204,50.81118],[-1.091482,50.811494],[-1.09144,50.811514],[-1.091393,50.811531],[-1.091344,50.811542],[-1.091292,50.811549],[-1.09102,50.811571],[-1.090979,50.811573],[-1.090938,50.811572],[-1.090897,50.811568],[-1.090858,50.811561],[-1.09082,50.811551],[-1.090784,50.811538],[-1.09075,50.811523],[-1.09072,50.811505],[-1.090693,50.811486],[-1.09067,50.811464],[-1.090651,50.811441],[-1.090636,50.811417],[-1.090626,50.811391],[-1.09062,50.811365],[-1.09062,50.811339],[-1.090624,50.811313],[-1.091128,50.80928],[-1.091138,50.809251],[-1.091154,50.809223],[-1.091176,50.809197],[-1.091204,50.809173],[-1.091236,50.809151],[-1.091272,50.809132],[-1.091312,50.809116],[-1.091355,50.809104],[-1.093631,50.80857],[-1.093662,50.808564],[-1.093694,50.808559],[-1.093727,50.808557],[-1.09376,50.808556],[-1.093792,50.808558],[-1.093825,50.808561],[-1.093857,50.808566],[-1.093887,50.808573],[-1.09415,50.80864],[-1.09479,50.80868],[-1.09576,50.80858],[-1.095672,50.80842],[-1.095663,50.8084],[-1.095656,50.808379],[-1.095653,50.808358],[-1.095653,50.808337],[-1.09569,50.80777],[-1.09563,50.806078],[-1.095631,50.806062],[-1.095684,50.805327],[-1.095692,50.80529],[-1.095709,50.805254],[-1.095735,50.80522],[-1.09577,50.80519],[-1.095812,50.805164],[-1.095861,50.805143],[-1.095914,50.805127],[-1.095971,50.805116],[-1.09603,50.805112],[-1.096089,50.805115],[-1.096147,50.805123],[-1.096201,50.805137],[-1.096251,50.805157],[-1.096295,50.805182],[-1.096333,50.805211],[-1.096361,50.805244],[-1.09638,50.80527],[-1.09772,50.80539],[-1.09857,50.80539],[-1.099146,50.805326],[-1.0992,50.805323],[-1.099254,50.805325],[-1.09991,50.80538],[-1.10057,50.805361],[-1.10062,50.805362],[-1.100669,50.805368],[-1.10101,50.80542],[-1.10138,50.805386],[-1.10144,50.805383],[-1.101499,50.805387],[-1.10438,50.80574],[-1.105339,50.80574],[-1.105393,50.805743],[-1.105445,50.80575],[-1.105495,50.805763],[-1.105541,50.80578],[-1.10807,50.80689],[-1.11079,50.80694],[-1.110873,50.806889],[-1.110904,50.806872],[-1.110938,50.806857],[-1.110974,50.806845],[-1.111013,50.806835],[-1.111053,50.806829],[-1.111094,50.806825],[-1.111135,50.806825],[-1.111176,50.806828],[-1.1112,50.80683],[-1.11142,50.80663],[-1.1115,50.80641],[-1.11151,50.805],[-1.111392,50.803464],[-1.111392,50.80344],[-1.111396,50.803416],[-1.1115,50.80302],[-1.11146,50.80284],[-1.111446,50.802814],[-1.111437,50.802787],[-1.111434,50.802759],[-1.111435,50.802732],[-1.111442,50.802705],[-1.111455,50.802678],[-1.111472,50.802653],[-1.111494,50.802629],[-1.111521,50.802607],[-1.111551,50.802588],[-1.111585,50.80257],[-1.111623,50.802556],[-1.111662,50.802545],[-1.111704,50.802536],[-1.111747,50.802532],[-1.11179,50.80253],[-1.11082,50.80112],[-1.107071,50.798034],[-1.107041,50.798005],[-1.107019,50.797974],[-1.107004,50.797942],[-1.106997,50.797908],[-1.106999,50.797874],[-1.107009,50.79784],[-1.107026,50.797808],[-1.107051,50.797777],[-1.1088,50.79601],[-1.108693,50.795779],[-1.108684,50.795754],[-1.108679,50.79573],[-1.108679,50.795705],[-1.108683,50.79568],[-1.10873,50.79549],[-1.10862,50.79538],[-1.108445,50.795398],[-1.108398,50.795401],[-1.108351,50.7954],[-1.108305,50.795395],[-1.10826,50.795387],[-1.108218,50.795374],[-1.108178,50.795358],[-1.108142,50.795339],[-1.10811,50.795317],[-1.107356,50.79472],[-1.107323,50.794689],[-1.107299,50.794656],[-1.107284,50.79462],[-1.107278,50.794583],[-1.107228,50.792454],[-1.10723,50.792426],[-1.107238,50.792398],[-1.107251,50.792371],[-1.10727,50.792346],[-1.107293,50.792322],[-1.107321,50.792299],[-1.107353,50.79228],[-1.107389,50.792263],[-1.107427,50.792249],[-1.107468,50.792238],[-1.107511,50.792231],[-1.107555,50.792227],[-1.1076,50.792226],[-1.107644,50.79223],[-1.107688,50.792236],[-1.107729,50.792246],[-1.10938,50.79272],[-1.10949,50.79155],[-1.10868,50.7904],[-1.10791,50.78973],[-1.105185,50.788382],[-1.105175,50.788378],[-1.102054,50.786721],[-1.102028,50.786706],[-1.102005,50.786689],[-1.101984,50.78667],[-1.101966,50.78665],[-1.101951,50.78663],[-1.10194,50.786608],[-1.101932,50.786586],[-1.101928,50.786563],[-1.101928,50.786541],[-1.101931,50.786518],[-1.101937,50.786496],[-1.101948,50.786474],[-1.101961,50.786453],[-1.101978,50.786433],[-1.101998,50.786414],[-1.102021,50.786397],[-1.10232,50.78619],[-1.10069,50.78499],[-1.100556,50.785019],[-1.100503,50.785028],[-1.100449,50.785031],[-1.100395,50.785029],[-1.100342,50.785022],[-1.100291,50.78501],[-1.100244,50.784993],[-1.100201,50.784972],[-1.100164,50.784946],[-1.09998,50.7848],[-1.099535,50.784563],[-1.099511,50.784549],[-1.099489,50.784534],[-1.09756,50.78305],[-1.096727,50.78256],[-1.096695,50.782539],[-1.096263,50.78221],[-1.096239,50.782189],[-1.09571,50.78168],[-1.09428,50.780851],[-1.094243,50.780827],[-1.093358,50.780133],[-1.093328,50.780106],[-1.093305,50.780076],[-1.093289,50.780044],[-1.093281,50.780012],[-1.09324,50.77972]]]},"properties":{"code":"J82194","name":"EAST SHORE PARTNERSHIP","icb":"QRL"}}]}