{"type":"FeatureCollection","features":[{"type":"Feature","geometry":{"type":"Polygon","coordinates":[[[-1.081403,50.854974],[-1.082129,50.851304],[-1.082333,50.849513],[-1.082721,50.848755],[-1.082267,50.848318],[-1.081966,50.84777],[-1.084958,50.846851],[-1.086874,50.846849],[-1.087651,50.846611],[-1.08825,50.846166],[-1.088571,50.845741],[-1.079002,50.842386],[-1.07697,50.840666],[-1.07347,50.837702],[-1.063855,50.836278],[-1.059019,50.835531],[-1.054247,50.834385],[-1.051265,50.834055],[-1.048474,50.834353],[-1.044848,50.834654],[-1.03357,50.83728],[-1.02362,50.8427],[-1.013004,50.846359],[-1.011977,50.847826],[-1.011794,50.849409],[-1.012199,50.850644],[-1.012758,50.85235],[-1.013714,50.853499],[-1.021054,50.85211],[-1.039072,50.85213],[-1.047879,50.853103],[-1.056525,50.853676],[-1.061726,50.853681],[-1.066922,50.853367],[-1.071655,50.854022],[-1.076154,50.854977],[-1.081403,50.854974]]]},"properties":{"code":"J82102","name":"THE DRAYTON SURGERY","icb":"QRL"}}]}