{"type":"FeatureCollection","features":[{"type":"Feature","geometry":{"type":"Polygon","coordinates":[[[-0.98628,51.071552],[-0.923196,51.078454],[-0.89976,51.08789],[-0.884223,51.096731],[-0.877706,51.115862],[-0.861139,51.130782],[-0.853672,51.144192],[-0.853157,51.144458],[-0.846462,51.187946],[-0.913925,51.204835],[-0.976067,51.229248],[-0.992718,51.187521],[-1.055889,51.213008],[-1.058292,51.209244],[-1.097946,51.171051],[-1.105671,51.16793],[-1.130568,51.146833],[-1.119235,51.125721],[-1.105157,51.113653],[-1.096574,51.108264],[-1.087649,51.103091],[-1.080437,51.09921],[-1.073227,51.095761],[-1.069109,51.092526],[-1.060007,51.084601],[-1.058376,51.081366],[-1.056574,51.072954],[-1.027736,51.072037],[-1.006794,51.071875],[-0.995807,51.071605],[-0.98628,51.071552]]]},"properties":{"code":"J82136","name":"CHAWTON PARK SURGERY","icb":"QRL"}}]}