{"type":"FeatureCollection","features":[{"type":"Feature","geometry":{"type":"Polygon","coordinates":[[[-0.786128,51.242585],[-0.786831,51.241524],[-0.786325,51.240473],[-0.786928,51.238459],[-0.775525,51.220021],[-0.775422,51.219954],[-0.747685,51.22133],[-0.722969,51.227523],[-0.714181,51.240765],[-0.712086,51.246706],[-0.710605,51.252647],[-0.71715,51.260976],[-0.717021,51.263997],[-0.717779,51.270823],[-0.722372,51.277155],[-0.72575,51.276989],[-0.734712,51.275556],[-0.737353,51.275124],[-0.74232,51.274625],[-0.749574,51.273991],[-0.750337,51.274162],[-0.751291,51.274066],[-0.752547,51.27394],[-0.753845,51.273751],[-0.755919,51.273232],[-0.757206,51.272737],[-0.758233,51.271569],[-0.759951,51.269436],[-0.761351,51.267842],[-0.76262,51.266266],[-0.76513,51.263408],[-0.766427,51.26158],[-0.770731,51.257746],[-0.772006,51.256389],[-0.7747,51.253719],[-0.778685,51.250169],[-0.783432,51.245937],[-0.786128,51.242585]]]},"properties":{"code":"J82198","name":"THE WELLINGTON PRACTICE","icb":"QRL"}}]}