{"type":"FeatureCollection","features":[{"type":"Feature","geometry":{"type":"Polygon","coordinates":[[[-0.87044,51.294618],[-0.87219,51.28986],[-0.87394,51.28784],[-0.8755,51.2865],[-0.875823,51.285786],[-0.87478,51.283686],[-0.875346,51.281946],[-0.878201,51.280531],[-0.87231,51.27863],[-0.87307,51.27695],[-0.872703,51.271187],[-0.865116,51.266189],[-0.860488,51.246119],[-0.852282,51.245894],[-0.840527,51.240108],[-0.833538,51.237178],[-0.826489,51.236282],[-0.823008,51.247008],[-0.82395,51.253123],[-0.825365,51.259262],[-0.82683,51.262642],[-0.823182,51.265098],[-0.818292,51.266209],[-0.816473,51.267434],[-0.812674,51.268298],[-0.81155,51.268404],[-0.810854,51.268607],[-0.809815,51.268768],[-0.808788,51.268865],[-0.807234,51.269219],[-0.806873,51.269308],[-0.805382,51.269955],[-0.803295,51.270861],[-0.808134,51.275226],[-0.814938,51.279921],[-0.81933,51.285895],[-0.818789,51.288177],[-0.819931,51.289406],[-0.819603,51.290788],[-0.820552,51.296167],[-0.823585,51.297887],[-0.829146,51.299321],[-0.834204,51.300168],[-0.843124,51.299726],[-0.853004,51.298189],[-0.87044,51.294618]]]},"properties":{"code":"J82110","name":"HART HEALTH PARTNERSHIP","icb":"QRL"}}]}