{"type":"FeatureCollection","features":[{"type":"Feature","geometry":{"type":"Polygon","coordinates":[[[-1.376263,50.942286],[-1.379954,50.939649],[-1.382228,50.93921],[-1.384578,50.938683],[-1.388311,50.938683],[-1.396143,50.938541],[-1.399201,50.938007],[-1.406668,50.936026],[-1.406347,50.932165],[-1.40595,50.928561],[-1.405445,50.921439],[-1.403171,50.916265],[-1.402495,50.914189],[-1.401401,50.914053],[-1.402516,50.910556],[-1.39801,50.9078],[-1.39383,50.90762],[-1.39033,50.90896],[-1.38574,50.91402],[-1.37681,50.912829],[-1.37658,50.91039],[-1.38228,50.90725],[-1.38526,50.90368],[-1.38471,50.8961],[-1.38511,50.8921],[-1.38278,50.88852],[-1.37363,50.88614],[-1.368484,50.88246],[-1.363163,50.877911],[-1.3587,50.875095],[-1.352348,50.869136],[-1.3275,50.871005],[-1.3275,50.876692],[-1.326299,50.878344],[-1.324346,50.882324],[-1.322694,50.881106],[-1.318145,50.87722],[-1.317308,50.876638],[-1.315999,50.876773],[-1.315012,50.87699],[-1.31381,50.877153],[-1.308661,50.878073],[-1.299992,50.879915],[-1.303339,50.883813],[-1.302588,50.883841],[-1.302073,50.884693],[-1.301558,50.885005],[-1.300142,50.885709],[-1.297416,50.887225],[-1.294154,50.887658],[-1.292095,50.887333],[-1.288748,50.884463],[-1.281966,50.880185],[-1.269607,50.876936],[-1.25535,50.874336],[-1.24609,50.871845],[-1.239395,50.869028],[-1.231499,50.86762],[-1.223412,50.866537],[-1.201445,50.867295],[-1.198529,50.862961],[-1.181003,50.862961],[-1.157303,50.859711],[-1.160485,50.894967],[-1.174502,50.907795],[-1.179399,50.908554],[-1.181023,50.909365],[-1.186352,50.909311],[-1.1903,50.911422],[-1.193562,50.915481],[-1.199569,50.922082],[-1.21656,50.925058],[-1.230553,50.925058],[-1.234159,50.927384],[-1.238558,50.928317],[-1.242635,50.931563],[-1.243687,50.932767],[-1.245081,50.93397],[-1.246583,50.93516],[-1.248794,50.935376],[-1.249866,50.93585],[-1.252184,50.934944],[-1.254501,50.93374],[-1.255252,50.934132],[-1.255703,50.934687],[-1.257226,50.935417],[-1.259415,50.935999],[-1.261239,50.936661],[-1.262398,50.935241],[-1.263278,50.935633],[-1.264973,50.936837],[-1.266432,50.938067],[-1.268749,50.939352],[-1.270187,50.938743],[-1.271303,50.939812],[-1.272247,50.940244],[-1.273727,50.940285],[-1.274993,50.940528],[-1.276324,50.941123],[-1.278019,50.942178],[-1.282053,50.945855],[-1.281238,50.949668],[-1.282761,50.950357],[-1.284435,50.950803],[-1.285594,50.951587],[-1.287482,50.953034],[-1.288319,50.953223],[-1.291087,50.955237],[-1.294777,50.956034],[-1.29952,50.954561],[-1.30703,50.942367],[-1.31692,50.938805],[-1.331488,50.941223],[-1.346111,50.942652],[-1.35355,50.937337],[-1.36166,50.93907],[-1.376263,50.942286]]]},"properties":{"code":"J82622","name":"LIVING WELL PARTNERSHIP","icb":"QRL"}}]}