{"type":"FeatureCollection","features":[{"type":"Feature","geometry":{"type":"Polygon","coordinates":[[[-1.327302,51.316867],[-1.327299,51.256312],[-1.325616,51.241701],[-1.321576,51.227434],[-1.31998,51.213567],[-1.305678,51.19714],[-1.251869,51.187867],[-1.229802,51.191682],[-1.209735,51.197955],[-1.16947,51.210537],[-1.161644,51.2223],[-1.1526,51.226861],[-1.14585,51.233047],[-1.141697,51.235463],[-1.140924,51.239622],[-1.139688,51.246271],[-1.138912,51.250446],[-1.138136,51.254621],[-1.137443,51.261768],[-1.150686,51.288982],[-1.156933,51.31667],[-1.160057,51.330507],[-1.16318,51.34434],[-1.182356,51.356432],[-1.19614,51.37221],[-1.22029,51.370162],[-1.247997,51.370967],[-1.28319,51.367982],[-1.315991,51.370688],[-1.329022,51.349068],[-1.338367,51.330392],[-1.332857,51.323232],[-1.327302,51.316867]]]},"properties":{"code":"J82639","name":"WATERSHIP DOWN HEALTH","icb":"QRL"}}]}