{"type":"FeatureCollection","features":[{"type":"Feature","geometry":{"type":"Polygon","coordinates":[[[-0.776854,51.264761],[-0.773764,51.262613],[-0.771103,51.262022],[-0.76664,51.263096],[-0.767198,51.251333],[-0.761662,51.249023],[-0.754237,51.248888],[-0.747414,51.250097],[-0.741234,51.25375],[-0.737629,51.255792],[-0.734539,51.258585],[-0.729561,51.26213],[-0.726128,51.268037],[-0.733466,51.280763],[-0.740504,51.292787],[-0.759645,51.292519],[-0.770073,51.279636],[-0.769386,51.272387],[-0.769215,51.267715],[-0.770931,51.267393],[-0.772219,51.268628],[-0.773506,51.268735],[-0.775824,51.270454],[-0.780544,51.272333],[-0.792475,51.271743],[-0.797796,51.271152],[-0.797539,51.269111],[-0.790157,51.268252],[-0.785522,51.269111],[-0.782776,51.268628],[-0.781574,51.26691],[-0.776854,51.265513],[-0.776854,51.264761]]]},"properties":{"code":"J82630","name":"NORTH CAMP SURGERY","icb":"QRL"}}]}