{"type":"FeatureCollection","features":[{"type":"Feature","geometry":{"type":"Polygon","coordinates":[[[-0.910321,51.280009],[-0.914569,51.278763],[-0.916736,51.278226],[-0.9268,51.27255],[-0.92774,51.2646],[-0.929375,51.260841],[-0.930061,51.25461],[-0.929375,51.251601],[-0.929375,51.248378],[-0.92525,51.23752],[-0.92671,51.23194],[-0.92148,51.21925],[-0.92302,51.21629],[-0.913754,51.211024],[-0.90328,51.20903],[-0.861998,51.211454],[-0.832472,51.208927],[-0.820198,51.210809],[-0.818396,51.214734],[-0.814619,51.213282],[-0.808611,51.211346],[-0.804319,51.213658],[-0.801744,51.21425],[-0.799255,51.214895],[-0.799685,51.216024],[-0.800714,51.216669],[-0.803375,51.218013],[-0.80389,51.219734],[-0.802002,51.221508],[-0.803375,51.223174],[-0.804148,51.229087],[-0.79565,51.230807],[-0.78501,51.22871],[-0.787668,51.241071],[-0.779428,51.250366],[-0.78724,51.25257],[-0.79281,51.25123],[-0.795908,51.250205],[-0.80132,51.24913],[-0.80423,51.24892],[-0.80801,51.249345],[-0.826635,51.263258],[-0.827751,51.263526],[-0.828695,51.264385],[-0.831099,51.266211],[-0.835047,51.269863],[-0.843115,51.276736],[-0.84938,51.279421],[-0.863972,51.278938],[-0.87822,51.282105],[-0.881395,51.282481],[-0.885408,51.282307],[-0.886502,51.28126],[-0.889893,51.281246],[-0.892982,51.281676],[-0.893669,51.281246],[-0.896759,51.282105],[-0.900192,51.280817],[-0.906372,51.279743],[-0.91015,51.28006],[-0.910321,51.280009]]]},"properties":{"code":"J82628","name":"CRONDALL NEW SURGERY","icb":"QRL"}}]}