{"type":"FeatureCollection","features":[{"type":"Feature","geometry":{"type":"Polygon","coordinates":[[[-0.98259,50.94653],[-0.99495,50.94545],[-1.00525,50.94696],[-1.01246,50.94156],[-1.0128,50.93534],[-1.0183,50.9263],[-1.02859,50.91516],[-1.02104,50.90401],[-1.02962,50.8948],[-1.02859,50.89459],[-1.02482,50.89437],[-1.01933,50.89351],[-1.00851,50.88907],[-1.01521,50.88311],[-1.01778,50.87932],[-1.01315,50.87791],[-0.97057,50.88593],[-0.96062,50.89156],[-0.96268,50.89914],[-0.96165,50.90563],[-0.97126,50.90877],[-0.97744,50.91905],[-0.98225,50.92771],[-0.99306,50.93377],[-0.98259,50.94653]]]},"properties":{"code":"J82640","name":"HORNDEAN SURGERY","icb":"QRL"}}]}