{"type":"FeatureCollection","features":[{"type":"Feature","geometry":{"type":"Polygon","coordinates":[[[-1.93943,51.42041],[-2.00827,51.38967],[-2.06646,51.40328],[-2.08998,51.37178],[-2.10526,51.35913],[-2.10508,51.34498],[-2.05925,51.32139],[-2.03968,51.26739],[-2.00672,51.31924],[-1.9772,51.3437],[-1.934575,51.344327],[-1.90681,51.27953],[-1.87866,51.32353],[-1.82819,51.39514],[-1.87506,51.40488],[-1.89368,51.41639],[-1.93943,51.42041]]]},"properties":{"code":"J83053","name":"ST. JAMES SURGERY","icb":"QOX"}}]}