{"type":"FeatureCollection","features":[{"type":"Feature","geometry":{"type":"Polygon","coordinates":[[[-1.632829,51.117744],[-1.711109,51.159535],[-1.86011,51.144884],[-1.853798,51.060344],[-1.860462,51.039874],[-1.868012,50.989113],[-1.836422,51.015904],[-1.761581,51.020443],[-1.748095,51.033397],[-1.717132,51.033055],[-1.71678,51.032964],[-1.715554,51.033037],[-1.690509,51.032754],[-1.689257,51.034603],[-1.676779,51.035344],[-1.674137,51.056913],[-1.663429,51.072699],[-1.642619,51.082494],[-1.641378,51.10517],[-1.632829,51.117744]]]},"properties":{"code":"J83026","name":"THREE CHEQUERS MEDICAL PRACTICE","icb":"QOX"}}]}