{"type":"FeatureCollection","features":[{"type":"Feature","geometry":{"type":"Polygon","coordinates":[[[-2.17976,51.07204],[-2.18868,51.06308],[-2.19503,51.04916],[-2.18422,51.03535],[-2.187195,51.01894],[-2.18354,51.017799],[-2.185109,51.015107],[-2.179625,51.014133],[-2.178443,51.013764],[-2.176905,51.012654],[-2.176468,51.01099],[-2.176492,51.009251],[-2.178103,51.008174],[-2.176348,51.006908],[-2.175993,51.006059],[-2.174726,51.003495],[-2.172602,51.001266],[-2.163767,50.997498],[-2.15281,50.9915],[-2.09899,50.98988],[-2.05067,51.00555],[-2.03281,51.04593],[-1.99825,51.05321],[-1.96093,51.06654],[-1.95606,51.08476],[-1.98003,51.10212],[-2.02256,51.10973],[-2.04758,51.10797],[-2.06268,51.10789],[-2.10079,51.11171],[-2.15452,51.11128],[-2.17117,51.1046],[-2.17976,51.07204]]]},"properties":{"code":"J83058","name":"TISBURY SURGERY","icb":"QOX"}}]}