{"type":"FeatureCollection","features":[{"type":"Feature","geometry":{"type":"Polygon","coordinates":[[[-1.723398,51.53932],[-1.71833,51.56128],[-1.73498,51.57621],[-1.744893,51.574289],[-1.749182,51.572409],[-1.752896,51.569591],[-1.760233,51.565282],[-1.764168,51.56297],[-1.765627,51.562113],[-1.767484,51.562599],[-1.77069,51.56224],[-1.771378,51.55978],[-1.773296,51.557336],[-1.77704,51.55274],[-1.777307,51.54862],[-1.779368,51.54474],[-1.782488,51.541964],[-1.784071,51.53826],[-1.76674,51.53139],[-1.725774,51.527327],[-1.724825,51.533135],[-1.723398,51.53932]]]},"properties":{"code":"J83059","name":"THE LAWN MEDICAL CENTRE","icb":"QOX"}}]}