{"type":"FeatureCollection","features":[{"type":"Feature","geometry":{"type":"Polygon","coordinates":[[[-1.77516,51.600053],[-1.778499,51.598347],[-1.777382,51.595202],[-1.774034,51.592642],[-1.772918,51.587096],[-1.776181,51.577336],[-1.771974,51.575149],[-1.771202,51.573816],[-1.777038,51.573762],[-1.776953,51.571148],[-1.793863,51.571308],[-1.794205,51.57835],[-1.797295,51.57835],[-1.799268,51.577123],[-1.801329,51.575629],[-1.801243,51.572962],[-1.801672,51.569281],[-1.804676,51.568748],[-1.807337,51.567467],[-1.811371,51.56528],[-1.814643,51.561652],[-1.814031,51.55845],[-1.814213,51.555141],[-1.816175,51.551245],[-1.82682,51.546335],[-1.837978,51.542278],[-1.828279,51.540837],[-1.818924,51.539983],[-1.808281,51.540623],[-1.797981,51.540517],[-1.791719,51.539769],[-1.786566,51.538862],[-1.773605,51.534537],[-1.766911,51.532455],[-1.76013,51.53112],[-1.741676,51.529305],[-1.724853,51.527329],[-1.71867,51.56235],[-1.733866,51.577443],[-1.745795,51.592802],[-1.751461,51.594402],[-1.757211,51.597281],[-1.77516,51.600053]]]},"properties":{"code":"J83038","name":"KINGSWOOD SURGERY","icb":"QOX"}}]}