{"type":"FeatureCollection","features":[{"type":"Feature","geometry":{"type":"Polygon","coordinates":[[[-1.89444,51.309491],[-1.82613,51.17848],[-1.77567,51.1632],[-1.71593,51.18106],[-1.71387,51.28576],[-1.71513,51.28665],[-1.71318,51.2864],[-1.81274,51.4022],[-1.8766,51.38421],[-1.877335,51.381256],[-1.90887,51.36192],[-1.91334,51.34713],[-1.896014,51.312954],[-1.89617,51.3128],[-1.89493,51.310428],[-1.89514,51.30958],[-1.89444,51.309491]]]},"properties":{"code":"J83023","name":"AVON VALLEY PRACTICE","icb":"QOX"}}]}