{"type":"FeatureCollection","features":[{"type":"Feature","geometry":{"type":"Polygon","coordinates":[[[-1.8639,51.08174],[-1.87695,51.08778],[-1.84982,51.03643],[-1.77155,51.02822],[-1.78991,50.93139],[-1.70365,50.98848],[-1.70391,51.04031],[-1.65515,51.08821],[-1.65722,51.08821],[-1.71112,51.09727],[-1.722453,51.134555],[-1.664115,51.17676],[-1.712517,51.219142],[-1.784948,51.301213],[-1.91297,51.29005],[-1.922241,51.233977],[-1.917463,51.195267],[-1.854653,51.162768],[-1.82098,51.12524],[-1.84948,51.10298],[-1.8639,51.08174]]]},"properties":{"code":"J83052","name":"SARUM HEALTH GROUP","icb":"QOX"}}]}