{"type":"FeatureCollection","features":[{"type":"Feature","geometry":{"type":"Polygon","coordinates":[[[-2.2309,51.398675],[-2.22851,51.37435],[-2.21821,51.35334],[-2.234,51.3334],[-2.22576,51.32654],[-2.18662,51.33683],[-2.19109,51.32718],[-2.17186,51.30915],[-2.1492,51.29971],[-2.13512,51.30164],[-2.06715,51.31216],[-2.06165,51.32932],[-2.04449,51.32117],[-2.02286,51.33254],[-2.03453,51.34348],[-2.03762,51.34949],[-2.00912,51.35334],[-2.01359,51.35592],[-2.00432,51.35678],[-1.98475,51.36857],[-2.00844,51.38121],[-2.0153,51.38592],[-2.00706,51.38957],[-2.04861,51.40692],[-2.0517,51.40649],[-2.05376,51.41248],[-2.06303,51.4127],[-2.10251,51.42768],[-2.10251,51.43218],[-2.1104,51.43282],[-2.11452,51.43239],[-2.11933,51.43282],[-2.11933,51.44352],[-2.11693,51.44759],[-2.11967,51.45101],[-2.12208,51.45101],[-2.12448,51.44887],[-2.165494,51.430604],[-2.16911,51.43132],[-2.18267,51.43293],[-2.18302,51.42287],[-2.19984,51.42105],[-2.20362,51.42394],[-2.19933,51.43239],[-2.20242,51.44181],[-2.20774,51.44513],[-2.21529,51.43304],[-2.2146,51.42158],[-2.217183,51.406703],[-2.22507,51.40263],[-2.23091,51.39878],[-2.2309,51.398675]]]},"properties":{"code":"J83011","name":"GIFFORDS PRIMARY CARE CTR","icb":"QOX"}}]}