{"type":"FeatureCollection","features":[{"type":"Feature","geometry":{"type":"Polygon","coordinates":[[[-1.854369,51.178202],[-1.852203,51.177621],[-1.854955,51.182635],[-1.855286,51.182141],[-1.855594,51.183689],[-1.858733,51.186014],[-1.858734,51.18709],[-1.857416,51.188192],[-1.860106,51.189457],[-1.857589,51.190194],[-1.857704,51.190533],[-1.857463,51.190231],[-1.85608,51.190636],[-1.855604,51.19171],[-1.857689,51.191609],[-1.855692,51.194113],[-1.858032,51.194406],[-1.857003,51.195052],[-1.859065,51.199139],[-1.86042,51.202089],[-1.91042,51.20774],[-1.94595,51.2357],[-1.97089,51.22819],[-1.9917,51.21551],[-2.03402,51.19145],[-2.12002,51.18548],[-2.12757,51.18529],[-2.13993,51.18166],[-2.15366,51.17794],[-2.02196,51.122],[-2.05117,51.08836],[-2.05395,51.08058],[-2.0636,51.07302],[-2.06945,51.06794],[-2.06912,51.06503],[-2.06667,51.04911],[-2.06114,51.03254],[-2.06088,51.03246],[-2.06099,51.03268],[-2.06092,51.03258],[-2.05296,51.03626],[-2.04432,51.03799],[-2.03354,51.04567],[-2.02934,51.04819],[-2.02462,51.04985],[-2.02205,51.05069],[-2.01965,51.05066],[-2.01553,51.05103],[-2.00729,51.0522],[-1.99563,51.05345],[-1.994216,51.051717],[-1.988716,51.052965],[-1.9813,51.055886],[-1.98329,51.05982],[-1.93737,51.06805],[-1.84158,51.06125],[-1.83231,51.07862],[-1.85597,51.08176],[-1.84906,51.08922],[-1.83903,51.10112],[-1.84523,51.10875],[-1.85195,51.11734],[-1.85557,51.12615],[-1.85789,51.17202],[-1.856682,51.175469],[-1.854369,51.178202]]]},"properties":{"code":"J83019","name":"THE ORCHARD PARTNERSHIP","icb":"QOX"}}]}