{"type":"FeatureCollection","features":[{"type":"Feature","geometry":{"type":"Polygon","coordinates":[[[-1.833058,51.558688],[-1.829783,51.560595],[-1.828341,51.561261],[-1.826956,51.562197],[-1.826304,51.562638],[-1.824824,51.563849],[-1.823491,51.564829],[-1.822287,51.564053],[-1.82099,51.563442],[-1.81858,51.562469],[-1.816745,51.56196],[-1.815699,51.561689],[-1.814982,51.561753],[-1.814805,51.561898],[-1.814456,51.562436],[-1.813987,51.563157],[-1.812817,51.564114],[-1.811653,51.564969],[-1.810972,51.565409],[-1.810018,51.56608],[-1.809113,51.566669],[-1.808287,51.567146],[-1.807439,51.567659],[-1.806056,51.568337],[-1.801682,51.569137],[-1.800434,51.568706],[-1.798677,51.568864],[-1.795772,51.569263],[-1.793443,51.569877],[-1.791031,51.570093],[-1.788478,51.56986],[-1.785839,51.569087],[-1.783841,51.56803],[-1.782606,51.567823],[-1.778173,51.568572],[-1.776096,51.569119],[-1.772235,51.570029],[-1.771228,51.570852],[-1.770936,51.571847],[-1.76877,51.571893],[-1.762975,51.57277],[-1.761246,51.578672],[-1.761647,51.581202],[-1.761249,51.582561],[-1.760337,51.583914],[-1.759367,51.584867],[-1.757908,51.585937],[-1.755153,51.587714],[-1.761959,51.591916],[-1.757183,51.59469],[-1.770151,51.598489],[-1.773757,51.599598],[-1.778553,51.602136],[-1.782816,51.605188],[-1.787569,51.607702],[-1.792753,51.609793],[-1.795703,51.610767],[-1.796769,51.611079],[-1.799335,51.610815],[-1.80144,51.610173],[-1.803405,51.608681],[-1.804555,51.608591],[-1.807179,51.608624],[-1.808508,51.607819],[-1.809878,51.608292],[-1.811831,51.60969],[-1.813745,51.611195],[-1.814033,51.612994],[-1.816565,51.613734],[-1.822477,51.614843],[-1.82775,51.614044],[-1.832928,51.613095],[-1.838736,51.603292],[-1.833671,51.59949],[-1.831114,51.596809],[-1.829603,51.594356],[-1.827254,51.588384],[-1.824939,51.585602],[-1.827753,51.5837],[-1.831217,51.581925],[-1.834301,51.583555],[-1.838229,51.583797],[-1.840019,51.583657],[-1.841624,51.583126],[-1.841561,51.582731],[-1.841144,51.582474],[-1.841024,51.582116],[-1.841399,51.581726],[-1.84167,51.581568],[-1.8427,51.581546],[-1.842869,51.580018],[-1.842889,51.579832],[-1.843203,51.579601],[-1.842997,51.578314],[-1.842867,51.577928],[-1.842978,51.576927],[-1.843977,51.57589],[-1.844472,51.574607],[-1.844715,51.573416],[-1.844459,51.572764],[-1.844033,51.572073],[-1.844228,51.571119],[-1.844427,51.570146],[-1.845794,51.569938],[-1.848075,51.569094],[-1.849136,51.568347],[-1.850295,51.567812],[-1.849525,51.567004],[-1.847742,51.566136],[-1.844069,51.565063],[-1.841129,51.564302],[-1.839511,51.563649],[-1.838368,51.562837],[-1.837758,51.562401],[-1.835424,51.560897],[-1.833058,51.558688]]]},"properties":{"code":"J83057","name":"NORTH SWINDON PRACTICE","icb":"QOX"}}]}