{"type":"FeatureCollection","features":[{"type":"Feature","geometry":{"type":"Polygon","coordinates":[[[-1.96492,51.1608],[-1.919738,51.17945],[-1.90467,51.17919],[-1.907439,51.18775],[-1.907194,51.187919],[-1.88351,51.1863],[-1.84473,51.20269],[-1.857609,51.257694],[-1.857577,51.257778],[-1.81806,51.29255],[-1.820198,51.296954],[-1.82009,51.297107],[-1.80967,51.30017],[-1.80733,51.31102],[-1.843918,51.315646],[-1.844064,51.315728],[-1.85114,51.32991],[-1.874735,51.333011],[-1.96219,51.34768],[-1.963748,51.347552],[-1.965299,51.347828],[-1.965446,51.347976],[-1.96063,51.36425],[-1.979355,51.389588],[-1.97935,51.389694],[-1.97891,51.39021],[-1.979566,51.390115],[-1.97977,51.39015],[-1.979917,51.390064],[-2.00844,51.38592],[-2.02286,51.38035],[-2.03247,51.37349],[-2.037497,51.369732],[-2.037776,51.36971],[-2.06011,51.37971],[-2.06998,51.37274],[-2.061233,51.366299],[-2.061189,51.366209],[-2.063627,51.352857],[-2.063853,51.352741],[-2.09207,51.35428],[-2.11501,51.35239],[-2.12627,51.33979],[-2.13052,51.32748],[-2.12647,51.32003],[-2.11483,51.31288],[-2.095616,51.306403],[-2.095593,51.306153],[-2.12885,51.29155],[-2.143717,51.280355],[-2.144037,51.280348],[-2.16102,51.29137],[-2.17302,51.29522],[-2.17971,51.29199],[-2.171574,51.291677],[-2.171379,51.291548],[-2.17134,51.28549],[-2.16223,51.27267],[-2.158107,51.272325],[-2.15793,51.272198],[-2.15792,51.267316],[-2.158068,51.267195],[-2.15963,51.26693],[-2.15482,51.25568],[-2.03257,51.1919],[-2.02158,51.18741],[-1.994858,51.184318],[-1.994747,51.184276],[-1.96492,51.1608]]]},"properties":{"code":"J83619","name":"COURTYARD SURGERY","icb":"QOX"}}]}