{"type":"FeatureCollection","features":[{"type":"Feature","geometry":{"type":"Polygon","coordinates":[[[-1.73653,51.57771],[-1.76331,51.57206],[-1.7767,51.56848],[-1.78356,51.56712],[-1.78974,51.56363],[-1.81764,51.57504],[-1.82596,51.57884],[-1.82745,51.58],[-1.83048,51.58157],[-1.83225,51.58063],[-1.83403,51.5806],[-1.83833,51.58004],[-1.84062,51.58014],[-1.8418,51.5801],[-1.84272,51.57985],[-1.84328,51.57957],[-1.8429,51.57853],[-1.84274,51.5772],[-1.84457,51.57465],[-1.84422,51.57055],[-1.84511,51.5649],[-1.84637,51.5621],[-1.84796,51.55968],[-1.84905,51.55693],[-1.84877,51.5558],[-1.84903,51.55513],[-1.84916,51.55433],[-1.84908,51.55334],[-1.84939,51.55065],[-1.84873,51.54914],[-1.8485,51.54408],[-1.847347,51.543456],[-1.84738,51.54418],[-1.846756,51.543305],[-1.84349,51.54328],[-1.82639,51.54036],[-1.81171,51.53886],[-1.79626,51.52412],[-1.78596,51.52242],[-1.77738,51.52071],[-1.76743,51.52156],[-1.76502,51.519],[-1.72211,51.52434],[-1.72348,51.5348],[-1.71867,51.5617],[-1.73653,51.57771]]]},"properties":{"code":"J83633","name":"VICTORIA CROSS SURGERY","icb":"QOX"}}]}