{"type":"FeatureCollection","features":[{"type":"Feature","geometry":{"type":"Polygon","coordinates":[[[-1.852191,51.571167],[-1.847717,51.560176],[-1.84506,51.558573],[-1.845672,51.55714],[-1.848864,51.557037],[-1.850668,51.55533],[-1.849644,51.553103],[-1.851559,51.551964],[-1.852377,51.551313],[-1.85345,51.550757],[-1.854197,51.550144],[-1.855346,51.549201],[-1.857484,51.547929],[-1.85575,51.5463],[-1.84957,51.5446],[-1.848389,51.544393],[-1.846136,51.543926],[-1.844846,51.5437],[-1.843535,51.543544],[-1.84202,51.54319],[-1.8403,51.54295],[-1.8351,51.54204],[-1.82701,51.54504],[-1.81927,51.54826],[-1.81495,51.5467],[-1.797766,51.540395],[-1.791534,51.540006],[-1.785564,51.540536],[-1.785084,51.541659],[-1.8035,51.55074],[-1.80292,51.55167],[-1.80255,51.55287],[-1.8007,51.55379],[-1.80107,51.55498],[-1.81369,51.55562],[-1.813636,51.556785],[-1.814581,51.559824],[-1.81663,51.561749],[-1.822679,51.564412],[-1.826469,51.566887],[-1.82592,51.57873],[-1.825069,51.583128],[-1.83023,51.584197],[-1.842624,51.583339],[-1.852191,51.571167]]]},"properties":{"code":"J83645","name":"PHOENIX SURGERY","icb":"QOX"}}]}