{"type":"FeatureCollection","features":[{"type":"Feature","geometry":{"type":"Polygon","coordinates":[[[-1.290059,50.756471],[-1.290759,50.753933],[-1.291105,50.75205],[-1.289905,50.748324],[-1.289107,50.745751],[-1.286632,50.743346],[-1.286106,50.741218],[-1.285725,50.738736],[-1.283248,50.736458],[-1.281682,50.733785],[-1.279036,50.731672],[-1.278928,50.728762],[-1.278751,50.726132],[-1.281198,50.723274],[-1.283226,50.720885],[-1.285293,50.721506],[-1.287999,50.722148],[-1.294395,50.723505],[-1.297316,50.724029],[-1.300981,50.722851],[-1.301804,50.723025],[-1.302703,50.723386],[-1.304816,50.723308],[-1.304425,50.721241],[-1.307786,50.720991],[-1.329679,50.71762],[-1.330904,50.715898],[-1.330561,50.711871],[-1.331428,50.707161],[-1.331015,50.70404],[-1.329684,50.701313],[-1.329955,50.698318],[-1.328236,50.693775],[-1.325443,50.690482],[-1.323981,50.68841],[-1.322717,50.687376],[-1.319486,50.686597],[-1.313852,50.685867],[-1.304354,50.685063],[-1.296767,50.684628],[-1.291144,50.684362],[-1.284971,50.684547],[-1.270095,50.683676],[-1.250966,50.683069],[-1.241787,50.682644],[-1.23662,50.682611],[-1.226934,50.68133],[-1.223643,50.681484],[-1.220939,50.681967],[-1.218473,50.682427],[-1.211795,50.682606],[-1.207593,50.682572],[-1.206276,50.6846],[-1.204126,50.686653],[-1.203467,50.689568],[-1.201225,50.696995],[-1.200857,50.702813],[-1.200653,50.705823],[-1.197796,50.712653],[-1.196819,50.71403],[-1.197163,50.714446],[-1.194544,50.71497],[-1.192956,50.715309],[-1.192145,50.715865],[-1.190795,50.717293],[-1.191925,50.718394],[-1.193488,50.719658],[-1.193468,50.720804],[-1.192688,50.721179],[-1.192254,50.724012],[-1.191749,50.725334],[-1.191281,50.726371],[-1.190265,50.727527],[-1.189314,50.728642],[-1.188659,50.729352],[-1.187801,50.73061],[-1.187405,50.73124],[-1.186793,50.731277],[-1.186399,50.731763],[-1.186391,50.732171],[-1.186416,50.733245],[-1.193152,50.732874],[-1.204605,50.73441],[-1.210564,50.735033],[-1.212118,50.733684],[-1.214565,50.733797],[-1.216836,50.73527],[-1.214046,50.737388],[-1.215104,50.738172],[-1.22721,50.741164],[-1.232326,50.742852],[-1.239659,50.743775],[-1.2448,50.747791],[-1.247799,50.751696],[-1.255419,50.753979],[-1.260071,50.760031],[-1.26751,50.763381],[-1.271781,50.76535],[-1.275901,50.766347],[-1.287747,50.762923],[-1.289945,50.759342],[-1.290059,50.756471]]]},"properties":{"code":"J84017","name":"SOLENT NHS TRUST T/A MEDINA HEALTHCARE","icb":"QRL"}}]}