{"type":"FeatureCollection","features":[{"type":"Feature","geometry":{"type":"Polygon","coordinates":[[[-1.281452,50.765345],[-1.284242,50.764341],[-1.286902,50.763581],[-1.288705,50.762739],[-1.29055,50.760703],[-1.290936,50.75864],[-1.291194,50.754486],[-1.292267,50.75112],[-1.289778,50.74778],[-1.288319,50.744385],[-1.283855,50.737216],[-1.278362,50.730371],[-1.277332,50.72635],[-1.280229,50.725033],[-1.270702,50.72074],[-1.261797,50.723199],[-1.257248,50.72434],[-1.240768,50.724503],[-1.239953,50.727844],[-1.236691,50.731457],[-1.234159,50.733413],[-1.231885,50.734907],[-1.232014,50.736672],[-1.239524,50.743028],[-1.244073,50.748024],[-1.246219,50.749626],[-1.247377,50.751527],[-1.250896,50.752884],[-1.255059,50.753862],[-1.258149,50.75693],[-1.259437,50.759292],[-1.262484,50.761219],[-1.26523,50.762088],[-1.267161,50.763635],[-1.271667,50.765535],[-1.27377,50.766132],[-1.276088,50.766241],[-1.278319,50.766024],[-1.281452,50.765345]]]},"properties":{"code":"J84004","name":"EAST COWES MEDICAL CENTRE","icb":"QRL"}}]}