{"type":"FeatureCollection","features":[{"type":"Feature","geometry":{"type":"Polygon","coordinates":[[[-1.478,50.66513],[-1.46667,50.65387],[-1.4526,50.64478],[-1.40694,50.63384],[-1.36608,50.61026],[-1.31578,50.58656],[-1.3054,50.57427],[-1.25931,50.57855],[-1.23785,50.58405],[-1.23227,50.61731],[-1.231494,50.631607],[-1.25416,50.66665],[-1.298103,50.668396],[-1.327626,50.669266],[-1.342391,50.670354],[-1.40934,50.671877],[-1.44093,50.67057],[-1.45638,50.67275],[-1.478,50.66513]]]},"properties":{"code":"J84016","name":"SOUTH WIGHT MEDICAL PRACTICE","icb":"QRL"}}]}