{"type":"FeatureCollection","features":[{"type":"Feature","geometry":{"type":"Polygon","coordinates":[[[-0.616822,51.529358],[-0.61472,51.5217],[-0.61514,51.52028],[-0.61481,51.51852],[-0.614419,51.517342],[-0.613303,51.516301],[-0.612231,51.51347],[-0.612488,51.512909],[-0.612488,51.510398],[-0.612316,51.508075],[-0.615621,51.503747],[-0.60888,51.50233],[-0.60086,51.50228],[-0.60003,51.50324],[-0.59909,51.50459],[-0.59745,51.50659],[-0.59697,51.50742],[-0.596436,51.507781],[-0.596479,51.507914],[-0.596351,51.508155],[-0.595793,51.508636],[-0.595578,51.508769],[-0.595364,51.509437],[-0.595321,51.509544],[-0.594849,51.510532],[-0.58055,51.50868],[-0.57947,51.5092],[-0.57799,51.51024],[-0.57666,51.51085],[-0.57554,51.51178],[-0.57301,51.51419],[-0.5709,51.51657],[-0.56862,51.51862],[-0.5653,51.52105],[-0.57262,51.52223],[-0.57202,51.52597],[-0.57513,51.529678],[-0.57852,51.530519],[-0.58959,51.52238],[-0.58987,51.52559],[-0.59404,51.5257],[-0.59578,51.52562],[-0.59728,51.52562],[-0.59734,51.52742],[-0.604334,51.528784],[-0.607059,51.529946],[-0.609956,51.53052],[-0.613539,51.530132],[-0.61547,51.529919],[-0.616822,51.529358]]]},"properties":{"code":"K81034","name":"CROSBY HOUSE SURGERY","icb":"S0E4D"}}]}