{"type":"FeatureCollection","features":[{"type":"Feature","geometry":{"type":"Polygon","coordinates":[[[-0.97242,51.41248],[-0.97438,51.4129],[-0.97609,51.41347],[-0.98341,51.41626],[-0.98527,51.41692],[-0.99043,51.41836],[-0.99283,51.41883],[-0.99503,51.41936],[-0.99732,51.41967],[-0.99957,51.42006],[-1.00203,51.42033],[-1.00671,51.39768],[-1.00767,51.395],[-1.00876,51.39269],[-1.00951,51.39127],[-1.01552,51.38364],[-1.01599,51.38234],[-1.0163,51.38006],[-1.01867,51.37413],[-1.02029,51.367],[-1.02696,51.32879],[-0.97014,51.33126],[-0.94809,51.33453],[-0.94108,51.33654],[-0.937356,51.34149],[-0.91942,51.3437],[-0.90723,51.35988],[-0.90281,51.36184],[-0.89478,51.36457],[-0.89118,51.36492],[-0.88957,51.36664],[-0.88745,51.36782],[-0.88303,51.37049],[-0.8829,51.37224],[-0.88414,51.3742],[-0.88624,51.37547],[-0.88835,51.37641],[-0.88775,51.37836],[-0.88663,51.38008],[-0.8856,51.38146],[-0.88509,51.38274],[-0.88663,51.38412],[-0.88869,51.38507],[-0.89185,51.38551],[-0.89517,51.38627],[-0.89822,51.38773],[-0.89944,51.38842],[-0.89971,51.38898],[-0.89979,51.38935],[-0.90013,51.38971],[-0.89554,51.39233],[-0.8947,51.39293],[-0.89351,51.39339],[-0.89236,51.3937],[-0.88994,51.39453],[-0.88818,51.39536],[-0.88692,51.39567],[-0.88517,51.39603],[-0.88471,51.39629],[-0.88417,51.39636],[-0.88354,51.39635],[-0.88152,51.39609],[-0.88067,51.39617],[-0.87984,51.39642],[-0.8791,51.39672],[-0.87833,51.39717],[-0.87708,51.39752],[-0.87588,51.398],[-0.885236,51.397883],[-0.896775,51.410652],[-0.896652,51.41149],[-0.895232,51.414163],[-0.89371,51.41661],[-0.89556,51.41679],[-0.89753,51.41737],[-0.89854,51.41778],[-0.90078,51.41924],[-0.90172,51.4201],[-0.90194,51.42112],[-0.90182,51.42215],[-0.90556,51.42106],[-0.90957,51.42036],[-0.91362,51.42003],[-0.91722,51.42008],[-0.9197,51.4203],[-0.92481,51.42065],[-0.92824,51.42059],[-0.93006,51.42041],[-0.93345,51.41992],[-0.93523,51.41958],[-0.93813,51.41875],[-0.93993,51.41816],[-0.948224,51.414837],[-0.95013,51.411904],[-0.950313,51.411023],[-0.949231,51.410188],[-0.948504,51.409385],[-0.947999,51.408248],[-0.945561,51.405556],[-0.946451,51.404429],[-0.94646,51.403589],[-0.949655,51.400172],[-0.949725,51.399206],[-0.958187,51.398842],[-0.95842,51.400132],[-0.959826,51.401047],[-0.966867,51.405021],[-0.968462,51.406251],[-0.963887,51.407752],[-0.961169,51.409697],[-0.959021,51.410126],[-0.957116,51.411026],[-0.956409,51.412115],[-0.95866,51.41219],[-0.96093,51.41191],[-0.9638,51.41178],[-0.96675,51.41181],[-0.96956,51.41207],[-0.97242,51.41248]]]},"properties":{"code":"K81003","name":"SWALLOWFIELD MEDICAL PRACTICE","icb":"S0E4D"}}]}