{"type":"FeatureCollection","features":[{"type":"Feature","geometry":{"type":"Polygon","coordinates":[[[-0.939976,51.4571],[-0.94019,51.45687],[-0.93877,51.45566],[-0.9383,51.4547],[-0.93658,51.45395],[-0.93517,51.45251],[-0.93367,51.45085],[-0.93448,51.45074],[-0.93714,51.45018],[-0.9386,51.4497],[-0.93362,51.44529],[-0.93234,51.44299],[-0.93079,51.44216],[-0.93251,51.43825],[-0.93534,51.43675],[-0.93315,51.4356],[-0.92598,51.43076],[-0.9244,51.42838],[-0.92066,51.42886],[-0.91895,51.42739],[-0.91594,51.4252],[-0.91255,51.42207],[-0.91131,51.41995],[-0.89539,51.41463],[-0.89174,51.41374],[-0.8917,51.41401],[-0.88985,51.41529],[-0.88783,51.41628],[-0.8847,51.41639],[-0.88045,51.41594],[-0.88109,51.41706],[-0.8823,51.41789],[-0.88079,51.41808],[-0.87667,51.41827],[-0.87406,51.41853],[-0.87174,51.41896],[-0.86972,51.41963],[-0.86856,51.42231],[-0.86835,51.42338],[-0.8671,51.42394],[-0.86809,51.42434],[-0.86882,51.42474],[-0.86775,51.42504],[-0.86577,51.42541],[-0.8626,51.42653],[-0.86002,51.42763],[-0.85766,51.42897],[-0.85638,51.4302],[-0.85432,51.43138],[-0.85226,51.43229],[-0.85522,51.43429],[-0.85715,51.43617],[-0.85951,51.43809],[-0.86341,51.4409],[-0.86432,51.44267],[-0.86522,51.44475],[-0.86543,51.44556],[-0.8647,51.44628],[-0.86603,51.44628],[-0.86891,51.44721],[-0.87255,51.44826],[-0.87444,51.44954],[-0.87629,51.45002],[-0.87534,51.46681],[-0.87869,51.46826],[-0.88049,51.46992],[-0.88367,51.4716],[-0.88689,51.47513],[-0.88745,51.47502],[-0.8871,51.47521],[-0.8865,51.47513],[-0.8862,51.47465],[-0.88449,51.4728],[-0.88388,51.47203],[-0.88298,51.47139],[-0.88217,51.47101],[-0.87985,51.47203],[-0.87921,51.47256],[-0.87921,51.47347],[-0.87801,51.47465],[-0.87672,51.47483],[-0.87659,51.4758],[-0.87672,51.47625],[-0.87826,51.47681],[-0.87938,51.47785],[-0.88109,51.47879],[-0.88161,51.47943],[-0.88307,51.48021],[-0.88406,51.48208],[-0.885,51.48283],[-0.88697,51.48395],[-0.89049,51.48387],[-0.892,51.48363],[-0.89298,51.48328],[-0.89474,51.48304],[-0.89594,51.48248],[-0.90174,51.48039],[-0.90753,51.47802],[-0.90933,51.47745],[-0.91023,51.47697],[-0.91118,51.47636],[-0.91332,51.47574],[-0.91405,51.47505],[-0.9156,51.47422],[-0.91684,51.47393],[-0.91925,51.47184],[-0.92028,51.47128],[-0.92032,51.47037],[-0.92092,51.46925],[-0.92139,51.46853],[-0.92272,51.46711],[-0.92513,51.46684],[-0.92766,51.46716],[-0.92916,51.46762],[-0.93045,51.46746],[-0.93139,51.46655],[-0.93225,51.46561],[-0.9353,51.46417],[-0.93603,51.46342],[-0.93877,51.46176],[-0.94002,51.46112],[-0.94105,51.46067],[-0.94242,51.46018],[-0.94221,51.45968],[-0.94178,51.45922],[-0.94126,51.45853],[-0.94083,51.45764],[-0.94019,51.45698],[-0.939976,51.4571]]]},"properties":{"code":"K81051","name":"WOODLEY PRACTICE","icb":"S0E4D"}}]}