{"type":"FeatureCollection","features":[{"type":"Feature","geometry":{"type":"Polygon","coordinates":[[[-0.64167,51.53374],[-0.64819,51.53352],[-0.65472,51.53117],[-0.66158,51.53053],[-0.67429,51.52754],[-0.67772,51.52498],[-0.67703,51.52306],[-0.67892,51.52145],[-0.67978,51.51964],[-0.67566,51.50949],[-0.65746,51.51109],[-0.63583,51.50607],[-0.61661,51.50233],[-0.59361,51.49998],[-0.57816,51.48929],[-0.56494,51.48833],[-0.55721,51.48908],[-0.531279,51.492716],[-0.526939,51.510052],[-0.568499,51.515879],[-0.57129,51.52647],[-0.57678,51.5316],[-0.58777,51.53566],[-0.60322,51.53758],[-0.61935,51.53779],[-0.64167,51.53374]]]},"properties":{"code":"K81083","name":"BHARANI MEDICAL CENTRE","icb":"S0E4D"}}]}