{"type":"FeatureCollection","features":[{"type":"Feature","geometry":{"type":"Polygon","coordinates":[[[-1.08696,51.4693],[-1.11262,51.46837],[-1.13142,51.45909],[-1.16867,51.44352],[-1.17717,51.4233],[-1.17754,51.41893],[-1.17414,51.41372],[-1.16593,51.41192],[-1.1591,51.40884],[-1.15374,51.39974],[-1.14635,51.38978],[-1.11889,51.39599],[-1.08593,51.39599],[-1.05194,51.40863],[-1.031,51.41934],[-1.01864,51.44293],[-1.04885,51.46716],[-1.08696,51.4693]]]},"properties":{"code":"K81077","name":"THEALE MEDICAL CENTRE","icb":"S0E4D"}}]}