{"type":"FeatureCollection","features":[{"type":"Feature","geometry":{"type":"Polygon","coordinates":[[[-0.596729,51.406677],[-0.596919,51.406746],[-0.59702,51.40684],[-0.599043,51.407513],[-0.60035,51.40829],[-0.601659,51.408544],[-0.60206,51.40874],[-0.602596,51.408726],[-0.6037,51.40894],[-0.60833,51.40868],[-0.61195,51.40876],[-0.617754,51.408028],[-0.618534,51.408122],[-0.619322,51.40827],[-0.623003,51.409114],[-0.623465,51.40915],[-0.623873,51.409139],[-0.62435,51.409083],[-0.62506,51.408943],[-0.625415,51.408786],[-0.626566,51.40768],[-0.627105,51.407241],[-0.627342,51.407125],[-0.627742,51.407055],[-0.62862,51.40707],[-0.629665,51.407175],[-0.631788,51.407325],[-0.633407,51.40704],[-0.634692,51.406916],[-0.637939,51.406555],[-0.637874,51.406726],[-0.637709,51.406929],[-0.637385,51.40731],[-0.637223,51.407698],[-0.637259,51.408165],[-0.637335,51.408396],[-0.637501,51.408705],[-0.63778,51.409102],[-0.638305,51.409819],[-0.639108,51.410963],[-0.639127,51.411173],[-0.639167,51.411636],[-0.639173,51.411863],[-0.639157,51.412465],[-0.639085,51.412779],[-0.639077,51.413082],[-0.639182,51.413278],[-0.639552,51.413686],[-0.640334,51.414341],[-0.641227,51.415088],[-0.641417,51.415266],[-0.641591,51.415538],[-0.641656,51.415781],[-0.641781,51.416244],[-0.642057,51.416984],[-0.642274,51.417638],[-0.642255,51.417751],[-0.641831,51.41841],[-0.641553,51.419184],[-0.641343,51.420059],[-0.641251,51.420593],[-0.641323,51.423366],[-0.6422,51.424185],[-0.643064,51.425139],[-0.643517,51.425851],[-0.644001,51.426307],[-0.64432,51.426513],[-0.64506,51.42678],[-0.649429,51.427781],[-0.650037,51.42796],[-0.650435,51.428154],[-0.650853,51.428423],[-0.651017,51.428545],[-0.651168,51.428686],[-0.651451,51.428998],[-0.651987,51.429731],[-0.652889,51.431096],[-0.653302,51.431868],[-0.653594,51.432744],[-0.653745,51.433632],[-0.654273,51.433637],[-0.654799,51.433643],[-0.656213,51.433658],[-0.657354,51.433588],[-0.658459,51.433502],[-0.659093,51.433621],[-0.660281,51.433762],[-0.661158,51.433744],[-0.661999,51.433855],[-0.66433,51.43432],[-0.666357,51.4347],[-0.668248,51.434925],[-0.672504,51.435482],[-0.67336,51.43429],[-0.674265,51.433173],[-0.675261,51.432291],[-0.677481,51.430325],[-0.682929,51.428691],[-0.68532,51.42827],[-0.687422,51.428276],[-0.68937,51.42854],[-0.69148,51.42884],[-0.694017,51.429323],[-0.6962,51.429705],[-0.698755,51.429988],[-0.700163,51.430414],[-0.70413,51.42634],[-0.70742,51.42271],[-0.71042,51.42019],[-0.71407,51.41736],[-0.71967,51.4124],[-0.70793,51.41195],[-0.70613,51.40654],[-0.70621,51.40344],[-0.7039,51.39353],[-0.70227,51.38587],[-0.70081,51.37725],[-0.6999,51.37605],[-0.69752,51.37497],[-0.69458,51.37408],[-0.69172,51.37287],[-0.68738,51.37023],[-0.68719,51.36775],[-0.68529,51.36302],[-0.68294,51.35774],[-0.68172,51.35665],[-0.67978,51.35635],[-0.67399,51.35822],[-0.66729,51.35908],[-0.66008,51.35865],[-0.65766,51.3587],[-0.65466,51.35909],[-0.65227,51.3597],[-0.64563,51.36203],[-0.63942,51.36485],[-0.63363,51.36709],[-0.62725,51.36835],[-0.61523,51.37189],[-0.60373,51.37516],[-0.59369,51.37931],[-0.58815,51.38299],[-0.58391,51.38507],[-0.57897,51.38642],[-0.57818,51.38691],[-0.57773,51.38761],[-0.5767,51.38848],[-0.57592,51.38946],[-0.57404,51.39208],[-0.57507,51.39364],[-0.57698,51.39518],[-0.57942,51.39631],[-0.58138,51.39837],[-0.58183,51.39958],[-0.5815,51.4008],[-0.57861,51.40591],[-0.57948,51.40643],[-0.5829,51.4075],[-0.58447,51.40787],[-0.59088,51.40874],[-0.59201,51.408829],[-0.59191,51.40887],[-0.59245,51.40881],[-0.59301,51.408438],[-0.59421,51.40791],[-0.595056,51.407239],[-0.596387,51.406576],[-0.596729,51.406677]]]},"properties":{"code":"K81010","name":"KINGS CORNER SURGERY","icb":"S0E4D"}}]}