{"type":"FeatureCollection","features":[{"type":"Feature","geometry":{"type":"Polygon","coordinates":[[[-0.8547,51.43084],[-0.86268,51.42669],[-0.86698,51.42524],[-0.87157,51.42431],[-0.876,51.42409],[-0.88175,51.42437],[-0.88449,51.42292],[-0.88348,51.41962],[-0.88251,51.41787],[-0.88086,51.41665],[-0.87517,51.41144],[-0.87473,51.40798],[-0.8755,51.40452],[-0.87592,51.40106],[-0.87719,51.3976],[-0.84766,51.38809],[-0.84045,51.38943],[-0.83183,51.39094],[-0.81391,51.39317],[-0.81329,51.39351],[-0.81203,51.39377],[-0.81141,51.39404],[-0.809,51.39563],[-0.805,51.39849],[-0.7996,51.40154],[-0.79905,51.4018],[-0.79743,51.4041],[-0.79843,51.40821],[-0.79222,51.40954],[-0.79426,51.41014],[-0.79613,51.41105],[-0.79891,51.41301],[-0.80237,51.41497],[-0.80608,51.41648],[-0.80972,51.41836],[-0.81446,51.42174],[-0.81729,51.42321],[-0.8188,51.42385],[-0.82119,51.42462],[-0.82603,51.42573],[-0.8308,51.42627],[-0.83565,51.42675],[-0.84026,51.42752],[-0.84487,51.42849],[-0.8547,51.43084]]]},"properties":{"code":"K81022","name":"WOKINGHAM MEDICAL CENTRE","icb":"S0E4D"}}]}