{"type":"FeatureCollection","features":[{"type":"Feature","geometry":{"type":"Polygon","coordinates":[[[-0.73385,51.39107],[-0.730565,51.392654],[-0.728681,51.393563],[-0.72785,51.394805],[-0.72755,51.396289],[-0.726792,51.397421],[-0.725554,51.398546],[-0.724156,51.399653],[-0.721235,51.404689],[-0.721095,51.405629],[-0.720922,51.406791],[-0.723054,51.408511],[-0.721477,51.408338],[-0.720158,51.408722],[-0.719422,51.409305],[-0.719268,51.410069],[-0.71897,51.411543],[-0.719678,51.412504],[-0.727269,51.412884],[-0.731585,51.41322],[-0.733848,51.412559],[-0.738878,51.41086],[-0.744496,51.410363],[-0.749417,51.408701],[-0.751417,51.408773],[-0.753284,51.409783],[-0.756544,51.411401],[-0.761115,51.413479],[-0.768282,51.413608],[-0.772105,51.413329],[-0.775165,51.412744],[-0.787754,51.409956],[-0.786258,51.409276],[-0.785576,51.408937],[-0.784213,51.409239],[-0.780621,51.409828],[-0.776347,51.40907],[-0.767676,51.408316],[-0.769062,51.406246],[-0.770144,51.404063],[-0.778626,51.402998],[-0.779283,51.402477],[-0.779375,51.401862],[-0.776505,51.399545],[-0.774151,51.396779],[-0.772885,51.393678],[-0.768917,51.39153],[-0.771875,51.387109],[-0.762063,51.388152],[-0.755556,51.386833],[-0.743857,51.387687],[-0.735628,51.390469],[-0.73385,51.39107]]]},"properties":{"code":"K81656","name":"CROWN WOOD MEDICAL CENTRE","icb":"S0E4D"}}]}