{"type":"FeatureCollection","features":[{"type":"Feature","geometry":{"type":"Polygon","coordinates":[[[-0.64167,51.46577],[-0.634823,51.469717],[-0.61266,51.46631],[-0.6112,51.4655],[-0.60923,51.46636],[-0.610216,51.46769],[-0.610203,51.467805],[-0.606203,51.471214],[-0.60614,51.47107],[-0.60442,51.46968],[-0.60099,51.4685],[-0.600782,51.468493],[-0.58863,51.4654],[-0.58751,51.46609],[-0.588381,51.468446],[-0.588276,51.468586],[-0.58476,51.47149],[-0.585166,51.473292],[-0.58073,51.47908],[-0.582029,51.480701],[-0.582392,51.481778],[-0.581871,51.482463],[-0.57979,51.48387],[-0.581411,51.484531],[-0.581498,51.484633],[-0.58133,51.49116],[-0.581783,51.491445],[-0.59013,51.49958],[-0.59163,51.50019],[-0.599978,51.501112],[-0.60013,51.50116],[-0.60835,51.500841],[-0.615902,51.501578],[-0.6288,51.50458],[-0.633813,51.50308],[-0.644398,51.50319],[-0.65695,51.50522],[-0.6621,51.49539],[-0.658587,51.492819],[-0.658551,51.492703],[-0.65866,51.4925],[-0.650934,51.488838],[-0.650892,51.488656],[-0.653654,51.4863],[-0.653977,51.486281],[-0.65502,51.48689],[-0.65712,51.48697],[-0.66072,51.48694],[-0.66347,51.48448],[-0.663985,51.480248],[-0.66605,51.47871],[-0.66244,51.47262],[-0.641526,51.466151],[-0.641452,51.465941],[-0.64167,51.46577]]]},"properties":{"code":"K81630","name":"SOUTH MEADOW SURGERY","icb":"S0E4D"}}]}