{"type":"FeatureCollection","features":[{"type":"Feature","geometry":{"type":"Polygon","coordinates":[[[-0.7766,52.07486],[-0.78775,52.07961],[-0.8456,52.06336],[-0.80338,52.04774],[-0.793505,52.04415],[-0.788698,52.042039],[-0.787413,52.0413],[-0.782606,52.043834],[-0.778484,52.046156],[-0.762177,52.052227],[-0.754709,52.054391],[-0.751019,52.049324],[-0.738659,52.053018],[-0.715656,52.057715],[-0.713768,52.061093],[-0.715656,52.06447],[-0.720205,52.066053],[-0.735569,52.065631],[-0.730076,52.072543],[-0.7505,52.08267],[-0.7766,52.07486]]]},"properties":{"code":"K82032","name":"OAKRIDGE PARK MEDICAL CENTRE","icb":"S1Y5D"}}]}