{"type":"FeatureCollection","features":[{"type":"Feature","geometry":{"type":"Polygon","coordinates":[[[-0.726571,51.649274],[-0.726926,51.649298],[-0.727259,51.650604],[-0.729363,51.650282],[-0.731048,51.649416],[-0.732549,51.648292],[-0.734131,51.649018],[-0.736943,51.649742],[-0.741809,51.65039],[-0.749245,51.65022],[-0.750583,51.646941],[-0.755259,51.646326],[-0.75605,51.64638],[-0.756616,51.646418],[-0.757271,51.646272],[-0.757734,51.646034],[-0.758112,51.64667],[-0.757985,51.647412],[-0.757718,51.648972],[-0.757875,51.650217],[-0.758815,51.650106],[-0.760233,51.651393],[-0.759227,51.653406],[-0.760664,51.653762],[-0.761836,51.653679],[-0.762638,51.653467],[-0.763968,51.656444],[-0.767092,51.657615],[-0.767442,51.657143],[-0.769313,51.6571],[-0.769453,51.657336],[-0.771969,51.657039],[-0.772544,51.657502],[-0.774008,51.656585],[-0.774465,51.657608],[-0.775141,51.658495],[-0.777256,51.658777],[-0.779365,51.661881],[-0.782083,51.662661],[-0.784587,51.663686],[-0.785143,51.663063],[-0.787159,51.663518],[-0.791047,51.663533],[-0.793187,51.663916],[-0.793051,51.66471],[-0.794403,51.664799],[-0.795821,51.663911],[-0.795205,51.66355],[-0.795481,51.663177],[-0.796056,51.663356],[-0.79944,51.660528],[-0.798104,51.659632],[-0.797993,51.658756],[-0.798852,51.658392],[-0.797469,51.654616],[-0.795065,51.655154],[-0.794093,51.654781],[-0.795471,51.64916],[-0.793334,51.646014],[-0.795995,51.64518],[-0.796157,51.644236],[-0.791102,51.640849],[-0.788179,51.640009],[-0.789723,51.63692],[-0.793039,51.636414],[-0.793471,51.635092],[-0.795926,51.634323],[-0.798003,51.634077],[-0.801939,51.635053],[-0.802732,51.634997],[-0.807008,51.636748],[-0.808255,51.636719],[-0.808557,51.637229],[-0.812286,51.635649],[-0.812647,51.637067],[-0.813647,51.636949],[-0.81463,51.637686],[-0.816323,51.637692],[-0.817653,51.637009],[-0.817343,51.636551],[-0.816623,51.636275],[-0.814925,51.636],[-0.81601,51.633828],[-0.816206,51.632686],[-0.817712,51.631912],[-0.814671,51.631506],[-0.814852,51.630982],[-0.812844,51.630528],[-0.810868,51.630082],[-0.812449,51.628308],[-0.809034,51.626739],[-0.809572,51.626279],[-0.810318,51.625641],[-0.809055,51.62378],[-0.808522,51.623562],[-0.807086,51.621919],[-0.804365,51.622529],[-0.802978,51.623689],[-0.799631,51.625108],[-0.799565,51.622389],[-0.79848,51.621514],[-0.799142,51.620188],[-0.806837,51.61677],[-0.79406,51.61131],[-0.78629,51.60992],[-0.76801,51.61269],[-0.74913,51.61492],[-0.73836,51.61156],[-0.736465,51.611132],[-0.726588,51.61423],[-0.723499,51.612964],[-0.722159,51.610702],[-0.721256,51.611564],[-0.719731,51.61221],[-0.71857,51.612938],[-0.717682,51.614139],[-0.717441,51.614369],[-0.716366,51.613875],[-0.716844,51.612703],[-0.719392,51.610797],[-0.716848,51.610623],[-0.714349,51.610289],[-0.711395,51.609556],[-0.708752,51.608543],[-0.70572,51.606766],[-0.704304,51.605816],[-0.70264,51.60496],[-0.701216,51.606028],[-0.701797,51.606369],[-0.700965,51.606797],[-0.703272,51.608657],[-0.704009,51.609152],[-0.704376,51.609771],[-0.70548,51.610512],[-0.704508,51.610924],[-0.703048,51.61184],[-0.703569,51.61216],[-0.701365,51.614047],[-0.702105,51.614773],[-0.70165,51.615518],[-0.702177,51.616035],[-0.701653,51.61732],[-0.699544,51.617879],[-0.698627,51.618754],[-0.697965,51.618801],[-0.697135,51.620836],[-0.70143,51.621074],[-0.703967,51.621647],[-0.703761,51.62285],[-0.70393,51.624191],[-0.704088,51.625439],[-0.702544,51.625548],[-0.702374,51.625964],[-0.702498,51.626942],[-0.702302,51.628089],[-0.701231,51.630232],[-0.702845,51.630736],[-0.70404,51.631032],[-0.706705,51.631693],[-0.705935,51.632555],[-0.705779,51.633471],[-0.706715,51.63402],[-0.711892,51.63581],[-0.71797,51.64276],[-0.72514,51.643924],[-0.726118,51.644372],[-0.726873,51.644938],[-0.727368,51.646289],[-0.727477,51.647156],[-0.726405,51.647958],[-0.726571,51.649274]]]},"properties":{"code":"K82053","name":"PRIORY SURGERY","icb":"S0E4D"}}]}