{"type":"FeatureCollection","features":[{"type":"Feature","geometry":{"type":"Polygon","coordinates":[[[-0.749024,52.047817],[-0.747963,52.046352],[-0.743863,52.042095],[-0.743926,52.041921],[-0.744494,52.041685],[-0.7449,52.04185],[-0.74484,52.04204],[-0.747963,52.046352],[-0.7493,52.04774],[-0.749024,52.047817],[-0.753753,52.054344],[-0.766334,52.049551],[-0.764008,52.044221],[-0.77402,52.03929],[-0.76578,52.03201],[-0.765617,52.031964],[-0.74535,52.01637],[-0.73986,52.01278],[-0.755388,52.036159],[-0.754721,52.036331],[-0.7378,52.01194],[-0.720561,52.014147],[-0.720386,52.014115],[-0.71085,52.00834],[-0.69454,52.01268],[-0.68459,52.01828],[-0.672618,52.025805],[-0.679374,52.032837],[-0.691257,52.033648],[-0.691033,52.033796],[-0.67944,52.03359],[-0.68029,52.04331],[-0.677003,52.049873],[-0.679385,52.050326],[-0.683553,52.051606],[-0.694683,52.056058],[-0.70124,52.05534],[-0.700924,52.054243],[-0.70621,52.04837],[-0.704594,52.047109],[-0.705095,52.046826],[-0.70793,52.04848],[-0.719083,52.044237],[-0.719346,52.044261],[-0.7239,52.04742],[-0.732543,52.045065],[-0.732891,52.045246],[-0.73282,52.04542],[-0.73523,52.04753],[-0.7402,52.05027],[-0.749024,52.047817]]]},"properties":{"code":"K82054","name":"ASHFIELD MEDICAL CENTRE","icb":"S1Y5D"}}]}