{"type":"FeatureCollection","features":[{"type":"Feature","geometry":{"type":"Polygon","coordinates":[[[-0.76818,51.63251],[-0.772299,51.625956],[-0.771097,51.626063],[-0.768265,51.623612],[-0.766721,51.618869],[-0.768951,51.613913],[-0.759255,51.61402],[-0.746899,51.615352],[-0.73572,51.61768],[-0.732,51.61714],[-0.72828,51.61729],[-0.72225,51.61673],[-0.71304,51.61317],[-0.70968,51.61362],[-0.70804,51.61644],[-0.70544,51.62183],[-0.7036,51.62344],[-0.70295,51.62537],[-0.70467,51.63176],[-0.70716,51.63408],[-0.70896,51.63544],[-0.71445,51.63912],[-0.72166,51.64444],[-0.72269,51.64679],[-0.73746,51.64902],[-0.741448,51.648649],[-0.743938,51.648383],[-0.75119,51.648276],[-0.76213,51.647877],[-0.765863,51.647051],[-0.772471,51.644495],[-0.777791,51.640873],[-0.76484,51.635706],[-0.76818,51.63251]]]},"properties":{"code":"K82022","name":"KINGSWOOD SURGERY","icb":"S0E4D"}}]}