{"type":"FeatureCollection","features":[{"type":"Feature","geometry":{"type":"Polygon","coordinates":[[[-0.826291,51.811958],[-0.823109,51.81355],[-0.820627,51.81424],[-0.818739,51.814452],[-0.816765,51.815195],[-0.814791,51.814823],[-0.810581,51.818272],[-0.807321,51.824373],[-0.809126,51.825381],[-0.81436,51.823525],[-0.817108,51.824055],[-0.818394,51.823949],[-0.820025,51.825063],[-0.822258,51.822039],[-0.825608,51.822782],[-0.826292,51.821562],[-0.825777,51.820288],[-0.827065,51.819545],[-0.828271,51.818591],[-0.831785,51.819917],[-0.833073,51.819068],[-0.834189,51.818484],[-0.835733,51.818325],[-0.838911,51.819333],[-0.845266,51.82257],[-0.867877,51.816921],[-0.87729,51.80511],[-0.87683,51.80167],[-0.87497,51.80052],[-0.861303,51.797625],[-0.85484,51.79491],[-0.852955,51.796303],[-0.85003,51.79811],[-0.848404,51.79948],[-0.848056,51.799489],[-0.84175,51.79502],[-0.839594,51.796333],[-0.83601,51.7982],[-0.842751,51.80159],[-0.842747,51.801807],[-0.838843,51.803679],[-0.8349,51.80543],[-0.831849,51.806927],[-0.829811,51.805802],[-0.827751,51.805749],[-0.827065,51.806917],[-0.824661,51.808084],[-0.825605,51.809199],[-0.824148,51.810048],[-0.826291,51.811958]]]},"properties":{"code":"K82040","name":"WHITEHILL SURGERY","icb":"S0E4D"}}]}