{"type":"FeatureCollection","features":[{"type":"Feature","geometry":{"type":"Polygon","coordinates":[[[-0.97332,51.988253],[-1.025763,51.987732],[-1.037779,51.964575],[-0.968685,51.88539],[-0.922337,51.87262],[-0.920105,51.849827],[-0.87204,51.834396],[-0.860882,51.845055],[-0.851784,51.845161],[-0.764837,51.843412],[-0.656605,51.843621],[-0.681152,51.899901],[-0.676174,51.925632],[-0.659695,51.941932],[-0.681152,51.971024],[-0.771275,51.967111],[-0.82037,52.004641],[-0.92268,52.000836],[-0.97332,51.988253]]]},"properties":{"code":"K82070","name":"3W HEALTH","icb":"S0E4D"}}]}