{"type":"FeatureCollection","features":[{"type":"Feature","geometry":{"type":"Polygon","coordinates":[[[-0.62073,51.6308],[-0.5979,51.62931],[-0.57901,51.62963],[-0.57189,51.63118],[-0.56442,51.63464],[-0.54245,51.65126],[-0.53902,51.66957],[-0.53902,51.67596],[-0.55756,51.68065],[-0.58708,51.69427],[-0.61455,51.70703],[-0.62296,51.71118],[-0.63377,51.71331],[-0.65575,51.71512],[-0.67497,51.71554],[-0.68716,51.71299],[-0.69626,51.7115],[-0.70982,51.7115],[-0.72055,51.70682],[-0.72784,51.70108],[-0.72853,51.68575],[-0.72681,51.6618],[-0.71634,51.65009],[-0.69952,51.64689],[-0.68441,51.63347],[-0.65686,51.63096],[-0.62073,51.6308]]]},"properties":{"code":"K82001","name":"RECTORY MEADOW SURGERY","icb":"S0E4D"}}]}