{"type":"FeatureCollection","features":[{"type":"Feature","geometry":{"type":"Polygon","coordinates":[[[-0.823646,52.065305],[-0.836243,52.060594],[-0.85144,52.05629],[-0.842287,52.050993],[-0.844718,52.044328],[-0.837046,52.042334],[-0.832455,52.04131],[-0.80475,52.03898],[-0.78655,52.04858],[-0.775841,52.048835],[-0.778252,52.049441],[-0.780692,52.050053],[-0.785601,52.051285],[-0.77866,52.05998],[-0.77024,52.06611],[-0.78106,52.06716],[-0.79445,52.07951],[-0.81694,52.06611],[-0.820261,52.06603],[-0.823646,52.065305]]]},"properties":{"code":"K82003","name":"WOLVERTON HEALTH CENTRE","icb":"S1Y5D"}}]}