{"type":"FeatureCollection","features":[{"type":"Feature","geometry":{"type":"Polygon","coordinates":[[[-0.868309,51.655718],[-0.86929,51.65637],[-0.882195,51.635373],[-0.891664,51.633585],[-0.899744,51.630772],[-0.913925,51.625265],[-0.94551,51.6193],[-0.94139,51.614503],[-0.93933,51.612105],[-0.943264,51.608697],[-0.942226,51.60494],[-0.935726,51.602449],[-0.932417,51.60242],[-0.929218,51.604443],[-0.923333,51.604392],[-0.917015,51.599895],[-0.912786,51.598826],[-0.915156,51.596915],[-0.915599,51.594654],[-0.92182,51.590081],[-0.934949,51.587599],[-0.939863,51.584912],[-0.93864,51.58048],[-0.932165,51.570239],[-0.921058,51.564036],[-0.910996,51.560961],[-0.906459,51.557729],[-0.89195,51.55146],[-0.885361,51.558851],[-0.87479,51.56085],[-0.866231,51.555356],[-0.863324,51.549962],[-0.856137,51.548875],[-0.834275,51.543343],[-0.79376,51.52583],[-0.758271,51.554381],[-0.759101,51.555929],[-0.75655,51.556214],[-0.754959,51.558796],[-0.752547,51.562709],[-0.749684,51.564273],[-0.746067,51.566241],[-0.742001,51.5688],[-0.741957,51.569543],[-0.740919,51.571912],[-0.737606,51.573721],[-0.72881,51.576771],[-0.72108,51.577912],[-0.715873,51.577116],[-0.711914,51.571713],[-0.711288,51.567945],[-0.712162,51.565953],[-0.711872,51.565023],[-0.709316,51.563375],[-0.705475,51.562337],[-0.70481,51.562492],[-0.703895,51.562664],[-0.703173,51.563125],[-0.702887,51.563589],[-0.702654,51.56423],[-0.702227,51.565168],[-0.701498,51.565634],[-0.700316,51.566043],[-0.699656,51.566572],[-0.699282,51.566746],[-0.698385,51.567161],[-0.69768,51.567677],[-0.697246,51.568052],[-0.69746,51.568681],[-0.697528,51.568931],[-0.697567,51.569204],[-0.697657,51.569749],[-0.697659,51.570051],[-0.697791,51.57033],[-0.697983,51.570896],[-0.698087,51.571203],[-0.698198,51.571511],[-0.698245,51.57172],[-0.698318,51.571964],[-0.698364,51.572117],[-0.69853,51.572427],[-0.698581,51.572658],[-0.698526,51.572838],[-0.698276,51.572724],[-0.698027,51.572611],[-0.697794,51.572575],[-0.697308,51.572517],[-0.697053,51.572472],[-0.696794,51.572402],[-0.696612,51.572343],[-0.696194,51.572114],[-0.695969,51.571693],[-0.6957,51.571642],[-0.694846,51.571951],[-0.694506,51.572082],[-0.694246,51.572224],[-0.693933,51.572421],[-0.693608,51.572552],[-0.693128,51.572698],[-0.692978,51.572792],[-0.692747,51.572938],[-0.692263,51.573201],[-0.691662,51.573516],[-0.691251,51.573598],[-0.691022,51.573579],[-0.690106,51.573297],[-0.689871,51.57333],[-0.688622,51.573434],[-0.688256,51.573488],[-0.687882,51.573484],[-0.687457,51.573321],[-0.686783,51.573113],[-0.686436,51.573092],[-0.685988,51.573141],[-0.685772,51.573255],[-0.683635,51.573554],[-0.68327,51.573754],[-0.682958,51.57395],[-0.682667,51.574163],[-0.682505,51.574266],[-0.682152,51.574458],[-0.681582,51.574727],[-0.680587,51.575188],[-0.68015,51.57539],[-0.678889,51.576328],[-0.678529,51.576577],[-0.678449,51.576633],[-0.677924,51.576814],[-0.677796,51.576873],[-0.677567,51.576898],[-0.67735,51.576948],[-0.677136,51.576988],[-0.676877,51.57701],[-0.676628,51.577066],[-0.676385,51.577222],[-0.676185,51.577347],[-0.67602,51.577461],[-0.675789,51.577621],[-0.675571,51.577788],[-0.675303,51.578065],[-0.674665,51.578819],[-0.674152,51.579426],[-0.673608,51.580055],[-0.673381,51.580388],[-0.672754,51.581244],[-0.672496,51.581681],[-0.672469,51.581897],[-0.673044,51.582683],[-0.673229,51.582979],[-0.673648,51.583506],[-0.673692,51.583895],[-0.673693,51.584125],[-0.672889,51.584927],[-0.672357,51.585166],[-0.671335,51.585519],[-0.670623,51.585736],[-0.670132,51.586005],[-0.669751,51.586444],[-0.66953,51.586818],[-0.669546,51.58696],[-0.669506,51.587282],[-0.669231,51.587907],[-0.668879,51.588324],[-0.668239,51.588814],[-0.667943,51.589118],[-0.667042,51.590852],[-0.667042,51.591025],[-0.667403,51.592361],[-0.667531,51.592737],[-0.667512,51.593028],[-0.666941,51.594328],[-0.666494,51.595344],[-0.665903,51.596043],[-0.665595,51.596458],[-0.665413,51.597054],[-0.665493,51.597775],[-0.663217,51.597873],[-0.658871,51.598062],[-0.658792,51.599333],[-0.658225,51.600622],[-0.657579,51.601863],[-0.657765,51.602346],[-0.657851,51.602545],[-0.657922,51.60281],[-0.657935,51.6029],[-0.657655,51.603205],[-0.657257,51.603648],[-0.656519,51.604213],[-0.65592,51.604664],[-0.655289,51.605066],[-0.654918,51.60526],[-0.654143,51.605609],[-0.653473,51.60588],[-0.6528,51.606084],[-0.651533,51.606262],[-0.65095,51.606343],[-0.650302,51.606465],[-0.650025,51.606495],[-0.649494,51.606679],[-0.648744,51.607072],[-0.648133,51.607405],[-0.647411,51.607729],[-0.646864,51.608108],[-0.646621,51.608435],[-0.646563,51.608614],[-0.646521,51.608955],[-0.646487,51.609234],[-0.646352,51.609492],[-0.646172,51.609784],[-0.64547,51.610348],[-0.645611,51.610501],[-0.645886,51.610824],[-0.646421,51.611365],[-0.646672,51.611391],[-0.65773,51.611198],[-0.660662,51.610955],[-0.663969,51.61047],[-0.677378,51.607443],[-0.680848,51.607403],[-0.680624,51.608534],[-0.682537,51.608512],[-0.683603,51.607325],[-0.688378,51.607655],[-0.69268,51.608687],[-0.693573,51.60898],[-0.692894,51.609715],[-0.692361,51.610084],[-0.691051,51.610771],[-0.69039,51.611132],[-0.689946,51.611882],[-0.68995,51.612537],[-0.691828,51.613283],[-0.692751,51.613504],[-0.693877,51.613425],[-0.696044,51.612765],[-0.696248,51.613519],[-0.696919,51.614434],[-0.698601,51.61473],[-0.699496,51.615219],[-0.699498,51.61559],[-0.699734,51.616284],[-0.699645,51.617018],[-0.698839,51.617575],[-0.701145,51.618491],[-0.702657,51.619092],[-0.703173,51.61919],[-0.703796,51.61946],[-0.704591,51.619767],[-0.705815,51.618998],[-0.7065,51.618188],[-0.706598,51.617375],[-0.705776,51.616861],[-0.706156,51.616555],[-0.707322,51.616282],[-0.708026,51.616786],[-0.710855,51.618331],[-0.709326,51.619855],[-0.710794,51.620492],[-0.712547,51.619279],[-0.71435,51.620289],[-0.715422,51.620777],[-0.714429,51.621401],[-0.712363,51.622357],[-0.711987,51.622433],[-0.711355,51.622681],[-0.710805,51.622969],[-0.710245,51.623189],[-0.708982,51.624447],[-0.708076,51.62552],[-0.708083,51.626713],[-0.708844,51.626765],[-0.710193,51.626669],[-0.710907,51.626536],[-0.71213,51.626549],[-0.713194,51.626819],[-0.711629,51.626956],[-0.710954,51.62731],[-0.710587,51.627676],[-0.709935,51.628216],[-0.709399,51.629216],[-0.70877,51.630233],[-0.708112,51.631346],[-0.70765,51.632208],[-0.707298,51.632535],[-0.707254,51.632763],[-0.707255,51.63294],[-0.708457,51.63331],[-0.709048,51.633536],[-0.709476,51.633566],[-0.710449,51.634111],[-0.71118,51.634635],[-0.712571,51.634799],[-0.713542,51.635171],[-0.714318,51.635508],[-0.715402,51.636002],[-0.715802,51.636287],[-0.716397,51.6364],[-0.716812,51.636317],[-0.717456,51.635968],[-0.718114,51.635348],[-0.71831,51.635031],[-0.718263,51.634819],[-0.718209,51.634693],[-0.717934,51.634319],[-0.717431,51.633812],[-0.717287,51.633709],[-0.717033,51.633469],[-0.716848,51.633284],[-0.716607,51.633133],[-0.716099,51.632794],[-0.715749,51.632728],[-0.715288,51.632586],[-0.715046,51.632493],[-0.714756,51.632423],[-0.714504,51.632376],[-0.714227,51.632353],[-0.71397,51.63236],[-0.713536,51.632375],[-0.713096,51.632422],[-0.712678,51.632458],[-0.712352,51.632506],[-0.711916,51.632555],[-0.711624,51.632525],[-0.711492,51.632484],[-0.71139,51.632411],[-0.711275,51.632276],[-0.711274,51.632122],[-0.71139,51.631802],[-0.711598,51.631413],[-0.711867,51.63105],[-0.712298,51.631094],[-0.712369,51.631411],[-0.712487,51.631599],[-0.712616,51.631901],[-0.712836,51.631996],[-0.713162,51.631988],[-0.713521,51.631962],[-0.714121,51.631822],[-0.71427,51.631661],[-0.715035,51.631753],[-0.715455,51.631882],[-0.716297,51.631969],[-0.716554,51.632112],[-0.717641,51.632722],[-0.718402,51.633267],[-0.718706,51.633483],[-0.719307,51.633884],[-0.719455,51.634547],[-0.719303,51.63484],[-0.719361,51.635102],[-0.719288,51.635242],[-0.71977,51.635696],[-0.720529,51.63617],[-0.720989,51.636363],[-0.721177,51.636662],[-0.721074,51.637184],[-0.720799,51.637714],[-0.721441,51.638319],[-0.721446,51.639098],[-0.721417,51.639338],[-0.722118,51.639345],[-0.722563,51.637934],[-0.722721,51.637415],[-0.722953,51.636656],[-0.723064,51.636169],[-0.723376,51.635747],[-0.72388,51.634932],[-0.724104,51.634208],[-0.724171,51.633656],[-0.724036,51.63316],[-0.723682,51.632745],[-0.723402,51.632298],[-0.722596,51.630213],[-0.722591,51.629534],[-0.722796,51.62897],[-0.723133,51.627492],[-0.723198,51.626957],[-0.723097,51.626507],[-0.722941,51.62593],[-0.722974,51.625764],[-0.723071,51.625606],[-0.723131,51.625439],[-0.72339,51.625113],[-0.72423,51.624276],[-0.725099,51.623247],[-0.725652,51.622843],[-0.726282,51.622625],[-0.727884,51.62279],[-0.729225,51.622956],[-0.730409,51.62318],[-0.731348,51.623469],[-0.731948,51.623805],[-0.733052,51.624423],[-0.73586,51.625285],[-0.738322,51.625949],[-0.740227,51.626238],[-0.741537,51.626468],[-0.74288,51.62681],[-0.744394,51.627393],[-0.746388,51.627171],[-0.749158,51.626762],[-0.750083,51.62675],[-0.751439,51.626762],[-0.753194,51.625251],[-0.756609,51.622293],[-0.759769,51.619667],[-0.761845,51.618149],[-0.761943,51.61765],[-0.763143,51.616025],[-0.763768,51.615483],[-0.764789,51.614736],[-0.766242,51.614232],[-0.767207,51.613707],[-0.7678,51.613333],[-0.767662,51.612827],[-0.767658,51.612136],[-0.767653,51.611446],[-0.769237,51.611462],[-0.780161,51.609846],[-0.786305,51.609899],[-0.791121,51.610626],[-0.80269,51.61205],[-0.803649,51.612689],[-0.792575,51.614781],[-0.785837,51.620213],[-0.785884,51.626547],[-0.78484,51.63187],[-0.80492,51.64615],[-0.811112,51.642768],[-0.817554,51.641474],[-0.824121,51.640738],[-0.832688,51.642032],[-0.840354,51.643967],[-0.847699,51.645352],[-0.856584,51.649183],[-0.868309,51.655718]]]},"properties":{"code":"K82023","name":"MARLOW MEDICAL GROUP","icb":"S0E4D"}}]}