{"type":"FeatureCollection","features":[{"type":"Feature","geometry":{"type":"Polygon","coordinates":[[[-0.629088,51.592754],[-0.62931,51.59344],[-0.64064,51.58512],[-0.65446,51.56933],[-0.6566,51.56768],[-0.65824,51.56251],[-0.65875,51.55194],[-0.66012,51.54527],[-0.65901,51.54174],[-0.65858,51.53694],[-0.65566,51.5348],[-0.65111,51.53528],[-0.64982,51.53598],[-0.64476,51.53651],[-0.64038,51.53737],[-0.63824,51.53747],[-0.63626,51.53811],[-0.63437,51.53785],[-0.63034,51.53908],[-0.62425,51.53785],[-0.61901,51.53795],[-0.611622,51.536778],[-0.6112,51.53544],[-0.5761,51.53411],[-0.57532,51.53924],[-0.56889,51.54922],[-0.56726,51.55301],[-0.56022,51.56128],[-0.55395,51.56352],[-0.57095,51.56774],[-0.5742,51.56896],[-0.57888,51.57181],[-0.57979,51.57307],[-0.58185,51.57494],[-0.58365,51.57638],[-0.58442,51.57754],[-0.58597,51.57894],[-0.58708,51.58011],[-0.58919,51.58198],[-0.59301,51.58234],[-0.59901,51.584],[-0.60232,51.58478],[-0.60579,51.58587],[-0.61,51.58678],[-0.61576,51.58972],[-0.6174,51.58967],[-0.62,51.59086],[-0.629088,51.592754]]]},"properties":{"code":"K82045","name":"SOUTHMEAD SURGERY","icb":"S0E4D"}}]}