{"type":"FeatureCollection","features":[{"type":"Feature","geometry":{"type":"Polygon","coordinates":[[[-1.023807,51.698624],[-0.993789,51.691217],[-0.858361,51.671065],[-0.835255,51.674187],[-0.799189,51.69448],[-0.769065,51.726603],[-0.787873,51.761359],[-0.838464,51.780515],[-0.884446,51.820359],[-0.918532,51.842707],[-1.072719,51.858259],[-1.094901,51.852958],[-1.136767,51.812931],[-1.104054,51.739998],[-1.068595,51.709658],[-1.024414,51.698774],[-1.025505,51.698098],[-1.023807,51.698624]]]},"properties":{"code":"K82047","name":"UNITY HEALTH","icb":"S0E4D"}}]}