{"type":"FeatureCollection","features":[{"type":"Feature","geometry":{"type":"Polygon","coordinates":[[[-0.850668,52.266188],[-0.84407,52.268374],[-0.844617,52.270206],[-0.844388,52.270812],[-0.845905,52.272807],[-0.846372,52.274571],[-0.844488,52.276438],[-0.842721,52.280284],[-0.834638,52.279916],[-0.832675,52.27932],[-0.82753,52.278782],[-0.827443,52.278817],[-0.826862,52.278551],[-0.826968,52.278582],[-0.826228,52.277979],[-0.822389,52.276811],[-0.821722,52.276685],[-0.814859,52.274597],[-0.807998,52.276027],[-0.802652,52.276694],[-0.797775,52.277033],[-0.792936,52.278294],[-0.783752,52.278931],[-0.784563,52.298206],[-0.778911,52.315334],[-0.77915,52.321034],[-0.779802,52.32731],[-0.786431,52.333293],[-0.786013,52.339204],[-0.787774,52.345119],[-0.792818,52.351752],[-0.814018,52.348291],[-0.826979,52.35778],[-0.844145,52.359091],[-0.852127,52.358357],[-0.868006,52.357571],[-0.872984,52.354583],[-0.879078,52.347557],[-0.890493,52.331405],[-0.892982,52.331091],[-0.893669,52.329779],[-0.895214,52.325688],[-0.895901,52.32359],[-0.897274,52.321701],[-0.901608,52.31433],[-0.900064,52.310184],[-0.900986,52.306563],[-0.901523,52.302653],[-0.904076,52.292155],[-0.903969,52.281707],[-0.894914,52.28],[-0.889292,52.278294],[-0.881941,52.276907],[-0.876893,52.277155],[-0.869736,52.27661],[-0.866733,52.275924],[-0.864787,52.269418],[-0.850668,52.266188]]]},"properties":{"code":"K83009","name":"MOULTON SURGERY","icb":"QPM"}}]}