{"type":"FeatureCollection","features":[{"type":"Feature","geometry":{"type":"Polygon","coordinates":[[[-0.63274,52.38252],[-0.645986,52.393537],[-0.69835,52.421472],[-0.702636,52.420749],[-0.7069,52.42022],[-0.71377,52.42106],[-0.72132,52.42127],[-0.727381,52.421022],[-0.729727,52.419846],[-0.74364,52.41331],[-0.75325,52.40849],[-0.78175,52.4043],[-0.74879,52.38985],[-0.74073,52.386743],[-0.736624,52.386606],[-0.73162,52.38293],[-0.72544,52.3756],[-0.71686,52.37266],[-0.711006,52.372189],[-0.70553,52.37287],[-0.69008,52.3735],[-0.67875,52.37623],[-0.66776,52.37916],[-0.66158,52.37895],[-0.63274,52.38252]]]},"properties":{"code":"K83013","name":"ESKDAILL MEDICAL","icb":"QPM"}}]}