{"type":"FeatureCollection","features":[{"type":"Feature","geometry":{"type":"Polygon","coordinates":[[[-0.859824,52.271858],[-0.859792,52.271823],[-0.859771,52.271786],[-0.85976,52.271747],[-0.85976,52.271708],[-0.859772,52.271669],[-0.859794,52.271632],[-0.859827,52.271598],[-0.859869,52.271568],[-0.859919,52.271543],[-0.859975,52.271524],[-0.860036,52.271511],[-0.8601,52.271505],[-0.860164,52.271506],[-0.860227,52.271513],[-0.860287,52.271528],[-0.860342,52.271548],[-0.86586,52.27404],[-0.905,52.25723],[-0.85419,52.24294],[-0.80132,52.24462],[-0.79651,52.26522],[-0.86517,52.27656],[-0.859824,52.271858]]]},"properties":{"code":"K83076","name":"MAYFIELD SURGERY","icb":"QPM"}}]}