{"type":"FeatureCollection","features":[{"type":"Feature","geometry":{"type":"Polygon","coordinates":[[[-1.21665,52.24633],[-1.19305,52.22475],[-1.17193,52.18246],[-1.12988,52.18035],[-1.08799,52.12232],[-1.18275,52.09575],[-1.10413,52.05903],[-1.02808,52.05249],[-0.98362,52.07676],[-0.882,52.07191],[-0.86758,52.09406],[-0.89607,52.11726],[-0.92697,52.19572],[-0.9553,52.2126],[-0.97469,52.23537],[-0.96817,52.2503],[-1.01225,52.26076],[-1.00494,52.28711],[-1.02646,52.28908],[-1.12355,52.26905],[-1.12434,52.25208],[-1.15476,52.23463],[-1.21592,52.25177],[-1.21665,52.24633]]]},"properties":{"code":"K83066","name":"GREENS NORTON & WEEDON MEDICAL PRACTICE","icb":"QPM"}}]}