{"type":"FeatureCollection","features":[{"type":"Feature","geometry":{"type":"MultiPolygon","coordinates":[[[[-0.650934,52.287636],[-0.661316,52.286449],[-0.666963,52.286828],[-0.69032,52.28176],[-0.699646,52.278729],[-0.70589,52.274163],[-0.710941,52.274259],[-0.713703,52.271276],[-0.716369,52.270307],[-0.717808,52.266841],[-0.7416,52.249421],[-0.747534,52.226616],[-0.741573,52.204123],[-0.719597,52.19672],[-0.686367,52.188557],[-0.661919,52.191532],[-0.649532,52.19267],[-0.62743,52.19686],[-0.619342,52.200806],[-0.589404,52.206472],[-0.585681,52.217977],[-0.58275,52.241273],[-0.588165,52.254613],[-0.59087,52.2667],[-0.604694,52.282438],[-0.628762,52.294503],[-0.639464,52.290625],[-0.646167,52.290756],[-0.650934,52.287636]]],[[[-0.825918,52.52696],[-0.82329,52.52416],[-0.826597,52.525807],[-0.82672,52.52583],[-0.8329,52.44304],[-0.80132,52.41875],[-0.60081,52.4581],[-0.54863,52.49449],[-0.62073,52.56759],[-0.82878,52.53001],[-0.825918,52.52696]]]]},"properties":{"code":"K83059","name":"WOODSEND MEDICAL CENTRE","icb":"QPM"}}]}