{"type":"FeatureCollection","features":[{"type":"Feature","geometry":{"type":"Polygon","coordinates":[[[-0.53902,52.63056],[-0.56374,52.59596],[-0.60837,52.55465],[-0.57644,52.53231],[-0.53078,52.51497],[-0.45731,52.49491],[-0.39139,52.50222],[-0.3701,52.52792],[-0.33646,52.54097],[-0.32272,52.55986],[-0.33096,52.60388],[-0.35431,52.6289],[-0.430441,52.640772],[-0.426836,52.627541],[-0.457563,52.6228],[-0.4834,52.64348],[-0.53902,52.63056]]]},"properties":{"code":"K83017","name":"WANSFORD","icb":"QPM"}}]}