{"type":"FeatureCollection","features":[{"type":"Feature","geometry":{"type":"Polygon","coordinates":[[[-1.27223,52.24516],[-1.25047,52.22977],[-1.18996,52.22349],[-1.13056,52.21621],[-1.09554,52.23658],[-1.09262,52.24084],[-1.08833,52.25261],[-1.12885,52.30806],[-1.17193,52.30984],[-1.22772,52.3089],[-1.24727,52.30522],[-1.23592,52.28444],[-1.28617,52.25959],[-1.28643,52.25935],[-1.26472,52.25426],[-1.264973,52.254078],[-1.265144,52.254078],[-1.264877,52.254037],[-1.2648,52.25413],[-1.264801,52.254026],[-1.264877,52.254037],[-1.27223,52.24516]]]},"properties":{"code":"K83015","name":"DANETRE MEDICAL PRACTICE","icb":"QPM"}}]}