{"type":"FeatureCollection","features":[{"type":"Feature","geometry":{"type":"Polygon","coordinates":[[[-0.80741,52.2504],[-0.80732,52.24993],[-0.80612,52.25008],[-0.80518,52.25077],[-0.80346,52.2514],[-0.802109,52.252392],[-0.789506,52.252725],[-0.778828,52.253007],[-0.773675,52.253231],[-0.768939,52.252954],[-0.747958,52.253187],[-0.748609,52.257332],[-0.761576,52.256769],[-0.774835,52.256639],[-0.787794,52.256725],[-0.80132,52.256138],[-0.80132,52.25681],[-0.80132,52.25928],[-0.80166,52.26107],[-0.80235,52.26311],[-0.80312,52.26579],[-0.80269,52.26669],[-0.80432,52.26905],[-0.80586,52.27057],[-0.80784,52.27273],[-0.80878,52.27467],[-0.80964,52.27572],[-0.81616,52.27598],[-0.81616,52.27541],[-0.81462,52.2732],[-0.81264,52.27005],[-0.81187,52.266],[-0.8105,52.26222],[-0.81119,52.26159],[-0.81582,52.26185],[-0.82037,52.26096],[-0.82346,52.26007],[-0.82294,52.25676],[-0.8214,52.25634],[-0.81985,52.25492],[-0.81891,52.25376],[-0.81737,52.25213],[-0.81694,52.25056],[-0.81599,52.24951],[-0.81573,52.24825],[-0.81385,52.24814],[-0.81247,52.24846],[-0.8105,52.24882],[-0.80913,52.24945],[-0.80741,52.2504]]]},"properties":{"code":"K83048","name":"BROOK MEDICAL CENTRE","icb":"QPM"}}]}