{"type":"FeatureCollection","features":[{"type":"Feature","geometry":{"type":"Polygon","coordinates":[[[-1.20095,52.1006],[-1.21966,52.09722],[-1.24454,52.08963],[-1.26291,52.081401],[-1.27862,52.078768],[-1.280336,52.076077],[-1.28128,52.07317],[-1.24146,52.00306],[-1.19373,51.97494],[-1.13211,51.97145],[-1.0849,51.99291],[-1.04954,52.04299],[-1.05623,52.0697],[-1.06842,52.09301],[-1.08215,52.10482],[-1.08782,52.10651],[-1.09142,52.10988],[-1.09091,52.10672],[-1.09726,52.11705],[-1.11202,52.12063],[-1.13914,52.12084],[-1.15459,52.12337],[-1.17965,52.12168],[-1.19184,52.12136],[-1.19579,52.11514],[-1.20095,52.1006]]]},"properties":{"code":"K83018","name":"SPRINGFIELD SURGERY","icb":"QPM"}}]}