{"type":"FeatureCollection","features":[{"type":"Feature","geometry":{"type":"Polygon","coordinates":[[[-1.43406,51.52754],[-1.38874,51.53502],[-1.34789,51.54527],[-1.31012,51.59968],[-1.313233,51.599445],[-1.313363,51.599465],[-1.39595,51.63549],[-1.430118,51.649555],[-1.439236,51.649022],[-1.448354,51.64849],[-1.457471,51.647957],[-1.466589,51.647424],[-1.502767,51.646945],[-1.515448,51.641579],[-1.5659,51.6008],[-1.527745,51.583331],[-1.527869,51.583036],[-1.53053,51.58283],[-1.43406,51.52754]]]},"properties":{"code":"K84019","name":"NEWBURY STREET PRACTICE","icb":"S0E4D"}}]}