{"type":"FeatureCollection","features":[{"type":"Feature","geometry":{"type":"Polygon","coordinates":[[[-1.234188,51.721553],[-1.223045,51.724642],[-1.210541,51.724471],[-1.203095,51.728291],[-1.19872,51.73733],[-1.19655,51.74731],[-1.19652,51.7496],[-1.1953,51.75235],[-1.19511,51.7553],[-1.195313,51.756003],[-1.19511,51.75915],[-1.198521,51.763077],[-1.199427,51.764588],[-1.21262,51.7689],[-1.25793,51.78759],[-1.28102,51.79864],[-1.28695,51.79354],[-1.29055,51.79142],[-1.299558,51.783669],[-1.3048,51.77772],[-1.301032,51.764758],[-1.298021,51.76194],[-1.297167,51.759002],[-1.298863,51.755485],[-1.303422,51.754218],[-1.308727,51.752938],[-1.31257,51.75201],[-1.31596,51.7485],[-1.3248,51.74042],[-1.3305,51.73394],[-1.34068,51.73532],[-1.33982,51.72825],[-1.32797,51.72926],[-1.30089,51.74159],[-1.29344,51.74058],[-1.28289,51.74351],[-1.26729,51.73394],[-1.26725,51.7341],[-1.26077,51.72937],[-1.2593,51.72817],[-1.25833,51.72826],[-1.246921,51.72766],[-1.234188,51.721553]]]},"properties":{"code":"K84026","name":"OBSERVATORY MEDICAL PRACTICE","icb":"S0E4D"}}]}