{"type":"FeatureCollection","features":[{"type":"Feature","geometry":{"type":"Polygon","coordinates":[[[-1.36505,52.07064],[-1.4241,52.09807],[-1.49208,52.12548],[-1.57242,52.13812],[-1.62117,52.10482],[-1.63559,52.07064],[-1.63078,52.03011],[-1.57654,51.98446],[-1.52847,51.95019],[-1.48865,51.96162],[-1.42754,51.98192],[-1.38084,52.01025],[-1.36642,52.03137],[-1.34102,52.04573],[-1.35269,52.04996],[-1.36299,52.05587],[-1.3678,52.06347],[-1.36505,52.07064]]]},"properties":{"code":"K84065","name":"SIBFORD SURGERY","icb":"S0E4D"}}]}