{"type":"FeatureCollection","features":[{"type":"Feature","geometry":{"type":"MultiPolygon","coordinates":[[[[-1.1824,51.79503],[-1.21518,51.79371],[-1.230343,51.788273],[-1.250298,51.784267],[-1.244144,51.774676],[-1.24514,51.767842],[-1.242045,51.760816],[-1.23459,51.75467],[-1.216955,51.747503],[-1.208356,51.742918],[-1.1982,51.74234],[-1.191837,51.740988],[-1.187213,51.741916],[-1.181524,51.743955],[-1.167303,51.746804],[-1.152071,51.749001],[-1.14072,51.753065],[-1.141791,51.764583],[-1.159389,51.773147],[-1.172494,51.783296],[-1.163744,51.786428],[-1.166246,51.790339],[-1.170658,51.792693],[-1.173881,51.79426],[-1.177489,51.796013],[-1.1824,51.79503]]],[[[-1.234063,51.701156],[-1.235629,51.706106],[-1.220631,51.708611],[-1.22194,51.710412],[-1.224788,51.713141],[-1.228732,51.715961],[-1.228805,51.717452],[-1.226499,51.719467],[-1.223937,51.721705],[-1.224092,51.724882],[-1.22606,51.731105],[-1.231924,51.734212],[-1.2347,51.738028],[-1.240556,51.736009],[-1.246978,51.734392],[-1.250119,51.733309],[-1.24955,51.731513],[-1.252859,51.729978],[-1.255204,51.727929],[-1.266252,51.726759],[-1.285567,51.726779],[-1.292312,51.730997],[-1.301095,51.729923],[-1.306844,51.727708],[-1.313744,51.725048],[-1.312185,51.717854],[-1.325391,51.711716],[-1.342415,51.696793],[-1.337719,51.682052],[-1.287525,51.68911],[-1.278031,51.692197],[-1.269586,51.691592],[-1.253478,51.684299],[-1.243491,51.683581],[-1.233369,51.687075],[-1.234063,51.701156]]]]},"properties":{"code":"K84044","name":"MANOR SURGERY","icb":"S0E4D"}}]}