{"type":"FeatureCollection","features":[{"type":"Feature","geometry":{"type":"Polygon","coordinates":[[[-1.55276,52.01695],[-1.61302,51.99772],[-1.64529,51.96267],[-1.65576,51.94257],[-1.673999,51.934422],[-1.689913,51.932876],[-1.692238,51.926272],[-1.656876,51.923838],[-1.65147,51.90446],[-1.60469,51.87888],[-1.558514,51.876067],[-1.465816,51.861652],[-1.434402,51.908696],[-1.378441,51.936857],[-1.381531,51.974941],[-1.428566,52.000207],[-1.473093,52.000964],[-1.55276,52.01695]]]},"properties":{"code":"K84030","name":"CHIPPING NORTON HEALTH CENTRE","icb":"S0E4D"}}]}