{"type":"FeatureCollection","features":[{"type":"Feature","geometry":{"type":"Polygon","coordinates":[[[-1.578427,51.787488],[-1.586151,51.789718],[-1.594735,51.789188],[-1.607957,51.785205],[-1.6204,51.779046],[-1.61774,51.75211],[-1.61362,51.74149],[-1.62117,51.71597],[-1.61396,51.70065],[-1.59336,51.69022],[-1.57379,51.68533],[-1.53603,51.68341],[-1.51543,51.67863],[-1.49895,51.69299],[-1.48796,51.6964],[-1.47423,51.70491],[-1.46049,51.71469],[-1.43303,51.71937],[-1.4193,51.7266],[-1.43784,51.73766],[-1.51886,51.76317],[-1.509417,51.776869],[-1.550617,51.782391],[-1.578427,51.787488]]]},"properties":{"code":"K84010","name":"BAMPTON SURGERY","icb":"S0E4D"}}]}