{"type":"FeatureCollection","features":[{"type":"Feature","geometry":{"type":"Polygon","coordinates":[[[-1.016836,51.466521],[-1.009455,51.467804],[-1.004698,51.469733],[-0.998254,51.470365],[-0.990483,51.468552],[-0.983463,51.467806],[-0.976882,51.466333],[-0.976597,51.467367],[-0.976487,51.467456],[-0.975282,51.467772],[-0.972933,51.467537],[-0.971515,51.468887],[-0.969115,51.469638],[-0.964897,51.470288],[-0.961848,51.47053],[-0.957803,51.470624],[-0.953622,51.470624],[-0.942429,51.474818],[-0.935787,51.476769],[-0.917702,51.474113],[-0.916713,51.475242],[-0.916587,51.4753],[-0.914268,51.47561],[-0.910321,51.47855],[-0.909302,51.483457],[-0.909195,51.483549],[-0.898735,51.486674],[-0.894056,51.496476],[-0.883927,51.501642],[-0.871104,51.50308],[-0.870666,51.5073],[-0.880107,51.511853],[-0.88018,51.51196],[-0.878392,51.523057],[-0.881911,51.525834],[-0.886889,51.529038],[-0.896596,51.533797],[-0.899732,51.535997],[-0.901075,51.538047],[-0.901051,51.538968],[-0.90418,51.539456],[-0.904328,51.539559],[-0.904654,51.541131],[-0.906243,51.542091],[-0.913934,51.546022],[-0.92599,51.5546],[-0.948643,51.563493],[-0.978813,51.576483],[-0.98804,51.57762],[-0.998829,51.576592],[-1.009666,51.577546],[-1.014074,51.579436],[-1.016965,51.581363],[-1.0213,51.582617],[-1.033842,51.580124],[-1.03398,51.58013],[-1.035161,51.580483],[-1.08144,51.56789],[-1.0991,51.56154],[-1.096404,51.555408],[-1.091309,51.548088],[-1.090137,51.537954],[-1.08282,51.52044],[-1.075587,51.517182],[-1.06766,51.515182],[-1.063607,51.51366],[-1.063516,51.513573],[-1.061902,51.505541],[-1.059845,51.504044],[-1.05812,51.50255],[-1.056057,51.501047],[-1.036942,51.485407],[-1.030397,51.472937],[-1.016836,51.466521]]]},"properties":{"code":"K84020","name":"SONNING COMMON HEALTH CTR","icb":"S0E4D"}}]}