{"type":"FeatureCollection","features":[{"type":"Feature","geometry":{"type":"Polygon","coordinates":[[[-1.22635,51.85253],[-1.16627,51.84723],[-1.0334,51.84469],[-1.02722,51.90467],[-1.04816,51.92966],[-1.04782,51.95188],[-1.05297,51.97558],[-1.06533,51.97938],[-1.13674,51.97219],[-1.24969,51.98403],[-1.253991,51.949661],[-1.255705,51.946804],[-1.257593,51.945958],[-1.261026,51.945429],[-1.265146,51.942572],[-1.267892,51.941619],[-1.271497,51.940984],[-1.273929,51.938684],[-1.274253,51.938544],[-1.274761,51.937915],[-1.276817,51.937386],[-1.277336,51.937069],[-1.279566,51.935905],[-1.28231,51.934635],[-1.284198,51.934105],[-1.286086,51.933259],[-1.289175,51.931353],[-1.290892,51.929236],[-1.292093,51.92786],[-1.295699,51.925849],[-1.29896,51.923732],[-1.305831,51.919391],[-1.22635,51.85253]]]},"properties":{"code":"K84613","name":"ALCHESTER MEDICAL GROUP","icb":"S0E4D"}}]}