{"type":"FeatureCollection","features":[{"type":"Feature","geometry":{"type":"Polygon","coordinates":[[[-2.868736,51.39159],[-2.853177,51.394317],[-2.841509,51.396982],[-2.823869,51.401009],[-2.804201,51.409405],[-2.78481,51.40832],[-2.78241,51.41025],[-2.7779,51.41647],[-2.780261,51.427546],[-2.78023,51.427627],[-2.778678,51.429062],[-2.778422,51.431966],[-2.776488,51.432384],[-2.775806,51.433623],[-2.774398,51.4352],[-2.770292,51.438499],[-2.768016,51.440008],[-2.761925,51.439195],[-2.755432,51.43935],[-2.752543,51.439974],[-2.739129,51.441087],[-2.748127,51.446331],[-2.77365,51.446984],[-2.77453,51.456767],[-2.788925,51.468157],[-2.804314,51.470206],[-2.819343,51.470676],[-2.82202,51.4688],[-2.822996,51.467962],[-2.82598,51.466557],[-2.82783,51.46608],[-2.83341,51.4637],[-2.83781,51.46141],[-2.840564,51.459858],[-2.8476,51.45629],[-2.848015,51.456031],[-2.854042,51.453151],[-2.878461,51.432719],[-2.87973,51.43202],[-2.883857,51.428993],[-2.88781,51.424915],[-2.891184,51.420243],[-2.89492,51.416388],[-2.900959,51.409799],[-2.898888,51.400201],[-2.896998,51.397391],[-2.893969,51.394865],[-2.885506,51.391526],[-2.882405,51.390301],[-2.87644,51.390238],[-2.868736,51.39159]]]},"properties":{"code":"L81040","name":"CLEVEDON MEDICAL CENTRE","icb":"QUY"}}]}