{"type":"FeatureCollection","features":[{"type":"Feature","geometry":{"type":"Polygon","coordinates":[[[-2.64052,51.415808],[-2.64672,51.411003],[-2.658468,51.406801],[-2.664428,51.406093],[-2.668787,51.404574],[-2.679194,51.397088],[-2.690738,51.395483],[-2.69508,51.39321],[-2.702978,51.385282],[-2.70524,51.381731],[-2.710875,51.377353],[-2.712525,51.37296],[-2.718773,51.369422],[-2.72667,51.36149],[-2.724325,51.356761],[-2.719974,51.355166],[-2.720714,51.351138],[-2.724446,51.345271],[-2.751197,51.343311],[-2.748589,51.340397],[-2.749493,51.337983],[-2.745176,51.334304],[-2.73697,51.32975],[-2.670365,51.30851],[-2.653714,51.303198],[-2.637062,51.297886],[-2.635684,51.289579],[-2.620411,51.292573],[-2.605366,51.292661],[-2.57011,51.31345],[-2.567067,51.314413],[-2.55724,51.314466],[-2.553935,51.315647],[-2.547326,51.316559],[-2.54209,51.317229],[-2.5296,51.32375],[-2.528205,51.355221],[-2.534364,51.377275],[-2.548313,51.392953],[-2.551041,51.396018],[-2.553213,51.40204],[-2.557218,51.404576],[-2.558416,51.405601],[-2.569084,51.39535],[-2.585907,51.395805],[-2.59449,51.393958],[-2.603502,51.394199],[-2.611313,51.393636],[-2.615433,51.395537],[-2.622857,51.396796],[-2.625175,51.39709],[-2.624702,51.398349],[-2.627835,51.3995],[-2.629209,51.399688],[-2.630539,51.400036],[-2.633758,51.40207],[-2.63586,51.403864],[-2.638221,51.405176],[-2.64052,51.415808]]]},"properties":{"code":"L81072","name":"CHEW MEDICAL PRACTICE","icb":"QOX"}}]}