{"type":"FeatureCollection","features":[{"type":"Feature","geometry":{"type":"Polygon","coordinates":[[[-2.91515,51.26256],[-2.78091,51.27029],[-2.781622,51.271475],[-2.78134,51.271677],[-2.78066,51.27158],[-2.77937,51.27174],[-2.777987,51.272011],[-2.77585,51.27223],[-2.77473,51.27427],[-2.77448,51.27496],[-2.774558,51.277195],[-2.774336,51.277335],[-2.77164,51.27727],[-2.77164,51.27904],[-2.77207,51.28092],[-2.7731,51.28151],[-2.77456,51.28205],[-2.777293,51.281941],[-2.779368,51.282103],[-2.779507,51.28216],[-2.78031,51.28302],[-2.781948,51.283525],[-2.782049,51.283606],[-2.78229,51.28431],[-2.78555,51.2857],[-2.788108,51.286606],[-2.789975,51.287529],[-2.790383,51.28828],[-2.790529,51.289661],[-2.790362,51.290893],[-2.78958,51.29209],[-2.789548,51.292979],[-2.78847,51.29397],[-2.78804,51.29472],[-2.78881,51.29552],[-2.793657,51.295275],[-2.793894,51.295438],[-2.78229,51.33748],[-2.778145,51.338752],[-2.776733,51.339349],[-2.776454,51.339614],[-2.776028,51.340743],[-2.77551,51.34262],[-2.781268,51.343069],[-2.782321,51.343657],[-2.783429,51.344691],[-2.784463,51.346409],[-2.78495,51.34697],[-2.78503,51.35147],[-2.78512,51.35249],[-2.78546,51.3534],[-2.786432,51.353806],[-2.78701,51.35474],[-2.78804,51.35549],[-2.79181,51.35576],[-2.794753,51.355492],[-2.797489,51.355701],[-2.799544,51.356021],[-2.801371,51.356367],[-2.802183,51.356821],[-2.802728,51.357329],[-2.80357,51.35935],[-2.804256,51.360305],[-2.80478,51.36128],[-2.80538,51.36192],[-2.805597,51.361827],[-2.8385,51.363682],[-2.838668,51.363765],[-2.84537,51.37617],[-2.847,51.37617],[-2.84915,51.37585],[-2.850888,51.375529],[-2.854702,51.375371],[-2.85756,51.37585],[-2.85911,51.37585],[-2.86142,51.37558],[-2.86314,51.37516],[-2.864774,51.374348],[-2.86683,51.37344],[-2.86829,51.37269],[-2.86966,51.37178],[-2.87035,51.37028],[-2.870695,51.368931],[-2.871463,51.367504],[-2.872633,51.366393],[-2.898108,51.356133],[-2.89833,51.35613],[-2.908443,51.344518],[-2.908927,51.344555],[-2.90915,51.34509],[-2.955961,51.337114],[-2.954664,51.331447],[-2.942316,51.333129],[-2.930677,51.338472],[-2.94004,51.32342],[-2.936477,51.320968],[-2.924793,51.296628],[-2.92477,51.29628],[-2.924584,51.296191],[-2.92442,51.29585],[-2.924351,51.296164],[-2.924146,51.296275],[-2.91622,51.296214],[-2.91604,51.295939],[-2.91618,51.29585],[-2.91515,51.26256]]]},"properties":{"code":"L81021","name":"WINSCOMBE SURGERY","icb":"QUY"}}]}