{"type":"FeatureCollection","features":[{"type":"Feature","geometry":{"type":"Polygon","coordinates":[[[-2.55535,51.54932],[-2.5629,51.54804],[-2.57217,51.54463],[-2.58041,51.54228],[-2.58419,51.53865],[-2.58659,51.53502],[-2.589,51.53117],[-2.58694,51.52626],[-2.59174,51.52135],[-2.57355,51.5096],[-2.55604,51.50661],[-2.54608,51.50447],[-2.53681,51.50618],[-2.52857,51.50554],[-2.52617,51.50832],[-2.51896,51.51259],[-2.52068,51.51665],[-2.53063,51.52818],[-2.5399,51.53779],[-2.54574,51.54313],[-2.54951,51.54762],[-2.55535,51.54932]]]},"properties":{"code":"L81019","name":"CONCORD MEDICAL CENTRE","icb":"QUY"}}]}