{"type":"FeatureCollection","features":[{"type":"Feature","geometry":{"type":"Polygon","coordinates":[[[-2.907052,51.32937],[-2.954291,51.328259],[-2.954739,51.335698],[-2.954993,51.339915],[-2.946513,51.344426],[-2.94914,51.348292],[-2.958553,51.345371],[-2.968573,51.345627],[-2.982894,51.344786],[-2.991768,51.321917],[-2.990862,51.317733],[-2.97034,51.307051],[-2.945072,51.300732],[-2.948485,51.316505],[-2.907052,51.32937]]]},"properties":{"code":"L81044","name":"TUDOR LODGE SURGERY","icb":"QUY"}}]}