{"type":"FeatureCollection","features":[{"type":"Feature","geometry":{"type":"Polygon","coordinates":[[[-2.72974,51.3181],[-2.722182,51.321131],[-2.718785,51.321317],[-2.71304,51.31899],[-2.69537,51.3191],[-2.69366,51.32151],[-2.68911,51.32839],[-2.69368,51.33033],[-2.717655,51.338122],[-2.70538,51.333186],[-2.717692,51.338136],[-2.717726,51.338152],[-2.717757,51.338171],[-2.717783,51.338192],[-2.717806,51.338215],[-2.717824,51.33824],[-2.717837,51.338266],[-2.717845,51.338292],[-2.717849,51.338319],[-2.717846,51.338346],[-2.717839,51.338372],[-2.717827,51.338398],[-2.71781,51.338423],[-2.717788,51.338446],[-2.717762,51.338468],[-2.717732,51.338487],[-2.71453,51.34033],[-2.71914,51.34511],[-2.725638,51.3468],[-2.725641,51.346823],[-2.725641,51.346846],[-2.725636,51.346869],[-2.725628,51.346892],[-2.725616,51.346913],[-2.725601,51.346934],[-2.725582,51.346954],[-2.72556,51.346973],[-2.725535,51.34699],[-2.725507,51.347005],[-2.725477,51.347019],[-2.725445,51.34703],[-2.725412,51.34704],[-2.725377,51.347047],[-2.725341,51.347052],[-2.725304,51.347054],[-2.70929,51.34765],[-2.70066,51.35346],[-2.7,51.35601],[-2.707448,51.359382],[-2.707485,51.359401],[-2.707517,51.359423],[-2.707545,51.359448],[-2.707567,51.359475],[-2.707583,51.359503],[-2.707593,51.359532],[-2.707596,51.359562],[-2.707594,51.359592],[-2.706867,51.363227],[-2.706856,51.363259],[-2.706838,51.363291],[-2.70253,51.36933],[-2.69492,51.38205],[-2.69632,51.38999],[-2.70405,51.39256],[-2.716282,51.391548],[-2.71633,51.391546],[-2.716378,51.391548],[-2.716425,51.391554],[-2.716471,51.391565],[-2.726392,51.394237],[-2.726438,51.394252],[-2.72648,51.394271],[-2.727956,51.395618],[-2.756717,51.407772],[-2.810282,51.421905],[-2.813706,51.434481],[-2.815078,51.443951],[-2.804237,51.448016],[-2.811557,51.454756],[-2.824174,51.457403],[-2.839366,51.450878],[-2.847008,51.456655],[-2.860565,51.442025],[-2.874296,51.435604],[-2.882379,51.433421],[-2.885212,51.430497],[-2.89218,51.426476],[-2.890739,51.418509],[-2.897144,51.421848],[-2.898323,51.419863],[-2.895578,51.416338],[-2.891977,51.409914],[-2.899187,51.403168],[-2.908284,51.399099],[-2.912745,51.397278],[-2.920987,51.395886],[-2.924153,51.396702],[-2.925065,51.396488],[-2.925205,51.396187],[-2.925089,51.395658],[-2.925647,51.394814],[-2.927384,51.394748],[-2.928694,51.394587],[-2.932084,51.394868],[-2.934293,51.395524],[-2.934831,51.396153],[-2.934589,51.398749],[-2.93807,51.396368],[-2.979713,51.388494],[-2.970385,51.387745],[-2.965105,51.383352],[-2.961931,51.376335],[-2.962882,51.368565],[-2.965174,51.364895],[-2.960794,51.356762],[-2.963283,51.35648],[-2.966761,51.355958],[-2.966353,51.354337],[-2.967684,51.354176],[-2.965559,51.349995],[-2.966137,51.346564],[-2.966931,51.344995],[-2.967597,51.343173],[-2.965536,51.342516],[-2.964184,51.341551],[-2.963433,51.339084],[-2.960949,51.338414],[-2.958498,51.338629],[-2.95773,51.339299],[-2.942406,51.346349],[-2.93159,51.344634],[-2.931933,51.341846],[-2.93159,51.33525],[-2.929144,51.332408],[-2.916096,51.330209],[-2.903995,51.330156],[-2.893095,51.329244],[-2.894984,51.34391],[-2.893353,51.358437],[-2.887564,51.349367],[-2.881731,51.340322],[-2.86091,51.33591],[-2.831349,51.326875],[-2.822914,51.322461],[-2.818159,51.322841],[-2.817749,51.328153],[-2.818755,51.330826],[-2.815891,51.333293],[-2.81099,51.32812],[-2.787729,51.3277],[-2.75731,51.32621],[-2.753264,51.32497],[-2.75225,51.32193],[-2.74652,51.32034],[-2.735415,51.319975],[-2.72974,51.3181]]]},"properties":{"code":"L81086","name":"MENDIP VALE MEDICAL PRACTICE","icb":"QUY"}}]}