{"type":"FeatureCollection","features":[{"type":"Feature","geometry":{"type":"Polygon","coordinates":[[[-2.539265,51.446431],[-2.539586,51.445827],[-2.539198,51.445317],[-2.538139,51.444687],[-2.536856,51.44447],[-2.531997,51.445317],[-2.529991,51.445317],[-2.528298,51.444644],[-2.526884,51.443516],[-2.526884,51.442381],[-2.527297,51.440553],[-2.52769,51.438513],[-2.527335,51.436425],[-2.525168,51.433997],[-2.522607,51.431954],[-2.521561,51.431538],[-2.520629,51.431222],[-2.518039,51.430858],[-2.515851,51.430333],[-2.513754,51.429634],[-2.512629,51.431108],[-2.511744,51.43278],[-2.511281,51.434828],[-2.510563,51.438006],[-2.509646,51.439737],[-2.508208,51.441287],[-2.506529,51.442513],[-2.504708,51.443789],[-2.501326,51.442198],[-2.475008,51.458774],[-2.474384,51.459259],[-2.476548,51.468109],[-2.479471,51.485281],[-2.481646,51.485383],[-2.485277,51.485553],[-2.489026,51.486079],[-2.490041,51.486772],[-2.491482,51.48726],[-2.492822,51.487996],[-2.494052,51.48829],[-2.497262,51.488859],[-2.501709,51.489611],[-2.504474,51.490334],[-2.509775,51.493482],[-2.511362,51.489526],[-2.517698,51.484606],[-2.524151,51.481946],[-2.525867,51.481697],[-2.527512,51.481505],[-2.528417,51.481172],[-2.529449,51.480105],[-2.531145,51.479455],[-2.534566,51.478258],[-2.53784,51.47689],[-2.539531,51.476268],[-2.541286,51.475789],[-2.544802,51.474986],[-2.55089,51.47304],[-2.551629,51.473095],[-2.5517,51.472725],[-2.551879,51.471799],[-2.551724,51.470708],[-2.550334,51.469196],[-2.55119,51.46853],[-2.55265,51.467791],[-2.558416,51.466476],[-2.557568,51.464418],[-2.563577,51.460918],[-2.562495,51.457927],[-2.563523,51.45787],[-2.562207,51.456672],[-2.561954,51.45615],[-2.559566,51.456282],[-2.557246,51.456619],[-2.55569,51.45593],[-2.554871,51.455155],[-2.553335,51.455083],[-2.551793,51.454909],[-2.546895,51.45487],[-2.544079,51.455641],[-2.541179,51.455406],[-2.538817,51.454619],[-2.538173,51.453772],[-2.53741,51.452918],[-2.536217,51.451051],[-2.534822,51.449731],[-2.534171,51.448874],[-2.534619,51.447756],[-2.535601,51.447487],[-2.537945,51.447147],[-2.539265,51.446431]]]},"properties":{"code":"L81062","name":"FIRECLAY HEALTH","icb":"QUY"}}]}