{"type":"FeatureCollection","features":[{"type":"Feature","geometry":{"type":"Polygon","coordinates":[[[-2.990341,51.323314],[-2.976093,51.318326],[-2.964163,51.317467],[-2.952747,51.317521],[-2.921076,51.323529],[-2.913952,51.328145],[-2.913609,51.33029],[-2.912493,51.331627],[-2.902193,51.332968],[-2.89361,51.330876],[-2.895155,51.341601],[-2.895069,51.34852],[-2.900734,51.351036],[-2.903566,51.354092],[-2.906914,51.353449],[-2.907429,51.352055],[-2.910004,51.352591],[-2.924337,51.346265],[-2.932835,51.344174],[-2.938757,51.344764],[-2.96133,51.328088],[-2.966309,51.328409],[-2.973518,51.341494],[-2.973433,51.343585],[-2.970772,51.344871],[-2.966995,51.344925],[-2.961931,51.344818],[-2.941504,51.348678],[-2.942705,51.350554],[-2.940388,51.352645],[-2.944422,51.35704],[-2.946739,51.358112],[-2.951889,51.361167],[-2.953005,51.362346],[-2.95455,51.365668],[-2.966738,51.363632],[-2.994204,51.357522],[-2.99489,51.354896],[-2.987595,51.351573],[-2.982359,51.350179],[-2.984076,51.335274],[-2.990341,51.323314]]]},"properties":{"code":"L81051","name":"168 MEDICAL GROUP","icb":"QUY"}}]}