{"type":"FeatureCollection","features":[{"type":"Feature","geometry":{"type":"Polygon","coordinates":[[[-2.5336,51.305926],[-2.5296,51.30915],[-2.531207,51.314177],[-2.53372,51.35549],[-2.55226,51.38035],[-2.555952,51.377579],[-2.60994,51.36621],[-2.66624,51.38164],[-2.74384,51.33361],[-2.672607,51.289789],[-2.67311,51.28941],[-2.61131,51.24086],[-2.572076,51.274877],[-2.559733,51.284843],[-2.54299,51.28275],[-2.52789,51.29585],[-2.5336,51.305926]]]},"properties":{"code":"L81030","name":"HARPTREE SURGERY","icb":"QOX"}}]}