{"type":"FeatureCollection","features":[{"type":"Feature","geometry":{"type":"Polygon","coordinates":[[[-2.627126,51.454825],[-2.627063,51.453888],[-2.62662,51.452609],[-2.625393,51.450693],[-2.625087,51.450092],[-2.624843,51.448969],[-2.624465,51.448081],[-2.623944,51.447376],[-2.622104,51.446358],[-2.620124,51.445866],[-2.618771,51.445737],[-2.61691,51.445906],[-2.614321,51.446239],[-2.611876,51.44648],[-2.60892,51.446701],[-2.607095,51.446779],[-2.605231,51.446766],[-2.603329,51.446571],[-2.60128,51.446307],[-2.599157,51.445998],[-2.597951,51.445959],[-2.596672,51.445965],[-2.595029,51.44602],[-2.593276,51.446074],[-2.591849,51.445853],[-2.5902,51.445473],[-2.588371,51.445277],[-2.586693,51.445445],[-2.585128,51.44591],[-2.583495,51.446762],[-2.582226,51.447545],[-2.581319,51.448006],[-2.580968,51.449126],[-2.580283,51.449883],[-2.579813,51.450296],[-2.578906,51.450803],[-2.577449,51.451153],[-2.575373,51.451642],[-2.573039,51.451996],[-2.570888,51.452372],[-2.569687,51.452743],[-2.568561,51.453274],[-2.567438,51.454078],[-2.566248,51.455362],[-2.565314,51.456645],[-2.564457,51.458224],[-2.563891,51.459779],[-2.563686,51.460899],[-2.563699,51.462017],[-2.563895,51.463112],[-2.564238,51.464252],[-2.56469,51.4653],[-2.56547,51.466346],[-2.566102,51.467211],[-2.56699,51.468051],[-2.567396,51.468391],[-2.568127,51.468996],[-2.567762,51.469135],[-2.564716,51.470977],[-2.562954,51.47231],[-2.56205,51.473443],[-2.560885,51.474904],[-2.566161,51.475773],[-2.569754,51.476729],[-2.571832,51.477745],[-2.578586,51.482132],[-2.579185,51.482839],[-2.579323,51.483733],[-2.57939,51.485732],[-2.579612,51.486573],[-2.579999,51.487176],[-2.580596,51.487778],[-2.581318,51.488222],[-2.582335,51.488611],[-2.58382,51.489446],[-2.584624,51.489705],[-2.584966,51.490098],[-2.585016,51.490703],[-2.585148,51.491123],[-2.58932,51.48899],[-2.590281,51.489048],[-2.591367,51.489231],[-2.592606,51.489239],[-2.594086,51.489664],[-2.594197,51.489628],[-2.594422,51.489731],[-2.594863,51.490161],[-2.595252,51.490877],[-2.595582,51.491343],[-2.595797,51.491523],[-2.596425,51.491785],[-2.597199,51.492025],[-2.597939,51.492258],[-2.599661,51.492382],[-2.602176,51.492564],[-2.602509,51.492595],[-2.603572,51.492832],[-2.60445,51.492688],[-2.604837,51.492611],[-2.606313,51.492576],[-2.607014,51.492526],[-2.608355,51.492425],[-2.612041,51.492453],[-2.612923,51.492616],[-2.614251,51.4926],[-2.615596,51.492816],[-2.616221,51.492664],[-2.617341,51.492723],[-2.618167,51.493166],[-2.619029,51.492928],[-2.62228,51.492818],[-2.621982,51.49173],[-2.621553,51.490885],[-2.621714,51.49066],[-2.62186,51.490408],[-2.622212,51.489959],[-2.622904,51.489295],[-2.623229,51.489088],[-2.623942,51.48887],[-2.624806,51.488782],[-2.625484,51.488145],[-2.626384,51.487451],[-2.627434,51.486765],[-2.628587,51.485986],[-2.629661,51.484928],[-2.632395,51.485258],[-2.632736,51.485098],[-2.633645,51.483966],[-2.636942,51.485066],[-2.638498,51.485402],[-2.639112,51.485585],[-2.640807,51.486246],[-2.642306,51.486759],[-2.642672,51.486273],[-2.642637,51.485901],[-2.642587,51.485547],[-2.642732,51.48522],[-2.643352,51.484761],[-2.644296,51.483973],[-2.644811,51.483542],[-2.645133,51.483074],[-2.645412,51.482738],[-2.648202,51.480748],[-2.648766,51.480493],[-2.650206,51.480057],[-2.649351,51.478646],[-2.648805,51.47701],[-2.648963,51.476562],[-2.649025,51.475705],[-2.64896,51.475268],[-2.648698,51.474729],[-2.648271,51.474042],[-2.647681,51.473403],[-2.646506,51.472627],[-2.645109,51.471871],[-2.642634,51.470832],[-2.640837,51.470283],[-2.63852,51.469877],[-2.637219,51.469642],[-2.63596,51.469137],[-2.634144,51.468299],[-2.633134,51.467642],[-2.632651,51.467129],[-2.632142,51.466506],[-2.631617,51.464727],[-2.629966,51.461141],[-2.629832,51.460501],[-2.629848,51.459844],[-2.630039,51.459202],[-2.630206,51.458639],[-2.630124,51.458108],[-2.62984,51.457499],[-2.629358,51.456986],[-2.628827,51.456567],[-2.628171,51.456164],[-2.627614,51.455745],[-2.627233,51.455294],[-2.628602,51.454786],[-2.630647,51.454353],[-2.630701,51.454588],[-2.630829,51.454806],[-2.631156,51.45496],[-2.632729,51.454686],[-2.633603,51.454587],[-2.634679,51.454597],[-2.635983,51.454825],[-2.636634,51.454852],[-2.637783,51.454721],[-2.638983,51.454668],[-2.639756,51.454476],[-2.644259,51.454451],[-2.639451,51.452399],[-2.637967,51.451782],[-2.637239,51.451582],[-2.63649,51.451696],[-2.631326,51.452802],[-2.630956,51.453132],[-2.630613,51.453697],[-2.62845,51.454631],[-2.627205,51.455122],[-2.627126,51.454825]]]},"properties":{"code":"L81133","name":"STUDENT HEALTH SERVICE","icb":"QUY"}}]}