{"type":"FeatureCollection","features":[{"type":"Feature","geometry":{"type":"Polygon","coordinates":[[[-2.554167,51.550072],[-2.55554,51.550191],[-2.557515,51.550157],[-2.558762,51.549924],[-2.561415,51.549208],[-2.564907,51.547934],[-2.568122,51.547038],[-2.569362,51.546701],[-2.570868,51.546223],[-2.573426,51.545362],[-2.575332,51.544725],[-2.577137,51.544025],[-2.579243,51.543292],[-2.581549,51.542464],[-2.583054,51.541954],[-2.584106,51.541478],[-2.585357,51.540843],[-2.586356,51.54021],[-2.587054,51.539641],[-2.58765,51.539041],[-2.588393,51.538033],[-2.588938,51.537339],[-2.589534,51.536739],[-2.589932,51.536329],[-2.590679,51.535666],[-2.591626,51.534938],[-2.592524,51.534306],[-2.593673,51.533577],[-2.594772,51.532912],[-2.596172,51.532151],[-2.597424,51.53158],[-2.598978,51.531038],[-2.599931,51.530782],[-2.596608,51.526967],[-2.593237,51.523309],[-2.591209,51.521024],[-2.590529,51.521096],[-2.590532,51.521071],[-2.587602,51.521207],[-2.585317,51.521531],[-2.584014,51.521758],[-2.58262,51.522073],[-2.582368,51.522124],[-2.581949,51.522218],[-2.581937,51.522221],[-2.581862,51.522263],[-2.571344,51.522508],[-2.571201,51.518215],[-2.571954,51.51632],[-2.574644,51.513931],[-2.576667,51.511681],[-2.576882,51.509033],[-2.579145,51.508546],[-2.582885,51.506957],[-2.585607,51.504743],[-2.58784,51.503721],[-2.587816,51.503641],[-2.587728,51.50353],[-2.587692,51.503458],[-2.587676,51.503377],[-2.587692,51.503263],[-2.58772,51.50314],[-2.587764,51.502605],[-2.587851,51.502275],[-2.587931,51.501776],[-2.58806,51.501546],[-2.58815,51.501234],[-2.58724,51.501183],[-2.585245,51.501155],[-2.585427,51.501534],[-2.585539,51.501713],[-2.58563,51.501844],[-2.585103,51.502223],[-2.584896,51.50236],[-2.584521,51.50264],[-2.583806,51.502286],[-2.582415,51.501775],[-2.582497,51.5016],[-2.582049,51.501375],[-2.581717,51.501191],[-2.581222,51.501222],[-2.57987,51.500782],[-2.579835,51.500711],[-2.579114,51.500847],[-2.576731,51.500152],[-2.573655,51.499864],[-2.571196,51.498997],[-2.56888,51.498504],[-2.565779,51.497956],[-2.565011,51.49747],[-2.565319,51.496286],[-2.564809,51.49613],[-2.564686,51.495511],[-2.562189,51.495292],[-2.561414,51.495711],[-2.561294,51.495597],[-2.5612,51.495584],[-2.555744,51.494764],[-2.556216,51.494066],[-2.555252,51.492629],[-2.551713,51.492184],[-2.545757,51.49277],[-2.545135,51.492615],[-2.544056,51.492611],[-2.543636,51.492677],[-2.541991,51.492621],[-2.537852,51.494539],[-2.535676,51.49589],[-2.534524,51.496733],[-2.533004,51.496341],[-2.531771,51.49571],[-2.530331,51.49638],[-2.529604,51.496153],[-2.527831,51.494925],[-2.528106,51.494398],[-2.528605,51.494064],[-2.52804,51.493817],[-2.527465,51.49264],[-2.525182,51.493175],[-2.523578,51.492445],[-2.522572,51.492394],[-2.518131,51.49292],[-2.516007,51.49367],[-2.514228,51.495609],[-2.512762,51.498787],[-2.512052,51.50137],[-2.512901,51.507046],[-2.515019,51.508421],[-2.517055,51.510733],[-2.518189,51.512616],[-2.517881,51.512749],[-2.519626,51.515578],[-2.524185,51.521113],[-2.526278,51.523451],[-2.527583,51.524853],[-2.529052,51.52638],[-2.529911,51.527457],[-2.531748,51.52941],[-2.533216,51.530861],[-2.539162,51.536526],[-2.544811,51.542295],[-2.54631,51.543849],[-2.549783,51.547679],[-2.550719,51.548404],[-2.551042,51.548608],[-2.551056,51.548622],[-2.551089,51.548638],[-2.55202,51.549227],[-2.553115,51.549775],[-2.554025,51.550032],[-2.554033,51.550035],[-2.554037,51.550035],[-2.554167,51.550072]]]},"properties":{"code":"L81118","name":"STOKES MEDICAL GROUP","icb":"QUY"}}]}