{"type":"FeatureCollection","features":[{"type":"Feature","geometry":{"type":"Polygon","coordinates":[[[-2.47398,51.50661],[-2.45411,51.50051],[-2.42978,51.49742],[-2.38317,51.49848],[-2.35404,51.50169],[-2.33863,51.50148],[-2.30279,51.50917],[-2.27348,51.51846],[-2.27262,51.52936],[-2.28842,51.57792],[-2.29005,51.584],[-2.29752,51.58518],[-2.34112,51.59243],[-2.38154,51.60256],[-2.38764,51.608],[-2.40678,51.60128],[-2.43008,51.60048],[-2.44156,51.59454],[-2.45201,51.58731],[-2.48497,51.56256],[-2.51003,51.53737],[-2.51278,51.52754],[-2.5093,51.52314],[-2.50875,51.51884],[-2.50655,51.517],[-2.50375,51.51478],[-2.499,51.51462],[-2.49306,51.5127],[-2.48677,51.5128],[-2.48325,51.51243],[-2.47973,51.51088],[-2.47398,51.50661]]]},"properties":{"code":"L81642","name":"WELLINGTON ROAD SURGERY","icb":"QUY"}}]}