{"type":"FeatureCollection","features":[{"type":"Feature","geometry":{"type":"Polygon","coordinates":[[[-5.16289,50.27969],[-5.14744,50.26016],[-5.13027,50.23952],[-5.09491,50.21141],[-5.07088,50.20811],[-5.05817,50.19448],[-5.02796,50.21887],[-5.01354,50.2494],[-4.9902,50.28013],[-5.01595,50.30732],[-5.02796,50.34524],[-5.0647,50.33604],[-5.07843,50.31982],[-5.10384,50.30381],[-5.14023,50.29438],[-5.16289,50.27969]]]},"properties":{"code":"L82001","name":"LANDER MEDICAL PRACTICE","icb":"QT6"}}]}