{"type":"FeatureCollection","features":[{"type":"Feature","geometry":{"type":"Polygon","coordinates":[[[-4.864197,50.483944],[-4.875827,50.45693],[-4.865913,50.436844],[-4.85321,50.421972],[-4.843769,50.404141],[-4.818707,50.392433],[-4.793301,50.386194],[-4.747124,50.385209],[-4.703522,50.391776],[-4.638119,50.374481],[-4.635201,50.381707],[-4.624214,50.384553],[-4.612198,50.389368],[-4.606705,50.401734],[-4.592457,50.415409],[-4.574432,50.438703],[-4.554691,50.45663],[-4.53907,50.482197],[-4.514008,50.511789],[-4.459934,50.537545],[-4.416847,50.554125],[-4.377537,50.562741],[-4.352989,50.573317],[-4.350586,50.588032],[-4.390583,50.632151],[-4.414787,50.647828],[-4.443283,50.658929],[-4.497528,50.659364],[-4.529629,50.651855],[-4.564476,50.638575],[-4.637432,50.610587],[-4.70764,50.57757],[-4.750729,50.56514],[-4.76738,50.559033],[-4.787979,50.550308],[-4.804459,50.53198],[-4.809608,50.522813],[-4.81339,50.51124],[-4.836731,50.501199],[-4.864197,50.483944]]]},"properties":{"code":"L82010","name":"BOSVENA HEALTH","icb":"QT6"}}]}