{"type":"FeatureCollection","features":[{"type":"Feature","geometry":{"type":"Polygon","coordinates":[[[-4.93571,50.21633],[-4.935542,50.217198],[-4.935533,50.217228],[-4.935518,50.217257],[-4.935497,50.217284],[-4.93547,50.217309],[-4.935328,50.217426],[-4.935287,50.217454],[-4.935238,50.217478],[-4.935184,50.217496],[-4.935125,50.217507],[-4.93481,50.21755],[-4.933912,50.21784],[-4.933879,50.217849],[-4.933846,50.217856],[-4.929118,50.218675],[-4.929061,50.218682],[-4.926797,50.218828],[-4.92676,50.218829],[-4.926723,50.218827],[-4.923044,50.218557],[-4.922999,50.218552],[-4.922955,50.218542],[-4.922913,50.21853],[-4.922874,50.218513],[-4.92241,50.21829],[-4.92138,50.21843],[-4.920651,50.218592],[-4.920611,50.218599],[-4.920569,50.218603],[-4.920527,50.218604],[-4.920485,50.218602],[-4.91891,50.218452],[-4.91887,50.218447],[-4.91383,50.217567],[-4.913791,50.217559],[-4.913754,50.217547],[-4.9122,50.217],[-4.91041,50.21687],[-4.908747,50.21698],[-4.908733,50.21698],[-4.905988,50.217087],[-4.905949,50.217087],[-4.905911,50.217085],[-4.905874,50.217079],[-4.905838,50.217072],[-4.90473,50.21679],[-4.904692,50.216779],[-4.904656,50.216765],[-4.904623,50.216748],[-4.904594,50.216728],[-4.90284,50.21543],[-4.899524,50.218167],[-4.89949,50.218191],[-4.899451,50.218212],[-4.899408,50.218229],[-4.899362,50.218242],[-4.897716,50.218608],[-4.897659,50.218617],[-4.897601,50.21862],[-4.896129,50.21862],[-4.896071,50.218617],[-4.89489,50.21849],[-4.89297,50.21862],[-4.89113,50.21893],[-4.891208,50.221587],[-4.891205,50.221622],[-4.891193,50.221657],[-4.891173,50.221689],[-4.891145,50.22172],[-4.88915,50.22355],[-4.88865,50.22428],[-4.88931,50.225],[-4.89188,50.22591],[-4.894122,50.226223],[-4.894177,50.226234],[-4.894229,50.226251],[-4.894276,50.226273],[-4.894317,50.2263],[-4.89495,50.22679],[-4.89688,50.22702],[-4.897954,50.226922],[-4.898008,50.22692],[-4.898062,50.226923],[-4.898114,50.226932],[-4.898164,50.226945],[-4.89821,50.226963],[-4.898251,50.226986],[-4.898286,50.227012],[-4.898314,50.227042],[-4.89866,50.22747],[-4.900818,50.227799],[-4.900874,50.22781],[-4.900926,50.227828],[-4.900973,50.227851],[-4.901013,50.227879],[-4.901045,50.22791],[-4.901069,50.227945],[-4.901083,50.227982],[-4.901087,50.228019],[-4.90105,50.230349],[-4.901047,50.23038],[-4.901036,50.23041],[-4.89977,50.23319],[-4.899939,50.235901],[-4.899936,50.235939],[-4.899503,50.238066],[-4.899493,50.238097],[-4.899477,50.238126],[-4.899455,50.238154],[-4.899426,50.23818],[-4.89876,50.2387],[-4.898382,50.239894],[-4.898366,50.239929],[-4.898341,50.239962],[-4.89768,50.24069],[-4.897339,50.24116],[-4.897308,50.241194],[-4.897267,50.241225],[-4.897219,50.24125],[-4.897165,50.24127],[-4.897105,50.241283],[-4.897044,50.241289],[-4.896981,50.241288],[-4.89692,50.24128],[-4.896219,50.242795],[-4.896209,50.242815],[-4.896195,50.242834],[-4.896178,50.242852],[-4.896159,50.24287],[-4.896138,50.242886],[-4.896114,50.2429],[-4.896088,50.242913],[-4.89606,50.242925],[-4.89532,50.243203],[-4.895279,50.243216],[-4.894059,50.243544],[-4.894029,50.243551],[-4.893999,50.243556],[-4.893968,50.24356],[-4.893937,50.243562],[-4.892838,50.243589],[-4.8928,50.243589],[-4.892762,50.243586],[-4.891865,50.243482],[-4.891835,50.243477],[-4.89036,50.24322],[-4.889597,50.243569],[-4.889563,50.243583],[-4.889526,50.243594],[-4.889488,50.243603],[-4.889449,50.243608],[-4.8876,50.2438],[-4.886417,50.244139],[-4.886379,50.244149],[-4.88634,50.244155],[-4.88384,50.24446],[-4.881981,50.244874],[-4.881945,50.244881],[-4.881909,50.244885],[-4.881872,50.244887],[-4.881836,50.244886],[-4.88082,50.24483],[-4.87964,50.24523],[-4.879365,50.245416],[-4.879331,50.245436],[-4.879293,50.245453],[-4.879252,50.245467],[-4.879209,50.245477],[-4.87812,50.24568],[-4.87751,50.24584],[-4.87694,50.24608],[-4.875735,50.246855],[-4.875706,50.246871],[-4.875675,50.246885],[-4.875642,50.246897],[-4.875607,50.246907],[-4.87521,50.247],[-4.87429,50.24733],[-4.873975,50.24754],[-4.873375,50.24808],[-4.873351,50.248099],[-4.873324,50.248116],[-4.873295,50.248131],[-4.873263,50.248145],[-4.873167,50.248179],[-4.873129,50.248191],[-4.87309,50.2482],[-4.873,50.24824],[-4.872988,50.248261],[-4.872972,50.248281],[-4.872954,50.2483],[-4.872932,50.248318],[-4.872753,50.248452],[-4.872726,50.24848],[-4.872693,50.248504],[-4.872692,50.248507],[-4.872528,50.249081],[-4.87252,50.249104],[-4.872507,50.249126],[-4.872492,50.249148],[-4.872472,50.249168],[-4.87245,50.249187],[-4.872424,50.249204],[-4.872396,50.249219],[-4.872366,50.249232],[-4.870429,50.249989],[-4.870399,50.249999],[-4.870368,50.250008],[-4.86943,50.25023],[-4.868568,50.251679],[-4.868555,50.251698],[-4.86854,50.251716],[-4.868522,50.251733],[-4.868501,50.251749],[-4.868478,50.251764],[-4.868454,50.251777],[-4.868427,50.251789],[-4.868399,50.251799],[-4.867972,50.251937],[-4.867921,50.25195],[-4.867867,50.251958],[-4.867812,50.251961],[-4.867757,50.251958],[-4.86702,50.25188],[-4.86453,50.25298],[-4.863639,50.253651],[-4.863597,50.253677],[-4.86355,50.253699],[-4.863497,50.253715],[-4.863441,50.253725],[-4.86209,50.2539],[-4.861582,50.254129],[-4.861536,50.254147],[-4.861486,50.254159],[-4.861434,50.254167],[-4.86138,50.25417],[-4.861327,50.254167],[-4.861274,50.254159],[-4.861224,50.254146],[-4.861178,50.254129],[-4.86056,50.253849],[-4.860522,50.253829],[-4.86021,50.25364],[-4.85984,50.25352],[-4.85898,50.25351],[-4.858524,50.253608],[-4.858473,50.253616],[-4.85842,50.253619],[-4.858367,50.253617],[-4.858315,50.25361],[-4.85826,50.2536],[-4.85575,50.25412],[-4.85664,50.25435],[-4.857592,50.254429],[-4.857628,50.254433],[-4.858211,50.254521],[-4.858255,50.254529],[-4.858296,50.254542],[-4.858335,50.254557],[-4.85837,50.254576],[-4.858402,50.254597],[-4.858428,50.254621],[-4.85845,50.254647],[-4.858466,50.254675],[-4.858476,50.254703],[-4.858481,50.254732],[-4.858479,50.254762],[-4.858472,50.254791],[-4.858458,50.254819],[-4.858439,50.254846],[-4.858415,50.254871],[-4.858386,50.254893],[-4.856727,50.256028],[-4.85669,50.25605],[-4.85476,50.25704],[-4.850683,50.259582],[-4.850656,50.259597],[-4.84851,50.26068],[-4.84732,50.26192],[-4.847298,50.26194],[-4.844973,50.263858],[-4.844939,50.263882],[-4.844901,50.263902],[-4.844859,50.263919],[-4.844814,50.263932],[-4.84278,50.2644],[-4.840494,50.265572],[-4.840459,50.265588],[-4.84042,50.265602],[-4.83469,50.26727],[-4.832673,50.268397],[-4.832624,50.26842],[-4.82924,50.26974],[-4.829338,50.27163],[-4.829335,50.271669],[-4.82932,50.271708],[-4.82862,50.27306],[-4.82894,50.2742],[-4.829543,50.275771],[-4.829552,50.27581],[-4.829677,50.277081],[-4.829677,50.27711],[-4.829671,50.277139],[-4.82928,50.278407],[-4.829266,50.278439],[-4.829245,50.27847],[-4.82845,50.27942],[-4.827689,50.280797],[-4.827666,50.280829],[-4.827636,50.280858],[-4.826188,50.282068],[-4.826146,50.282097],[-4.826097,50.282121],[-4.825343,50.282426],[-4.825317,50.28246],[-4.825282,50.28249],[-4.825241,50.282516],[-4.825193,50.282537],[-4.823765,50.283064],[-4.82134,50.284045],[-4.821078,50.284422],[-4.821058,50.284446],[-4.821035,50.284469],[-4.821007,50.284489],[-4.820976,50.284507],[-4.820941,50.284523],[-4.820904,50.284535],[-4.820865,50.284545],[-4.820824,50.284552],[-4.820604,50.284579],[-4.820594,50.284591],[-4.82057,50.284615],[-4.820542,50.284637],[-4.820509,50.284656],[-4.820473,50.284673],[-4.820434,50.284686],[-4.820393,50.284697],[-4.82035,50.284703],[-4.820306,50.284707],[-4.819872,50.284722],[-4.819394,50.284883],[-4.819338,50.284899],[-4.819278,50.284907],[-4.819217,50.284909],[-4.819157,50.284904],[-4.81845,50.28514],[-4.81713,50.28611],[-4.816505,50.286791],[-4.816481,50.286814],[-4.816452,50.286835],[-4.816419,50.286854],[-4.816383,50.286869],[-4.81521,50.28732],[-4.81435,50.28779],[-4.814865,50.288774],[-4.814876,50.288798],[-4.814882,50.288824],[-4.814883,50.288849],[-4.81488,50.288875],[-4.814873,50.2889],[-4.814861,50.288925],[-4.814845,50.288948],[-4.814824,50.28897],[-4.8148,50.288991],[-4.814772,50.289009],[-4.814742,50.289026],[-4.814708,50.28904],[-4.814672,50.289051],[-4.814635,50.28906],[-4.814596,50.289066],[-4.814556,50.289069],[-4.80987,50.28927],[-4.808257,50.289543],[-4.808209,50.289549],[-4.80816,50.289551],[-4.808112,50.289548],[-4.808064,50.289541],[-4.806867,50.289303],[-4.806834,50.289295],[-4.80498,50.28879],[-4.803517,50.288451],[-4.803472,50.288438],[-4.80343,50.288421],[-4.802783,50.288119],[-4.802753,50.288104],[-4.802726,50.288086],[-4.802703,50.288067],[-4.802682,50.288046],[-4.80216,50.28744],[-4.80003,50.286],[-4.79795,50.28507],[-4.797899,50.285061],[-4.797852,50.285047],[-4.797808,50.285028],[-4.797769,50.285006],[-4.79737,50.28474],[-4.796457,50.28453],[-4.796283,50.28453],[-4.796247,50.284536],[-4.79621,50.28454],[-4.796172,50.284541],[-4.796135,50.284539],[-4.796098,50.284535],[-4.796062,50.284529],[-4.796027,50.28452],[-4.795994,50.284508],[-4.795736,50.284409],[-4.79257,50.28342],[-4.79259,50.28463],[-4.792864,50.285571],[-4.792869,50.285592],[-4.79287,50.285614],[-4.792868,50.285635],[-4.792863,50.285657],[-4.792855,50.285677],[-4.792844,50.285698],[-4.79283,50.285717],[-4.792813,50.285736],[-4.7925,50.286041],[-4.792473,50.286064],[-4.792442,50.286085],[-4.792407,50.286102],[-4.79237,50.286117],[-4.789125,50.287208],[-4.789115,50.287212],[-4.78709,50.28784],[-4.78654,50.28876],[-4.786334,50.290744],[-4.786326,50.290779],[-4.786308,50.290814],[-4.7861,50.29114],[-4.78601,50.29175],[-4.786382,50.292365],[-4.786394,50.292388],[-4.786402,50.292411],[-4.786406,50.292435],[-4.786406,50.292459],[-4.786402,50.292483],[-4.786394,50.292506],[-4.786382,50.292529],[-4.786366,50.29255],[-4.78622,50.29273],[-4.78647,50.29301],[-4.786665,50.293056],[-4.786714,50.29307],[-4.786759,50.293089],[-4.786799,50.293112],[-4.786834,50.293139],[-4.787084,50.29337],[-4.787101,50.293387],[-4.787116,50.293405],[-4.787127,50.293424],[-4.787137,50.293444],[-4.787143,50.293464],[-4.787146,50.293484],[-4.787147,50.293504],[-4.787145,50.293524],[-4.78712,50.29366],[-4.78742,50.2938],[-4.787481,50.293793],[-4.787543,50.293792],[-4.787604,50.293799],[-4.787663,50.293812],[-4.78789,50.29388],[-4.78794,50.293863],[-4.787994,50.293851],[-4.788049,50.293845],[-4.788106,50.293844],[-4.788162,50.29385],[-4.788216,50.293861],[-4.788267,50.293878],[-4.788312,50.2939],[-4.78915,50.29437],[-4.790206,50.294709],[-4.790237,50.294721],[-4.790266,50.294734],[-4.790292,50.294749],[-4.790316,50.294765],[-4.79068,50.29504],[-4.791755,50.295136],[-4.791799,50.295142],[-4.791842,50.295151],[-4.79348,50.29559],[-4.794506,50.295816],[-4.794537,50.295824],[-4.794567,50.295834],[-4.794595,50.295845],[-4.794621,50.295859],[-4.795356,50.296267],[-4.7954,50.296296],[-4.79611,50.29686],[-4.79706,50.297282],[-4.797098,50.297302],[-4.797131,50.297324],[-4.797953,50.297961],[-4.797986,50.297992],[-4.798011,50.298025],[-4.798077,50.298139],[-4.798302,50.298326],[-4.798327,50.298351],[-4.798348,50.298378],[-4.799313,50.29988],[-4.799325,50.299901],[-4.7997,50.3007],[-4.800152,50.301334],[-4.800167,50.301361],[-4.800178,50.301388],[-4.800336,50.301959],[-4.800341,50.301984],[-4.800341,50.30201],[-4.800337,50.302035],[-4.800328,50.30206],[-4.79999,50.30282],[-4.800506,50.30327],[-4.800536,50.303301],[-4.800557,50.303335],[-4.800943,50.304105],[-4.800954,50.304135],[-4.801498,50.306123],[-4.801501,50.306137],[-4.801669,50.307072],[-4.801671,50.307088],[-4.801699,50.307527],[-4.801698,50.30755],[-4.801694,50.307572],[-4.80152,50.30826],[-4.801779,50.309942],[-4.80178,50.309958],[-4.801816,50.310795],[-4.801816,50.310815],[-4.801812,50.310835],[-4.801806,50.310855],[-4.801797,50.310875],[-4.801785,50.310894],[-4.801771,50.310912],[-4.801754,50.310929],[-4.801735,50.310945],[-4.80071,50.31173],[-4.80031,50.31223],[-4.79995,50.31287],[-4.80032,50.31447],[-4.80073,50.315595],[-4.800737,50.315622],[-4.800739,50.31565],[-4.800736,50.315677],[-4.800727,50.315704],[-4.800576,50.316067],[-4.800562,50.316093],[-4.7999,50.31714],[-4.799754,50.317745],[-4.799744,50.317774],[-4.79949,50.31833],[-4.799505,50.3187],[-4.799504,50.318727],[-4.799497,50.318755],[-4.799485,50.318781],[-4.799468,50.318806],[-4.799446,50.31883],[-4.79942,50.318852],[-4.79939,50.318872],[-4.799357,50.318889],[-4.7992,50.31896],[-4.799169,50.3191],[-4.799155,50.319139],[-4.79913,50.319175],[-4.79853,50.31989],[-4.797452,50.322215],[-4.797438,50.322239],[-4.79742,50.322263],[-4.79727,50.32243],[-4.796844,50.323418],[-4.796827,50.323449],[-4.796803,50.323478],[-4.79568,50.32462],[-4.79506,50.325754],[-4.795036,50.325788],[-4.795003,50.32582],[-4.793776,50.326807],[-4.793741,50.326831],[-4.793701,50.326852],[-4.793657,50.326868],[-4.793609,50.326881],[-4.79279,50.32705],[-4.792868,50.327146],[-4.792886,50.327173],[-4.792899,50.327201],[-4.792906,50.32723],[-4.792907,50.327259],[-4.792902,50.327288],[-4.792892,50.327316],[-4.792876,50.327343],[-4.792854,50.327369],[-4.79258,50.32765],[-4.79236,50.32865],[-4.792558,50.329569],[-4.792561,50.329591],[-4.79272,50.33226],[-4.79293,50.33295],[-4.79325,50.33353],[-4.79359,50.333888],[-4.793608,50.333909],[-4.793622,50.333932],[-4.793633,50.333955],[-4.793639,50.333978],[-4.79375,50.33457],[-4.79858,50.33483],[-4.801942,50.334528],[-4.801987,50.334526],[-4.802032,50.334527],[-4.802077,50.334533],[-4.80212,50.334542],[-4.802161,50.334554],[-4.8022,50.33457],[-4.802234,50.334589],[-4.802265,50.33461],[-4.805333,50.337068],[-4.805358,50.337091],[-4.805378,50.337115],[-4.80647,50.33864],[-4.809659,50.338809],[-4.809681,50.338811],[-4.814359,50.339255],[-4.814409,50.339262],[-4.814457,50.339274],[-4.81795,50.34032],[-4.819381,50.340379],[-4.819439,50.340384],[-4.820608,50.340561],[-4.820638,50.340566],[-4.820668,50.340573],[-4.820696,50.340582],[-4.820723,50.340593],[-4.821616,50.340975],[-4.821648,50.340991],[-4.821678,50.341009],[-4.822447,50.341541],[-4.822485,50.341572],[-4.822514,50.341607],[-4.82292,50.34223],[-4.82363,50.34271],[-4.82432,50.34301],[-4.82535,50.34322],[-4.83017,50.342216],[-4.830231,50.342207],[-4.832791,50.341982],[-4.832829,50.34198],[-4.835418,50.34193],[-4.835442,50.34193],[-4.839657,50.342039],[-4.839703,50.342043],[-4.841255,50.342216],[-4.84129,50.342221],[-4.841324,50.342228],[-4.84677,50.34361],[-4.85186,50.34391],[-4.855839,50.343594],[-4.85589,50.343592],[-4.855941,50.343595],[-4.85783,50.3438],[-4.858527,50.343658],[-4.858569,50.343651],[-4.858613,50.343647],[-4.858657,50.343647],[-4.858701,50.343651],[-4.858743,50.343658],[-4.858784,50.343669],[-4.858823,50.343682],[-4.858858,50.343699],[-4.860375,50.344506],[-4.860416,50.344532],[-4.86045,50.344562],[-4.861595,50.345762],[-4.861618,50.345791],[-4.861635,50.345823],[-4.861644,50.345855],[-4.861646,50.345888],[-4.861581,50.346921],[-4.861574,50.346958],[-4.86114,50.34829],[-4.860884,50.349581],[-4.860871,50.349618],[-4.86027,50.35087],[-4.85976,50.35319],[-4.86011,50.35423],[-4.861973,50.35698],[-4.861985,50.357001],[-4.862449,50.357928],[-4.862458,50.35795],[-4.862464,50.357973],[-4.8626,50.35882],[-4.863128,50.360707],[-4.863132,50.360728],[-4.863133,50.36075],[-4.863131,50.360771],[-4.863126,50.360793],[-4.862515,50.362665],[-4.862502,50.362695],[-4.86186,50.36384],[-4.86202,50.36501],[-4.8624,50.36596],[-4.86318,50.36683],[-4.8657,50.36779],[-4.868028,50.367722],[-4.868089,50.367723],[-4.868149,50.367732],[-4.868767,50.367855],[-4.868802,50.367864],[-4.868836,50.367875],[-4.868868,50.367888],[-4.868897,50.367903],[-4.869363,50.36817],[-4.869396,50.368192],[-4.869424,50.368216],[-4.869447,50.368243],[-4.869464,50.368271],[-4.869475,50.368301],[-4.86948,50.368331],[-4.869478,50.368361],[-4.869469,50.368391],[-4.8693,50.36883],[-4.87038,50.37],[-4.872476,50.369384],[-4.872504,50.369377],[-4.873506,50.369147],[-4.873543,50.36914],[-4.873581,50.369136],[-4.87362,50.369134],[-4.873659,50.369135],[-4.874309,50.369176],[-4.874359,50.369181],[-4.874408,50.369191],[-4.874454,50.369206],[-4.874496,50.369225],[-4.874533,50.369247],[-4.874565,50.369273],[-4.874591,50.369301],[-4.87461,50.369332],[-4.874818,50.369755],[-4.874827,50.369778],[-4.874833,50.3698],[-4.874834,50.369823],[-4.874832,50.369846],[-4.87472,50.37053],[-4.875256,50.371463],[-4.875263,50.371477],[-4.876382,50.373912],[-4.876394,50.373948],[-4.87655,50.37477],[-4.87739,50.37539],[-4.87888,50.37562],[-4.880157,50.375716],[-4.8802,50.375721],[-4.880243,50.375729],[-4.880283,50.375741],[-4.880321,50.375756],[-4.880355,50.375774],[-4.880386,50.375795],[-4.880412,50.375818],[-4.880433,50.375842],[-4.88104,50.37666],[-4.882033,50.377161],[-4.88206,50.377176],[-4.882084,50.377193],[-4.882106,50.377211],[-4.882125,50.377231],[-4.883703,50.379107],[-4.883726,50.379141],[-4.88374,50.379177],[-4.88411,50.38059],[-4.88482,50.381717],[-4.884836,50.381749],[-4.884844,50.381783],[-4.884845,50.381816],[-4.884837,50.38185],[-4.884822,50.381882],[-4.8848,50.381912],[-4.88477,50.38194],[-4.884735,50.381965],[-4.88406,50.38237],[-4.88362,50.38289],[-4.88385,50.38317],[-4.886869,50.384412],[-4.886901,50.384427],[-4.88693,50.384444],[-4.886955,50.384462],[-4.886978,50.384483],[-4.886997,50.384505],[-4.887011,50.384528],[-4.887022,50.384552],[-4.887028,50.384576],[-4.887096,50.384967],[-4.887097,50.385007],[-4.887087,50.385046],[-4.887067,50.385084],[-4.887037,50.385119],[-4.88663,50.3855],[-4.88714,50.386164],[-4.887157,50.386191],[-4.887169,50.386219],[-4.88815,50.38939],[-4.89128,50.39012],[-4.892328,50.390149],[-4.892372,50.390152],[-4.894616,50.390395],[-4.894659,50.390402],[-4.894701,50.390412],[-4.895934,50.390765],[-4.895975,50.390779],[-4.896012,50.390796],[-4.896046,50.390816],[-4.896075,50.390839],[-4.896517,50.391231],[-4.896546,50.391261],[-4.896567,50.391294],[-4.89681,50.39178],[-4.89892,50.39291],[-4.900912,50.392299],[-4.90097,50.392285],[-4.903112,50.391903],[-4.903143,50.391898],[-4.903175,50.391895],[-4.903206,50.391894],[-4.903238,50.391895],[-4.903269,50.391898],[-4.9033,50.391903],[-4.90333,50.391909],[-4.903359,50.391917],[-4.90561,50.39261],[-4.90757,50.39305],[-4.90968,50.39311],[-4.911646,50.392974],[-4.911678,50.392973],[-4.91171,50.392974],[-4.911741,50.392976],[-4.911772,50.39298],[-4.91381,50.39332],[-4.91689,50.39316],[-4.919756,50.392769],[-4.919804,50.392765],[-4.919853,50.392765],[-4.919902,50.392769],[-4.919949,50.392778],[-4.919993,50.39279],[-4.920035,50.392807],[-4.920073,50.392827],[-4.920105,50.39285],[-4.92201,50.3944],[-4.92336,50.39414],[-4.92443,50.39313],[-4.9263,50.39082],[-4.92679,50.38966],[-4.927567,50.386185],[-4.927577,50.386155],[-4.927842,50.385569],[-4.927863,50.385532],[-4.928332,50.38492],[-4.928349,50.3849],[-4.929436,50.383785],[-4.929462,50.383761],[-4.929493,50.38374],[-4.932085,50.382179],[-4.932116,50.382162],[-4.935737,50.380442],[-4.935743,50.380439],[-4.939188,50.378877],[-4.939232,50.37886],[-4.93928,50.378847],[-4.93933,50.378839],[-4.939382,50.378836],[-4.939434,50.378837],[-4.939484,50.378844],[-4.939533,50.378855],[-4.939579,50.37887],[-4.93995,50.37902],[-4.94058,50.37903],[-4.941672,50.378925],[-4.94172,50.378922],[-4.941768,50.378924],[-4.94398,50.3791],[-4.94567,50.37868],[-4.94714,50.37802],[-4.948136,50.37716],[-4.948162,50.37714],[-4.948191,50.377122],[-4.948224,50.377107],[-4.948259,50.377094],[-4.948296,50.377083],[-4.948335,50.377075],[-4.948375,50.377071],[-4.948415,50.377069],[-4.95016,50.37706],[-4.95164,50.37681],[-4.95312,50.37638],[-4.95451,50.37588],[-4.958588,50.373732],[-4.958635,50.373711],[-4.960581,50.372987],[-4.96062,50.372974],[-4.96251,50.372463],[-4.96253,50.372458],[-4.97046,50.37066],[-4.97236,50.37013],[-4.97427,50.36937],[-4.97565,50.36847],[-4.976672,50.367567],[-4.976688,50.367554],[-4.97889,50.36588],[-4.983339,50.362238],[-4.983361,50.362221],[-4.983386,50.362205],[-4.98843,50.35943],[-4.992893,50.355798],[-4.992918,50.35578],[-4.992945,50.355764],[-4.992975,50.35575],[-4.993007,50.355738],[-4.995688,50.354847],[-4.995742,50.354833],[-4.995798,50.354824],[-4.999101,50.354512],[-4.999139,50.35451],[-5.002428,50.35443],[-5.002452,50.35443],[-5.00401,50.35446],[-5.00565,50.35422],[-5.0082,50.35377],[-5.01102,50.35271],[-5.013572,50.351562],[-5.013601,50.351551],[-5.013631,50.351541],[-5.016428,50.350739],[-5.016461,50.350731],[-5.016494,50.350725],[-5.02053,50.35014],[-5.02194,50.34977],[-5.02491,50.34831],[-5.02734,50.34671],[-5.02745,50.34513],[-5.027284,50.343487],[-5.027285,50.34345],[-5.027295,50.343414],[-5.02865,50.3402],[-5.02864,50.33878],[-5.027381,50.334535],[-5.027379,50.334525],[-5.026711,50.331584],[-5.026709,50.331576],[-5.026482,50.330212],[-5.02648,50.330188],[-5.02649,50.32883],[-5.026384,50.327936],[-5.026385,50.3279],[-5.026394,50.327865],[-5.026755,50.326944],[-5.026768,50.326917],[-5.02779,50.32525],[-5.028363,50.323639],[-5.028382,50.323602],[-5.02944,50.32198],[-5.030092,50.320371],[-5.030101,50.32035],[-5.030114,50.320331],[-5.031301,50.318732],[-5.031322,50.318708],[-5.03265,50.31737],[-5.03372,50.3158],[-5.03405,50.31448],[-5.03404,50.31316],[-5.032906,50.310583],[-5.032897,50.310557],[-5.032415,50.308592],[-5.032412,50.30857],[-5.032411,50.308548],[-5.032529,50.306708],[-5.032531,50.306692],[-5.0332,50.302963],[-5.033201,50.302957],[-5.034851,50.295302],[-5.034857,50.295282],[-5.034866,50.295261],[-5.034878,50.295242],[-5.034893,50.295223],[-5.036514,50.29338],[-5.036543,50.293352],[-5.036579,50.293327],[-5.0387,50.292044],[-5.038742,50.292022],[-5.038789,50.292005],[-5.040977,50.29133],[-5.041011,50.291321],[-5.041045,50.291314],[-5.04228,50.29112],[-5.04341,50.29066],[-5.04267,50.28455],[-5.042412,50.283169],[-5.042409,50.283151],[-5.04232,50.28171],[-5.04217,50.28104],[-5.04185,50.28042],[-5.040698,50.27875],[-5.04068,50.278715],[-5.04067,50.278679],[-5.04067,50.278642],[-5.040679,50.278605],[-5.040855,50.278149],[-5.040875,50.278111],[-5.040905,50.278077],[-5.04156,50.27746],[-5.039853,50.275425],[-5.039831,50.275393],[-5.03933,50.27448],[-5.038436,50.273735],[-5.038424,50.273725],[-5.03739,50.27275],[-5.03676,50.27247],[-5.035361,50.272301],[-5.035323,50.272295],[-5.035287,50.272286],[-5.035252,50.272275],[-5.035219,50.272262],[-5.035189,50.272246],[-5.035162,50.272228],[-5.035138,50.272209],[-5.035118,50.272188],[-5.035101,50.272165],[-5.035088,50.272142],[-5.03508,50.272118],[-5.035076,50.272093],[-5.035075,50.272068],[-5.03508,50.272043],[-5.035088,50.272019],[-5.035101,50.271996],[-5.03595,50.27065],[-5.036736,50.268567],[-5.036749,50.26854],[-5.036766,50.268515],[-5.036788,50.268492],[-5.036815,50.26847],[-5.036846,50.268451],[-5.03688,50.268434],[-5.036917,50.26842],[-5.036956,50.268409],[-5.038729,50.267992],[-5.038751,50.267988],[-5.0407,50.26762],[-5.0435,50.26579],[-5.04556,50.26406],[-5.04549,50.26388],[-5.043741,50.265321],[-5.043717,50.265338],[-5.041664,50.266711],[-5.041635,50.266728],[-5.040114,50.267537],[-5.040068,50.267557],[-5.040017,50.267573],[-5.039076,50.267806],[-5.039043,50.267813],[-5.03656,50.26825],[-5.035878,50.270335],[-5.035868,50.27036],[-5.035853,50.270383],[-5.034528,50.272204],[-5.034501,50.272234],[-5.034467,50.272262],[-5.034426,50.272286],[-5.03438,50.272305],[-5.033182,50.272729],[-5.033149,50.272739],[-5.033115,50.272747],[-5.03127,50.27311],[-5.02979,50.27353],[-5.02834,50.27412],[-5.027142,50.274778],[-5.027095,50.2748],[-5.02611,50.27518],[-5.0255,50.27563],[-5.025086,50.276053],[-5.025061,50.276075],[-5.025033,50.276095],[-5.025001,50.276113],[-5.024965,50.276128],[-5.024411,50.276335],[-5.024369,50.276348],[-5.024325,50.276358],[-5.023775,50.276452],[-5.023723,50.276458],[-5.023671,50.276459],[-5.023618,50.276456],[-5.023568,50.276447],[-5.022878,50.276291],[-5.022832,50.276278],[-5.022789,50.276261],[-5.02216,50.27597],[-5.01986,50.27539],[-5.01903,50.27541],[-5.018097,50.275608],[-5.018039,50.275617],[-5.01798,50.275619],[-5.017275,50.275611],[-5.017229,50.275609],[-5.017184,50.275602],[-5.01714,50.275592],[-5.017099,50.275578],[-5.01559,50.27499],[-5.013588,50.274411],[-5.013551,50.274399],[-5.013517,50.274383],[-5.013123,50.274187],[-5.013092,50.274169],[-5.013064,50.274149],[-5.012805,50.273939],[-5.012774,50.273909],[-5.012751,50.273876],[-5.01224,50.27297],[-5.01182,50.27258],[-5.011259,50.272285],[-5.011231,50.272269],[-5.011207,50.272251],[-5.01062,50.27178],[-5.00989,50.2714],[-5.00937,50.27115],[-5.00876,50.2711],[-5.005564,50.271686],[-5.005515,50.271692],[-5.00373,50.27185],[-5.003411,50.272889],[-5.003402,50.272913],[-5.003389,50.272935],[-5.003372,50.272957],[-5.003352,50.272977],[-5.003328,50.272996],[-5.003302,50.273013],[-5.003272,50.273028],[-5.003241,50.273041],[-5.00297,50.27314],[-5.001593,50.273986],[-5.001569,50.273999],[-5.001543,50.274011],[-5.001184,50.274163],[-5.001135,50.274181],[-5.001082,50.274193],[-5.001027,50.274199],[-5.000971,50.2742],[-5.000916,50.274195],[-5.000862,50.274185],[-5.000812,50.274169],[-5.000766,50.274148],[-5.000726,50.274123],[-5.000693,50.274094],[-5.000667,50.274062],[-5.00065,50.274028],[-5.000641,50.273993],[-5.000642,50.273957],[-5.000651,50.273921],[-5.000669,50.273887],[-5.00179,50.27221],[-5.00241,50.27085],[-5.001816,50.269711],[-5.001806,50.269685],[-5.0018,50.269659],[-5.001798,50.269633],[-5.001802,50.269607],[-5.001984,50.268802],[-5.001996,50.268768],[-5.002016,50.268735],[-5.002044,50.268705],[-5.002079,50.268678],[-5.00373,50.26759],[-5.00547,50.26613],[-5.006333,50.263572],[-5.006342,50.26355],[-5.006354,50.263529],[-5.00831,50.26067],[-5.008646,50.259279],[-5.008656,50.259251],[-5.008671,50.259223],[-5.008692,50.259197],[-5.008718,50.259173],[-5.01002,50.25813],[-5.01047,50.25639],[-5.01071,50.25491],[-5.00986,50.25377],[-5.009004,50.253617],[-5.00895,50.253604],[-5.008899,50.253586],[-5.008854,50.253562],[-5.008816,50.253534],[-5.008786,50.253502],[-5.008764,50.253468],[-5.008751,50.253431],[-5.008748,50.253394],[-5.008818,50.251875],[-5.008824,50.25184],[-5.008838,50.251807],[-5.009451,50.250696],[-5.009473,50.250665],[-5.010558,50.249371],[-5.010584,50.249345],[-5.010615,50.249322],[-5.010651,50.249301],[-5.01069,50.249284],[-5.010734,50.24927],[-5.010779,50.24926],[-5.010827,50.249254],[-5.010875,50.249253],[-5.01206,50.24927],[-5.013784,50.248586],[-5.013817,50.248575],[-5.01901,50.24697],[-5.02115,50.2461],[-5.02192,50.24477],[-5.019421,50.244571],[-5.019399,50.244569],[-5.01733,50.24432],[-5.017291,50.244313],[-5.017254,50.244305],[-5.017218,50.244293],[-5.017185,50.244279],[-5.014624,50.243056],[-5.014599,50.243042],[-5.014575,50.243027],[-5.014553,50.243011],[-5.014535,50.242993],[-5.012489,50.240844],[-5.012467,50.240817],[-5.012451,50.240789],[-5.012441,50.24076],[-5.012437,50.24073],[-5.01244,50.240699],[-5.012449,50.24067],[-5.012464,50.240641],[-5.012484,50.240614],[-5.015037,50.237784],[-5.015043,50.237776],[-5.01661,50.23618],[-5.017256,50.234367],[-5.017265,50.234344],[-5.017279,50.234323],[-5.017296,50.234302],[-5.017316,50.234283],[-5.017339,50.234265],[-5.017366,50.234248],[-5.017394,50.234234],[-5.017425,50.234221],[-5.01787,50.23406],[-5.016153,50.231085],[-5.016148,50.231075],[-5.015398,50.229566],[-5.015386,50.229534],[-5.015,50.22802],[-5.01437,50.22694],[-5.012493,50.227952],[-5.012459,50.227969],[-5.012421,50.227982],[-5.010761,50.228498],[-5.010725,50.228508],[-5.010688,50.228515],[-5.01065,50.228519],[-5.010611,50.22852],[-5.007648,50.228539],[-5.007613,50.228538],[-5.007579,50.228535],[-5.007544,50.22853],[-5.007511,50.228522],[-5.00748,50.228513],[-5.00745,50.228501],[-5.007422,50.228488],[-5.007396,50.228472],[-5.006253,50.227731],[-5.006222,50.227709],[-5.006197,50.227684],[-5.00394,50.22513],[-5.00198,50.22417],[-4.99903,50.22407],[-4.99726,50.224989],[-4.997218,50.225008],[-4.997172,50.225023],[-4.994164,50.225814],[-4.994115,50.225824],[-4.98695,50.22696],[-4.9848,50.22819],[-4.98481,50.22931],[-4.985325,50.230864],[-4.98533,50.230887],[-4.985332,50.23091],[-4.98533,50.230933],[-4.985325,50.230956],[-4.985026,50.231871],[-4.985016,50.231895],[-4.985002,50.231918],[-4.984985,50.231939],[-4.984964,50.23196],[-4.983986,50.2328],[-4.983962,50.232819],[-4.983934,50.232836],[-4.983904,50.232851],[-4.983872,50.232864],[-4.982648,50.233287],[-4.982609,50.233298],[-4.982568,50.233307],[-4.978612,50.233956],[-4.978571,50.233962],[-4.97853,50.233963],[-4.978488,50.233962],[-4.978447,50.233958],[-4.97724,50.23378],[-4.97499,50.23401],[-4.97461,50.23512],[-4.97551,50.23546],[-4.976266,50.235413],[-4.976313,50.235412],[-4.976359,50.235415],[-4.976404,50.235422],[-4.976447,50.235432],[-4.976488,50.235446],[-4.976525,50.235464],[-4.976558,50.235484],[-4.976587,50.235507],[-4.976641,50.235556],[-4.976666,50.235583],[-4.976684,50.235611],[-4.976697,50.235641],[-4.976703,50.235671],[-4.976703,50.235702],[-4.976696,50.235732],[-4.976683,50.235762],[-4.976664,50.23579],[-4.976638,50.235816],[-4.976608,50.23584],[-4.976573,50.235861],[-4.976533,50.235878],[-4.97649,50.235892],[-4.976445,50.235902],[-4.976398,50.235908],[-4.97635,50.23591],[-4.975024,50.235987],[-4.97498,50.235988],[-4.974937,50.235986],[-4.97303,50.23579],[-4.97198,50.23582],[-4.9708,50.23642],[-4.96932,50.23757],[-4.968396,50.238716],[-4.968376,50.238737],[-4.968354,50.238757],[-4.968328,50.238774],[-4.968299,50.23879],[-4.967538,50.239167],[-4.967506,50.239182],[-4.967471,50.239193],[-4.967435,50.239203],[-4.967397,50.239209],[-4.967358,50.239213],[-4.967319,50.239214],[-4.967279,50.239212],[-4.967241,50.239208],[-4.967203,50.2392],[-4.967167,50.23919],[-4.967133,50.239178],[-4.967101,50.239163],[-4.967072,50.239146],[-4.967047,50.239127],[-4.967024,50.239106],[-4.967006,50.239083],[-4.96592,50.23757],[-4.96217,50.23504],[-4.959078,50.233355],[-4.959047,50.233336],[-4.959021,50.233316],[-4.958999,50.233293],[-4.95898,50.233269],[-4.958967,50.233244],[-4.958958,50.233218],[-4.958954,50.233191],[-4.958955,50.233165],[-4.95901,50.23275],[-4.957255,50.231305],[-4.957231,50.231282],[-4.957211,50.231257],[-4.957196,50.231232],[-4.957186,50.231205],[-4.957181,50.231178],[-4.957182,50.23115],[-4.957188,50.231123],[-4.957199,50.231096],[-4.95732,50.23086],[-4.955692,50.230061],[-4.955651,50.230037],[-4.954167,50.229031],[-4.954136,50.229007],[-4.952109,50.227176],[-4.952083,50.227149],[-4.952064,50.22712],[-4.951786,50.226611],[-4.951776,50.226589],[-4.95146,50.22573],[-4.95096,50.2253],[-4.950503,50.22515],[-4.950475,50.22514],[-4.950449,50.225128],[-4.950425,50.225115],[-4.950403,50.225101],[-4.950383,50.225085],[-4.950365,50.225069],[-4.95035,50.225051],[-4.950337,50.225033],[-4.950327,50.225014],[-4.950319,50.224994],[-4.950314,50.224974],[-4.950312,50.224954],[-4.950313,50.224934],[-4.950317,50.224914],[-4.950323,50.224894],[-4.950332,50.224875],[-4.9505,50.22457],[-4.950106,50.223979],[-4.950088,50.223945],[-4.950079,50.223909],[-4.950079,50.223873],[-4.950088,50.223837],[-4.95031,50.22325],[-4.94963,50.22248],[-4.948427,50.2229],[-4.948383,50.222913],[-4.948337,50.222921],[-4.94829,50.222926],[-4.948242,50.222927],[-4.94767,50.222908],[-4.947616,50.222904],[-4.947564,50.222894],[-4.947515,50.222879],[-4.94747,50.22286],[-4.94743,50.222836],[-4.947397,50.222809],[-4.94737,50.222778],[-4.947351,50.222746],[-4.94721,50.22243],[-4.94611,50.2219],[-4.94523,50.22168],[-4.944,50.22167],[-4.943317,50.22183],[-4.943287,50.221836],[-4.943255,50.221841],[-4.943223,50.221843],[-4.94319,50.221844],[-4.943158,50.221842],[-4.943126,50.221839],[-4.943095,50.221834],[-4.943064,50.221827],[-4.942452,50.221666],[-4.9424,50.221649],[-4.942354,50.221627],[-4.942314,50.221601],[-4.942281,50.22157],[-4.942256,50.221537],[-4.942241,50.221501],[-4.942235,50.221464],[-4.942238,50.221427],[-4.942645,50.219564],[-4.942652,50.21954],[-4.942663,50.219517],[-4.94406,50.21708],[-4.94119,50.21718],[-4.939541,50.217374],[-4.93949,50.217378],[-4.939439,50.217376],[-4.938401,50.217302],[-4.93837,50.217299],[-4.938339,50.217294],[-4.938309,50.217287],[-4.93828,50.217279],[-4.938252,50.217268],[-4.938226,50.217257],[-4.938202,50.217243],[-4.938179,50.217229],[-4.938159,50.217213],[-4.938141,50.217196],[-4.938126,50.217178],[-4.938113,50.217159],[-4.938103,50.21714],[-4.938096,50.21712],[-4.938091,50.217099],[-4.93809,50.217079],[-4.93809,50.21608],[-4.93611,50.21605],[-4.93571,50.21633]]]},"properties":{"code":"L82045","name":"PROBUS SURGERY","icb":"QT6"}}]}