{"type":"FeatureCollection","features":[{"type":"Feature","geometry":{"type":"Polygon","coordinates":[[[-5.292568,50.260369],[-5.29335,50.25994],[-5.28854,50.22612],[-5.28168,50.22832],[-5.25833,50.21031],[-5.2549,50.19317],[-5.24391,50.19053],[-5.21782,50.20547],[-5.16495,50.21426],[-5.17044,50.24237],[-5.20752,50.24984],[-5.20683,50.25862],[-5.20615,50.26872],[-5.24529,50.28627],[-5.245947,50.28591],[-5.25215,50.28846],[-5.29198,50.26872],[-5.292568,50.260369]]]},"properties":{"code":"L82042","name":"LEATSIDE HEALTH CENTRE","icb":"QT6"}}]}