{"type":"FeatureCollection","features":[{"type":"Feature","geometry":{"type":"Polygon","coordinates":[[[-5.40836,50.2102],[-5.40203,50.19964],[-5.39879,50.19468],[-5.39813,50.18966],[-5.39969,50.18542],[-5.41199,50.17855],[-5.42011,50.17492],[-5.42549,50.17415],[-5.43794,50.17438],[-5.44005,50.17467],[-5.44182,50.17396],[-5.44287,50.17245],[-5.4569,50.16447],[-5.45946,50.16292],[-5.46193,50.16131],[-5.46532,50.15876],[-5.46885,50.15452],[-5.47333,50.14979],[-5.47548,50.14787],[-5.47672,50.14778],[-5.47797,50.14704],[-5.4786,50.14602],[-5.47767,50.14342],[-5.47508,50.1403],[-5.4739,50.13549],[-5.469026,50.13482],[-5.464709,50.133558],[-5.462342,50.132023],[-5.460622,50.130087],[-5.45911,50.128111],[-5.457102,50.126158],[-5.450839,50.123105],[-5.447257,50.122407],[-5.44374,50.121736],[-5.436427,50.119875],[-5.434664,50.119194],[-5.432966,50.118537],[-5.429302,50.117889],[-5.421201,50.116345],[-5.413394,50.114357],[-5.409621,50.113397],[-5.40579,50.11287],[-5.398755,50.11248],[-5.391442,50.112488],[-5.377733,50.111485],[-5.368759,50.110829],[-5.361956,50.109893],[-5.357945,50.109183],[-5.354172,50.108213],[-5.35075,50.107172],[-5.34639,50.10693],[-5.343896,50.107035],[-5.341476,50.107382],[-5.339067,50.107785],[-5.336577,50.107946],[-5.334476,50.107536],[-5.333428,50.106356],[-5.330083,50.104613],[-5.328938,50.104016],[-5.327942,50.103395],[-5.3269,50.10222],[-5.325833,50.100935],[-5.323956,50.100115],[-5.323097,50.100068],[-5.322203,50.100107],[-5.320615,50.100818],[-5.318383,50.102066],[-5.316928,50.102444],[-5.315533,50.10289],[-5.311948,50.104546],[-5.308337,50.105997],[-5.306994,50.106095],[-5.305657,50.106318],[-5.302932,50.106821],[-5.30075,50.10698],[-5.295258,50.106954],[-5.289848,50.104862],[-5.27636,50.11012],[-5.266017,50.11502],[-5.265401,50.116356],[-5.263938,50.118387],[-5.261929,50.121642],[-5.25826,50.126052],[-5.254693,50.128538],[-5.250932,50.130991],[-5.249701,50.133108],[-5.246539,50.134297],[-5.245697,50.135186],[-5.24523,50.13834],[-5.245127,50.140848],[-5.24713,50.142797],[-5.249018,50.148073],[-5.251492,50.153187],[-5.251548,50.156726],[-5.252016,50.160291],[-5.249534,50.169107],[-5.24725,50.178077],[-5.247662,50.184527],[-5.24923,50.19091],[-5.233182,50.204712],[-5.24126,50.207367],[-5.24825,50.21189],[-5.26185,50.21896],[-5.264705,50.223722],[-5.268256,50.227991],[-5.27678,50.23308],[-5.28288,50.23445],[-5.28906,50.23648],[-5.31841,50.22902],[-5.33558,50.22354],[-5.37025,50.21396],[-5.40836,50.2102]]]},"properties":{"code":"L82068","name":"GODOLPHIN HEALTH","icb":"QT6"}}]}