{"type":"FeatureCollection","features":[{"type":"Feature","geometry":{"type":"Polygon","coordinates":[[[-4.11164,50.393487],[-4.108468,50.393301],[-4.101591,50.391913],[-4.099376,50.391533],[-4.097497,50.392528],[-4.099872,50.393745],[-4.101119,50.393855],[-4.10511,50.394348],[-4.10712,50.39583],[-4.09899,50.39687],[-4.09751,50.3972],[-4.09772,50.39874],[-4.10145,50.40154],[-4.10372,50.40543],[-4.10664,50.40631],[-4.10542,50.40646],[-4.1053,50.40904],[-4.10549,50.41468],[-4.10699,50.41491],[-4.10779,50.41742],[-4.1085,50.42283],[-4.11455,50.41991],[-4.12056,50.41948],[-4.12245,50.41806],[-4.13116,50.42111],[-4.13715,50.42206],[-4.14047,50.42164],[-4.15266,50.427932],[-4.146223,50.433372],[-4.149227,50.435204],[-4.152274,50.438074],[-4.155107,50.435149],[-4.158583,50.432306],[-4.165449,50.429737],[-4.145536,50.420277],[-4.14798,50.41776],[-4.14826,50.41724],[-4.15031,50.41229],[-4.15433,50.41292],[-4.15663,50.41036],[-4.15791,50.40463],[-4.15664,50.4034],[-4.15451,50.40244],[-4.15088,50.4014],[-4.14902,50.39744],[-4.14631,50.39678],[-4.14363,50.39622],[-4.14214,50.39703],[-4.14096,50.39594],[-4.13889,50.39457],[-4.13618,50.3943],[-4.13202,50.3932],[-4.12777,50.39476],[-4.12657,50.39591],[-4.12585,50.39586],[-4.1256,50.39559],[-4.12307,50.39565],[-4.11907,50.3939],[-4.11864,50.39228],[-4.111977,50.393472],[-4.11164,50.393487]]]},"properties":{"code":"L83089","name":"KNOWLE HOUSE SURGERY","icb":"QJK"}}]}