{"type":"FeatureCollection","features":[{"type":"Feature","geometry":{"type":"Polygon","coordinates":[[[-3.173666,50.684896],[-3.17382,50.718622],[-3.17772,50.736579],[-3.178763,50.740411],[-3.179327,50.742486],[-3.180859,50.743808],[-3.187738,50.749745],[-3.203809,50.756579],[-3.212743,50.759056],[-3.221939,50.760252],[-3.233443,50.75664],[-3.258686,50.720706],[-3.273097,50.710415],[-3.279981,50.706308],[-3.284418,50.704911],[-3.291557,50.70464],[-3.293578,50.703195],[-3.29589,50.702905],[-3.298259,50.702325],[-3.301777,50.701216],[-3.305491,50.701697],[-3.310555,50.702051],[-3.313927,50.700731],[-3.317578,50.699836],[-3.328747,50.697593],[-3.307011,50.680135],[-3.293199,50.680213],[-3.2897,50.675779],[-3.287361,50.6722],[-3.285105,50.668748],[-3.271181,50.663528],[-3.26311,50.6709],[-3.24131,50.67623],[-3.233146,50.678225],[-3.226565,50.678796],[-3.209146,50.681826],[-3.173666,50.684896]]]},"properties":{"code":"L83067","name":"SID VALLEY PRACTICE","icb":"QJK"}}]}