{"type":"FeatureCollection","features":[{"type":"Feature","geometry":{"type":"Polygon","coordinates":[[[-3.720348,50.502114],[-3.72282,50.49661],[-3.71819,50.49705],[-3.71784,50.49224],[-3.7175,50.4905],[-3.71544,50.48569],[-3.71235,50.47979],[-3.706,50.47346],[-3.69621,50.46974],[-3.69278,50.46734],[-3.68282,50.46253],[-3.67493,50.45914],[-3.67218,50.45739],[-3.67132,50.45543],[-3.66463,50.45204],[-3.64523,50.45029],[-3.6375,50.44953],[-3.6248,50.44854],[-3.61485,50.44876],[-3.60764,50.44942],[-3.6018,50.45182],[-3.59493,50.45576],[-3.59081,50.45674],[-3.59116,50.45947],[-3.58841,50.46275],[-3.58429,50.46625],[-3.5824,50.46887],[-3.58257,50.47149],[-3.58103,50.47455],[-3.57674,50.47575],[-3.57176,50.47663],[-3.56386,50.48056],[-3.5527,50.48351],[-3.55185,50.48449],[-3.55133,50.48591],[-3.54876,50.48733],[-3.54558,50.48815],[-3.54412,50.49006],[-3.54198,50.49334],[-3.54137,50.49639],[-3.54069,50.50076],[-3.53966,50.50611],[-3.53983,50.50939],[-3.53897,50.51223],[-3.53374,50.51692],[-3.53116,50.52156],[-3.53404,50.52426],[-3.53803,50.52636],[-3.53944,50.52775],[-3.54232,50.52952],[-3.54867,50.53182],[-3.55069,50.53326],[-3.5533,50.53449],[-3.55888,50.53351],[-3.56678,50.53263],[-3.57476,50.5316],[-3.59116,50.53045],[-3.59957,50.52991],[-3.60618,50.52991],[-3.611042,50.529983],[-3.614679,50.529955],[-3.61759,50.5298],[-3.628156,50.529413],[-3.63441,50.52914],[-3.63708,50.5292],[-3.637994,50.529272],[-3.64231,50.52914],[-3.645148,50.52983],[-3.65965,50.53007],[-3.66943,50.53002],[-3.68737,50.52963],[-3.69656,50.52652],[-3.706,50.5238],[-3.71407,50.52019],[-3.71647,50.51801],[-3.71922,50.51321],[-3.7199,50.50928],[-3.72093,50.50622],[-3.720348,50.502114]]]},"properties":{"code":"L83031","name":"KINGSKERSWELL & IPPLEPEN MED PRACTICE","icb":"QJK"}}]}