{"type":"FeatureCollection","features":[{"type":"Feature","geometry":{"type":"Polygon","coordinates":[[[-4.19128,50.4072],[-4.20321,50.40764],[-4.20656,50.40086],[-4.20536,50.39604],[-4.20154,50.39254],[-4.196,50.38816],[-4.19111,50.3816],[-4.18828,50.37809],[-4.18854,50.37131],[-4.18699,50.36534],[-4.17824,50.36309],[-4.17154,50.36183],[-4.16897,50.35751],[-4.14373,50.35915],[-4.12949,50.36211],[-4.12528,50.36125],[-4.11524,50.36126],[-4.10957,50.36698],[-4.10374,50.37886],[-4.09979,50.38201],[-4.08966,50.38472],[-4.08657,50.39079],[-4.09773,50.39626],[-4.09799,50.39862],[-4.10052,50.401],[-4.10202,50.40316],[-4.10387,50.40563],[-4.10708,50.40636],[-4.11043,50.40573],[-4.12502,50.40622],[-4.13034,50.40737],[-4.13223,50.40939],[-4.1415,50.41158],[-4.15112,50.41289],[-4.17171,50.41311],[-4.17755,50.41246],[-4.19128,50.4072]]]},"properties":{"code":"L83030","name":"NORTH ROAD WEST MED.CTR.","icb":"QJK"}}]}