{"type":"FeatureCollection","features":[{"type":"Feature","geometry":{"type":"Polygon","coordinates":[[[-3.444914,50.611714],[-3.445621,50.612022],[-3.445008,50.615048],[-3.446085,50.615165],[-3.445149,50.620129],[-3.449578,50.635145],[-3.451552,50.641024],[-3.452282,50.644154],[-3.450887,50.64678],[-3.457149,50.65605],[-3.464663,50.66033],[-3.467538,50.666165],[-3.467689,50.677942],[-3.470693,50.681885],[-3.477305,50.682784],[-3.481946,50.684525],[-3.492419,50.683419],[-3.500891,50.687105],[-3.501172,50.686986],[-3.502338,50.686961],[-3.509874,50.683734],[-3.51535,50.680062],[-3.521376,50.683911],[-3.527513,50.680716],[-3.529186,50.680688],[-3.530903,50.680362],[-3.531718,50.678839],[-3.533489,50.676229],[-3.533607,50.675467],[-3.538464,50.66992],[-3.539225,50.656952],[-3.541117,50.654685],[-3.541031,50.65044],[-3.54146,50.646848],[-3.539987,50.643981],[-3.542662,50.635907],[-3.543248,50.627877],[-3.548756,50.624529],[-3.551073,50.621425],[-3.548155,50.620499],[-3.544207,50.620662],[-3.536502,50.622101],[-3.523368,50.621549],[-3.472635,50.602488],[-3.46895,50.602087],[-3.454524,50.602406],[-3.447622,50.603552],[-3.442992,50.608118],[-3.444239,50.609725],[-3.444914,50.611714]]]},"properties":{"code":"L83041","name":"WESTBANK PRACTICE","icb":"QJK"}}]}