{"type":"FeatureCollection","features":[{"type":"Feature","geometry":{"type":"Polygon","coordinates":[[[-4.123306,50.362652],[-4.121075,50.361447],[-4.116611,50.361612],[-4.113951,50.362761],[-4.112492,50.364787],[-4.111118,50.366977],[-4.109745,50.369331],[-4.113522,50.371138],[-4.113436,50.373054],[-4.111719,50.374039],[-4.10923,50.376612],[-4.107685,50.37798],[-4.108973,50.379458],[-4.109144,50.382578],[-4.114552,50.382687],[-4.119015,50.382469],[-4.122705,50.382195],[-4.126482,50.382469],[-4.129744,50.38214],[-4.131889,50.381429],[-4.133263,50.3811],[-4.13043,50.375298],[-4.130602,50.374094],[-4.131117,50.371685],[-4.131203,50.369441],[-4.131374,50.368291],[-4.13249,50.366649],[-4.1294,50.364021],[-4.123306,50.362652]]]},"properties":{"code":"L83018","name":"","icb":""}}]}