{"type":"FeatureCollection","features":[{"type":"Feature","geometry":{"type":"Polygon","coordinates":[[[-3.588851,50.384711],[-3.592212,50.381634],[-3.582387,50.37839],[-3.577006,50.368778],[-3.55174,50.364824],[-3.52515,50.365052],[-3.498861,50.376234],[-3.486912,50.394157],[-3.486127,50.396909],[-3.482917,50.398704],[-3.479754,50.400471],[-3.485523,50.401464],[-3.497915,50.402355],[-3.509881,50.399036],[-3.51333,50.401112],[-3.522772,50.40414],[-3.547631,50.405918],[-3.54794,50.40615],[-3.54902,50.4066],[-3.54968,50.40653],[-3.550387,50.406626],[-3.55661,50.427825],[-3.55485,50.42779],[-3.55285,50.42905],[-3.55349,50.43167],[-3.55755,50.43276],[-3.55836,50.43445],[-3.55796,50.43614],[-3.55631,50.44564],[-3.557155,50.446475],[-3.5577,50.446837],[-3.558184,50.447176],[-3.557973,50.447369],[-3.557524,50.447695],[-3.556179,50.448542],[-3.555613,50.448778],[-3.555213,50.449051],[-3.554713,50.449715],[-3.554181,50.451072],[-3.550401,50.452649],[-3.54178,50.45891],[-3.5477,50.46037],[-3.55087,50.46079],[-3.5518,50.46128],[-3.55282,50.4621],[-3.55403,50.46275],[-3.554398,50.463529],[-3.55471,50.46425],[-3.55361,50.46536],[-3.55732,50.46679],[-3.56304,50.4708],[-3.56637,50.47459],[-3.56734,50.47513],[-3.56887,50.47526],[-3.56987,50.47586],[-3.57046,50.47633],[-3.57242,50.47655],[-3.57425,50.47661],[-3.5757,50.47636],[-3.57819,50.47575],[-3.58248,50.47335],[-3.5812,50.46974],[-3.58404,50.46592],[-3.58953,50.46194],[-3.59091,50.45707],[-3.59332,50.45697],[-3.59346,50.45923],[-3.59384,50.46055],[-3.594551,50.461898],[-3.595879,50.464955],[-3.596355,50.464837],[-3.596826,50.464735],[-3.597366,50.464602],[-3.59816,50.46233],[-3.59996,50.46198],[-3.59967,50.46149],[-3.59839,50.461],[-3.59888,50.46092],[-3.60046,50.46026],[-3.59972,50.4601],[-3.59924,50.45979],[-3.59878,50.4591],[-3.59955,50.45854],[-3.60124,50.45807],[-3.60286,50.45778],[-3.60404,50.45717],[-3.60462,50.45617],[-3.60278,50.45534],[-3.60184,50.4527],[-3.60099,50.45202],[-3.60148,50.45103],[-3.60219,50.45063],[-3.60291,50.45039],[-3.60388,50.45018],[-3.60481,50.44972],[-3.6056,50.44945],[-3.6063,50.44951],[-3.60885,50.44902],[-3.61274,50.44723],[-3.61454,50.446],[-3.61553,50.44555],[-3.61565,50.44478],[-3.6196,50.44254],[-3.6238,50.44152],[-3.62697,50.44125],[-3.62568,50.4405],[-3.62542,50.43897],[-3.62636,50.43784],[-3.6273,50.43659],[-3.63036,50.43634],[-3.63084,50.43511],[-3.63266,50.43341],[-3.63723,50.43078],[-3.64252,50.42947],[-3.64283,50.42914],[-3.6398,50.42713],[-3.63883,50.4249],[-3.63639,50.42319],[-3.634114,50.420624],[-3.64231,50.41158],[-3.624398,50.402412],[-3.62321,50.40146],[-3.622871,50.401629],[-3.619062,50.402901],[-3.614735,50.403037],[-3.609105,50.40175],[-3.605359,50.400247],[-3.603944,50.399867],[-3.601194,50.39896],[-3.600713,50.398649],[-3.600306,50.398322],[-3.59244,50.395682],[-3.588965,50.393745],[-3.582787,50.391395],[-3.582972,50.387253],[-3.588851,50.384711]]]},"properties":{"code":"L83014","name":"MAYFIELD MEDICAL CENTRE","icb":"QJK"}}]}