{"type":"FeatureCollection","features":[{"type":"Feature","geometry":{"type":"MultiPolygon","coordinates":[[[[-4.065456,50.365394],[-4.056702,50.364408],[-4.052839,50.362985],[-4.050093,50.36178],[-4.0343,50.361616],[-4.02812,50.366105],[-4.023743,50.371088],[-4.023829,50.378368],[-4.023743,50.382247],[-4.019709,50.384936],[-4.021683,50.392535],[-4.030952,50.397569],[-4.044685,50.399867],[-4.067001,50.400086],[-4.080734,50.397132],[-4.080005,50.391147],[-4.081206,50.390326],[-4.082623,50.390107],[-4.083652,50.389697],[-4.079876,50.386078],[-4.0767,50.382035],[-4.067602,50.378094],[-4.061852,50.376671],[-4.053268,50.373934],[-4.065456,50.365394]]],[[[-4.163561,50.359422],[-4.162809,50.360567],[-4.162077,50.361128],[-4.161885,50.361203],[-4.156523,50.361996],[-4.156354,50.364902],[-4.155707,50.366161],[-4.155358,50.366329],[-4.153464,50.36638],[-4.153181,50.366306],[-4.152304,50.365707],[-4.149227,50.362981],[-4.141954,50.363582],[-4.134636,50.363584],[-4.134362,50.364801],[-4.134123,50.364992],[-4.13197,50.365488],[-4.127898,50.36513],[-4.126891,50.364952],[-4.121075,50.361773],[-4.113178,50.363197],[-4.109746,50.375347],[-4.108887,50.377109],[-4.103565,50.382144],[-4.10511,50.38105],[-4.104252,50.382692],[-4.104767,50.383786],[-4.102364,50.384005],[-4.100647,50.384443],[-4.09893,50.3851],[-4.096184,50.385428],[-4.090692,50.387289],[-4.080047,50.39112],[-4.090866,50.391667],[-4.096185,50.393418],[-4.099966,50.399223],[-4.102535,50.404463],[-4.111143,50.407979],[-4.118621,50.412547],[-4.119289,50.413158],[-4.12159,50.419231],[-4.137383,50.415621],[-4.158325,50.405776],[-4.137595,50.399224],[-4.129914,50.393363],[-4.129484,50.392323],[-4.127168,50.387617],[-4.122682,50.38297],[-4.122826,50.382703],[-4.124378,50.381979],[-4.124688,50.381942],[-4.125881,50.382138],[-4.1294,50.381371],[-4.132919,50.380605],[-4.136525,50.379517],[-4.138241,50.379517],[-4.139443,50.378751],[-4.141845,50.378094],[-4.142703,50.377218],[-4.142017,50.377328],[-4.142189,50.376452],[-4.145536,50.376996],[-4.149107,50.377997],[-4.153268,50.381544],[-4.158154,50.385261],[-4.168111,50.379255],[-4.177555,50.376886],[-4.183645,50.375244],[-4.185362,50.368949],[-4.183302,50.366047],[-4.175591,50.365391],[-4.167252,50.365117],[-4.166873,50.366753],[-4.166462,50.366973],[-4.164332,50.366928],[-4.163985,50.36677],[-4.162982,50.365076],[-4.163131,50.364219],[-4.163241,50.364084],[-4.165707,50.362598],[-4.167337,50.360298],[-4.163561,50.359422]]]]},"properties":{"code":"L83008","name":"PATHFIELDS MEDICAL GROUP","icb":"QJK"}}]}