{"type":"FeatureCollection","features":[{"type":"Feature","geometry":{"type":"Polygon","coordinates":[[[-3.65398,50.56667],[-3.66192,50.56181],[-3.65819,50.5526],[-3.6521,50.54071],[-3.652525,50.536235],[-3.64102,50.53176],[-3.62999,50.52712],[-3.624587,50.525187],[-3.61993,50.52464],[-3.62142,50.52264],[-3.621486,50.52162],[-3.621873,50.520624],[-3.622195,50.519321],[-3.622098,50.519062],[-3.621787,50.518918],[-3.620971,50.518795],[-3.619684,50.518195],[-3.618847,50.518366],[-3.617828,50.518639],[-3.61818,50.51805],[-3.61529,50.51748],[-3.60847,50.51646],[-3.58801,50.5151],[-3.59502,50.52576],[-3.58583,50.53722],[-3.58227,50.54534],[-3.56772,50.54867],[-3.54,50.54922],[-3.5376,50.55467],[-3.53485,50.55707],[-3.52695,50.56187],[-3.52352,50.56863],[-3.54824,50.58454],[-3.57038,50.58771],[-3.59013,50.58694],[-3.61759,50.5852],[-3.63579,50.58193],[-3.65398,50.56667]]]},"properties":{"code":"L83004","name":"KINGSTEIGNTON MEDICAL PRACTICE","icb":"QJK"}}]}