{"type":"FeatureCollection","features":[{"type":"Feature","geometry":{"type":"Polygon","coordinates":[[[-3.584954,50.478218],[-3.585569,50.466206],[-3.591382,50.460316],[-3.591294,50.45429],[-3.59347,50.449759],[-3.591362,50.445723],[-3.591658,50.439941],[-3.58845,50.434526],[-3.558028,50.43501],[-3.534722,50.461729],[-3.517982,50.453136],[-3.471519,50.462316],[-3.500049,50.481059],[-3.511051,50.490654],[-3.5113,50.507561],[-3.545084,50.501478],[-3.57317,50.495934],[-3.57954,50.489483],[-3.584954,50.478218]]]},"properties":{"code":"L83118","name":"CHELSTON HALL SURGERY","icb":"QJK"}}]}