{"type":"FeatureCollection","features":[{"type":"Feature","geometry":{"type":"Polygon","coordinates":[[[-3.46121,50.72831],[-3.4615,50.72517],[-3.46108,50.71712],[-3.46193,50.71339],[-3.46333,50.71107],[-3.46551,50.70833],[-3.46651,50.70668],[-3.46743,50.70503],[-3.47168,50.69687],[-3.47443,50.69348],[-3.47812,50.69021],[-3.47478,50.68786],[-3.47302,50.68755],[-3.47177,50.68458],[-3.46667,50.68305],[-3.46242,50.67689],[-3.45908,50.67548],[-3.45659,50.67504],[-3.45069,50.67576],[-3.44978,50.67268],[-3.44553,50.67009],[-3.44402,50.66642],[-3.43548,50.6543],[-3.43465,50.65146],[-3.43355,50.64987],[-3.43451,50.64862],[-3.43269,50.64767],[-3.43293,50.64564],[-3.42961,50.64342],[-3.42561,50.64132],[-3.42332,50.63878],[-3.419152,50.640601],[-3.414507,50.641534],[-3.411852,50.642067],[-3.406268,50.642893],[-3.404304,50.643314],[-3.402081,50.643821],[-3.401756,50.643916],[-3.401615,50.644533],[-3.399522,50.644733],[-3.398306,50.64485],[-3.397082,50.644773],[-3.396186,50.644521],[-3.394657,50.643718],[-3.393538,50.64313],[-3.392796,50.642868],[-3.390747,50.642583],[-3.388074,50.642287],[-3.385693,50.641865],[-3.38472,50.64152],[-3.382779,50.6405],[-3.381329,50.639746],[-3.380433,50.638778],[-3.380322,50.638182],[-3.380637,50.637723],[-3.381581,50.63617],[-3.382263,50.635179],[-3.382657,50.633459],[-3.382312,50.631612],[-3.381294,50.630137],[-3.380413,50.628952],[-3.37776,50.62974],[-3.37577,50.63026],[-3.37215,50.63184],[-3.37049,50.632219],[-3.36598,50.63272],[-3.36208,50.63336],[-3.3581,50.6331],[-3.35424,50.63317],[-3.35329,50.63358],[-3.35294,50.63444],[-3.35242,50.63474],[-3.35007,50.634],[-3.3469,50.63377],[-3.34462,50.63313],[-3.34243,50.63223],[-3.33967,50.62973],[-3.33774,50.62713],[-3.33645,50.62586],[-3.33286,50.6261],[-3.32944,50.62683],[-3.32259,50.62839],[-3.31568,50.62957],[-3.3077,50.62957],[-3.30343,50.62982],[-3.29457,50.63583],[-3.28869,50.64113],[-3.2856,50.64696],[-3.28445,50.65284],[-3.2797,50.65579],[-3.2799,50.65802],[-3.27683,50.65906],[-3.27792,50.66197],[-3.28536,50.66216],[-3.29424,50.66033],[-3.2976,50.66078],[-3.29877,50.66315],[-3.2977,50.6647],[-3.29583,50.66667],[-3.29113,50.67185],[-3.29478,50.67601],[-3.29391,50.67792],[-3.29253,50.67945],[-3.29362,50.68175],[-3.293,50.68497],[-3.29248,50.6925],[-3.29379,50.69572],[-3.28934,50.6985],[-3.28876,50.69955],[-3.28934,50.70253],[-3.29069,50.70399],[-3.2912,50.70505],[-3.2905,50.70605],[-3.28992,50.70956],[-3.29044,50.71172],[-3.29079,50.71361],[-3.2938,50.71566],[-3.29269,50.71863],[-3.29326,50.7201],[-3.31245,50.71961],[-3.31549,50.721],[-3.3223,50.7219],[-3.32641,50.72537],[-3.32893,50.72668],[-3.33562,50.72761],[-3.33381,50.7291],[-3.33286,50.73103],[-3.3323,50.73516],[-3.33079,50.73875],[-3.33851,50.73821],[-3.34554,50.73669],[-3.35279,50.7362],[-3.3571,50.73482],[-3.36141,50.73409],[-3.36295,50.73523],[-3.36372,50.73648],[-3.36637,50.73708],[-3.36978,50.73472],[-3.37456,50.73313],[-3.38654,50.72966],[-3.39774,50.72859],[-3.40471,50.72811],[-3.41014,50.72812],[-3.4168,50.72869],[-3.42106,50.72916],[-3.42463,50.72927],[-3.42898,50.729],[-3.43351,50.72892],[-3.4383,50.72922],[-3.44737,50.73036],[-3.46121,50.72831]]]},"properties":{"code":"L83116","name":"WOODBURY SURGERY","icb":"QJK"}}]}