{"type":"FeatureCollection","features":[{"type":"Feature","geometry":{"type":"Polygon","coordinates":[[[-3.55114,50.393231],[-3.54429,50.39008],[-3.53459,50.40403],[-3.53442,50.40469],[-3.53674,50.40485],[-3.537444,50.404498],[-3.546271,50.404318],[-3.552321,50.407402],[-3.554873,50.411998],[-3.55373,50.41552],[-3.555158,50.417336],[-3.555874,50.418978],[-3.556118,50.423921],[-3.551637,50.428033],[-3.55099,50.42821],[-3.55305,50.43039],[-3.553867,50.4306],[-3.557644,50.43643],[-3.54936,50.449325],[-3.54558,50.45193],[-3.54464,50.45275],[-3.54395,50.45395],[-3.54498,50.45614],[-3.547993,50.456715],[-3.55695,50.46029],[-3.566739,50.459753],[-3.571903,50.460896],[-3.596162,50.475275],[-3.597938,50.476959],[-3.59931,50.47903],[-3.605653,50.475966],[-3.606428,50.475645],[-3.621839,50.444984],[-3.624955,50.442355],[-3.62738,50.44144],[-3.62493,50.432504],[-3.624902,50.43141],[-3.625268,50.429174],[-3.62557,50.4281],[-3.63544,50.4077],[-3.634896,50.407373],[-3.63381,50.40135],[-3.6321,50.39971],[-3.62377,50.39823],[-3.623235,50.399709],[-3.617224,50.40312],[-3.61442,50.40327],[-3.607268,50.397352],[-3.60746,50.39692],[-3.60403,50.39473],[-3.60146,50.39435],[-3.59463,50.394892],[-3.593089,50.394919],[-3.590281,50.394813],[-3.586414,50.393944],[-3.58472,50.39314],[-3.5806,50.39238],[-3.579627,50.392421],[-3.57476,50.3915],[-3.557054,50.394182],[-3.551711,50.393494],[-3.55114,50.393231]]]},"properties":{"code":"L83103","name":"CORNER PLACE SURGERY","icb":"QJK"}}]}