{"type":"FeatureCollection","features":[{"type":"Feature","geometry":{"type":"Polygon","coordinates":[[[-3.552912,50.428769],[-3.553818,50.431224],[-3.555627,50.431836],[-3.557645,50.431852],[-3.559255,50.433002],[-3.559382,50.436079],[-3.556424,50.444172],[-3.552211,50.450478],[-3.54919,50.452238],[-3.546859,50.452023],[-3.544801,50.452649],[-3.543626,50.45396],[-3.544682,50.454107],[-3.545403,50.455013],[-3.54488,50.456205],[-3.543492,50.457293],[-3.542004,50.457746],[-3.540536,50.457969],[-3.540165,50.45848],[-3.541264,50.458723],[-3.541119,50.459309],[-3.539311,50.460844],[-3.536856,50.461964],[-3.535483,50.462699],[-3.533942,50.462996],[-3.532957,50.462918],[-3.532118,50.462189],[-3.530366,50.461108],[-3.528463,50.460465],[-3.526156,50.459852],[-3.525467,50.461035],[-3.524534,50.461319],[-3.523846,50.460829],[-3.524869,50.459417],[-3.525687,50.458506],[-3.525415,50.457975],[-3.525884,50.457452],[-3.524948,50.457434],[-3.524175,50.457273],[-3.523457,50.457561],[-3.521685,50.456468],[-3.520636,50.45582],[-3.520762,50.455309],[-3.519552,50.45484],[-3.518657,50.454255],[-3.517313,50.454515],[-3.51596,50.453822],[-3.51342,50.454313],[-3.512909,50.455478],[-3.510659,50.455078],[-3.510079,50.455388],[-3.510435,50.45635],[-3.508909,50.457461],[-3.507002,50.458226],[-3.504173,50.459516],[-3.500605,50.45985],[-3.500011,50.459179],[-3.498636,50.45907],[-3.496439,50.458932],[-3.494252,50.459136],[-3.4933,50.458549],[-3.491014,50.458231],[-3.490759,50.458812],[-3.489743,50.458631],[-3.488957,50.459426],[-3.488055,50.460083],[-3.487202,50.460704],[-3.485471,50.460775],[-3.484713,50.459919],[-3.48371,50.460158],[-3.482821,50.461686],[-3.481406,50.462442],[-3.480659,50.463474],[-3.481386,50.464153],[-3.48243,50.463594],[-3.483003,50.463108],[-3.484811,50.463505],[-3.4866,50.462961],[-3.487379,50.463442],[-3.489016,50.463898],[-3.490282,50.464547],[-3.490445,50.465333],[-3.491223,50.466212],[-3.490524,50.467257],[-3.490439,50.469212],[-3.491678,50.469631],[-3.49202,50.470299],[-3.493305,50.469992],[-3.494809,50.47026],[-3.496792,50.471275],[-3.497777,50.470926],[-3.498704,50.47124],[-3.499577,50.471107],[-3.500083,50.471678],[-3.500921,50.471795],[-3.501342,50.47216],[-3.500867,50.472563],[-3.501831,50.472764],[-3.501891,50.473912],[-3.500742,50.474887],[-3.499241,50.475263],[-3.497041,50.475812],[-3.498726,50.476123],[-3.500218,50.476886],[-3.50291,50.477573],[-3.504952,50.478832],[-3.506967,50.479367],[-3.507564,50.479252],[-3.508281,50.479442],[-3.50976,50.478992],[-3.511037,50.479646],[-3.512414,50.4799],[-3.513588,50.48092],[-3.514935,50.481797],[-3.514749,50.484441],[-3.514605,50.485023],[-3.51433,50.485329],[-3.513263,50.485429],[-3.512815,50.485928],[-3.513538,50.487339],[-3.514596,50.487697],[-3.514641,50.488557],[-3.513815,50.489038],[-3.514473,50.489375],[-3.514184,50.490035],[-3.513613,50.492334],[-3.513526,50.493761],[-3.513475,50.494935],[-3.513947,50.495467],[-3.515181,50.495739],[-3.515301,50.496319],[-3.513264,50.496939],[-3.514207,50.497688],[-3.512742,50.498646],[-3.512536,50.499477],[-3.512904,50.499665],[-3.513465,50.499798],[-3.51489,50.500135],[-3.516429,50.500474],[-3.519295,50.50194],[-3.519683,50.501687],[-3.520087,50.501776],[-3.52356,50.501365],[-3.523538,50.501876],[-3.524097,50.50224],[-3.530183,50.501317],[-3.534514,50.5],[-3.5358,50.501451],[-3.537734,50.501908],[-3.539109,50.501746],[-3.54053,50.501243],[-3.541868,50.500107],[-3.542395,50.498555],[-3.543842,50.497327],[-3.545023,50.497057],[-3.550254,50.497098],[-3.563879,50.497348],[-3.567871,50.497426],[-3.571967,50.497652],[-3.574924,50.497814],[-3.576759,50.49796],[-3.578141,50.497471],[-3.58845,50.498906],[-3.616642,50.492183],[-3.625583,50.490826],[-3.631009,50.487666],[-3.634296,50.485516],[-3.635712,50.483085],[-3.63872,50.479733],[-3.644565,50.464897],[-3.646275,50.460999],[-3.64773,50.458991],[-3.650268,50.457002],[-3.656693,50.452798],[-3.666656,50.449765],[-3.666516,50.446369],[-3.666245,50.440583],[-3.665916,50.434241],[-3.665883,50.434374],[-3.665858,50.434603],[-3.665907,50.433792],[-3.665742,50.433403],[-3.663122,50.432555],[-3.660338,50.431778],[-3.654725,50.430345],[-3.649131,50.429313],[-3.642756,50.427911],[-3.638294,50.430298],[-3.635708,50.431215],[-3.630565,50.433278],[-3.628348,50.432296],[-3.626229,50.426555],[-3.623718,50.425268],[-3.623614,50.423257],[-3.620796,50.42308],[-3.61634,50.422992],[-3.615079,50.422093],[-3.612761,50.422445],[-3.611653,50.421757],[-3.612016,50.416568],[-3.611952,50.415329],[-3.609747,50.413755],[-3.606757,50.413203],[-3.603567,50.412123],[-3.600485,50.410901],[-3.597912,50.411142],[-3.595728,50.410023],[-3.590739,50.409925],[-3.584281,50.409328],[-3.57914,50.408611],[-3.574015,50.408073],[-3.571405,50.406452],[-3.567551,50.403099],[-3.55564,50.407879],[-3.555746,50.410121],[-3.553986,50.412084],[-3.554344,50.414137],[-3.556673,50.416163],[-3.555945,50.418309],[-3.55763,50.419356],[-3.55964,50.421881],[-3.559447,50.424636],[-3.558935,50.426148],[-3.557546,50.428065],[-3.552912,50.428769]]]},"properties":{"code":"L83131","name":"PEMBROKE MEDICAL GROUP","icb":"QJK"}}]}