{"type":"FeatureCollection","features":[{"type":"Feature","geometry":{"type":"Polygon","coordinates":[[[-3.50224,50.7314],[-3.48275,50.72602],[-3.48318,50.72858],[-3.48121,50.73102],[-3.48138,50.73396],[-3.47769,50.7364],[-3.47786,50.73749],[-3.47769,50.73868],[-3.47983,50.74091],[-3.48155,50.74113],[-3.48387,50.74064],[-3.48619,50.74091],[-3.4879,50.74047],[-3.49185,50.74004],[-3.49571,50.73939],[-3.49889,50.73819],[-3.50112,50.73613],[-3.49966,50.73483],[-3.50086,50.73336],[-3.50121,50.73157],[-3.50224,50.7314]]]},"properties":{"code":"L83115","name":"WHIPTON SURGERY","icb":"QJK"}}]}