{"type":"FeatureCollection","features":[{"type":"Feature","geometry":{"type":"Polygon","coordinates":[[[-3.52067,50.72863],[-3.52064,50.72696],[-3.52178,50.72611],[-3.52365,50.72385],[-3.52414,50.72075],[-3.52884,50.71994],[-3.51159,50.70994],[-3.485928,50.696784],[-3.484383,50.697762],[-3.483009,50.697436],[-3.482151,50.697436],[-3.480434,50.698197],[-3.478374,50.698524],[-3.473911,50.701894],[-3.47374,50.702329],[-3.472538,50.703525],[-3.470993,50.705699],[-3.4705,50.70684],[-3.46709,50.7076],[-3.46432,50.70801],[-3.46155,50.71141],[-3.45552,50.70862],[-3.45414,50.70514],[-3.45258,50.70263],[-3.44775,50.70251],[-3.42898,50.70825],[-3.42905,50.71028],[-3.44248,50.71477],[-3.43977,50.71893],[-3.44074,50.72024],[-3.44032,50.72187],[-3.43727,50.72503],[-3.42928,50.72918],[-3.43031,50.737],[-3.42095,50.742],[-3.43018,50.74748],[-3.43659,50.76222],[-3.44248,50.76849],[-3.44553,50.767],[-3.4558,50.75128],[-3.46224,50.74682],[-3.46773,50.74202],[-3.47268,50.73811],[-3.47562,50.73668],[-3.47595,50.73619],[-3.4774,50.73653],[-3.47981,50.73533],[-3.48176,50.73396],[-3.48482,50.73314],[-3.48806,50.73275],[-3.49225,50.73203],[-3.49603,50.7319],[-3.49706,50.73192],[-3.49959,50.73163],[-3.50129,50.73165],[-3.50285,50.73136],[-3.50396,50.73174],[-3.50613,50.73143],[-3.51353,50.7309],[-3.51338,50.73027],[-3.51846,50.72947],[-3.52067,50.72863]]]},"properties":{"code":"L83143","name":"HILL BARTON SURGERY","icb":"QJK"}}]}