{"type":"FeatureCollection","features":[{"type":"Feature","geometry":{"type":"Polygon","coordinates":[[[-3.96606,50.43214],[-3.98237,50.43881],[-3.98778,50.44078],[-3.99035,50.44237],[-3.99486,50.4484],[-4.01508,50.45205],[-4.03291,50.46618],[-4.06717,50.45586],[-4.07704,50.43602],[-4.08091,50.42492],[-4.08897,50.41661],[-4.09475,50.41028],[-4.1012,50.40483],[-4.09719,50.39576],[-4.09266,50.38625],[-4.08554,50.38346],[-4.08172,50.38224],[-4.07284,50.37716],[-4.06958,50.37503],[-4.06803,50.37746],[-4.06906,50.37508],[-4.068736,50.3725],[-4.06837,50.37251],[-4.06837,50.37218],[-4.069123,50.3721],[-4.06729,50.36975],[-4.0668,50.36817],[-4.06925,50.36632],[-4.05854,50.36071],[-4.04747,50.35663],[-4.03447,50.35576],[-4.00778,50.35247],[-3.97293,50.35203],[-3.95001,50.35094],[-3.92693,50.35335],[-3.9198,50.35012],[-3.91113,50.35072],[-3.89894,50.34938],[-3.8871,50.35001],[-3.87062,50.36036],[-3.83629,50.37306],[-3.82419,50.37897],[-3.81157,50.38357],[-3.81612,50.39593],[-3.81337,50.40578],[-3.81397,50.4118],[-3.83148,50.42558],[-3.83818,50.42919],[-3.8459,50.4317],[-3.89397,50.4352],[-3.94976,50.43039],[-3.95877,50.43056],[-3.96606,50.43214]]]},"properties":{"code":"L83100","name":"BEACON MEDICAL GROUP","icb":"QJK"}}]}