{"type":"FeatureCollection","features":[{"type":"Feature","geometry":{"type":"Polygon","coordinates":[[[-3.37109,50.59828],[-3.358933,50.606093],[-3.358773,50.606127],[-3.35632,50.6059],[-3.356671,50.60748],[-3.356619,50.60758],[-3.31512,50.63422],[-3.320657,50.638844],[-3.33435,50.65512],[-3.348158,50.66178],[-3.36628,50.67688],[-3.434631,50.657378],[-3.43941,50.65643],[-3.438229,50.654731],[-3.42602,50.61789],[-3.37109,50.59828]]]},"properties":{"code":"L83628","name":"IMPERIAL SURGERY","icb":"QJK"}}]}