{"type":"FeatureCollection","features":[{"type":"Feature","geometry":{"type":"Polygon","coordinates":[[[-3.45778,50.74634],[-3.48005,50.76076],[-3.51262,50.7604],[-3.53652,50.7524],[-3.54532,50.74873],[-3.56335,50.73428],[-3.56833,50.712],[-3.56695,50.70959],[-3.56352,50.7076],[-3.54532,50.70233],[-3.53897,50.69205],[-3.53056,50.68808],[-3.51623,50.6815],[-3.51129,50.68343],[-3.50739,50.68602],[-3.49305,50.68542],[-3.48558,50.68721],[-3.4776,50.69166],[-3.47237,50.69828],[-3.46224,50.71651],[-3.46241,50.73349],[-3.45778,50.74634]]]},"properties":{"code":"L83673","name":"INCLUSION HEALTH DEVON CIC","icb":"QJK"}}]}