{"type":"FeatureCollection","features":[{"type":"Feature","geometry":{"type":"Polygon","coordinates":[[[-4.163812,50.359001],[-4.157362,50.361064],[-4.15554,50.36307],[-4.15682,50.364],[-4.15717,50.36474],[-4.155541,50.365156],[-4.15601,50.36736],[-4.150478,50.362695],[-4.14897,50.36237],[-4.141969,50.363494],[-4.133875,50.363083],[-4.133875,50.365804],[-4.135269,50.371397],[-4.138974,50.373492],[-4.139431,50.37363],[-4.139051,50.373548],[-4.139094,50.373593],[-4.139035,50.373593],[-4.139003,50.373686],[-4.1385,50.37374],[-4.13691,50.37577],[-4.13468,50.37886],[-4.13339,50.38028],[-4.13391,50.3822],[-4.13442,50.38359],[-4.13395,50.38472],[-4.13253,50.38551],[-4.1315,50.38641],[-4.1306,50.38784],[-4.13017,50.38907],[-4.1306,50.39109],[-4.1315,50.39265],[-4.13292,50.39375],[-4.13339,50.39536],[-4.13412,50.39733],[-4.13511,50.39889],[-4.13502,50.40026],[-4.13597,50.40026],[-4.13991,50.40116],[-4.14232,50.40206],[-4.14446,50.40269],[-4.14815,50.40266],[-4.15249,50.40297],[-4.15588,50.4037],[-4.16408,50.4072],[-4.16905,50.40945],[-4.17489,50.41153],[-4.17884,50.4118],[-4.18313,50.41043],[-4.18712,50.4083],[-4.19197,50.40742],[-4.20025,50.40783],[-4.204845,50.399327],[-4.201927,50.39484],[-4.197807,50.393308],[-4.193931,50.392278],[-4.18766,50.39356],[-4.186134,50.393637],[-4.186993,50.392542],[-4.186168,50.39263],[-4.187164,50.391995],[-4.184074,50.392761],[-4.185619,50.392104],[-4.185448,50.392104],[-4.183731,50.392542],[-4.183731,50.391886],[-4.184933,50.39112],[-4.183559,50.390572],[-4.184589,50.390353],[-4.184589,50.389259],[-4.184933,50.386961],[-4.1809,50.38401],[-4.184761,50.380065],[-4.183216,50.377218],[-4.183731,50.365613],[-4.169954,50.364914],[-4.167135,50.359718],[-4.163812,50.359001]]]},"properties":{"code":"L83646","name":"ST. LEVAN SURGERY","icb":"QJK"}}]}