{"type":"FeatureCollection","features":[{"type":"Feature","geometry":{"type":"Polygon","coordinates":[[[-4.163976,50.358781],[-4.162372,50.359749],[-4.161492,50.360905],[-4.159147,50.360809],[-4.15631,50.36153],[-4.155699,50.361519],[-4.156394,50.36162],[-4.156064,50.361676],[-4.155742,50.361731],[-4.155051,50.361555],[-4.155209,50.36154],[-4.155084,50.361508],[-4.155297,50.361512],[-4.155484,50.361452],[-4.155402,50.361448],[-4.151024,50.362194],[-4.1484,50.369746],[-4.148085,50.372462],[-4.144782,50.373928],[-4.141961,50.375351],[-4.142713,50.376642],[-4.139149,50.377316],[-4.135269,50.378159],[-4.13489,50.378504],[-4.134894,50.378829],[-4.134314,50.379178],[-4.13421,50.37963],[-4.13348,50.38028],[-4.13343,50.38089],[-4.13453,50.38355],[-4.13413,50.3847],[-4.13219,50.38557],[-4.13055,50.38772],[-4.13028,50.39004],[-4.13134,50.39282],[-4.13316,50.39416],[-4.13361,50.3955],[-4.13367,50.39666],[-4.13425,50.39777],[-4.1351,50.39891],[-4.13517,50.40005],[-4.13878,50.40052],[-4.14247,50.402],[-4.1446,50.40254],[-4.147,50.40275],[-4.15266,50.40298],[-4.15725,50.40422],[-4.16006,50.40548],[-4.16266,50.40682],[-4.163063,50.406877],[-4.163575,50.407056],[-4.16827,50.405709],[-4.169778,50.404799],[-4.171835,50.40492],[-4.173033,50.404531],[-4.1739,50.4046],[-4.175211,50.403894],[-4.175926,50.403611],[-4.17786,50.40312],[-4.18043,50.40286],[-4.18532,50.40127],[-4.18341,50.39915],[-4.1834,50.39832],[-4.18288,50.39749],[-4.18004,50.39708],[-4.17892,50.39593],[-4.19317,50.3903],[-4.18871,50.38403],[-4.18502,50.37771],[-4.18455,50.37232],[-4.18571,50.36715],[-4.18206,50.36567],[-4.17892,50.36457],[-4.17335,50.36515],[-4.17073,50.36494],[-4.16873,50.36391],[-4.16636,50.36306],[-4.16759,50.36194],[-4.16768,50.35995],[-4.163976,50.358781]]]},"properties":{"code":"L83624","name":"DEVONPORT HEALTH CENTRE","icb":"QJK"}}]}