{"type":"FeatureCollection","features":[{"type":"Feature","geometry":{"type":"MultiPolygon","coordinates":[[[[-4.10959,50.382487],[-4.110299,50.382692],[-4.111452,50.38273],[-4.114252,50.382705],[-4.118394,50.382445],[-4.119713,50.382425],[-4.12107,50.382387],[-4.120947,50.382924],[-4.119898,50.383718],[-4.12041,50.383909],[-4.121204,50.383814],[-4.122244,50.383636],[-4.122931,50.383793],[-4.123381,50.383937],[-4.123789,50.384128],[-4.124132,50.384149],[-4.124488,50.383376],[-4.126332,50.383547],[-4.127169,50.383608],[-4.128253,50.383985],[-4.129293,50.38445],[-4.13013,50.385011],[-4.130763,50.385312],[-4.131149,50.385551],[-4.131257,50.385346],[-4.131482,50.38523],[-4.132479,50.385223],[-4.133069,50.385278],[-4.133606,50.38497],[-4.134116,50.38444],[-4.134518,50.384293],[-4.134727,50.384272],[-4.134824,50.384221],[-4.134834,50.384098],[-4.134571,50.383848],[-4.134217,50.383177],[-4.13381,50.382151],[-4.133467,50.381152],[-4.133779,50.381139],[-4.13424,50.381063],[-4.134422,50.381248],[-4.135936,50.380975],[-4.136836,50.380831],[-4.137452,50.380903],[-4.138402,50.381063],[-4.139507,50.380906],[-4.140473,50.380742],[-4.141482,50.3804],[-4.143348,50.379603],[-4.143519,50.379353],[-4.143691,50.379134],[-4.14411,50.378895],[-4.146834,50.377909],[-4.147349,50.377697],[-4.146812,50.377389],[-4.145719,50.377212],[-4.14441,50.376842],[-4.143562,50.37637],[-4.142822,50.375836],[-4.143283,50.375638],[-4.143337,50.375173],[-4.142833,50.374974],[-4.143241,50.374871],[-4.143831,50.374406],[-4.145311,50.373496],[-4.146073,50.373236],[-4.146963,50.373106],[-4.147848,50.37287],[-4.148358,50.37248],[-4.148589,50.372097],[-4.148642,50.371806],[-4.148557,50.371029],[-4.14853,50.370338],[-4.148428,50.369613],[-4.148519,50.369455],[-4.148519,50.369342],[-4.14846,50.369038],[-4.148251,50.368781],[-4.147875,50.368556],[-4.147553,50.368449],[-4.147167,50.368388],[-4.146454,50.368388],[-4.14573,50.368378],[-4.144742,50.368261],[-4.144227,50.368234],[-4.143755,50.368289],[-4.143696,50.367892],[-4.143654,50.367491],[-4.143621,50.367211],[-4.143605,50.366947],[-4.143637,50.366687],[-4.143637,50.366427],[-4.143691,50.365089],[-4.14367,50.364097],[-4.143348,50.363984],[-4.143026,50.363772],[-4.142619,50.363614],[-4.142339,50.363604],[-4.142034,50.363683],[-4.141856,50.363775],[-4.141695,50.363946],[-4.141358,50.3641],[-4.140977,50.364217],[-4.140403,50.364131],[-4.139818,50.363998],[-4.13933,50.363755],[-4.138976,50.363566],[-4.138616,50.363491],[-4.138262,50.363477],[-4.137624,50.363471],[-4.137329,50.363378],[-4.137077,50.363262],[-4.136567,50.363214],[-4.136106,50.363334],[-4.135827,50.363399],[-4.135119,50.363317],[-4.134786,50.363303],[-4.134513,50.363368],[-4.134394,50.363505],[-4.134518,50.363878],[-4.134625,50.3642],[-4.134663,50.364655],[-4.134593,50.365052],[-4.134475,50.365493],[-4.134207,50.365876],[-4.134057,50.366266],[-4.134378,50.366742],[-4.134604,50.36718],[-4.134808,50.367707],[-4.136079,50.367878],[-4.136063,50.368097],[-4.135671,50.368278],[-4.135806,50.368576],[-4.13536,50.368709],[-4.135017,50.368884],[-4.134979,50.369144],[-4.135119,50.369568],[-4.135248,50.369972],[-4.135278,50.370211],[-4.135183,50.370591],[-4.134132,50.370745],[-4.133244,50.370949],[-4.13253,50.371204],[-4.132276,50.371216],[-4.131999,50.371272],[-4.131074,50.371007],[-4.130151,50.370766],[-4.128017,50.370403],[-4.127072,50.370249],[-4.126659,50.370194],[-4.125721,50.370095],[-4.12535,50.37004],[-4.125557,50.370136],[-4.125634,50.370225],[-4.125586,50.370417],[-4.125516,50.370588],[-4.125704,50.370817],[-4.125991,50.371045],[-4.126321,50.371248],[-4.126611,50.371501],[-4.127587,50.372439],[-4.127067,50.37247],[-4.125903,50.372521],[-4.12505,50.372545],[-4.124218,50.372593],[-4.12248,50.373065],[-4.122899,50.373452],[-4.12322,50.373565],[-4.123584,50.373647],[-4.120955,50.374345],[-4.120023,50.374488],[-4.118843,50.374427],[-4.117588,50.374266],[-4.116686,50.374285],[-4.115582,50.374529],[-4.113145,50.375118],[-4.112073,50.375474],[-4.111065,50.375966],[-4.110432,50.376274],[-4.10967,50.375932],[-4.109391,50.376007],[-4.109316,50.376322],[-4.109176,50.376479],[-4.108763,50.376473],[-4.108543,50.377136],[-4.108264,50.377602],[-4.107749,50.378149],[-4.107406,50.378847],[-4.107149,50.379435],[-4.106913,50.38001],[-4.106977,50.380503],[-4.107192,50.380968],[-4.107428,50.381351],[-4.107856,50.381693],[-4.108306,50.381939],[-4.109076,50.382322],[-4.10959,50.382487]]],[[[-4.116054,50.39283],[-4.115099,50.392959],[-4.115174,50.393418],[-4.115152,50.393931],[-4.115163,50.395046],[-4.116869,50.396119],[-4.119224,50.395948],[-4.121004,50.39588],[-4.122855,50.396249],[-4.124646,50.396899],[-4.126696,50.398356],[-4.12837,50.399573],[-4.130151,50.400175],[-4.132083,50.400503],[-4.134293,50.40049],[-4.13517,50.400174],[-4.136259,50.400084],[-4.136782,50.400119],[-4.136932,50.400353],[-4.137554,50.400462],[-4.138433,50.400517],[-4.139291,50.400695],[-4.139828,50.400873],[-4.140493,50.401214],[-4.141136,50.401488],[-4.141844,50.401803],[-4.142509,50.402049],[-4.143303,50.402309],[-4.144269,50.402541],[-4.145449,50.402733],[-4.146457,50.402801],[-4.147444,50.402787],[-4.148775,50.402774],[-4.150128,50.402746],[-4.151255,50.402808],[-4.152478,50.402425],[-4.152949,50.40191],[-4.152863,50.401335],[-4.15324,50.400968],[-4.154141,50.400736],[-4.156308,50.399809],[-4.158454,50.39971],[-4.160814,50.399646],[-4.165192,50.40064],[-4.167649,50.401481],[-4.169526,50.401826],[-4.169665,50.401936],[-4.169752,50.402671],[-4.170749,50.402733],[-4.171575,50.401529],[-4.170987,50.401009],[-4.170737,50.400417],[-4.170642,50.399635],[-4.169419,50.397768],[-4.168357,50.395901],[-4.16782,50.394957],[-4.167649,50.39458],[-4.167375,50.394235],[-4.166522,50.39325],[-4.16573,50.39206],[-4.164564,50.391161],[-4.163842,50.390495],[-4.163534,50.390039],[-4.163234,50.389714],[-4.162129,50.388688],[-4.161082,50.387788],[-4.160315,50.387429],[-4.160042,50.387245],[-4.159972,50.387032],[-4.160315,50.387046],[-4.160702,50.387008],[-4.160879,50.386878],[-4.16089,50.386787],[-4.161629,50.386359],[-4.163946,50.385852],[-4.165751,50.385428],[-4.167382,50.385073],[-4.167083,50.384717],[-4.166823,50.384443],[-4.166436,50.384142],[-4.166168,50.3838],[-4.16571,50.383239],[-4.165395,50.382945],[-4.164977,50.382664],[-4.164559,50.382227],[-4.16399,50.381378],[-4.163305,50.380434],[-4.162619,50.379476],[-4.162189,50.378847],[-4.161353,50.377752],[-4.160923,50.377191],[-4.160172,50.376192],[-4.15955,50.375412],[-4.158627,50.375754],[-4.157941,50.376001],[-4.157233,50.376274],[-4.156503,50.376493],[-4.155752,50.376767],[-4.155087,50.376999],[-4.154485,50.377205],[-4.153881,50.37741],[-4.151929,50.37715],[-4.150707,50.377164],[-4.14942,50.377328],[-4.148326,50.377482],[-4.147864,50.377687],[-4.14743,50.377711],[-4.145939,50.378276],[-4.14419,50.378905],[-4.143761,50.379138],[-4.143375,50.379637],[-4.141497,50.380443],[-4.140499,50.380783],[-4.139502,50.380947],[-4.138332,50.381091],[-4.137517,50.380964],[-4.136884,50.380892],[-4.134432,50.381306],[-4.134196,50.381152],[-4.133597,50.381228],[-4.13365,50.381392],[-4.133869,50.382032],[-4.134293,50.38316],[-4.134647,50.38388],[-4.134888,50.384111],[-4.134891,50.384224],[-4.134743,50.384313],[-4.134534,50.38433],[-4.134116,50.384494],[-4.133563,50.385066],[-4.133075,50.385303],[-4.132442,50.385242],[-4.131522,50.385244],[-4.131316,50.385343],[-4.131176,50.385613],[-4.130768,50.385363],[-4.129883,50.384905],[-4.129422,50.384597],[-4.128939,50.384368],[-4.127936,50.383916],[-4.12704,50.38365],[-4.126203,50.383581],[-4.124563,50.383458],[-4.124262,50.384142],[-4.124143,50.384272],[-4.123735,50.384224],[-4.12322,50.383998],[-4.122695,50.383827],[-4.122179,50.383745],[-4.120431,50.383985],[-4.120216,50.383971],[-4.120026,50.383992],[-4.120495,50.385592],[-4.120259,50.386536],[-4.11998,50.38761],[-4.120356,50.388041],[-4.121461,50.388226],[-4.122866,50.388397],[-4.124143,50.388513],[-4.124163,50.388807],[-4.124024,50.388972],[-4.123529,50.389177],[-4.122715,50.38956],[-4.121846,50.389635],[-4.120666,50.389751],[-4.120017,50.389981],[-4.120168,50.390264],[-4.120227,50.390415],[-4.120313,50.390825],[-4.120517,50.391167],[-4.120699,50.391393],[-4.120855,50.391643],[-4.120881,50.391862],[-4.120828,50.392057],[-4.120608,50.39219],[-4.120366,50.392316],[-4.119132,50.392275],[-4.118327,50.392132],[-4.117888,50.392323],[-4.117008,50.392604],[-4.116054,50.39283]]]]},"properties":{"code":"L83648","name":"PEVERELL PARK SURGERY","icb":"QJK"}}]}