{"type":"FeatureCollection","features":[{"type":"Feature","geometry":{"type":"Polygon","coordinates":[[[-2.534044,51.854604],[-2.53329,51.85452],[-2.52595,51.85251],[-2.52091,51.84926],[-2.51793,51.84554],[-2.5151,51.84002],[-2.50986,51.83557],[-2.51553,51.83281],[-2.51514,51.82909],[-2.50935,51.81965],[-2.50883,51.81111],[-2.50596,51.81076],[-2.5018,51.81291],[-2.49765,51.8142],[-2.49958,51.81455],[-2.49858,51.81511],[-2.49694,51.8157],[-2.49553,51.81604],[-2.49341,51.81523],[-2.48866,51.81668],[-2.4828,51.81952],[-2.47875,51.81753],[-2.47301,51.82258],[-2.47021,51.8221],[-2.46731,51.82193],[-2.45675,51.82487],[-2.45257,51.82476],[-2.44371,51.82252],[-2.44023,51.82214],[-2.43538,51.82277],[-2.43125,51.82256],[-2.42597,51.82647],[-2.42074,51.82758],[-2.41804,51.8276],[-2.41552,51.82699],[-2.41511,51.82463],[-2.41265,51.8228],[-2.41001,51.82335],[-2.40823,51.82278],[-2.40472,51.82116],[-2.38562,51.82053],[-2.37923,51.82159],[-2.37012,51.82401],[-2.36469,51.8278],[-2.36609,51.82948],[-2.35781,51.83547],[-2.35676,51.83899],[-2.35652,51.84127],[-2.35344,51.84602],[-2.35005,51.84731],[-2.34632,51.84797],[-2.34238,51.8486],[-2.33877,51.84944],[-2.3353,51.8507],[-2.33343,51.85099],[-2.33097,51.85106],[-2.32411,51.84872],[-2.31837,51.85874],[-2.31781,51.86504],[-2.32399,51.8691],[-2.32939,51.87044],[-2.335,51.87022],[-2.33842,51.87032],[-2.3469,51.87656],[-2.35358,51.87838],[-2.36017,51.87766],[-2.38056,51.87813],[-2.39927,51.87609],[-2.46815,51.89509],[-2.48027,51.89837],[-2.48809,51.8984],[-2.49531,51.89787],[-2.51518,51.89747],[-2.53454,51.91367],[-2.54389,51.90899],[-2.5319,51.90405],[-2.52797,51.89599],[-2.53166,51.8927],[-2.53188,51.89015],[-2.53252,51.88808],[-2.54009,51.88425],[-2.54389,51.88148],[-2.54514,51.88017],[-2.5472,51.86165],[-2.55321,51.85905],[-2.55825,51.86109],[-2.56103,51.8611],[-2.56415,51.86079],[-2.57065,51.85901],[-2.5775,51.85882],[-2.59801,51.86547],[-2.58254,51.85933],[-2.57888,51.85722],[-2.57609,51.85637],[-2.57469,51.85775],[-2.5727,51.85764],[-2.56922,51.85775],[-2.56226,51.85744],[-2.55939,51.85375],[-2.54278,51.85558],[-2.537174,51.854954],[-2.53638,51.85476],[-2.534044,51.854604]]]},"properties":{"code":"L84045","name":"MITCHELDEAN SURGERY","icb":"QR1"}}]}