{"type":"FeatureCollection","features":[{"type":"Feature","geometry":{"type":"Polygon","coordinates":[[[-2.45888,51.55018],[-2.457412,51.549902],[-2.457374,51.549894],[-2.44892,51.54762],[-2.443896,51.546576],[-2.443838,51.54656],[-2.443785,51.546538],[-2.443739,51.546511],[-2.443701,51.546479],[-2.43965,51.54228],[-2.43656,51.54036],[-2.434167,51.54036],[-2.434153,51.54036],[-2.417045,51.539931],[-2.416991,51.539927],[-2.416938,51.539918],[-2.412741,51.538979],[-2.412706,51.53897],[-2.412673,51.538959],[-2.4091,51.53758],[-2.39811,51.53523],[-2.38094,51.53374],[-2.372279,51.533911],[-2.372223,51.533909],[-2.357972,51.532781],[-2.357917,51.532774],[-2.357865,51.532762],[-2.357816,51.532744],[-2.357772,51.532723],[-2.357734,51.532697],[-2.357703,51.532668],[-2.35768,51.532636],[-2.357664,51.532603],[-2.357658,51.532568],[-2.357659,51.532533],[-2.35767,51.532499],[-2.357689,51.532466],[-2.357716,51.532435],[-2.35775,51.532408],[-2.357791,51.532383],[-2.357837,51.532364],[-2.35313,51.52797],[-2.3497,51.52519],[-2.344682,51.527618],[-2.344645,51.527634],[-2.344605,51.527646],[-2.342898,51.528111],[-2.342854,51.528121],[-2.342809,51.528127],[-2.342763,51.52813],[-2.342717,51.528128],[-2.33356,51.52754],[-2.32533,51.52754],[-2.330597,51.528322],[-2.33063,51.528328],[-2.330661,51.528336],[-2.330691,51.528345],[-2.33072,51.528357],[-2.330747,51.528369],[-2.330771,51.528384],[-2.330794,51.5284],[-2.330814,51.528417],[-2.330831,51.528435],[-2.330846,51.528454],[-2.330857,51.528473],[-2.330866,51.528494],[-2.330872,51.528515],[-2.330874,51.528536],[-2.330873,51.528557],[-2.330869,51.528578],[-2.330862,51.528598],[-2.330852,51.528618],[-2.330839,51.528638],[-2.330823,51.528656],[-2.330804,51.528674],[-2.330783,51.52869],[-2.330759,51.528705],[-2.330734,51.528719],[-2.330706,51.528731],[-2.330677,51.528742],[-2.330646,51.52875],[-2.330614,51.528757],[-2.330581,51.528762],[-2.330547,51.528765],[-2.330514,51.528766],[-2.33048,51.528765],[-2.3243,51.5284],[-2.31194,51.52882],[-2.305805,51.531371],[-2.305758,51.531388],[-2.305708,51.5314],[-2.28516,51.53523],[-2.26936,51.54249],[-2.248128,51.554423],[-2.248077,51.554447],[-2.24802,51.554465],[-2.23091,51.55872],[-2.21581,51.57152],[-2.22542,51.58432],[-2.234308,51.595798],[-2.234322,51.595819],[-2.234333,51.595841],[-2.23434,51.595864],[-2.234343,51.595886],[-2.235719,51.61587],[-2.235719,51.61589],[-2.23434,51.63592],[-2.23434,51.6508],[-2.234337,51.65083],[-2.234327,51.650859],[-2.23022,51.6602],[-2.22336,51.67724],[-2.22542,51.68107],[-2.232228,51.681914],[-2.232279,51.681922],[-2.232327,51.681935],[-2.24396,51.68575],[-2.258993,51.687871],[-2.259026,51.687876],[-2.259057,51.687884],[-2.259088,51.687893],[-2.259117,51.687904],[-2.27623,51.69512],[-2.366774,51.697248],[-2.366821,51.697251],[-2.366866,51.697257],[-2.36691,51.697268],[-2.366952,51.697282],[-2.38884,51.70576],[-2.42317,51.69512],[-2.4369,51.67681],[-2.441682,51.667076],[-2.441699,51.667049],[-2.44172,51.667024],[-2.441747,51.667001],[-2.441778,51.666979],[-2.456332,51.658297],[-2.456357,51.658283],[-2.456384,51.658271],[-2.456413,51.65826],[-2.456443,51.658251],[-2.456475,51.658244],[-2.456507,51.658239],[-2.45654,51.658236],[-2.456574,51.658234],[-2.456607,51.658235],[-2.45664,51.658237],[-2.456673,51.658242],[-2.456705,51.658248],[-2.456736,51.658256],[-2.456766,51.658266],[-2.456794,51.658277],[-2.45682,51.65829],[-2.466409,51.652762],[-2.466454,51.65274],[-2.47467,51.64934],[-2.473578,51.648776],[-2.47355,51.64876],[-2.473524,51.648742],[-2.473502,51.648722],[-2.473483,51.648701],[-2.473468,51.648679],[-2.473457,51.648656],[-2.47345,51.648632],[-2.473447,51.648608],[-2.473449,51.648584],[-2.473454,51.64856],[-2.473463,51.648537],[-2.473477,51.648515],[-2.473494,51.648493],[-2.473514,51.648473],[-2.473538,51.648454],[-2.473565,51.648437],[-2.47536,51.64742],[-2.46529,51.643675],[-2.46524,51.643653],[-2.465197,51.643625],[-2.465162,51.643594],[-2.465136,51.643559],[-2.46512,51.643522],[-2.465114,51.643484],[-2.465119,51.643446],[-2.465134,51.643408],[-2.480334,51.616176],[-2.480346,51.616156],[-2.480362,51.616137],[-2.480381,51.616119],[-2.480402,51.616102],[-2.49733,51.60395],[-2.50214,51.59712],[-2.48935,51.592945],[-2.489298,51.592924],[-2.489253,51.592898],[-2.489215,51.592868],[-2.489186,51.592834],[-2.489167,51.592798],[-2.489158,51.59276],[-2.489159,51.592722],[-2.489171,51.592684],[-2.494575,51.58092],[-2.494586,51.5809],[-2.50214,51.56896],[-2.48154,51.55744],[-2.476943,51.559065],[-2.476895,51.559079],[-2.476843,51.559089],[-2.47679,51.559093],[-2.476736,51.559093],[-2.476683,51.559088],[-2.476632,51.559078],[-2.476583,51.559063],[-2.476539,51.559044],[-2.465401,51.553454],[-2.465361,51.55343],[-2.465327,51.553403],[-2.4653,51.553373],[-2.465281,51.553341],[-2.46471,51.5521],[-2.459461,51.550465],[-2.459427,51.550453],[-2.459396,51.550439],[-2.45888,51.55018]]]},"properties":{"code":"L84051","name":"CHIPPING SURGERY","icb":"QR1"}}]}