{"type":"FeatureCollection","features":[{"type":"Feature","geometry":{"type":"Polygon","coordinates":[[[-2.08466,51.79269],[-2.087408,51.783135],[-2.091014,51.769433],[-2.099939,51.761997],[-2.108865,51.742974],[-2.105249,51.726178],[-2.09847,51.6791],[-2.08466,51.64748],[-2.07597,51.63306],[-2.05698,51.62375],[-1.99428,51.60554],[-1.92518,51.60299],[-1.84304,51.63533],[-1.83206,51.66015],[-1.818923,51.701927],[-1.792144,51.670426],[-1.761932,51.665741],[-1.726912,51.663186],[-1.687084,51.658075],[-1.62562,51.663612],[-1.609146,51.695757],[-1.616353,51.731281],[-1.653439,51.764121],[-1.703221,51.785258],[-1.770162,51.785683],[-1.783892,51.79078],[-1.814101,51.801821],[-1.860806,51.812011],[-1.9305,51.81222],[-1.95213,51.81042],[-1.97805,51.80968],[-2.01187,51.80973],[-2.04981,51.81063],[-2.08466,51.79269]]]},"properties":{"code":"L84010","name":"UPPER THAMES MEDICAL GROUP","icb":"QR1"}}]}