{"type":"FeatureCollection","features":[{"type":"Feature","geometry":{"type":"Polygon","coordinates":[[[-2.25245,51.96027],[-2.24499,51.95384],[-2.23975,51.94688],[-2.219551,51.939198],[-2.205032,51.936131],[-2.192234,51.935885],[-2.170913,51.936459],[-2.140339,51.929332],[-2.126266,51.94157],[-2.082243,51.946396],[-2.08019,51.96426],[-2.04373,51.982186],[-2.025921,51.989924],[-2.011943,51.996322],[-2.02406,52.01785],[-2.03513,52.02335],[-2.03638,52.04816],[-2.09948,52.06542],[-2.10174,52.07254],[-2.11545,52.07289],[-2.11848,52.07242],[-2.12727,52.07038],[-2.13557,52.06677],[-2.14645,52.06194],[-2.14641,52.05859],[-2.15931,52.05965],[-2.16498,52.06051],[-2.17383,52.05885],[-2.1785,52.05865],[-2.18267,52.05993],[-2.18662,52.06238],[-2.1934,52.0633],[-2.2092,52.03111],[-2.21308,52.03065],[-2.22005,52.03019],[-2.22321,52.03025],[-2.22706,52.03149],[-2.23202,52.0343],[-2.23767,52.03701],[-2.24739,52.0178],[-2.2831,52.00885],[-2.28387,52.00871],[-2.2734,52.00232],[-2.25851,51.98575],[-2.26908,51.97527],[-2.26558,51.96683],[-2.25245,51.96027]]]},"properties":{"code":"L84023","name":"CHURCH STREET PRACTICE","icb":"QR1"}}]}