{"type":"FeatureCollection","features":[{"type":"Feature","geometry":{"type":"Polygon","coordinates":[[[-1.89617,51.74064],[-1.82716,51.75488],[-1.767433,51.783486],[-1.767302,51.78351],[-1.74408,51.78229],[-1.636979,51.871342],[-1.63675,51.871384],[-1.63396,51.87077],[-1.632726,51.874849],[-1.62872,51.87819],[-1.631377,51.878677],[-1.631523,51.878824],[-1.61997,51.91696],[-1.670882,51.929294],[-1.74695,51.95667],[-1.87467,51.9632],[-1.874022,51.954431],[-1.874073,51.954346],[-1.933605,51.914814],[-1.955235,51.903445],[-1.98964,51.89138],[-1.991597,51.882107],[-1.99196,51.882],[-1.989586,51.877642],[-1.989628,51.877521],[-1.9899,51.87734],[-1.98897,51.876512],[-1.94939,51.80373],[-1.89617,51.74064]]]},"properties":{"code":"L84038","name":"COTSWOLD MEDICAL PRACTICE","icb":"QR1"}}]}