{"type":"FeatureCollection","features":[{"type":"Feature","geometry":{"type":"Polygon","coordinates":[[[-2.450973,51.865892],[-2.45484,51.865097],[-2.456732,51.865044],[-2.458706,51.864302],[-2.46188,51.863772],[-2.465484,51.864143],[-2.468491,51.864249],[-2.471579,51.863136],[-2.474326,51.862871],[-2.477073,51.862606],[-2.479734,51.863666],[-2.481879,51.865521],[-2.484541,51.863984],[-2.48727,51.86274],[-2.49012,51.86695],[-2.48866,51.86793],[-2.48755,51.86934],[-2.4887,51.86999],[-2.48969,51.87011],[-2.49094,51.8707],[-2.49158,51.87183],[-2.49209,51.87318],[-2.49287,51.87464],[-2.49325,51.87697],[-2.49355,51.88094],[-2.5048,51.88531],[-2.50883,51.88725],[-2.5105,51.8896],[-2.51407,51.89196],[-2.51917,51.89371],[-2.52445,51.89662],[-2.53235,51.8954],[-2.53587,51.89506],[-2.53866,51.89383],[-2.54185,51.89316],[-2.54414,51.89325],[-2.54608,51.89223],[-2.55106,51.89376],[-2.55981,51.89344],[-2.56462,51.89143],[-2.56707,51.89119],[-2.56799,51.89052],[-2.57094,51.88991],[-2.5725,51.88892],[-2.57414,51.88811],[-2.57573,51.88781],[-2.57889,51.88777],[-2.5805,51.88815],[-2.58235,51.88846],[-2.58428,51.88852],[-2.58511,51.88849],[-2.58629,51.88878],[-2.58659,51.88899],[-2.58745,51.88939],[-2.58831,51.88963],[-2.59003,51.88963],[-2.59106,51.88984],[-2.6023,51.8811],[-2.60088,51.87986],[-2.60196,51.87707],[-2.60363,51.87493],[-2.60633,51.87199],[-2.61166,51.8694],[-2.61329,51.86817],[-2.61275,51.86734],[-2.61022,51.86598],[-2.60891,51.86568],[-2.6005,51.86314],[-2.59423,51.86223],[-2.58831,51.86123],[-2.58634,51.86075],[-2.58483,51.8594],[-2.58247,51.85773],[-2.58093,51.85561],[-2.5787,51.85359],[-2.5787,51.85184],[-2.58059,51.85055],[-2.58247,51.84978],[-2.58505,51.84972],[-2.58685,51.84986],[-2.58762,51.85041],[-2.59114,51.85381],[-2.59548,51.85476],[-2.59756,51.85503],[-2.5993,51.85402],[-2.59973,51.85312],[-2.59844,51.85174],[-2.59685,51.85019],[-2.60196,51.84546],[-2.60355,51.8438],[-2.60771,51.84119],[-2.60912,51.83941],[-2.61148,51.83869],[-2.6129,51.83368],[-2.61286,51.82909],[-2.61543,51.82692],[-2.62033,51.82116],[-2.62217,51.81993],[-2.62412,51.81762],[-2.62354,51.81087],[-2.62161,51.80389],[-2.61372,51.80564],[-2.60982,51.80593],[-2.6058,51.80617],[-2.60479,51.80615],[-2.60171,51.80458],[-2.60098,51.80393],[-2.60007,51.80333],[-2.59911,51.80302],[-2.5986,51.80279],[-2.59826,51.80252],[-2.59806,51.80166],[-2.59782,51.80121],[-2.598,51.80041],[-2.59863,51.799],[-2.59866,51.79829],[-2.59887,51.79748],[-2.59868,51.79609],[-2.5987,51.79516],[-2.59835,51.79415],[-2.57516,51.79367],[-2.546718,51.793924],[-2.536813,51.787383],[-2.531326,51.785684],[-2.527205,51.784409],[-2.526175,51.781011],[-2.523084,51.779737],[-2.520681,51.77825],[-2.520681,51.775276],[-2.51347,51.771664],[-2.504884,51.760829],[-2.4884,51.750415],[-2.476039,51.74069],[-2.472262,51.74255],[-2.469,51.744995],[-2.463162,51.745845],[-2.459041,51.747652],[-2.454409,51.748502],[-2.448744,51.751372],[-2.443422,51.753709],[-2.409426,51.766672],[-2.403429,51.773576],[-2.40549,51.777187],[-2.410637,51.780373],[-2.424888,51.78271],[-2.44025,51.78356],[-2.4427,51.78546],[-2.4454,51.78661],[-2.44789,51.7903],[-2.44892,51.79864],[-2.43948,51.81095],[-2.42738,51.8171],[-2.41322,51.81392],[-2.411329,51.812011],[-2.406178,51.807341],[-2.403602,51.805856],[-2.399995,51.804157],[-2.395358,51.803202],[-2.392437,51.802247],[-2.387971,51.800973],[-2.384191,51.800018],[-2.381282,51.79885],[-2.379053,51.797894],[-2.376475,51.797045],[-2.374074,51.795877],[-2.371324,51.795134],[-2.369778,51.794603],[-2.367893,51.793966],[-2.364117,51.794179],[-2.362055,51.794709],[-2.359656,51.79524],[-2.356566,51.79577],[-2.355536,51.796407],[-2.352611,51.796727],[-2.347984,51.799486],[-2.347296,51.803838],[-2.355194,51.804581],[-2.360681,51.813604],[-2.362742,51.824003],[-2.358449,51.827822],[-2.353471,51.828883],[-2.351073,51.830474],[-2.354679,51.831959],[-2.356909,51.83599],[-2.354165,51.843414],[-2.352233,51.846331],[-2.34779,51.847868],[-2.34845,51.865892],[-2.352938,51.865521],[-2.357426,51.86515],[-2.361116,51.864832],[-2.364547,51.864938],[-2.367809,51.86621],[-2.370557,51.866104],[-2.37364,51.865905],[-2.375265,51.866501],[-2.378111,51.867456],[-2.379441,51.867721],[-2.380772,51.867747],[-2.383604,51.867641],[-2.386426,51.867932],[-2.401239,51.871669],[-2.402546,51.871721],[-2.403854,51.871774],[-2.415012,51.862659],[-2.420591,51.8581],[-2.423381,51.855821],[-2.424775,51.854681],[-2.425189,51.854151],[-2.426305,51.854098],[-2.429609,51.857358],[-2.434668,51.860114],[-2.442141,51.86144],[-2.446945,51.863931],[-2.449179,51.864408],[-2.450973,51.865892]]]},"properties":{"code":"L84028","name":"FOREST HEALTH CARE","icb":"QR1"}}]}