{"type":"FeatureCollection","features":[{"type":"Feature","geometry":{"type":"Polygon","coordinates":[[[-2.62531,50.95771],[-2.62621,50.95762],[-2.62733,50.95744],[-2.63217,50.95618],[-2.63257,50.95587],[-2.633629,50.9574],[-2.636204,50.956805],[-2.652855,50.956805],[-2.671394,50.956913],[-2.683522,50.952733],[-2.686501,50.945882],[-2.679119,50.941448],[-2.668648,50.937878],[-2.665043,50.932685],[-2.661266,50.927492],[-2.656288,50.9276],[-2.644787,50.930846],[-2.64307,50.932469],[-2.639465,50.933875],[-2.637405,50.934849],[-2.635345,50.93539],[-2.633286,50.936255],[-2.629509,50.936796],[-2.628136,50.937337],[-2.626762,50.937986],[-2.62416,50.94259],[-2.624702,50.937878],[-2.62204,50.94294],[-2.61958,50.94413],[-2.61836,50.94441],[-2.61667,50.94447],[-2.61531,50.94438],[-2.61278,50.94312],[-2.61091,50.9424],[-2.60761,50.94144],[-2.60735,50.94162],[-2.60721,50.94192],[-2.60723,50.94232],[-2.60737,50.94275],[-2.60729,50.94316],[-2.60689,50.94348],[-2.60669,50.94349],[-2.60651,50.94337],[-2.6063,50.94333],[-2.60608,50.94339],[-2.60598,50.94354],[-2.60593,50.94388],[-2.6062,50.9446],[-2.60598,50.94512],[-2.60574,50.9453],[-2.60545,50.94536],[-2.60479,50.94517],[-2.60422,50.94479],[-2.60355,50.94487],[-2.60332,50.94504],[-2.60332,50.94532],[-2.60317,50.94544],[-2.6023,50.94561],[-2.60173,50.94586],[-2.60045,50.94627],[-2.60034,50.94639],[-2.60044,50.94679],[-2.60033,50.9469],[-2.59856,50.947],[-2.59796,50.94712],[-2.59747,50.94736],[-2.59739,50.94768],[-2.59695,50.94795],[-2.59686,50.94845],[-2.59726,50.94842],[-2.59754,50.94846],[-2.59777,50.94857],[-2.5979,50.94873],[-2.59733,50.94915],[-2.59734,50.9492],[-2.59668,50.94963],[-2.59727,50.94995],[-2.59735,50.95006],[-2.59737,50.95042],[-2.59706,50.95097],[-2.59718,50.95135],[-2.59729,50.95142],[-2.59782,50.9515],[-2.59795,50.95156],[-2.59805,50.9517],[-2.59803,50.95209],[-2.5979,50.95217],[-2.59738,50.95227],[-2.59727,50.95237],[-2.59725,50.95248],[-2.59732,50.95272],[-2.59745,50.95286],[-2.59798,50.95312],[-2.59813,50.95325],[-2.59825,50.95382],[-2.59816,50.95412],[-2.59746,50.95508],[-2.59749,50.95582],[-2.59719,50.95627],[-2.59684,50.95722],[-2.59686,50.9574],[-2.59731,50.95774],[-2.59739,50.95788],[-2.59739,50.95841],[-2.59724,50.95871],[-2.61104,50.96131],[-2.61441,50.96166],[-2.61595,50.96151],[-2.61743,50.96128],[-2.61883,50.96085],[-2.61962,50.96039],[-2.6203,50.95951],[-2.62149,50.95888],[-2.62377,50.95781],[-2.62531,50.95771]]]},"properties":{"code":"L85064","name":"OAKLANDS SURGERY","icb":"QSL"}}]}