{"type":"FeatureCollection","features":[{"type":"Feature","geometry":{"type":"Polygon","coordinates":[[[-2.34569,51.00115],[-2.34628,51.00659],[-2.34794,51.01194],[-2.35066,51.01712],[-2.35439,51.02204],[-2.35907,51.02663],[-2.36462,51.03082],[-2.37098,51.03453],[-2.37802,51.03771],[-2.38564,51.04032],[-2.39372,51.0423],[-2.40213,51.04362],[-2.41074,51.04428],[-2.41941,51.04424],[-2.42801,51.04353],[-2.43639,51.04214],[-2.44444,51.04011],[-2.45201,51.03745],[-2.459,51.03422],[-2.46528,51.03046],[-2.47076,51.02624],[-2.47536,51.02161],[-2.479,51.01667],[-2.48163,51.01147],[-2.48319,51.00611],[-2.48327,51.00529],[-2.48839,51.00398],[-2.49596,51.00132],[-2.50293,50.99809],[-2.50921,50.99433],[-2.51468,50.9901],[-2.51927,50.98548],[-2.52291,50.98053],[-2.52553,50.97533],[-2.52709,50.96997],[-2.52757,50.96453],[-2.52696,50.95909],[-2.52528,50.95374],[-2.52255,50.94856],[-2.51881,50.94365],[-2.51412,50.93906],[-2.50856,50.93489],[-2.50221,50.93118],[-2.49518,50.92801],[-2.48757,50.92541],[-2.47951,50.92344],[-2.47112,50.92212],[-2.46253,50.92147],[-2.45388,50.9215],[-2.4453,50.92222],[-2.43694,50.9236],[-2.42891,50.92564],[-2.42136,50.9283],[-2.41439,50.93153],[-2.40125,50.93528],[-2.401198,50.937662],[-2.399139,50.93896],[-2.397079,50.940691],[-2.395705,50.941123],[-2.393623,50.948338],[-2.395017,50.948045],[-2.393527,50.948671],[-2.392958,50.950641],[-2.391277,50.954421],[-2.392956,50.955832],[-2.390358,50.956487],[-2.389872,50.957578],[-2.390207,50.958427],[-2.38946,50.958505],[-2.388148,50.961454],[-2.386922,50.962098],[-2.388832,50.964914],[-2.383341,50.967076],[-2.381739,50.967278],[-2.378534,50.970103],[-2.37394,50.971419],[-2.373044,50.972265],[-2.370984,50.972265],[-2.367869,50.973157],[-2.362059,50.975291],[-2.35407,50.98021],[-2.35042,50.98515],[-2.34778,50.99035],[-2.34619,50.99571],[-2.34569,51.00115]]]},"properties":{"code":"L85031","name":"MILBORNE PORT SURGERY","icb":"QSL"}}]}