{"type":"FeatureCollection","features":[{"type":"Feature","geometry":{"type":"Polygon","coordinates":[[[-2.91893,51.06902],[-2.91996,51.07085],[-2.92322,51.07301],[-2.92665,51.0743],[-2.92803,51.07614],[-2.93369,51.07991],[-2.93455,51.08358],[-2.93867,51.08401],[-2.94073,51.08638],[-2.94348,51.08864],[-2.94468,51.09091],[-2.94691,51.09102],[-2.94949,51.09048],[-2.95137,51.09177],[-2.95584,51.09317],[-2.9591,51.09544],[-2.96099,51.09695],[-2.96597,51.09953],[-2.96545,51.10147],[-2.96665,51.10331],[-2.96974,51.10385],[-2.97077,51.106],[-2.97232,51.10697],[-2.97318,51.1101],[-2.97455,51.11182],[-2.9785,51.11398],[-2.98124,51.11538],[-2.98399,51.11645],[-2.98759,51.11613],[-2.99137,51.11624],[-2.99515,51.11839],[-2.99875,51.1199],[-3.00081,51.11904],[-3.00648,51.11796],[-3.00991,51.11699],[-3.0142,51.11559],[-3.01867,51.11376],[-3.02536,51.1227],[-3.02862,51.12292],[-3.0336,51.124],[-3.03583,51.12378],[-3.03961,51.12454],[-3.04441,51.12691],[-3.04733,51.12863],[-3.05523,51.13089],[-3.06673,51.13315],[-3.07789,51.13326],[-3.08081,51.12755],[-3.08733,51.12766],[-3.09334,51.12809],[-3.09832,51.12766],[-3.10244,51.12691],[-3.10776,51.12475],[-3.11256,51.12314],[-3.11634,51.12238],[-3.12166,51.1199],[-3.12389,51.11861],[-3.12595,51.1157],[-3.12698,51.11355],[-3.12801,51.11117],[-3.1299,51.10805],[-3.13076,51.10449],[-3.13265,51.1005],[-3.13059,51.09716],[-3.12939,51.09414],[-3.13162,51.09199],[-3.13248,51.09037],[-3.13059,51.08908],[-3.12698,51.08681],[-3.12252,51.08433],[-3.11909,51.08304],[-3.11514,51.08239],[-3.11256,51.07894],[-3.10707,51.07657],[-3.1002,51.07419],[-3.0899,51.07614],[-3.08441,51.07355],[-3.08338,51.07031],[-3.07789,51.06988],[-3.07377,51.06578],[-3.07034,51.05995],[-3.0669,51.05456],[-3.06484,51.04593],[-3.0645,51.04075],[-3.06313,51.03751],[-3.05969,51.03287],[-3.05145,51.03319],[-3.04107,51.02407],[-3.03892,51.02704],[-3.03738,51.03168],[-3.03257,51.03233],[-3.03171,51.03783],[-3.02982,51.04334],[-3.02193,51.04744],[-3.00888,51.04787],[-2.99789,51.04852],[-2.98725,51.04722],[-2.97592,51.04787],[-2.96734,51.05024],[-2.9567,51.05434],[-2.94399,51.05909],[-2.93232,51.0619],[-2.91893,51.06902]]]},"properties":{"code":"L85056","name":"NORTH PETHERTON SURGERY","icb":"QSL"}}]}