{"type":"FeatureCollection","features":[{"type":"Feature","geometry":{"type":"Polygon","coordinates":[[[-2.932017,51.154667],[-2.934039,51.155662],[-2.9373,51.154693],[-2.942108,51.155016],[-2.945541,51.15394],[-2.946915,51.154478],[-2.949148,51.154263],[-2.952067,51.154801],[-2.955158,51.155555],[-2.959622,51.156093],[-2.964427,51.158785],[-2.962025,51.159215],[-2.967346,51.159969],[-2.968894,51.161239],[-2.972463,51.162328],[-2.984848,51.164598],[-2.986737,51.164598],[-2.985334,51.165213],[-2.985707,51.165351],[-2.989311,51.165351],[-2.991199,51.165997],[-2.994461,51.165459],[-2.997035,51.16589],[-2.99786,51.16571],[-3.00059,51.16341],[-3.00134,51.16405],[-3.00335,51.16324],[-3.00557,51.16254],[-3.00676,51.16119],[-3.00999,51.15958],[-3.0125,51.1596],[-3.01501,51.15941],[-3.01794,51.15965],[-3.02191,51.15903],[-3.02722,51.15809],[-3.03138,51.15641],[-3.03473,51.15546],[-3.04653,51.15061],[-3.05711,51.1444],[-3.05738,51.13943],[-3.05805,51.13664],[-3.05944,51.13403],[-3.06198,51.13005],[-3.06134,51.12756],[-3.061239,51.127396],[-3.06115,51.12755],[-3.060895,51.126837],[-3.059252,51.124163],[-3.0584,51.12344],[-3.0584,51.122777],[-3.057444,51.121222],[-3.05738,51.12179],[-3.056633,51.120006],[-3.052204,51.11467],[-3.04971,51.11325],[-3.048,51.10974],[-3.04436,51.10677],[-3.03797,51.10596],[-3.03989,51.10591],[-3.03699,51.10543],[-3.0353,51.10551],[-3.03087,51.10559],[-3.02399,51.10429],[-3.00613,51.10429],[-3.00299,51.103898],[-3.00061,51.10451],[-2.999845,51.103903],[-2.99839,51.10392],[-2.99417,51.10446],[-2.99242,51.10386],[-2.98998,51.10392],[-2.98741,51.10449],[-2.98381,51.10484],[-2.98103,51.10565],[-2.97768,51.1067],[-2.973309,51.107556],[-2.97408,51.10714],[-2.93701,51.11234],[-2.93254,51.11408],[-2.92708,51.1187],[-2.92628,51.12302],[-2.9248,51.1282],[-2.92445,51.12885],[-2.92342,51.13423],[-2.92422,51.13769],[-2.92639,51.14201],[-2.92638,51.1426],[-2.92293,51.14964],[-2.924198,51.150792],[-2.924337,51.150763],[-2.924079,51.148986],[-2.924936,51.149202],[-2.925948,51.150426],[-2.926138,51.150386],[-2.926049,51.150548],[-2.926508,51.151103],[-2.925789,51.151018],[-2.925508,51.151525],[-2.926482,51.151678],[-2.928368,51.152863],[-2.929226,51.153509],[-2.9318,51.153617],[-2.93146,51.154586],[-2.932017,51.154667]]]},"properties":{"code":"L85051","name":"REDGATE MEDICAL CENTRE","icb":"QSL"}}]}