{"type":"FeatureCollection","features":[{"type":"Feature","geometry":{"type":"Polygon","coordinates":[[[-2.421416,50.99374],[-2.394801,50.973129],[-2.335826,51.004852],[-2.265374,51.037892],[-2.263859,51.037664],[-2.284162,51.046424],[-2.291369,51.056012],[-2.290003,51.068739],[-2.310833,51.085451],[-2.346863,51.099346],[-2.400578,51.12412],[-2.457413,51.114886],[-2.419079,51.063447],[-2.419121,51.062221],[-2.458848,51.115024],[-2.525768,51.099935],[-2.525425,51.099503],[-2.532975,51.029166],[-2.532405,51.02931],[-2.487149,51.004997],[-2.456615,50.995925],[-2.421416,50.99374]]]},"properties":{"code":"L85027","name":"WINCANTON HEALTH CENTRE","icb":"QSL"}}]}