{"type":"FeatureCollection","features":[{"type":"Feature","geometry":{"type":"Polygon","coordinates":[[[-3.114539,51.016239],[-3.1331,51.02498],[-3.13414,51.02498],[-3.1381,51.02459],[-3.13895,51.02456],[-3.14174,51.02419],[-3.14649,51.02345],[-3.1488,51.02322],[-3.15445,51.02239],[-3.15975,51.02102],[-3.16251,51.02011],[-3.16666,51.01825],[-3.17047,51.01622],[-3.17445,51.01424],[-3.18065,51.01027],[-3.186464,51.006599],[-3.187923,51.001266],[-3.183031,50.977804],[-3.16715,50.95799],[-3.14484,50.95735],[-3.1263,50.94783],[-3.08853,50.96513],[-3.09093,50.97356],[-3.08372,50.98588],[-3.0954,50.99366],[-3.10145,51.00265],[-3.10048,51.00508],[-3.09896,51.00764],[-3.10226,51.00987],[-3.10435,51.01095],[-3.1054,51.01162],[-3.106449,51.013984],[-3.10868,51.013248],[-3.110687,51.01308],[-3.113273,51.015388],[-3.114539,51.016239]]]},"properties":{"code":"L85021","name":"COLLEGE WAY SURGERY","icb":"QSL"}}]}