{"type":"FeatureCollection","features":[{"type":"Feature","geometry":{"type":"Polygon","coordinates":[[[-2.01668,52.11852],[-2.01754,52.11178],[-2.02226,52.09322],[-2.02887,52.07402],[-2.02423,52.03813],[-2.00312,52.03264],[-1.974708,52.038343],[-1.964064,52.037023],[-1.952133,52.038607],[-1.932305,52.031796],[-1.927073,52.038185],[-1.917458,52.043781],[-1.911363,52.04547],[-1.905698,52.041247],[-1.88587,52.04478],[-1.863901,52.052754],[-1.863297,52.062518],[-1.87214,52.064681],[-1.875402,52.070379],[-1.874715,52.071751],[-1.86965,52.074653],[-1.862698,52.07518],[-1.854715,52.075391],[-1.846304,52.080139],[-1.833859,52.075022],[-1.82167,52.08246],[-1.820383,52.085413],[-1.817636,52.085994],[-1.814632,52.081088],[-1.807165,52.093219],[-1.80193,52.098386],[-1.794377,52.101708],[-1.790257,52.101708],[-1.790171,52.106716],[-1.77807,52.109879],[-1.763608,52.115124],[-1.768884,52.11457],[-1.78115,52.118523],[-1.789828,52.118892],[-1.795233,52.121896],[-1.797811,52.126797],[-1.789656,52.131539],[-1.808882,52.138914],[-1.823902,52.135437],[-1.828366,52.140811],[-1.826907,52.145393],[-1.831799,52.145235],[-1.834374,52.147342],[-1.840296,52.151555],[-1.844929,52.148343],[-1.842955,52.142654],[-1.84982,52.138756],[-1.853342,52.136912],[-1.860467,52.140442],[-1.865875,52.142918],[-1.867677,52.14513],[-1.868703,52.152029],[-1.875829,52.154083],[-1.885874,52.15561],[-1.891107,52.154978],[-1.892053,52.150555],[-1.892308,52.149238],[-1.883383,52.148501],[-1.888018,52.142602],[-1.892137,52.138071],[-1.898833,52.135648],[-1.903811,52.132909],[-1.903467,52.137387],[-1.905269,52.142022],[-1.912736,52.142812],[-1.925009,52.152661],[-1.93574,52.152029],[-1.941748,52.152714],[-1.945868,52.155452],[-1.938485,52.162087],[-1.938315,52.168352],[-1.946125,52.167246],[-1.952563,52.16872],[-1.9613,52.16733],[-1.980457,52.175195],[-1.99814,52.16909],[-2.00449,52.14371],[-2.01668,52.11852]]]},"properties":{"code":"M81058","name":"MERSTOW GREEN MEDICAL PRACTICE","icb":"QGH"}}]}