{"type":"FeatureCollection","features":[{"type":"Feature","geometry":{"type":"MultiPolygon","coordinates":[[[[-2.11478,52.18509],[-2.113299,52.1853],[-2.11169,52.1853],[-2.108528,52.186088],[-2.1062,52.18651],[-2.105933,52.18715],[-2.10534,52.18793],[-2.10508,52.18925],[-2.105339,52.190666],[-2.10543,52.19204],[-2.10723,52.19398],[-2.10809,52.19467],[-2.109781,52.194784],[-2.109804,52.195172],[-2.108935,52.19527],[-2.106161,52.196565],[-2.102153,52.197453],[-2.100823,52.198716],[-2.099492,52.200268],[-2.099406,52.206975],[-2.100393,52.208947],[-2.101939,52.209894],[-2.10357,52.210472],[-2.105974,52.210919],[-2.108635,52.210972],[-2.11164,52.210814],[-2.117008,52.20971],[-2.120271,52.20913],[-2.12413,52.208553],[-2.126534,52.207054],[-2.126963,52.204766],[-2.127221,52.202346],[-2.126277,52.199268],[-2.125408,52.198502],[-2.12525,52.19809],[-2.124668,52.197731],[-2.12431,52.19735],[-2.124018,52.197385],[-2.120782,52.19627],[-2.115975,52.19506],[-2.114767,52.195009],[-2.114669,52.194662],[-2.11564,52.1944],[-2.11761,52.19356],[-2.1189,52.19225],[-2.11933,52.19082],[-2.11907,52.18967],[-2.11856,52.18862],[-2.1177,52.18746],[-2.116757,52.186617],[-2.11573,52.18556],[-2.11478,52.18509]]],[[[-2.212013,52.160428],[-2.204759,52.160954],[-2.199766,52.163508],[-2.196238,52.163574],[-2.194004,52.165603],[-2.193893,52.165651],[-2.19128,52.166048],[-2.188297,52.167456],[-2.185299,52.169678],[-2.175762,52.172523],[-2.173563,52.174002],[-2.169326,52.176129],[-2.167942,52.178586],[-2.164218,52.182418],[-2.164575,52.184328],[-2.16278,52.186326],[-2.162307,52.18955],[-2.161599,52.19339],[-2.161513,52.196264],[-2.161256,52.197704],[-2.163094,52.197388],[-2.16636,52.194589],[-2.169608,52.193197],[-2.172381,52.192363],[-2.175781,52.192236],[-2.177544,52.192594],[-2.179192,52.19281],[-2.184795,52.194008],[-2.188112,52.194009],[-2.195981,52.194613],[-2.200349,52.194494],[-2.203106,52.194613],[-2.205077,52.194261],[-2.21637,52.195165],[-2.222787,52.193337],[-2.223137,52.183969],[-2.224584,52.180958],[-2.226435,52.17901],[-2.225105,52.176603],[-2.222744,52.174866],[-2.220401,52.173377],[-2.219027,52.171753],[-2.218709,52.170164],[-2.220319,52.16793],[-2.220533,52.166904],[-2.21781,52.162835],[-2.218237,52.161902],[-2.212013,52.160428]]]]},"properties":{"code":"M81035","name":"ST MARTIN'S GATE SURGERY","icb":"QGH"}}]}