{"type":"FeatureCollection","features":[{"type":"Feature","geometry":{"type":"Polygon","coordinates":[[[-2.33185,52.15245],[-2.3394,52.14381],[-2.336397,52.123846],[-2.335281,52.123213],[-2.334187,52.122515],[-2.333393,52.121922],[-2.331848,52.120908],[-2.329843,52.120772],[-2.326813,52.121984],[-2.325439,52.122353],[-2.323866,52.122967],[-2.322264,52.123459],[-2.321176,52.124074],[-2.319002,52.125005],[-2.31697,52.126322],[-2.311907,52.129238],[-2.308829,52.130077],[-2.307845,52.130223],[-2.307415,52.130889],[-2.305698,52.131662],[-2.304182,52.133435],[-2.302494,52.133593],[-2.300091,52.134858],[-2.297316,52.133102],[-2.295885,52.132469],[-2.294713,52.131802],[-2.290292,52.130634],[-2.290292,52.130687],[-2.29016,52.130621],[-2.285415,52.132873],[-2.28244,52.132382],[-2.2546,52.14529],[-2.23469,52.1415],[-2.24773,52.16319],[-2.26696,52.16382],[-2.2982,52.17246],[-2.33185,52.15245]]]},"properties":{"code":"M81081","name":"ST SAVIOURS SURGERY","icb":"QGH"}}]}