{"type":"FeatureCollection","features":[{"type":"Feature","geometry":{"type":"Polygon","coordinates":[[[-2.12963,52.03749],[-2.13032,52.03666],[-2.13307,52.0356],[-2.13615,52.03328],[-2.14027,52.02546],[-2.156689,51.997988],[-2.155316,51.997116],[-2.152977,51.998199],[-2.150316,51.997644],[-2.148685,51.997856],[-2.138321,51.999811],[-2.13285,52.003285],[-2.129116,52.005293],[-2.121434,52.009652],[-2.122464,52.003311],[-2.114053,51.997988],[-2.078862,51.981523],[-2.07024,51.9779],[-2.05856,51.97747],[-2.01565,51.98636],[-2.010369,51.995477],[-2.00552,51.992835],[-1.998911,51.991751],[-1.990285,51.999547],[-1.96861,52.02176],[-1.97668,52.04025],[-1.98715,52.04521],[-1.99454,52.04796],[-1.99728,52.05017],[-2.009082,52.061067],[-2.031269,52.06199],[-2.0795,52.07592],[-2.08757,52.0737],[-2.0977,52.07571],[-2.10869,52.07613],[-2.11916,52.080877],[-2.123666,52.079875],[-2.129674,52.078293],[-2.133064,52.075708],[-2.133965,52.072279],[-2.131648,52.06753],[-2.12461,52.062386],[-2.11727,52.0565],[-2.11624,52.04383],[-2.12963,52.03749]]]},"properties":{"code":"M81007","name":"BREDON HILL SURGERY","icb":"QGH"}}]}