{"type":"FeatureCollection","features":[{"type":"Feature","geometry":{"type":"Polygon","coordinates":[[[-1.98132,52.35547],[-1.98956,52.3496],[-1.98475,52.34289],[-1.982,52.33639],[-1.982,52.32905],[-2.01874,52.30113],[-2.00097,52.28832],[-1.98681,52.28391],[-1.98132,52.26963],[-1.97016,52.26795],[-1.9384,52.26742],[-1.91454,52.27288],[-1.90613,52.27351],[-1.89857,52.27614],[-1.88982,52.27835],[-1.88244,52.2858],[-1.86733,52.30743],[-1.88536,52.33335],[-1.91368,52.34541],[-1.92372,52.34588],[-1.93102,52.35306],[-1.95316,52.35778],[-1.98132,52.35547]]]},"properties":{"code":"M81002","name":"ELGAR HOUSE","icb":"QGH"}}]}