{"type":"FeatureCollection","features":[{"type":"Feature","geometry":{"type":"Polygon","coordinates":[[[-2.661495,52.378509],[-2.67586,52.35946],[-2.74203,52.3248],[-2.75345,52.32396],[-2.75328,52.32086],[-2.69036,52.25597],[-2.67672,52.25219],[-2.66959,52.24688],[-2.64011,52.23695],[-2.56514,52.23653],[-2.52926,52.23658],[-2.52042,52.23653],[-2.51724,52.23647],[-2.49072,52.24814],[-2.48643,52.25229],[-2.45544,52.27541],[-2.44257,52.28013],[-2.4206,52.31047],[-2.4194,52.32286],[-2.42523,52.35579],[-2.43124,52.35443],[-2.47467,52.36805],[-2.48411,52.36805],[-2.48857,52.36543],[-2.51947,52.37434],[-2.53441,52.37602],[-2.54432,52.37908],[-2.54505,52.38603],[-2.545105,52.3912],[-2.54505,52.39446],[-2.56256,52.40703],[-2.56268,52.40703],[-2.56282,52.40713],[-2.579359,52.407032],[-2.594666,52.407031],[-2.63904,52.40755],[-2.64934,52.40462],[-2.653102,52.394063],[-2.65328,52.39409],[-2.65594,52.38587],[-2.661495,52.378509]]]},"properties":{"code":"M81042","name":"TENBURY SURGERY","icb":"QGH"}}]}