{"type":"FeatureCollection","features":[{"type":"Feature","geometry":{"type":"Polygon","coordinates":[[[-2.82108,51.97811],[-2.82417,51.97684],[-2.8228,51.97304],[-2.81731,51.96965],[-2.81662,51.96542],[-2.80838,51.95865],[-2.80357,51.94342],[-2.80289,51.93876],[-2.8022,51.93241],[-2.80563,51.92945],[-2.80701,51.9231],[-2.8022,51.91844],[-2.79533,51.91039],[-2.78709,51.90107],[-2.77679,51.90065],[-2.76581,51.88921],[-2.73148,51.89048],[-2.66281,51.90488],[-2.6223,51.91886],[-2.61131,51.91971],[-2.61131,51.92606],[-2.60994,51.92987],[-2.61337,51.93622],[-2.61955,51.94003],[-2.63329,51.94426],[-2.63603,51.94977],[-2.64015,51.95611],[-2.63947,51.965],[-2.63603,51.97388],[-2.62505,51.976],[-2.60994,51.98277],[-2.60651,51.98615],[-2.60513,51.98911],[-2.61475,51.98826],[-2.6223,51.98784],[-2.63054,51.98784],[-2.63947,51.99207],[-2.63878,51.99926],[-2.64427,52.00602],[-2.65114,52.0132],[-2.66487,52.02292],[-2.66968,52.02799],[-2.67792,52.03011],[-2.68478,52.03095],[-2.69302,52.03011],[-2.70332,52.0263],[-2.72667,52.02377],[-2.76581,52.03095],[-2.77473,52.02757],[-2.78023,52.02461],[-2.78503,52.01997],[-2.79259,52.01025],[-2.79053,51.98995],[-2.80512,51.9834],[-2.82108,51.97811]]]},"properties":{"code":"M81024","name":"MUCH BIRCH SURGERY","icb":"QGH"}}]}