{"type":"FeatureCollection","features":[{"type":"Feature","geometry":{"type":"Polygon","coordinates":[[[-2.275629,52.303491],[-2.272355,52.312628],[-2.272211,52.31272],[-2.241267,52.317576],[-2.236319,52.31627],[-2.234724,52.318554],[-2.234594,52.318622],[-2.19212,52.32527],[-2.21272,52.33974],[-2.2728,52.36072],[-2.275074,52.36128],[-2.2752,52.361394],[-2.2752,52.36183],[-2.274838,52.36196],[-2.231255,52.347079],[-2.244266,52.356491],[-2.246704,52.366998],[-2.262464,52.362396],[-2.275095,52.361959],[-2.275244,52.361994],[-2.27577,52.362327],[-2.275611,52.362592],[-2.275543,52.362596],[-2.276323,52.362676],[-2.2855,52.368466],[-2.287273,52.368003],[-2.299576,52.367627],[-2.314682,52.360709],[-2.314591,52.360611],[-2.314762,52.360398],[-2.314955,52.360381],[-2.311196,52.360453],[-2.311016,52.360105],[-2.36378,52.34184],[-2.32932,52.312596],[-2.329288,52.312501],[-2.331591,52.30622],[-2.33137,52.306058],[-2.331419,52.305905],[-2.331199,52.30608],[-2.330997,52.306156],[-2.321298,52.305709],[-2.321156,52.305661],[-2.32052,52.30512],[-2.317774,52.305546],[-2.275629,52.303491]]]},"properties":{"code":"M81040","name":"STOURPORT MEDICAL CENTRE","icb":"QGH"}}]}