{"type":"FeatureCollection","features":[{"type":"Feature","geometry":{"type":"Polygon","coordinates":[[[-2.463053,52.276003],[-2.471103,52.274405],[-2.479443,52.272151],[-2.483202,52.271135],[-2.497904,52.267521],[-2.515385,52.263846],[-2.51988,52.2629],[-2.533467,52.265647],[-2.53758,52.266306],[-2.542894,52.266287],[-2.55245,52.267143],[-2.571525,52.267128],[-2.584519,52.26681],[-2.596752,52.262121],[-2.605705,52.252413],[-2.613253,52.246352],[-2.617588,52.239519],[-2.626723,52.234542],[-2.633639,52.227775],[-2.638303,52.225018],[-2.642018,52.22203],[-2.646127,52.218206],[-2.647576,52.214981],[-2.650714,52.211336],[-2.653339,52.208993],[-2.65377,52.20748],[-2.65562,52.204718],[-2.659191,52.200569],[-2.66275,52.194944],[-2.664708,52.188306],[-2.659918,52.186846],[-2.653139,52.184779],[-2.639589,52.180218],[-2.631107,52.174401],[-2.627728,52.169378],[-2.628427,52.166077],[-2.631815,52.164072],[-2.63704,52.163169],[-2.640779,52.160342],[-2.643478,52.154658],[-2.644678,52.148976],[-2.641298,52.138543],[-2.639333,52.137098],[-2.638415,52.135917],[-2.636727,52.134313],[-2.636689,52.131755],[-2.639381,52.130284],[-2.642863,52.128382],[-2.649646,52.125438],[-2.655894,52.118632],[-2.654663,52.113121],[-2.648879,52.109733],[-2.641257,52.108755],[-2.63238,52.105761],[-2.6163,52.104327],[-2.595449,52.10851],[-2.587142,52.107178],[-2.582868,52.106032],[-2.578223,52.10547],[-2.571591,52.104615],[-2.569022,52.103312],[-2.564919,52.099997],[-2.562769,52.095064],[-2.561321,52.090561],[-2.558038,52.090405],[-2.556565,52.090359],[-2.55453,52.09036],[-2.549905,52.090363],[-2.544703,52.090202],[-2.541054,52.089529],[-2.537489,52.089231],[-2.533086,52.089744],[-2.528669,52.090627],[-2.520406,52.093961],[-2.516498,52.096717],[-2.512966,52.099382],[-2.510511,52.100606],[-2.507754,52.101287],[-2.503445,52.10186],[-2.498063,52.102934],[-2.496214,52.10318],[-2.492743,52.103759],[-2.49058,52.10391],[-2.488511,52.103845],[-2.485801,52.10315],[-2.483988,52.102593],[-2.480886,52.102443],[-2.473246,52.103329],[-2.468634,52.10412],[-2.465863,52.104673],[-2.46528,52.106624],[-2.463351,52.110887],[-2.459006,52.114752],[-2.456979,52.120201],[-2.457051,52.126857],[-2.455306,52.127724],[-2.452297,52.128877],[-2.443906,52.132496],[-2.432606,52.136026],[-2.429801,52.136308],[-2.428389,52.136365],[-2.426045,52.136364],[-2.424696,52.136367],[-2.422436,52.136458],[-2.420344,52.136201],[-2.417673,52.136264],[-2.412443,52.13613],[-2.407265,52.136453],[-2.40202,52.137145],[-2.402046,52.139826],[-2.400749,52.142122],[-2.399601,52.144152],[-2.399114,52.145457],[-2.398178,52.148738],[-2.397497,52.151001],[-2.398071,52.152804],[-2.399032,52.154303],[-2.401968,52.157592],[-2.403408,52.160922],[-2.404409,52.16292],[-2.405413,52.164257],[-2.406067,52.165769],[-2.40579,52.168686],[-2.406015,52.173877],[-2.406126,52.17644],[-2.405744,52.177781],[-2.401588,52.181823],[-2.401395,52.185864],[-2.400238,52.189169],[-2.399417,52.190303],[-2.397347,52.192991],[-2.395967,52.19458],[-2.408507,52.199196],[-2.408756,52.201116],[-2.408939,52.202212],[-2.408576,52.203011],[-2.40658,52.202592],[-2.404942,52.202171],[-2.402854,52.201732],[-2.401652,52.202056],[-2.401599,52.202612],[-2.402992,52.204782],[-2.403743,52.206281],[-2.403479,52.207499],[-2.402067,52.207795],[-2.400357,52.207639],[-2.398067,52.207215],[-2.396318,52.206398],[-2.394482,52.208511],[-2.39365,52.21034],[-2.40223,52.21539],[-2.410227,52.217168],[-2.413897,52.218412],[-2.416406,52.219026],[-2.418155,52.219402],[-2.420678,52.219869],[-2.423413,52.220425],[-2.426347,52.221433],[-2.429271,52.222148],[-2.432513,52.223795],[-2.439193,52.225845],[-2.442331,52.226923],[-2.445024,52.22752],[-2.445838,52.227999],[-2.445176,52.228327],[-2.44258,52.229243],[-2.43814,52.230483],[-2.431711,52.231548],[-2.425693,52.232772],[-2.423303,52.233302],[-2.421393,52.233434],[-2.42056,52.234172],[-2.420336,52.234523],[-2.420442,52.23501],[-2.420324,52.235849],[-2.420051,52.23711],[-2.421103,52.238286],[-2.421853,52.240183],[-2.422203,52.241141],[-2.422279,52.242127],[-2.422067,52.246596],[-2.4246,52.249045],[-2.425631,52.25105],[-2.42633,52.252968],[-2.427072,52.255288],[-2.427518,52.258707],[-2.428935,52.259852],[-2.431024,52.263353],[-2.433129,52.265292],[-2.434803,52.267161],[-2.437104,52.269019],[-2.442728,52.271307],[-2.444871,52.272565],[-2.448472,52.273668],[-2.456575,52.276408],[-2.463053,52.276003]]]},"properties":{"code":"M81048","name":"NUNWELL SURGERY","icb":"QGH"}}]}