{"type":"FeatureCollection","features":[{"type":"Feature","geometry":{"type":"Polygon","coordinates":[[[-1.90407,52.1436],[-1.93909,52.16256],[-1.99951,52.15666],[-2.01874,52.1377],[-2.02148,52.12337],[-2.0153,52.1044],[-1.99608,52.07149],[-2.01402,52.041041],[-2.000017,52.014751],[-1.968124,52.015279],[-1.917546,52.016115],[-1.886891,52.015891],[-1.86424,52.02588],[-1.84227,52.03475],[-1.83815,52.05882],[-1.833685,52.081405],[-1.826817,52.101444],[-1.831969,52.115361],[-1.84021,52.13349],[-1.87248,52.13644],[-1.8869,52.13918],[-1.90407,52.1436]]]},"properties":{"code":"M81627","name":"DEMONTFORT MEDICAL CENTRE","icb":"QGH"}}]}