{"type":"FeatureCollection","features":[{"type":"Feature","geometry":{"type":"Polygon","coordinates":[[[-2.01565,52.32527],[-2.03899,52.29462],[-2.03796,52.27173],[-2.02354,52.24966],[-2.01076,52.24231],[-1.99453,52.23621],[-1.95591,52.22843],[-1.91282,52.22748],[-1.8742,52.23894],[-1.85566,52.25986],[-1.84708,52.28034],[-1.843408,52.294124],[-1.847163,52.302739],[-1.849518,52.305591],[-1.85183,52.309127],[-1.862925,52.31811],[-1.87592,52.32863],[-1.90905,52.3366],[-1.93771,52.33953],[-1.97788,52.33555],[-2.01565,52.32527]]]},"properties":{"code":"M81616","name":"CRABBS CROSS MEDICAL CENTRE","icb":"QGH"}}]}