{"type":"FeatureCollection","features":[{"type":"Feature","geometry":{"type":"Polygon","coordinates":[[[-1.904375,52.28966],[-1.90437,52.289626],[-1.904374,52.289591],[-1.904386,52.289557],[-1.904407,52.289525],[-1.904436,52.289495],[-1.904471,52.289468],[-1.904513,52.289445],[-1.90456,52.289426],[-1.904612,52.289412],[-1.904666,52.289403],[-1.904722,52.289399],[-1.904779,52.2894],[-1.904834,52.289407],[-1.904887,52.289418],[-1.904937,52.289435],[-1.904982,52.289456],[-1.906987,52.29056],[-1.907022,52.290582],[-1.907051,52.290606],[-1.907075,52.290633],[-1.907093,52.290661],[-1.907104,52.290691],[-1.907109,52.290721],[-1.907107,52.290752],[-1.907098,52.290782],[-1.907083,52.290811],[-1.907061,52.290838],[-1.907034,52.290863],[-1.907002,52.290886],[-1.906964,52.290906],[-1.906923,52.290923],[-1.906878,52.290936],[-1.906831,52.290945],[-1.906128,52.291053],[-1.904411,52.292942],[-1.907721,52.291655],[-1.907761,52.291641],[-1.907803,52.291631],[-1.907846,52.291624],[-1.907891,52.29162],[-1.907936,52.29162],[-1.907981,52.291623],[-1.908025,52.291629],[-1.908067,52.291639],[-1.908107,52.291652],[-1.908144,52.291668],[-1.908178,52.291686],[-1.908208,52.291707],[-1.908233,52.29173],[-1.908254,52.291754],[-1.908269,52.29178],[-1.908279,52.291807],[-1.908875,52.293992],[-1.911189,52.295205],[-1.911229,52.29523],[-1.911263,52.295258],[-1.911288,52.295289],[-1.911306,52.295322],[-1.912651,52.298612],[-1.913999,52.300054],[-1.914021,52.300082],[-1.914036,52.300111],[-1.914368,52.300921],[-1.917986,52.306635],[-1.918003,52.306671],[-1.91801,52.306707],[-1.918008,52.306744],[-1.917995,52.30678],[-1.917974,52.306814],[-1.917943,52.306846],[-1.917905,52.306874],[-1.917859,52.306898],[-1.917808,52.306918],[-1.917752,52.306931],[-1.917693,52.306939],[-1.917633,52.306941],[-1.917574,52.306937],[-1.917516,52.306927],[-1.917461,52.306912],[-1.917412,52.306891],[-1.914711,52.30554],[-1.920891,52.309738],[-1.926727,52.308898],[-1.929048,52.307885],[-1.92909,52.307869],[-1.929136,52.307857],[-1.929184,52.307849],[-1.929233,52.307844],[-1.9384,52.307429],[-1.949043,52.306379],[-1.956192,52.304506],[-1.956223,52.304499],[-1.956254,52.304494],[-1.956287,52.30449],[-1.956319,52.304488],[-1.96376,52.304281],[-1.963806,52.304282],[-1.963851,52.304286],[-1.98114,52.30648],[-1.97891,52.30491],[-1.976035,52.304382],[-1.975992,52.304372],[-1.975951,52.304359],[-1.975913,52.304343],[-1.975879,52.304324],[-1.975849,52.304303],[-1.975823,52.304279],[-1.975803,52.304254],[-1.975787,52.304227],[-1.975778,52.3042],[-1.975774,52.304171],[-1.975776,52.304143],[-1.975784,52.304115],[-1.975797,52.304088],[-1.975816,52.304062],[-1.97584,52.304038],[-1.975868,52.304016],[-1.98166,52.30008],[-1.974212,52.295036],[-1.974182,52.295013],[-1.974157,52.294987],[-1.974137,52.294959],[-1.974125,52.29493],[-1.974118,52.2949],[-1.974118,52.29487],[-1.974125,52.29484],[-1.974138,52.294811],[-1.974157,52.294783],[-1.974182,52.294758],[-1.974213,52.294734],[-1.974248,52.294713],[-1.974288,52.294695],[-1.974331,52.294681],[-1.974377,52.29467],[-1.974425,52.294663],[-1.97486,52.29462],[-1.971872,52.291207],[-1.971853,52.291183],[-1.97184,52.291158],[-1.971832,52.291132],[-1.971828,52.291106],[-1.97172,52.28817],[-1.970294,52.285279],[-1.970284,52.285254],[-1.970279,52.285227],[-1.970279,52.285201],[-1.970284,52.285175],[-1.970294,52.285149],[-1.970309,52.285124],[-1.970328,52.285101],[-1.970352,52.285079],[-1.97185,52.28386],[-1.972693,52.282392],[-1.972706,52.282373],[-1.972721,52.282354],[-1.972739,52.282337],[-1.97276,52.282321],[-1.972783,52.282305],[-1.972808,52.282292],[-1.972836,52.282279],[-1.972865,52.282269],[-1.97552,52.28139],[-1.97565,52.28013],[-1.96969,52.281042],[-1.96964,52.281048],[-1.969588,52.281049],[-1.96381,52.28092],[-1.961227,52.282267],[-1.961191,52.282284],[-1.961151,52.282298],[-1.961109,52.282308],[-1.961066,52.282316],[-1.961021,52.28232],[-1.960975,52.282321],[-1.96093,52.282318],[-1.960886,52.282312],[-1.960843,52.282302],[-1.960803,52.282289],[-1.960765,52.282274],[-1.960731,52.282255],[-1.960701,52.282234],[-1.960675,52.282211],[-1.960655,52.282187],[-1.960639,52.282161],[-1.95872,52.27824],[-1.956057,52.277574],[-1.956017,52.277563],[-1.95598,52.277548],[-1.955946,52.277531],[-1.955916,52.277511],[-1.955889,52.27749],[-1.955867,52.277466],[-1.95585,52.277442],[-1.955838,52.277416],[-1.955335,52.276057],[-1.955327,52.276019],[-1.955329,52.275981],[-1.955341,52.275944],[-1.955364,52.275908],[-1.955396,52.275875],[-1.955436,52.275847],[-1.955484,52.275822],[-1.955538,52.275803],[-1.95911,52.27478],[-1.95934,52.27399],[-1.95857,52.27239],[-1.95763,52.27172],[-1.955924,52.272355],[-1.955896,52.272364],[-1.95092,52.273871],[-1.950888,52.273879],[-1.950856,52.273886],[-1.950822,52.27389],[-1.950788,52.273893],[-1.950753,52.273894],[-1.950719,52.273893],[-1.950685,52.273889],[-1.950651,52.273884],[-1.949796,52.273725],[-1.949754,52.273715],[-1.949714,52.273703],[-1.949678,52.273687],[-1.949644,52.273669],[-1.949614,52.273649],[-1.949589,52.273626],[-1.949568,52.273602],[-1.949552,52.273576],[-1.948688,52.271863],[-1.948679,52.271843],[-1.948674,52.271823],[-1.948671,52.271803],[-1.948672,52.271782],[-1.948676,52.271762],[-1.948683,52.271741],[-1.948692,52.271722],[-1.948705,52.271703],[-1.94872,52.271684],[-1.948739,52.271667],[-1.948759,52.271651],[-1.948782,52.271636],[-1.948807,52.271622],[-1.948834,52.27161],[-1.948863,52.271599],[-1.948893,52.27159],[-1.949803,52.271351],[-1.94984,52.271343],[-1.949879,52.271337],[-1.949919,52.271334],[-1.949959,52.271333],[-1.949999,52.271335],[-1.950038,52.27134],[-1.950076,52.271348],[-1.950113,52.271358],[-1.95134,52.27174],[-1.95149,52.27148],[-1.94999,52.27128],[-1.949113,52.271371],[-1.949054,52.271375],[-1.948995,52.271372],[-1.948938,52.271363],[-1.948883,52.271349],[-1.948833,52.27133],[-1.948788,52.271306],[-1.948751,52.271278],[-1.948721,52.271246],[-1.94679,52.26875],[-1.942389,52.269498],[-1.942326,52.269505],[-1.942262,52.269506],[-1.942199,52.269499],[-1.942138,52.269486],[-1.93874,52.26853],[-1.932722,52.269716],[-1.932686,52.269722],[-1.932649,52.269725],[-1.932612,52.269726],[-1.932574,52.269725],[-1.931864,52.269682],[-1.93183,52.269679],[-1.931798,52.269674],[-1.92801,52.269],[-1.925764,52.270303],[-1.925731,52.27032],[-1.925695,52.270334],[-1.925656,52.270346],[-1.925615,52.270355],[-1.921246,52.271133],[-1.921198,52.271139],[-1.92115,52.271142],[-1.921101,52.27114],[-1.921053,52.271135],[-1.908785,52.269223],[-1.908744,52.269215],[-1.908705,52.269204],[-1.908668,52.269191],[-1.908634,52.269175],[-1.89051,52.25944],[-1.89171,52.26564],[-1.894619,52.272016],[-1.894628,52.27204],[-1.894632,52.272065],[-1.89514,52.278234],[-1.89514,52.278246],[-1.89514,52.28223],[-1.899175,52.282957],[-1.899234,52.282971],[-1.899288,52.282991],[-1.899335,52.283017],[-1.899375,52.283047],[-1.899406,52.28308],[-1.899426,52.283117],[-1.899437,52.283155],[-1.899436,52.283194],[-1.899425,52.283232],[-1.899403,52.283268],[-1.899372,52.283302],[-1.899331,52.283331],[-1.899283,52.283356],[-1.899229,52.283376],[-1.89917,52.283389],[-1.899108,52.283396],[-1.897545,52.283492],[-1.897202,52.284332],[-1.899786,52.285061],[-1.89987,52.28501],[-1.89949,52.284603],[-1.899465,52.284571],[-1.899449,52.284537],[-1.899442,52.284503],[-1.899443,52.284468],[-1.899453,52.284433],[-1.899472,52.2844],[-1.899499,52.284369],[-1.899534,52.284341],[-1.900082,52.283964],[-1.900115,52.283944],[-1.900151,52.283927],[-1.90019,52.283913],[-1.900231,52.283902],[-1.900275,52.283894],[-1.900319,52.28389],[-1.900365,52.283889],[-1.90041,52.283891],[-1.900454,52.283897],[-1.900497,52.283906],[-1.900538,52.283918],[-1.900576,52.283933],[-1.90061,52.283951],[-1.900641,52.283972],[-1.900667,52.283995],[-1.900689,52.284019],[-1.901559,52.285172],[-1.902513,52.285172],[-1.902573,52.285175],[-1.902631,52.285184],[-1.902686,52.285199],[-1.902737,52.285219],[-1.902781,52.285243],[-1.902818,52.285272],[-1.902847,52.285304],[-1.902868,52.285339],[-1.902878,52.285375],[-1.902879,52.285412],[-1.90287,52.285449],[-1.902851,52.285484],[-1.902824,52.285516],[-1.902788,52.285546],[-1.902745,52.285571],[-1.902695,52.285592],[-1.902299,52.2864],[-1.903214,52.286961],[-1.903248,52.286985],[-1.903276,52.287012],[-1.903298,52.287041],[-1.903313,52.287072],[-1.90332,52.287104],[-1.90332,52.287136],[-1.903313,52.287168],[-1.903298,52.287199],[-1.903228,52.287312],[-1.903869,52.287442],[-1.903928,52.287443],[-1.903986,52.287448],[-1.904042,52.28746],[-1.904094,52.287477],[-1.904141,52.287499],[-1.904182,52.287525],[-1.904215,52.287555],[-1.90424,52.287588],[-1.904259,52.287614],[-1.904273,52.287642],[-1.904281,52.28767],[-1.904282,52.287699],[-1.904278,52.287728],[-1.904268,52.287756],[-1.904252,52.287783],[-1.90423,52.287808],[-1.902743,52.289324],[-1.904669,52.290738],[-1.904375,52.28966]]]},"properties":{"code":"M81617","name":"CRABBS CROSS SURGERY","icb":"QGH"}}]}