{"type":"FeatureCollection","features":[{"type":"Feature","geometry":{"type":"Polygon","coordinates":[[[-2.821436,52.91927],[-2.82228,52.91967],[-2.8231,52.92139],[-2.82469,52.92363],[-2.83241,52.92753],[-2.83997,52.9354],[-2.84203,52.94202],[-2.85164,52.94409],[-2.864,52.94409],[-2.8791,52.94605],[-2.88803,52.9536],[-2.89421,52.95319],[-2.91481,52.95402],[-2.92992,52.95898],[-2.95532,52.95857],[-2.96631,52.95526],[-2.97318,52.94781],[-2.98073,52.94491],[-2.98347,52.94036],[-2.99858,52.92629],[-3.01094,52.91511],[-3.0233,52.906],[-3.02261,52.89855],[-3.01575,52.88861],[-2.99515,52.87866],[-2.83104,52.82476],[-2.82349,52.82849],[-2.82005,52.83513],[-2.81319,52.84011],[-2.7998,52.85721],[-2.79396,52.86872],[-2.79465,52.87618],[-2.79808,52.88446],[-2.801,52.89736],[-2.80632,52.90683],[-2.81065,52.90815],[-2.81293,52.91061],[-2.81293,52.91423],[-2.81808,52.91768],[-2.820538,52.918845],[-2.762328,52.945328],[-2.763127,52.945952],[-2.761285,52.945535],[-2.731608,52.905071],[-2.663648,52.898134],[-2.599387,52.917597],[-2.586254,52.929499],[-2.56284,52.983222],[-2.611307,53.025626],[-2.699974,53.032749],[-2.718797,53.027794],[-2.763357,53.018707],[-2.783946,52.994537],[-2.768348,52.949794],[-2.82478,52.924221],[-2.821436,52.91927]]]},"properties":{"code":"M82025","name":"CHURCHMERE MEDICAL GROUP","icb":"QOC"}}]}