{"type":"FeatureCollection","features":[{"type":"Feature","geometry":{"type":"Polygon","coordinates":[[[-2.509089,52.542485],[-2.511792,52.543373],[-2.524538,52.542616],[-2.530718,52.542407],[-2.541404,52.543164],[-2.54591,52.542172],[-2.549343,52.540476],[-2.552261,52.539327],[-2.56187,52.53836],[-2.566466,52.538074],[-2.571101,52.537552],[-2.579212,52.534733],[-2.589684,52.533062],[-2.594662,52.532618],[-2.597537,52.531052],[-2.601914,52.528493],[-2.608266,52.527188],[-2.610369,52.525648],[-2.613201,52.524159],[-2.625711,52.52164],[-2.627878,52.520908],[-2.630496,52.520595],[-2.634058,52.521352],[-2.641332,52.522083],[-2.643671,52.522188],[-2.645001,52.52164],[-2.653627,52.517527],[-2.65985,52.513426],[-2.667382,52.510096],[-2.670879,52.507915],[-2.674913,52.504624],[-2.678647,52.50192],[-2.680857,52.500575],[-2.683647,52.499347],[-2.686522,52.496787],[-2.688367,52.494161],[-2.69105,52.490699],[-2.691844,52.488876],[-2.718601,52.476246],[-2.72049,52.473789],[-2.724867,52.471619],[-2.731819,52.467776],[-2.732184,52.466233],[-2.733386,52.465279],[-2.740445,52.462442],[-2.75757,52.45392],[-2.75208,52.42252],[-2.658,52.40409],[-2.55844,52.38733],[-2.42935,52.41247],[-2.42067,52.415759],[-2.420168,52.416483],[-2.41977,52.417057],[-2.418728,52.418148],[-2.417721,52.418762],[-2.416445,52.419159],[-2.413556,52.420964],[-2.412696,52.427084],[-2.41219,52.43299],[-2.411407,52.435254],[-2.41287,52.43927],[-2.413716,52.442766],[-2.415438,52.444728],[-2.41768,52.44597],[-2.425029,52.449518],[-2.422423,52.451145],[-2.42137,52.453133],[-2.42193,52.454248],[-2.42289,52.455232],[-2.42417,52.455996],[-2.427721,52.457369],[-2.428752,52.458793],[-2.428923,52.460847],[-2.429652,52.463227],[-2.431283,52.4649],[-2.43669,52.466521],[-2.440639,52.469711],[-2.444115,52.473972],[-2.443497,52.475293],[-2.4436,52.476533],[-2.44514,52.47943],[-2.445721,52.480923],[-2.44729,52.482075],[-2.443857,52.486544],[-2.443299,52.488556],[-2.443278,52.489287],[-2.442806,52.489967],[-2.441677,52.490628],[-2.440407,52.491175],[-2.437956,52.492345],[-2.43751,52.493297],[-2.437613,52.494252],[-2.436805,52.494725],[-2.436326,52.495297],[-2.437119,52.497335],[-2.430382,52.505721],[-2.431841,52.508621],[-2.432785,52.511363],[-2.431347,52.51216],[-2.43141,52.51371],[-2.431369,52.514876],[-2.432485,52.515855],[-2.433729,52.516815],[-2.435338,52.517442],[-2.439222,52.519511],[-2.444458,52.520921],[-2.448921,52.523689],[-2.462826,52.530739],[-2.4751,52.538048],[-2.481709,52.541232],[-2.484455,52.541572],[-2.487202,52.542772],[-2.48978,52.54421],[-2.494111,52.545408],[-2.49866,52.544652],[-2.50381,52.542955],[-2.509089,52.542485]]]},"properties":{"code":"M82024","name":"BROWN CLEE MEDICAL CENTRE","icb":"QOC"}}]}