{"type":"FeatureCollection","features":[{"type":"Feature","geometry":{"type":"Polygon","coordinates":[[[-2.827263,52.434456],[-2.910862,52.423151],[-2.956009,52.354425],[-2.873869,52.372297],[-2.80731,52.33779],[-2.77151,52.32566],[-2.697659,52.303703],[-2.64719,52.315353],[-2.58728,52.327577],[-2.544708,52.366167],[-2.467117,52.428175],[-2.534409,52.508906],[-2.624016,52.553183],[-2.717743,52.497622],[-2.71637,52.496786],[-2.763748,52.474625],[-2.80117,52.454545],[-2.826576,52.43634],[-2.826233,52.43634],[-2.827263,52.434456]]]},"properties":{"code":"M82043","name":"LUDLOW - PORTCULLIS","icb":"QOC"}}]}