{"type":"FeatureCollection","features":[{"type":"Feature","geometry":{"type":"Polygon","coordinates":[[[-2.278249,52.784114],[-2.278446,52.784197],[-2.278819,52.794208],[-2.283125,52.804631],[-2.286189,52.823463],[-2.296547,52.827001],[-2.338854,52.843205],[-2.351589,52.847105],[-2.366186,52.855151],[-2.379972,52.863602],[-2.399534,52.865202],[-2.417417,52.864272],[-2.437398,52.860529],[-2.446993,52.858731],[-2.480452,52.852461],[-2.517756,52.833717],[-2.521532,52.823473],[-2.53467,52.805112],[-2.535704,52.794854],[-2.545788,52.788531],[-2.550581,52.773429],[-2.549904,52.755224],[-2.467544,52.727036],[-2.439959,52.730645],[-2.433554,52.725849],[-2.422258,52.715262],[-2.430022,52.709272],[-2.43091,52.708309],[-2.431416,52.707195],[-2.42715,52.700116],[-2.420604,52.694676],[-2.292899,52.69512],[-2.277302,52.694998],[-2.269345,52.701139],[-2.244017,52.724082],[-2.235432,52.742947],[-2.256499,52.767846],[-2.25476,52.774163],[-2.278249,52.784114]]]},"properties":{"code":"M82028","name":"WELLINGTON ROAD SURGERY","icb":"QOC"}}]}