{"type":"FeatureCollection","features":[{"type":"Feature","geometry":{"type":"Polygon","coordinates":[[[-2.547663,52.659883],[-2.5485,52.65914],[-2.54828,52.65961],[-2.54907,52.65899],[-2.54868,52.65919],[-2.54885,52.65896],[-2.549279,52.658912],[-2.54948,52.65875],[-2.549617,52.658874],[-2.549981,52.658833],[-2.55596,52.65663],[-2.55964,52.65353],[-2.56239,52.65306],[-2.56514,52.65238],[-2.56754,52.65134],[-2.56917,52.65035],[-2.56745,52.64937],[-2.5687,52.64816],[-2.57389,52.64535],[-2.57698,52.64411],[-2.57801,52.64202],[-2.58144,52.64098],[-2.58144,52.63931],[-2.5811,52.63786],[-2.58041,52.6364],[-2.55544,52.62832],[-2.53355,52.62019],[-2.53432,52.61178],[-2.53063,52.60701],[-2.51793,52.60618],[-2.5066,52.60659],[-2.4987,52.60618],[-2.48806,52.60513],[-2.47742,52.60513],[-2.46952,52.60555],[-2.46471,52.60638],[-2.46059,52.60909],[-2.45029,52.61368],[-2.44686,52.6166],[-2.44274,52.61889],[-2.43828,52.62098],[-2.43793,52.6241],[-2.43725,52.62785],[-2.4369,52.63119],[-2.43622,52.63494],[-2.43811,52.6384],[-2.43648,52.64216],[-2.43683,52.64559],[-2.43636,52.6477],[-2.43915,52.64922],[-2.43987,52.65071],[-2.44394,52.65272],[-2.443133,52.652863],[-2.44184,52.65216],[-2.44613,52.65683],[-2.44813,52.65754],[-2.44907,52.65852],[-2.45146,52.65914],[-2.45102,52.66044],[-2.45287,52.66076],[-2.45516,52.66202],[-2.45882,52.66501],[-2.461744,52.66763],[-2.46298,52.66829],[-2.462937,52.668276],[-2.46381,52.66944],[-2.465063,52.671476],[-2.46514,52.6715],[-2.465404,52.672027],[-2.46543,52.67197],[-2.465666,52.672523],[-2.466189,52.673028],[-2.467172,52.673623],[-2.467568,52.673776],[-2.46858,52.674],[-2.46868,52.674101],[-2.46913,52.6742],[-2.46933,52.67446],[-2.46921,52.674369],[-2.469261,52.67443],[-2.46969,52.67481],[-2.46997,52.6748],[-2.46983,52.67486],[-2.46994,52.67494],[-2.46999,52.67491],[-2.47072,52.67504],[-2.47204,52.67517],[-2.47426,52.67532],[-2.47559,52.67575],[-2.47795,52.67662],[-2.4795,52.67692],[-2.48001,52.67764],[-2.48117,52.67767],[-2.48412,52.6805],[-2.48532,52.68029],[-2.4861,52.68038],[-2.48646,52.6806],[-2.48759,52.681],[-2.48914,52.6813],[-2.49275,52.68118],[-2.49575,52.68144],[-2.49854,52.68118],[-2.49932,52.68185],[-2.50037,52.68027],[-2.50261,52.68011],[-2.50355,52.67997],[-2.50366,52.67923],[-2.50467,52.679],[-2.50545,52.67812],[-2.5063,52.67822],[-2.50677,52.67765],[-2.50729,52.67724],[-2.50741,52.67664],[-2.50857,52.67638],[-2.50909,52.67619],[-2.50921,52.67607],[-2.51083,52.6751],[-2.51145,52.67438],[-2.51125,52.67412],[-2.51265,52.67384],[-2.5145,52.67393],[-2.51441,52.67369],[-2.515489,52.673595],[-2.51341,52.67259],[-2.5161,52.67336],[-2.515682,52.673688],[-2.5167,52.67418],[-2.51891,52.67348],[-2.52174,52.6729],[-2.52422,52.67245],[-2.52682,52.67232],[-2.52897,52.67237],[-2.53107,52.67065],[-2.534023,52.669832],[-2.53421,52.66964],[-2.53505,52.6684],[-2.5353,52.66845],[-2.53602,52.66829],[-2.536013,52.668196],[-2.53554,52.66839],[-2.53585,52.6682],[-2.536013,52.668192],[-2.53601,52.66816],[-2.536113,52.668155],[-2.5371,52.66775],[-2.53675,52.66799],[-2.53734,52.66768],[-2.53739,52.66782],[-2.537521,52.667749],[-2.53706,52.66739],[-2.537959,52.667558],[-2.53918,52.66718],[-2.53831,52.66578],[-2.539,52.66665],[-2.53931,52.66546],[-2.5396,52.66502],[-2.54019,52.66459],[-2.54042,52.66453],[-2.5407,52.66414],[-2.54224,52.66447],[-2.54219,52.66361],[-2.54321,52.66379],[-2.54369,52.66269],[-2.54455,52.66254],[-2.54482,52.6621],[-2.54468,52.66213],[-2.545087,52.661943],[-2.54496,52.661819],[-2.54572,52.66165],[-2.547287,52.660407],[-2.547663,52.659883]]]},"properties":{"code":"M82606","name":"IRONBRIDGE MEDICAL PRACTICE","icb":"QOC"}}]}