{"type":"FeatureCollection","features":[{"type":"Feature","geometry":{"type":"Polygon","coordinates":[[[-2.221213,53.014241],[-2.220849,53.014035],[-2.220505,53.013867],[-2.219883,53.01397],[-2.219239,53.014112],[-2.218037,53.014448],[-2.217106,53.014754],[-2.215785,53.015186],[-2.21555,53.0153],[-2.214879,53.015625],[-2.214128,53.015896],[-2.213994,53.015909],[-2.212897,53.016125],[-2.211765,53.016269],[-2.20945,53.01649],[-2.208695,53.016639],[-2.208054,53.016877],[-2.207007,53.017554],[-2.206537,53.017911],[-2.206134,53.018286],[-2.20448,53.01948],[-2.20525,53.02051],[-2.205602,53.021157],[-2.205895,53.021809],[-2.206462,53.023105],[-2.206872,53.024494],[-2.207193,53.025882],[-2.207611,53.029242],[-2.207766,53.030025],[-2.208089,53.030797],[-2.208845,53.032333],[-2.20974,53.03383],[-2.210211,53.035425],[-2.210407,53.035869],[-2.21065,53.036284],[-2.211216,53.037106],[-2.212032,53.037888],[-2.212999,53.038646],[-2.214079,53.039431],[-2.21533,53.04],[-2.218235,53.041019],[-2.219396,53.041694],[-2.22044,53.0424],[-2.221621,53.043628],[-2.22233,53.04493],[-2.225378,53.050292],[-2.227961,53.04988],[-2.230276,53.050537],[-2.232275,53.050143],[-2.234226,53.049656],[-2.234,53.048811],[-2.233602,53.047318],[-2.233845,53.046587],[-2.233454,53.04587],[-2.232647,53.044496],[-2.234413,53.044419],[-2.23555,53.044953],[-2.236348,53.045104],[-2.237141,53.045166],[-2.237426,53.045063],[-2.237888,53.044997],[-2.238733,53.04489],[-2.23873,53.044608],[-2.239288,53.044482],[-2.239768,53.044349],[-2.240365,53.044263],[-2.241419,53.044274],[-2.24213,53.044077],[-2.24233,53.04377],[-2.240782,53.040391],[-2.239357,53.036987],[-2.239291,53.036657],[-2.239201,53.036303],[-2.239142,53.035658],[-2.239065,53.034385],[-2.239049,53.034309],[-2.239047,53.034097],[-2.239031,53.033868],[-2.238996,53.033423],[-2.238941,53.03298],[-2.238897,53.032757],[-2.23881,53.03254],[-2.238539,53.032464],[-2.238482,53.032351],[-2.2387,53.03232],[-2.23825,53.03117],[-2.23757,53.030041],[-2.237283,53.029468],[-2.237144,53.029178],[-2.237005,53.028886],[-2.236585,53.028298],[-2.236531,53.028242],[-2.236095,53.027805],[-2.235872,53.027581],[-2.235649,53.027366],[-2.234422,53.026191],[-2.233881,53.025561],[-2.233493,53.024878],[-2.232198,53.02316],[-2.231554,53.022296],[-2.231027,53.021422],[-2.229068,53.020814],[-2.228621,53.019877],[-2.228129,53.019055],[-2.227005,53.019137],[-2.226051,53.019062],[-2.225107,53.018423],[-2.22563,53.01685],[-2.22589,53.01569],[-2.22332,53.01496],[-2.223015,53.014925],[-2.222715,53.014861],[-2.222436,53.01477],[-2.222092,53.014654],[-2.221813,53.014512],[-2.221556,53.014383],[-2.221213,53.014241]]]},"properties":{"code":"M83056","name":"WOLSTANTON MEDICAL CENTRE","icb":"QNC"}}]}