{"type":"FeatureCollection","features":[{"type":"Feature","geometry":{"type":"Polygon","coordinates":[[[-1.628178,52.715226],[-1.64267,52.72564],[-1.64594,52.72708],[-1.65033,52.72873],[-1.66185,52.72974],[-1.67953,52.73226],[-1.69256,52.73384],[-1.70568,52.73626],[-1.72822,52.74142],[-1.76004,52.75204],[-1.79944,52.75133],[-1.82485,52.75102],[-1.82766,52.72507],[-1.8237,52.72409],[-1.81631,52.72186],[-1.79893,52.71803],[-1.7939,52.71251],[-1.79049,52.71055],[-1.78777,52.7076],[-1.78513,52.70593],[-1.78249,52.70582],[-1.78028,52.70529],[-1.77567,52.70394],[-1.76974,52.70388],[-1.72423,52.6907],[-1.72052,52.68918],[-1.71543,52.68449],[-1.71014,52.68481],[-1.7073,52.68518],[-1.70404,52.68601],[-1.68374,52.69074],[-1.66168,52.69844],[-1.62632,52.71389],[-1.628178,52.715226]]]},"properties":{"code":"M83035","name":"ALREWAS","icb":"QNC"}}]}