{"type":"FeatureCollection","features":[{"type":"Feature","geometry":{"type":"Polygon","coordinates":[[[-2.197153,52.505861],[-2.19624,52.51068],[-2.19847,52.5158],[-2.18731,52.52155],[-2.186451,52.520399],[-2.181216,52.51688],[-2.179893,52.51665],[-2.178179,52.516674],[-2.176803,52.517117],[-2.175371,52.517285],[-2.175273,52.517805],[-2.175465,52.521861],[-2.17804,52.526144],[-2.179027,52.52805],[-2.178812,52.530138],[-2.17804,52.534394],[-2.14677,52.533471],[-2.137781,52.539848],[-2.1577,52.54241],[-2.16619,52.54181],[-2.16624,52.54188],[-2.17212,52.5429],[-2.171399,52.547381],[-2.171531,52.550168],[-2.173253,52.556274],[-2.176398,52.556439],[-2.179522,52.557826],[-2.183967,52.559483],[-2.186443,52.560406],[-2.187019,52.561033],[-2.186537,52.561235],[-2.184308,52.561953],[-2.189807,52.563323],[-2.192424,52.563901],[-2.19426,52.56352],[-2.20173,52.56665],[-2.20945,52.56466],[-2.22404,52.56039],[-2.22542,52.56289],[-2.232023,52.571728],[-2.238146,52.570098],[-2.240005,52.569078],[-2.242268,52.568468],[-2.243118,52.568249],[-2.243878,52.567932],[-2.245331,52.567136],[-2.24653,52.566478],[-2.247247,52.566084],[-2.247705,52.565848],[-2.25863,52.561259],[-2.26198,52.55663],[-2.2637,52.55256],[-2.26215,52.54891],[-2.26198,52.54609],[-2.26061,52.54483],[-2.25486,52.540921],[-2.25031,52.53638],[-2.24636,52.53324],[-2.24361,52.53137],[-2.25117,52.5298],[-2.25975,52.52646],[-2.26868,52.52405],[-2.27451,52.52217],[-2.27949,52.51727],[-2.282585,52.51207],[-2.281021,52.509973],[-2.277614,52.508412],[-2.274347,52.508241],[-2.272188,52.509427],[-2.26576,52.51131],[-2.25649,52.50964],[-2.24104,52.50985],[-2.21855,52.51361],[-2.21151,52.51048],[-2.20516,52.50922],[-2.205389,52.501576],[-2.203797,52.501371],[-2.197153,52.505861]]]},"properties":{"code":"M83093","name":"DALE MEDICAL PRACTICE","icb":"QNC"}}]}