{"type":"FeatureCollection","features":[{"type":"Feature","geometry":{"type":"Polygon","coordinates":[[[-2.153215,52.85405],[-2.15349,52.8541],[-2.1825,52.84353],[-2.199636,52.818156],[-2.19873,52.810171],[-2.198387,52.807148],[-2.184161,52.787994],[-2.159441,52.778009],[-2.107913,52.771194],[-2.06362,52.775355],[-2.061812,52.780744],[-2.062927,52.788293],[-2.06732,52.81801],[-2.072171,52.832955],[-2.074158,52.837606],[-2.084556,52.852269],[-2.128607,52.863871],[-2.13126,52.86457],[-2.153215,52.85405]]]},"properties":{"code":"M83044","name":"STAFFORD HEALTH AND WELLBEING","icb":"QNC"}}]}