{"type":"FeatureCollection","features":[{"type":"Feature","geometry":{"type":"Polygon","coordinates":[[[-2.223867,52.975951],[-2.22387,52.97591],[-2.22231,52.97589],[-2.22091,52.976],[-2.21769,52.97637],[-2.21379,52.97711],[-2.21248,52.97763],[-2.21169,52.97836],[-2.20877,52.98008],[-2.20568,52.98097],[-2.20061,52.9818],[-2.19977,52.9817],[-2.19952,52.98123],[-2.20006,52.97971],[-2.20164,52.97718],[-2.20259,52.97242],[-2.19958,52.96777],[-2.19778,52.96596],[-2.19503,52.96425],[-2.18873,52.96583],[-2.18698,52.96571],[-2.18523,52.96507],[-2.18348,52.96515],[-2.17508,52.9671],[-2.16843,52.96787],[-2.16823,52.97057],[-2.169,52.97187],[-2.1713,52.97327],[-2.1736,52.97561],[-2.17469,52.97867],[-2.17516,52.98438],[-2.1739,52.98714],[-2.17339,52.98856],[-2.17406,52.98938],[-2.17396,52.99009],[-2.16572,52.99048],[-2.15744,52.99144],[-2.158,52.99309],[-2.1565,52.99474],[-2.1568,52.99619],[-2.15658,52.99784],[-2.15984,52.99877],[-2.16946,53.01582],[-2.1559,53.02366],[-2.16173,53.02542],[-2.16225,53.02759],[-2.16276,53.02877],[-2.16321,53.02939],[-2.16409,53.02985],[-2.16727,53.0311],[-2.16991,53.03283],[-2.17313,53.03132],[-2.17476,53.03047],[-2.17506,53.02995],[-2.17508,53.0295],[-2.17596,53.02957],[-2.17833,53.02956],[-2.1793,53.02967],[-2.18027,53.02996],[-2.18026,53.02894],[-2.17991,53.0279],[-2.17927,53.0273],[-2.17902,53.02672],[-2.1789,53.02556],[-2.18817,53.02502],[-2.18971,53.02505],[-2.19083,53.02495],[-2.19145,53.02503],[-2.19703,53.02228],[-2.20032,53.02079],[-2.2037,53.01969],[-2.20382,53.01925],[-2.20505,53.01897],[-2.20619,53.01828],[-2.20718,53.01742],[-2.20843,53.01666],[-2.2115,53.01626],[-2.21298,53.01611],[-2.21443,53.01584],[-2.21648,53.01494],[-2.21895,53.0142],[-2.22295,53.01318],[-2.22369,53.01295],[-2.224,53.01254],[-2.22408,53.01101],[-2.224538,53.009628],[-2.2247,53.00967],[-2.22464,53.009575],[-2.225575,53.009415],[-2.22593,53.00959],[-2.225792,53.009378],[-2.226665,53.009229],[-2.22759,53.00943],[-2.229408,53.008325],[-2.22984,53.00815],[-2.23058,53.00746],[-2.230651,53.007069],[-2.23093,53.00677],[-2.231104,53.005596],[-2.23135,53.00509],[-2.232061,53.004513],[-2.234146,53.003022],[-2.247734,52.994168],[-2.25066,52.99251],[-2.250481,52.992377],[-2.251,52.99193],[-2.250951,52.991914],[-2.25099,52.99187],[-2.248876,52.99119],[-2.24531,52.98855],[-2.244868,52.988677],[-2.24464,52.98847],[-2.24441,52.98856],[-2.24415,52.98843],[-2.243394,52.988956],[-2.24282,52.98918],[-2.242709,52.989297],[-2.239737,52.99015],[-2.23274,52.99],[-2.229297,52.990355],[-2.2286,52.990389],[-2.22359,52.99029],[-2.221765,52.985017],[-2.2223,52.98318],[-2.22262,52.98239],[-2.223256,52.979109],[-2.22373,52.97804],[-2.223867,52.975951]]]},"properties":{"code":"M83075","name":"NORFOLK STREET SURGERY","icb":"QNC"}}]}