{"type":"FeatureCollection","features":[{"type":"Feature","geometry":{"type":"Polygon","coordinates":[[[-2.262054,53.076369],[-2.261557,53.075745],[-2.261376,53.075081],[-2.261344,53.07389],[-2.261559,53.072124],[-2.261376,53.07045],[-2.260381,53.068654],[-2.260118,53.068034],[-2.258373,53.067575],[-2.256809,53.066425],[-2.255078,53.065342],[-2.255212,53.064418],[-2.255373,53.063309],[-2.252904,53.063495],[-2.252601,53.063729],[-2.252841,53.065815],[-2.253015,53.066225],[-2.252703,53.067082],[-2.252499,53.068488],[-2.252417,53.070977],[-2.250579,53.07201],[-2.233706,53.071681],[-2.229885,53.071471],[-2.221249,53.070997],[-2.220284,53.069915],[-2.218743,53.070719],[-2.217011,53.071131],[-2.216339,53.071223],[-2.216243,53.071878],[-2.214897,53.071878],[-2.212876,53.072071],[-2.211698,53.07143],[-2.210989,53.071044],[-2.207321,53.07127],[-2.206882,53.071179],[-2.202722,53.071385],[-2.201376,53.071721],[-2.200648,53.071707],[-2.199194,53.071559],[-2.200046,53.073798],[-2.200503,53.074788],[-2.200794,53.075184],[-2.201038,53.075714],[-2.201093,53.076091],[-2.201503,53.078242],[-2.201403,53.078676],[-2.201046,53.079078],[-2.200696,53.079471],[-2.200563,53.079489],[-2.190714,53.089353],[-2.190025,53.089447],[-2.189436,53.089436],[-2.189342,53.090073],[-2.18963,53.090438],[-2.190587,53.091228],[-2.192416,53.09232],[-2.194118,53.093457],[-2.195203,53.094561],[-2.196453,53.095832],[-2.196857,53.09699],[-2.197799,53.098925],[-2.198995,53.10043],[-2.200247,53.101351],[-2.201065,53.119663],[-2.214736,53.119441],[-2.293926,53.11891],[-2.293868,53.116822],[-2.298119,53.11675],[-2.319563,53.107607],[-2.319338,53.107356],[-2.320312,53.106605],[-2.321299,53.105649],[-2.324611,53.103918],[-2.331433,53.099803],[-2.332709,53.099627],[-2.332125,53.095688],[-2.331969,53.094641],[-2.332421,53.094035],[-2.332648,53.093779],[-2.332467,53.093486],[-2.332339,53.093279],[-2.332176,53.093097],[-2.331415,53.092575],[-2.330655,53.092195],[-2.327812,53.090774],[-2.325245,53.091932],[-2.32395,53.092516],[-2.323277,53.093036],[-2.323018,53.093153],[-2.314144,53.091328],[-2.311527,53.091689],[-2.310013,53.091897],[-2.308496,53.092043],[-2.299393,53.092979],[-2.299138,53.092727],[-2.29901,53.091629],[-2.298859,53.091075],[-2.298706,53.090516],[-2.298313,53.090182],[-2.297716,53.089676],[-2.297371,53.089347],[-2.297206,53.088433],[-2.297216,53.088325],[-2.293706,53.089123],[-2.292786,53.076347],[-2.262054,53.076369]]]},"properties":{"code":"M83084","name":"MOUNT ROAD PRACTICE","icb":"QNC"}}]}