{"type":"FeatureCollection","features":[{"type":"Feature","geometry":{"type":"Polygon","coordinates":[[[-1.709256,52.821284],[-1.70734,52.82061],[-1.70082,52.8204],[-1.70151,52.81625],[-1.698799,52.816505],[-1.6991,52.8121],[-1.69567,52.81231],[-1.69567,52.817634],[-1.69292,52.81957],[-1.69258,52.82102],[-1.6864,52.8231],[-1.68468,52.82496],[-1.67542,52.82849],[-1.66683,52.82911],[-1.66168,52.8287],[-1.656326,52.829349],[-1.65585,52.82683],[-1.6543,52.82652],[-1.65464,52.82559],[-1.65413,52.82455],[-1.64761,52.82548],[-1.65104,52.83015],[-1.63971,52.83129],[-1.63799,52.83015],[-1.63713,52.82891],[-1.63559,52.82704],[-1.63868,52.82455],[-1.63628,52.8233],[-1.63216,52.82683],[-1.62958,52.82808],[-1.6301,52.82403],[-1.62993,52.8217],[-1.62958,52.82071],[-1.62907,52.8203],[-1.62495,52.82009],[-1.6083,52.83295],[-1.59954,52.84135],[-1.604433,52.840728],[-1.601962,52.842491],[-1.609165,52.845083],[-1.625809,52.850785],[-1.623407,52.855242],[-1.641772,52.857419],[-1.6525,52.857263],[-1.662711,52.85887],[-1.668547,52.861513],[-1.678755,52.862187],[-1.670524,52.862497],[-1.67078,52.86514],[-1.677645,52.867575],[-1.678333,52.871202],[-1.678846,52.875036],[-1.673012,52.875139],[-1.669068,52.883738],[-1.685367,52.885292],[-1.73824,52.88529],[-1.75884,52.84031],[-1.75575,52.83347],[-1.74545,52.83824],[-1.74133,52.83534],[-1.73412,52.83513],[-1.72794,52.83326],[-1.711593,52.82215],[-1.72451,52.81314],[-1.72211,52.81252],[-1.709256,52.821284]]]},"properties":{"code":"M83037","name":"TUTBURY HEALTH CENTRE","icb":"QNC"}}]}