{"type":"FeatureCollection","features":[{"type":"Feature","geometry":{"type":"Polygon","coordinates":[[[-1.64606,52.80349],[-1.64233,52.80642],[-1.643251,52.807031],[-1.643284,52.807167],[-1.64232,52.808379],[-1.638246,52.811713],[-1.638196,52.811805],[-1.63593,52.81322],[-1.639095,52.816544],[-1.64005,52.81936],[-1.647508,52.815497],[-1.65168,52.81503],[-1.65623,52.81389],[-1.661146,52.809904],[-1.661406,52.809866],[-1.663888,52.810605],[-1.663999,52.810749],[-1.66267,52.81394],[-1.66348,52.81415],[-1.665055,52.810808],[-1.665343,52.810719],[-1.6683,52.811373],[-1.6734,52.81293],[-1.67795,52.81394],[-1.680662,52.813622],[-1.6867,52.81503],[-1.69421,52.81399],[-1.695033,52.812947],[-1.695281,52.81288],[-1.697084,52.813196],[-1.697231,52.813305],[-1.69743,52.81488],[-1.69799,52.8149],[-1.69769,52.81239],[-1.69722,52.80938],[-1.69687,52.80938],[-1.69724,52.812081],[-1.697014,52.812227],[-1.693267,52.81218],[-1.688554,52.812026],[-1.688358,52.811915],[-1.68782,52.8094],[-1.68396,52.80966],[-1.683834,52.812504],[-1.683695,52.812617],[-1.679061,52.813544],[-1.676112,52.81318],[-1.67348,52.81223],[-1.67147,52.81161],[-1.649129,52.804945],[-1.64606,52.80349]]]},"properties":{"code":"M83010","name":"GORDON STREET SURGERY","icb":"QNC"}}]}