{"type":"FeatureCollection","features":[{"type":"Feature","geometry":{"type":"Polygon","coordinates":[[[-2.295387,52.727865],[-2.29571,52.72756],[-2.21508,52.72543],[-2.14697,52.75874],[-2.14602,52.77712],[-2.14817,52.79031],[-2.15229,52.79342],[-2.15469,52.79736],[-2.15675,52.80131],[-2.15607,52.80484],[-2.15641,52.80733],[-2.15675,52.81169],[-2.15641,52.81874],[-2.15366,52.8231],[-2.15401,52.82517],[-2.15401,52.82828],[-2.15744,52.83243],[-2.1571,52.83492],[-2.16019,52.83782],[-2.16465,52.84073],[-2.16808,52.84415],[-2.16774,52.84446],[-2.19418,52.84446],[-2.20757,52.84425],[-2.22267,52.84384],[-2.29151,52.84819],[-2.2982,52.84949],[-2.30438,52.84996],[-2.31022,52.85089],[-2.31322,52.85222],[-2.31657,52.85252],[-2.32361,52.85395],[-2.33013,52.85369],[-2.3394,52.85794],[-2.34635,52.85882],[-2.35502,52.86094],[-2.36283,52.84887],[-2.36086,52.837],[-2.35966,52.8314],[-2.35828,52.82891],[-2.35794,52.82642],[-2.35966,52.82227],[-2.36309,52.81584],[-2.36481,52.81003],[-2.36378,52.80338],[-2.36481,52.80089],[-2.36515,52.79591],[-2.36755,52.78865],[-2.37167,52.78615],[-2.36961,52.78242],[-2.36378,52.77909],[-2.36206,52.77515],[-2.36069,52.77141],[-2.35794,52.76351],[-2.35519,52.755],[-2.35107,52.74689],[-2.295387,52.727865]]]},"properties":{"code":"M83070","name":"GNOSALL","icb":"QNC"}}]}