{"type":"FeatureCollection","features":[{"type":"Feature","geometry":{"type":"Polygon","coordinates":[[[-2.14302,53.04018],[-2.14414,53.03547],[-2.14808,53.03179],[-2.15632,53.02341],[-2.14701,53.0194],[-2.14165,53.02108],[-2.11349,53.0121],[-2.11143,52.98668],[-2.10131,52.98446],[-2.10058,52.9879],[-2.09893,52.99197],[-2.09286,52.99922],[-2.0856,53.00554],[-2.06526,52.97749],[-2.0414,53.02067],[-1.98921,53.02263],[-2.01187,53.04101],[-2.02629,53.08825],[-2.04054,53.07773],[-2.0456,53.05989],[-2.05397,53.04003],[-2.06577,53.04575],[-2.10577,53.05514],[-2.14302,53.04018]]]},"properties":{"code":"M83011","name":"WERRINGTON VILLAGE SURGERY","icb":"QNC"}}]}