{"type":"FeatureCollection","features":[{"type":"Feature","geometry":{"type":"Polygon","coordinates":[[[-2.258639,53.044544],[-2.258646,53.04456],[-2.25872,53.04472],[-2.270075,53.028655],[-2.270099,53.028627],[-2.27013,53.028601],[-2.270166,53.028578],[-2.270207,53.028558],[-2.270253,53.028542],[-2.270302,53.02853],[-2.270353,53.028522],[-2.270405,53.028519],[-2.270458,53.02852],[-2.27051,53.028526],[-2.27056,53.028536],[-2.270607,53.02855],[-2.270651,53.028568],[-2.270689,53.028589],[-2.270723,53.028614],[-2.27075,53.028641],[-2.27108,53.02903],[-2.28413,53.0152],[-2.28241,53.00859],[-2.257,52.98896],[-2.22645,52.97635],[-2.22771,52.977839],[-2.227726,52.977861],[-2.227738,52.977883],[-2.227746,52.977906],[-2.22775,52.97793],[-2.22775,52.977953],[-2.227746,52.977976],[-2.227738,52.977999],[-2.227726,52.978022],[-2.227711,52.978043],[-2.227691,52.978064],[-2.227668,52.978083],[-2.227642,52.9781],[-2.227614,52.978116],[-2.227582,52.97813],[-2.227549,52.978142],[-2.227513,52.978151],[-2.18834,52.9873],[-2.18662,53.00115],[-2.223699,53.01352],[-2.223743,53.013537],[-2.223783,53.013558],[-2.223817,53.013582],[-2.223845,53.013608],[-2.223867,53.013637],[-2.223882,53.013668],[-2.22389,53.013699],[-2.223891,53.013731],[-2.223883,53.013762],[-2.223869,53.013793],[-2.223848,53.013822],[-2.22382,53.013849],[-2.223786,53.013873],[-2.223747,53.013894],[-2.223703,53.013912],[-2.223656,53.013925],[-2.20276,53.01891],[-2.21443,53.02862],[-2.258364,53.044184],[-2.258394,53.044196],[-2.258422,53.044209],[-2.258448,53.044224],[-2.258471,53.044241],[-2.258492,53.044259],[-2.258509,53.044277],[-2.258523,53.044297],[-2.258535,53.044318],[-2.258639,53.044544]]]},"properties":{"code":"M83067","name":"LYME VALLEY MEDICAL CENTRE","icb":"QNC"}}]}