{"type":"FeatureCollection","features":[{"type":"Feature","geometry":{"type":"Polygon","coordinates":[[[-1.703565,52.650051],[-1.712494,52.649209],[-1.720893,52.64557],[-1.745786,52.640666],[-1.737212,52.629623],[-1.72829,52.625457],[-1.725371,52.622852],[-1.729874,52.620377],[-1.733433,52.618292],[-1.725838,52.616572],[-1.71481,52.614407],[-1.697563,52.613975],[-1.691891,52.608675],[-1.682963,52.599912],[-1.66872,52.597677],[-1.652237,52.59522],[-1.645548,52.600233],[-1.643658,52.602214],[-1.643835,52.603865],[-1.63868,52.606382],[-1.634741,52.613152],[-1.631127,52.618996],[-1.617575,52.631398],[-1.628553,52.636188],[-1.63731,52.638592],[-1.64769,52.6395],[-1.64917,52.63947],[-1.66204,52.646508],[-1.670452,52.650885],[-1.678162,52.65421],[-1.690182,52.652657],[-1.703565,52.650051]]]},"properties":{"code":"M83117","name":"CROWN MEDICAL PRACTICE","icb":"QNC"}}]}