{"type":"FeatureCollection","features":[{"type":"Feature","geometry":{"type":"Polygon","coordinates":[[[-2.01827,52.72566],[-2.02002,52.72567],[-2.02234,52.72582],[-2.02697,52.72597],[-2.0274,52.72364],[-2.02805,52.72252],[-2.02851,52.7203],[-2.02948,52.71859],[-2.02936,52.71777],[-2.02977,52.71527],[-2.03041,52.71412],[-2.03612,52.71402],[-2.03749,52.7143],[-2.04097,52.71459],[-2.04161,52.71449],[-2.04247,52.7149],[-2.04359,52.7149],[-2.04462,52.71475],[-2.04972,52.71329],[-2.0505,52.71285],[-2.05118,52.71137],[-2.05316,52.70879],[-2.05444,52.70624],[-2.05517,52.70557],[-2.05758,52.70362],[-2.05899,52.702],[-2.05856,52.70057],[-2.05586,52.69555],[-2.05457,52.69405],[-2.05479,52.69306],[-2.05646,52.69243],[-2.05809,52.69134],[-2.06002,52.69134],[-2.06157,52.69116],[-2.06376,52.68882],[-2.0653,52.68791],[-2.06642,52.68596],[-2.06646,52.68393],[-2.068,52.68351],[-2.06818,52.68304],[-2.06032,52.68166],[-2.05311,52.6806],[-2.03942,52.67714],[-2.03208,52.67511],[-2.02719,52.67331],[-2.02376,52.67256],[-2.0208,52.67659],[-2.01921,52.67787],[-2.01788,52.67935],[-2.01711,52.68159],[-2.01445,52.68614],[-2.00775,52.68645],[-2.00393,52.68679],[-1.99805,52.68697],[-1.99646,52.68695],[-1.99179,52.68775],[-1.98518,52.68783],[-1.98368,52.68762],[-1.9778,52.6871],[-1.97724,52.69342],[-1.97707,52.69735],[-1.97762,52.70273],[-1.98016,52.70263],[-1.98153,52.70317],[-1.98612,52.70375],[-1.98947,52.7031],[-1.99076,52.70341],[-1.99101,52.70421],[-1.99505,52.70687],[-1.99702,52.7077],[-1.99857,52.70822],[-1.999,52.70936],[-2.00234,52.71061],[-2.00706,52.7128],[-2.00887,52.71462],[-2.01153,52.71958],[-2.01264,52.72265],[-2.01827,52.72566]]]},"properties":{"code":"M83130","name":"RED LION SURGERY","icb":"QNC"}}]}