{"type":"FeatureCollection","features":[{"type":"Feature","geometry":{"type":"Polygon","coordinates":[[[-1.632421,52.663818],[-1.624557,52.666418],[-1.620679,52.668079],[-1.618298,52.668785],[-1.615916,52.668917],[-1.616402,52.672149],[-1.608392,52.673104],[-1.60401,52.673897],[-1.6043,52.675253],[-1.620468,52.694824],[-1.62007,52.69476],[-1.620013,52.694798],[-1.620449,52.694852],[-1.62014,52.69532],[-1.625168,52.696404],[-1.630157,52.695881],[-1.639118,52.695243],[-1.650338,52.695198],[-1.655145,52.694198],[-1.659006,52.695031],[-1.663054,52.695619],[-1.665996,52.696147],[-1.667682,52.696922],[-1.669829,52.697526],[-1.672756,52.69835],[-1.674562,52.698329],[-1.67524,52.69834],[-1.679479,52.697459],[-1.681855,52.696614],[-1.683348,52.697763],[-1.690617,52.701101],[-1.706082,52.703346],[-1.72794,52.69459],[-1.729107,52.693316],[-1.717748,52.686686],[-1.725542,52.682906],[-1.729214,52.674321],[-1.739813,52.671176],[-1.752262,52.670487],[-1.753252,52.664399],[-1.755066,52.662225],[-1.748046,52.641706],[-1.745091,52.641576],[-1.745532,52.638861],[-1.741969,52.636158],[-1.75169,52.631438],[-1.7609,52.62223],[-1.742716,52.612777],[-1.756005,52.603044],[-1.751624,52.601027],[-1.743908,52.59885],[-1.737008,52.598741],[-1.736061,52.598664],[-1.73558,52.59856],[-1.71953,52.59653],[-1.687486,52.601869],[-1.685309,52.601772],[-1.683133,52.600641],[-1.679823,52.600454],[-1.67656,52.600467],[-1.676319,52.601951],[-1.675145,52.603731],[-1.673918,52.605359],[-1.672327,52.60747],[-1.67311,52.609762],[-1.672681,52.612405],[-1.672835,52.613492],[-1.672976,52.614488],[-1.672891,52.614764],[-1.671791,52.615524],[-1.668375,52.617886],[-1.671723,52.620426],[-1.667363,52.624785],[-1.658134,52.638769],[-1.642212,52.644434],[-1.64788,52.657619],[-1.632421,52.663818]]]},"properties":{"code":"M83148","name":"THE PEEL MEDICAL PRACTICE","icb":"QNC"}}]}