{"type":"FeatureCollection","features":[{"type":"Feature","geometry":{"type":"Polygon","coordinates":[[[-2.178665,53.002584],[-2.17611,52.99751],[-2.1819,52.994325],[-2.188548,52.986964],[-2.197515,52.983157],[-2.201228,52.976331],[-2.202518,52.970127],[-2.195543,52.963813],[-2.169889,52.941987],[-2.113257,52.952929],[-2.102378,52.951792],[-2.098335,52.955185],[-2.095329,52.957567],[-2.104398,52.965282],[-2.10755,52.97028],[-2.106438,52.973081],[-2.105344,52.975838],[-2.103259,52.978524],[-2.100251,52.980674],[-2.100838,52.983624],[-2.100874,52.986573],[-2.10028,52.989427],[-2.099746,52.990928],[-2.099226,52.991598],[-2.098619,52.992216],[-2.110409,52.995101],[-2.119339,53.000858],[-2.136462,53.002647],[-2.155324,53.002803],[-2.158946,53.004992],[-2.161429,53.005657],[-2.16349,53.0051],[-2.16509,53.00304],[-2.16789,53.0015],[-2.17215,53.00099],[-2.178665,53.002584]]]},"properties":{"code":"M83126","name":"LONGTON HALL SURGERY","icb":"QNC"}}]}