{"type":"FeatureCollection","features":[{"type":"Feature","geometry":{"type":"Polygon","coordinates":[[[-2.19418,52.99275],[-2.18885,52.99932],[-2.197075,52.995133],[-2.197446,52.99519],[-2.197908,52.995903],[-2.19787,52.99606],[-2.200829,53.00042],[-2.200563,53.000625],[-2.19242,52.99991],[-2.197244,53.002926],[-2.197017,53.003208],[-2.18928,53.00275],[-2.189318,53.002858],[-2.189065,53.003028],[-2.18615,53.00285],[-2.18534,53.00404],[-2.186913,53.005125],[-2.18847,53.00649],[-2.188702,53.006586],[-2.18937,53.00779],[-2.19216,53.00841],[-2.196139,53.008668],[-2.1992,53.00954],[-2.203991,53.009001],[-2.204866,53.008958],[-2.20692,53.009173],[-2.207672,53.009446],[-2.20829,53.00983],[-2.208542,53.009823],[-2.21044,53.00825],[-2.21113,53.00668],[-2.21057,53.00536],[-2.210338,53.005274],[-2.20812,53.0011],[-2.20696,53.00014],[-2.201304,53.00079],[-2.201043,53.000676],[-2.20066,52.99888],[-2.20006,52.99802],[-2.199218,52.997734],[-2.199033,52.997519],[-2.19941,52.9966],[-2.198031,52.996055],[-2.197947,52.995913],[-2.19898,52.99399],[-2.196142,52.99362],[-2.196015,52.993567],[-2.19568,52.99325],[-2.195166,52.993362],[-2.194905,52.993299],[-2.1946,52.99294],[-2.19418,52.99275]]]},"properties":{"code":"M83619","name":"HONEYWALL MEDICAL PRACTICE","icb":"QNC"}}]}