{"type":"FeatureCollection","features":[{"type":"Feature","geometry":{"type":"Polygon","coordinates":[[[-1.683998,52.637386],[-1.686465,52.632881],[-1.686464,52.632659],[-1.685507,52.62416],[-1.684521,52.61669],[-1.681792,52.615556],[-1.681792,52.615556],[-1.680822,52.615452],[-1.681732,52.615452],[-1.679696,52.611908],[-1.66989,52.610905],[-1.669675,52.611035],[-1.669654,52.610866],[-1.663774,52.613837],[-1.670548,52.618672],[-1.672891,52.62016],[-1.668935,52.623373],[-1.666577,52.62728],[-1.66194,52.625665],[-1.657219,52.624571],[-1.653442,52.623711],[-1.651382,52.626264],[-1.639872,52.626499],[-1.639278,52.636865],[-1.650009,52.639001],[-1.660824,52.638584],[-1.683998,52.637386]]]},"properties":{"code":"M83693","name":"TRI-LINKS MEDICAL PRACTICE","icb":"QNC"}}]}