{"type":"FeatureCollection","features":[{"type":"Feature","geometry":{"type":"Polygon","coordinates":[[[-2.247423,53.089843],[-2.248721,53.088528],[-2.248775,53.08798],[-2.2493,53.087052],[-2.251221,53.084797],[-2.245696,53.082909],[-2.244515,53.082696],[-2.24327,53.08276],[-2.240074,53.08037],[-2.239183,53.078965],[-2.23911,53.07853],[-2.239301,53.077708],[-2.239001,53.077109],[-2.238915,53.075014],[-2.239108,53.074556],[-2.239172,53.074034],[-2.238818,53.07319],[-2.237874,53.072345],[-2.2384,53.07212],[-2.238733,53.071217],[-2.23851,53.0708],[-2.23705,53.06953],[-2.23336,53.07098],[-2.231416,53.070315],[-2.230235,53.069483],[-2.23001,53.06853],[-2.22907,53.06721],[-2.22765,53.06469],[-2.22709,53.06396],[-2.230487,53.06333],[-2.231845,53.063436],[-2.233593,53.064107],[-2.235235,53.0649],[-2.23575,53.065041],[-2.236501,53.065106],[-2.237113,53.065003],[-2.237692,53.064732],[-2.239473,53.063726],[-2.241651,53.063288],[-2.244333,53.062837],[-2.245824,53.062637],[-2.247262,53.062727],[-2.249129,53.063159],[-2.250373,53.063913],[-2.25117,53.0636],[-2.25112,53.06317],[-2.24632,53.06172],[-2.23902,53.05984],[-2.23323,53.05757],[-2.22812,53.0538],[-2.22546,53.05042],[-2.2216,53.04361],[-2.21928,53.04173],[-2.21516,53.04026],[-2.21439,53.04137],[-2.21413,53.04328],[-2.2134,53.04459],[-2.21207,53.04511],[-2.21096,53.04483],[-2.20817,53.04361],[-2.20486,53.04333],[-2.20263,53.04351],[-2.19988,53.0448],[-2.19666,53.04565],[-2.17787,53.049],[-2.17632,53.05004],[-2.17409,53.05135],[-2.17259,53.05236],[-2.17216,53.05308],[-2.171,53.05393],[-2.1725,53.0545],[-2.17461,53.05605],[-2.17564,53.05747],[-2.17577,53.05997],[-2.17697,53.06133],[-2.17928,53.06438],[-2.18057,53.06641],[-2.1807,53.06763],[-2.18306,53.07142],[-2.18336,53.07271],[-2.18422,53.07394],[-2.18589,53.0757],[-2.18426,53.07642],[-2.18349,53.07696],[-2.1837,53.07809],[-2.18285,53.08088],[-2.18147,53.08109],[-2.18134,53.08139],[-2.18023,53.08266],[-2.18049,53.08392],[-2.18134,53.08542],[-2.18169,53.0874],[-2.18143,53.08939],[-2.18186,53.08915],[-2.18302,53.08918],[-2.18349,53.08928],[-2.18469,53.0898],[-2.18606,53.08977],[-2.188575,53.089437],[-2.18946,53.08949],[-2.191665,53.089398],[-2.1937,53.08905],[-2.196547,53.088386],[-2.197287,53.088309],[-2.197877,53.088502],[-2.198607,53.088477],[-2.200688,53.087703],[-2.201343,53.087568],[-2.20337,53.088464],[-2.204282,53.089185],[-2.205838,53.090132],[-2.207544,53.090667],[-2.209239,53.091466],[-2.206986,53.09358],[-2.207147,53.094578],[-2.208166,53.094868],[-2.208327,53.096292],[-2.209539,53.099075],[-2.210172,53.099275],[-2.210655,53.099268],[-2.213252,53.097786],[-2.216395,53.098121],[-2.21765,53.098617],[-2.219152,53.099062],[-2.219721,53.099217],[-2.22027,53.0992],[-2.221835,53.098405],[-2.2228,53.09758],[-2.223755,53.096324],[-2.226362,53.095764],[-2.227424,53.095957],[-2.228723,53.095983],[-2.230847,53.095757],[-2.232918,53.095332],[-2.233894,53.094842],[-2.234677,53.09425],[-2.23937,53.09279],[-2.241544,53.092555],[-2.243528,53.091982],[-2.247423,53.089843]]]},"properties":{"code":"M83650","name":"TUNSTALL PRIMARY CARE CENTRE","icb":"QNC"}}]}