{"type":"FeatureCollection","features":[{"type":"Feature","geometry":{"type":"Polygon","coordinates":[[[-2.174114,52.976944],[-2.174657,52.979875],[-2.174995,52.982687],[-2.174801,52.985224],[-2.174147,52.986385],[-2.173483,52.988542],[-2.174585,52.990028],[-2.182258,52.990352],[-2.18594,52.988087],[-2.191927,52.985551],[-2.198942,52.982037],[-2.208326,52.980036],[-2.21297,52.97692],[-2.223157,52.97562],[-2.224227,52.972141],[-2.224666,52.971361],[-2.2207,52.96601],[-2.21907,52.96022],[-2.21593,52.94636],[-2.21565,52.94403],[-2.21494,52.9416],[-2.21457,52.93866],[-2.21297,52.93457],[-2.20698,52.92567],[-2.19857,52.92567],[-2.18555,52.92877],[-2.17542,52.93677],[-2.17051,52.93841],[-2.16984,52.9421],[-2.15821,52.94926],[-2.15547,52.95412],[-2.15542,52.96213],[-2.1559,52.96335],[-2.15926,52.96539],[-2.16087,52.96676],[-2.1637,52.96833],[-2.16585,52.96791],[-2.16744,52.96779],[-2.16789,52.96955],[-2.16886,52.97154],[-2.170012,52.972621],[-2.171802,52.973614],[-2.173242,52.975156],[-2.174114,52.976944]]]},"properties":{"code":"M83601","name":"BRINSLEY AVENUE PRACTICE","icb":"QNC"}}]}