{"type":"FeatureCollection","features":[{"type":"Feature","geometry":{"type":"Polygon","coordinates":[[[-2.081031,52.981375],[-2.100015,52.981956],[-2.104058,52.9788],[-2.10732,52.976252],[-2.108524,52.972487],[-2.112683,52.966783],[-2.111238,52.964143],[-2.111118,52.961487],[-2.117597,52.956424],[-2.11349,52.95236],[-2.076992,52.938603],[-2.03456,52.944741],[-2.023022,52.957167],[-2.029506,52.97147],[-2.039325,52.977792],[-2.04552,52.99144],[-2.055773,52.985713],[-2.067794,52.982832],[-2.081031,52.981375]]]},"properties":{"code":"M83632","name":"TRINITY MEDICAL CENTRE","icb":"QNC"}}]}