{"type":"FeatureCollection","features":[{"type":"Feature","geometry":{"type":"Polygon","coordinates":[[[-1.991625,52.694072],[-1.976852,52.6922],[-1.963463,52.692304],[-1.93334,52.69784],[-1.91574,52.70552],[-1.93299,52.71243],[-1.9593,52.71979],[-1.970629,52.71402],[-1.99481,52.71991],[-1.995735,52.716851],[-2.006893,52.711235],[-2.00704,52.70791],[-1.99859,52.70327],[-1.99831,52.701042],[-1.996593,52.697713],[-1.991625,52.694072]]]},"properties":{"code":"M83719","name":"RAWNSLEY SURGERY","icb":"QNC"}}]}