{"type":"FeatureCollection","features":[{"type":"Feature","geometry":{"type":"Polygon","coordinates":[[[-2.161285,52.990885],[-2.16402,52.990692],[-2.170104,52.990474],[-2.17655,52.990147],[-2.176547,52.987621],[-2.176363,52.985339],[-2.176171,52.982972],[-2.175807,52.978479],[-2.175211,52.974858],[-2.174864,52.972751],[-2.174472,52.970375],[-2.173789,52.967147],[-2.173131,52.962229],[-2.15577,52.96346],[-2.14989,52.96454],[-2.15195,52.97059],[-2.15208,52.97113],[-2.15023,52.97218],[-2.14916,52.97294],[-2.14894,52.97385],[-2.14718,52.97553],[-2.14491,52.97674],[-2.14223,52.97792],[-2.13937,52.97845],[-2.1376,52.97905],[-2.13644,52.97965],[-2.13716,52.97995],[-2.13951,52.98049],[-2.14017,52.98085],[-2.14302,52.98203],[-2.13985,52.98456],[-2.13947,52.9852],[-2.13763,52.98587],[-2.13978,52.98741],[-2.14211,52.98978],[-2.143284,52.99005],[-2.145222,52.990366],[-2.146915,52.990715],[-2.148808,52.990951],[-2.151063,52.991319],[-2.154363,52.991265],[-2.157528,52.991152],[-2.161285,52.990885]]]},"properties":{"code":"M83725","name":"BLURTON MEDICAL PRACTICE","icb":"QNC"}}]}