{"type":"FeatureCollection","features":[{"type":"Feature","geometry":{"type":"Polygon","coordinates":[[[-1.446981,52.279809],[-1.45896,52.2837],[-1.463242,52.278451],[-1.46651,52.2759],[-1.47273,52.26881],[-1.5132,52.22393],[-1.52286,52.22144],[-1.55419,52.20371],[-1.54504,52.1979],[-1.50011,52.1963],[-1.494783,52.198322],[-1.489291,52.204083],[-1.484273,52.203267],[-1.479082,52.198612],[-1.475865,52.195981],[-1.474835,52.194166],[-1.476207,52.192588],[-1.476203,52.192246],[-1.47063,52.1872],[-1.47535,52.18414],[-1.472,52.18004],[-1.447502,52.18949],[-1.442209,52.188664],[-1.41596,52.18406],[-1.37356,52.19051],[-1.38613,52.23771],[-1.38896,52.24641],[-1.388174,52.246983],[-1.378788,52.249139],[-1.374925,52.254866],[-1.381448,52.258334],[-1.383248,52.258387],[-1.383447,52.258496],[-1.38356,52.25897],[-1.386473,52.260311],[-1.39725,52.267321],[-1.40093,52.27],[-1.430454,52.275825],[-1.446981,52.279809]]]},"properties":{"code":"M84044","name":"HARBURY SURGERY","icb":"QWU"}}]}