{"type":"FeatureCollection","features":[{"type":"Feature","geometry":{"type":"Polygon","coordinates":[[[-1.340933,52.452453],[-1.349488,52.491164],[-1.356556,52.49558],[-1.3584,52.496017],[-1.364385,52.494838],[-1.365906,52.494538],[-1.387025,52.49548],[-1.406593,52.49744],[-1.392647,52.491718],[-1.391658,52.487484],[-1.40093,52.485603],[-1.404276,52.489078],[-1.409643,52.494736],[-1.406725,52.497492],[-1.421614,52.502221],[-1.421206,52.502325],[-1.421421,52.502377],[-1.422193,52.506244],[-1.432664,52.510266],[-1.432579,52.510136],[-1.437771,52.515542],[-1.449571,52.513726],[-1.454126,52.509909],[-1.453249,52.505991],[-1.454171,52.48885],[-1.454015,52.481108],[-1.452749,52.479252],[-1.455688,52.475501],[-1.463671,52.471135],[-1.448693,52.465985],[-1.440046,52.466116],[-1.43127,52.465684],[-1.422815,52.45036],[-1.340933,52.452453]]]},"properties":{"code":"M84061","name":"BULKINGTON SURGERY","icb":"QWU"}}]}