{"type":"FeatureCollection","features":[{"type":"Feature","geometry":{"type":"Polygon","coordinates":[[[-1.485903,52.155188],[-1.50684,52.14065],[-1.516155,52.100278],[-1.518784,52.088877],[-1.48727,52.06241],[-1.439002,52.057832],[-1.378981,52.071814],[-1.361563,52.091208],[-1.36162,52.09406],[-1.339637,52.13197],[-1.33827,52.13349],[-1.29021,52.17435],[-1.274764,52.21213],[-1.39355,52.20719],[-1.474306,52.18567],[-1.48659,52.15561],[-1.485903,52.155188]]]},"properties":{"code":"M84009","name":"FENNY COMPTON SURGERY","icb":"QWU"}}]}