{"type":"FeatureCollection","features":[{"type":"Feature","geometry":{"type":"Polygon","coordinates":[[[-1.419468,52.536377],[-1.434832,52.541754],[-1.442385,52.544678],[-1.450796,52.547653],[-1.458521,52.550576],[-1.475601,52.555585],[-1.484055,52.558429],[-1.48942,52.55342],[-1.48869,52.55028],[-1.48217,52.54776],[-1.47748,52.54847],[-1.47558,52.54961],[-1.47394,52.54865],[-1.47375,52.54827],[-1.47261,52.54667],[-1.47122,52.54489],[-1.47035,52.54335],[-1.47197,52.54199],[-1.47465,52.53935],[-1.476,52.53727],[-1.47616,52.53597],[-1.47589,52.53493],[-1.47506,52.53379],[-1.47388,52.53264],[-1.45878,52.5228],[-1.45569,52.52165],[-1.45311,52.52134],[-1.45037,52.52144],[-1.44196,52.52306],[-1.43337,52.52458],[-1.432471,52.528624],[-1.42573,52.53095],[-1.419468,52.536377]]]},"properties":{"code":"M84037","name":"THE GRANGE MEDICAL CENTRE","icb":"QWU"}}]}