{"type":"FeatureCollection","features":[{"type":"Feature","geometry":{"type":"Polygon","coordinates":[[[-1.506389,52.281463],[-1.5056,52.282573],[-1.506544,52.28323],[-1.508432,52.284149],[-1.512251,52.28533],[-1.513925,52.285304],[-1.514611,52.286249],[-1.514269,52.287194],[-1.514913,52.288165],[-1.517058,52.289373],[-1.520533,52.28974],[-1.524396,52.28932],[-1.526542,52.288848],[-1.527872,52.288375],[-1.529674,52.287168],[-1.532591,52.28617],[-1.534181,52.285697],[-1.535769,52.285697],[-1.536799,52.285881],[-1.539846,52.286091],[-1.542485,52.28617],[-1.54403,52.285789],[-1.545854,52.285973],[-1.546411,52.286196],[-1.547227,52.286249],[-1.54787,52.286117],[-1.547613,52.2847],[-1.546926,52.282705],[-1.548943,52.280886],[-1.550216,52.281506],[-1.55436,52.280858],[-1.556449,52.28063],[-1.55647,52.279157],[-1.558103,52.278672],[-1.560534,52.277857],[-1.559957,52.273755],[-1.562698,52.271066],[-1.564767,52.271803],[-1.567058,52.270376],[-1.560659,52.266529],[-1.560031,52.263067],[-1.560745,52.260593],[-1.564178,52.25618],[-1.559982,52.252239],[-1.558737,52.248692],[-1.556087,52.244722],[-1.554063,52.240427],[-1.553113,52.238157],[-1.551805,52.235919],[-1.550319,52.236417],[-1.548557,52.236894],[-1.541348,52.246774],[-1.531391,52.250663],[-1.525126,52.251871],[-1.514625,52.251733],[-1.514883,52.254465],[-1.515741,52.254833],[-1.514196,52.256462],[-1.512395,52.257197],[-1.515912,52.260927],[-1.516856,52.263186],[-1.517315,52.271151],[-1.514969,52.271065],[-1.512395,52.270592],[-1.509135,52.273481],[-1.508877,52.274741],[-1.509392,52.276212],[-1.508791,52.27721],[-1.508191,52.279888],[-1.506389,52.281463]]]},"properties":{"code":"M84064","name":"WHITNASH MEDICAL CENTRE","icb":"QWU"}}]}