{"type":"FeatureCollection","features":[{"type":"Feature","geometry":{"type":"Polygon","coordinates":[[[-1.30523,52.36735],[-1.30505,52.36737],[-1.3083,52.36616],[-1.31096,52.3647],[-1.3125,52.36374],[-1.3137,52.36268],[-1.31524,52.35998],[-1.31763,52.35552],[-1.32056,52.35228],[-1.32224,52.35061],[-1.32487,52.34936],[-1.33191,52.34638],[-1.33501,52.34413],[-1.32267,52.34121],[-1.30591,52.33706],[-1.29779,52.33475],[-1.29002,52.3339],[-1.27522,52.33253],[-1.26556,52.33295],[-1.24367,52.33755],[-1.23043,52.33877],[-1.21725,52.33855],[-1.20424,52.33739],[-1.193918,52.337042],[-1.198932,52.353925],[-1.198189,52.35323],[-1.1978,52.352779],[-1.198514,52.356516],[-1.198514,52.370555],[-1.198955,52.371362],[-1.183,52.3735],[-1.1976,52.39008],[-1.222835,52.39552],[-1.228961,52.402967],[-1.240511,52.406248],[-1.27225,52.406437],[-1.28789,52.39299],[-1.31686,52.38783],[-1.31716,52.38332],[-1.31797,52.38216],[-1.31797,52.38057],[-1.31831,52.37935],[-1.31796,52.37857],[-1.31932,52.37768],[-1.30867,52.37604],[-1.30562,52.37565],[-1.30536,52.36803],[-1.30523,52.36735]]]},"properties":{"code":"M84065","name":"BEECH TREE MEDICAL PRACTICE","icb":"QWU"}}]}