{"type":"FeatureCollection","features":[{"type":"Feature","geometry":{"type":"Polygon","coordinates":[[[-1.61018,52.14107],[-1.61671,52.18046],[-1.62289,52.21097],[-1.63877,52.22123],[-1.65632,52.22667],[-1.65994,52.23097],[-1.6542,52.23569],[-1.65121,52.24157],[-1.71558,52.25776],[-1.73584,52.26495],[-1.76674,52.26333],[-1.7748,52.2617],[-1.77992,52.25839],[-1.78599,52.25757],[-1.78983,52.25487],[-1.80536,52.24725],[-1.82407,52.23448],[-1.84193,52.22917],[-1.85102,52.22438],[-1.84862,52.20813],[-1.83472,52.18246],[-1.82991,52.16082],[-1.81927,52.15055],[-1.76674,52.12084],[-1.69104,52.11209],[-1.64486,52.1219],[-1.61018,52.14107]]]},"properties":{"code":"M84014","name":"BRIDGE HOUSE MEDICAL CENTRE","icb":"QWU"}}]}