{"type":"FeatureCollection","features":[{"type":"Feature","geometry":{"type":"MultiPolygon","coordinates":[[[[-1.384351,52.524372],[-1.435568,52.542635],[-1.469549,52.554732],[-1.477769,52.557656],[-1.508486,52.536399],[-1.476821,52.514329],[-1.458408,52.507772],[-1.436417,52.507103],[-1.406003,52.517195],[-1.384351,52.524372]]],[[[-1.67404,52.51288],[-1.55731,52.52374],[-1.485609,52.560801],[-1.35956,52.54463],[-1.373722,52.55916],[-1.517487,52.718944],[-1.517544,52.718894],[-1.517957,52.718908],[-1.521606,52.722986],[-1.551757,52.696026],[-1.602647,52.63524],[-1.622403,52.62752],[-1.634336,52.610435],[-1.667978,52.580172],[-1.68377,52.557495],[-1.680908,52.514549],[-1.679846,52.514666],[-1.679584,52.514538],[-1.679535,52.513831],[-1.674587,52.514346],[-1.674335,52.514233],[-1.67404,52.51288]]]]},"properties":{"code":"M84612","name":"STATION STREET SURGERY","icb":"QWU"}}]}