{"type":"FeatureCollection","features":[{"type":"Feature","geometry":{"type":"Polygon","coordinates":[[[-1.691691,52.348678],[-1.693568,52.350441],[-1.694502,52.351503],[-1.695338,52.352656],[-1.697087,52.354812],[-1.698926,52.354439],[-1.700227,52.354775],[-1.70207,52.354455],[-1.704844,52.354213],[-1.705981,52.354761],[-1.710105,52.355085],[-1.715198,52.35797],[-1.717269,52.358134],[-1.717959,52.358689],[-1.718768,52.358669],[-1.720364,52.358446],[-1.72032,52.359171],[-1.719696,52.36297],[-1.718139,52.365725],[-1.717515,52.368413],[-1.718621,52.370746],[-1.719848,52.372546],[-1.720333,52.372584],[-1.720759,52.372455],[-1.720866,52.371997],[-1.721835,52.371704],[-1.723391,52.370793],[-1.725373,52.370544],[-1.72624,52.370282],[-1.727588,52.370046],[-1.729652,52.37007],[-1.729302,52.370775],[-1.728762,52.372246],[-1.730868,52.372411],[-1.731913,52.372914],[-1.734059,52.372632],[-1.73588,52.37176],[-1.736805,52.370123],[-1.73816,52.36863],[-1.739616,52.365695],[-1.739284,52.3654],[-1.739134,52.364928],[-1.739885,52.364398],[-1.73996,52.36383],[-1.740318,52.362278],[-1.741861,52.359901],[-1.743245,52.357875],[-1.745138,52.356176],[-1.748807,52.35629],[-1.75061,52.355884],[-1.752922,52.355775],[-1.755227,52.354985],[-1.757685,52.355178],[-1.758934,52.35571],[-1.761553,52.356277],[-1.76308,52.356143],[-1.76578,52.355908],[-1.769832,52.355554],[-1.771648,52.355697],[-1.772918,52.355851],[-1.774609,52.35486],[-1.77604,52.354236],[-1.777221,52.353553],[-1.776813,52.351254],[-1.777189,52.351188],[-1.777253,52.350094],[-1.77721,52.348999],[-1.776781,52.347911],[-1.776277,52.346948],[-1.775633,52.345119],[-1.775333,52.343231],[-1.775075,52.342071],[-1.774635,52.340924],[-1.774077,52.339948],[-1.772082,52.337024],[-1.771867,52.33627],[-1.77205,52.335477],[-1.771953,52.334742],[-1.759958,52.333136],[-1.749058,52.330474],[-1.74276,52.328848],[-1.740547,52.328277],[-1.740336,52.32668],[-1.738397,52.324167],[-1.73626,52.32245],[-1.734509,52.320805],[-1.734864,52.319588],[-1.734281,52.318359],[-1.731417,52.314825],[-1.727841,52.310485],[-1.726537,52.308573],[-1.725142,52.307452],[-1.722686,52.306537],[-1.72062,52.307749],[-1.717876,52.307815],[-1.716016,52.307412],[-1.714115,52.307651],[-1.710506,52.307738],[-1.709507,52.306127],[-1.709466,52.305065],[-1.708403,52.303929],[-1.705744,52.301809],[-1.703908,52.300851],[-1.700802,52.302001],[-1.698878,52.301584],[-1.696473,52.301698],[-1.693483,52.299735],[-1.691073,52.301675],[-1.688074,52.30341],[-1.683378,52.306601],[-1.675195,52.313953],[-1.668981,52.324449],[-1.666457,52.32834],[-1.667346,52.333348],[-1.668711,52.335648],[-1.66912,52.337946],[-1.674132,52.339759],[-1.680323,52.340246],[-1.682306,52.341203],[-1.684376,52.34406],[-1.685157,52.345417],[-1.68932,52.34719],[-1.690596,52.347806],[-1.691691,52.348678]]]},"properties":{"code":"M84620","name":"LAPWORTH SURGERY","icb":"QWU"}}]}