{"type":"FeatureCollection","features":[{"type":"Feature","geometry":{"type":"Polygon","coordinates":[[[-1.92055,52.44848],[-1.936684,52.445443],[-1.940117,52.436967],[-1.938057,52.43231],[-1.935654,52.427966],[-1.934795,52.425951],[-1.928873,52.427077],[-1.922929,52.42883],[-1.9222,52.427325],[-1.918659,52.427574],[-1.9169,52.431237],[-1.907845,52.429589],[-1.904583,52.433775],[-1.892996,52.439426],[-1.891623,52.443246],[-1.888361,52.446855],[-1.8942,52.44874],[-1.89699,52.4541],[-1.909046,52.455382],[-1.91128,52.45308],[-1.92055,52.44848]]]},"properties":{"code":"M85042","name":"SELLY PARK SURGERY","icb":"QHL"}}]}