{"type":"FeatureCollection","features":[{"type":"Feature","geometry":{"type":"Polygon","coordinates":[[[-1.799452,52.458849],[-1.797748,52.458012],[-1.78854,52.45985],[-1.77657,52.46432],[-1.76704,52.46887],[-1.76567,52.46966],[-1.769142,52.477501],[-1.775621,52.478115],[-1.777241,52.478269],[-1.778861,52.478423],[-1.78048,52.478576],[-1.7821,52.47873],[-1.7821,52.478727],[-1.7821,52.478724],[-1.7821,52.478717],[-1.7821,52.478705],[-1.7821,52.47868],[-1.782846,52.479243],[-1.768713,52.477448],[-1.772962,52.480219],[-1.774807,52.480846],[-1.777811,52.481787],[-1.782961,52.483878],[-1.783304,52.484035],[-1.784763,52.484453],[-1.787167,52.485916],[-1.794033,52.487693],[-1.811285,52.487328],[-1.82141,52.48513],[-1.8309,52.48474],[-1.849524,52.483089],[-1.84991,52.48315],[-1.85257,52.480689],[-1.85317,52.478912],[-1.85313,52.47721],[-1.85133,52.474],[-1.850424,52.471541],[-1.85446,52.46819],[-1.84948,52.463959],[-1.83995,52.46443],[-1.803975,52.461069],[-1.799452,52.458849]]]},"properties":{"code":"M85061","name":"YARDLEY GREEN MEDICAL CENTRE","icb":"QHL"}}]}