{"type":"FeatureCollection","features":[{"type":"Feature","geometry":{"type":"Polygon","coordinates":[[[-1.840446,52.586302],[-1.843247,52.586763],[-1.848192,52.588052],[-1.852281,52.588659],[-1.856582,52.589044],[-1.863312,52.588855],[-1.869231,52.588688],[-1.876496,52.588261],[-1.881905,52.587631],[-1.887451,52.587704],[-1.902954,52.587563],[-1.909837,52.5875],[-1.907798,52.583631],[-1.906964,52.582187],[-1.910504,52.581867],[-1.91317,52.58117],[-1.91334,52.57986],[-1.91349,52.57765],[-1.91337,52.57713],[-1.9131,52.57477],[-1.91299,52.57317],[-1.913,52.57082],[-1.91257,52.56858],[-1.91268,52.56741],[-1.91316,52.56563],[-1.91394,52.56405],[-1.91408,52.56362],[-1.91404,52.5632],[-1.91389,52.56286],[-1.91839,52.56051],[-1.91981,52.55887],[-1.92002,52.55722],[-1.92286,52.55349],[-1.9216,52.55225],[-1.92139,52.5518],[-1.92107,52.55133],[-1.92105,52.55084],[-1.9212,52.54988],[-1.921842,52.549783],[-1.92439,52.55148],[-1.926926,52.552572],[-1.928725,52.55304],[-1.932463,52.553592],[-1.934599,52.553342],[-1.935427,52.553082],[-1.935271,52.552575],[-1.93519,52.552155],[-1.935462,52.551602],[-1.935801,52.55056],[-1.935401,52.54848],[-1.933517,52.546101],[-1.927723,52.541567],[-1.921848,52.536162],[-1.916249,52.532431],[-1.911244,52.529215],[-1.907233,52.526541],[-1.906387,52.526983],[-1.904237,52.526056],[-1.902079,52.525736],[-1.900681,52.526102],[-1.89965,52.526553],[-1.897661,52.526757],[-1.896685,52.526953],[-1.896248,52.52778],[-1.89586,52.52829],[-1.89529,52.52868],[-1.89224,52.52964],[-1.88824,52.53142],[-1.88713,52.53177],[-1.88628,52.53194],[-1.88432,52.53243],[-1.88244,52.53302],[-1.88132,52.5333],[-1.88044,52.53339],[-1.8798,52.53367],[-1.87644,52.53473],[-1.87498,52.53544],[-1.87368,52.53639],[-1.87037,52.53951],[-1.86899,52.5412],[-1.86799,52.54208],[-1.8666,52.54282],[-1.86524,52.5433],[-1.86237,52.544],[-1.86111,52.54419],[-1.85959,52.54453],[-1.85819,52.545],[-1.85609,52.54628],[-1.854799,52.546844],[-1.853748,52.547355],[-1.852261,52.548019],[-1.85036,52.549031],[-1.847707,52.549339],[-1.845618,52.549527],[-1.843046,52.549915],[-1.840534,52.550416],[-1.837924,52.550687],[-1.83536,52.55113],[-1.833201,52.552073],[-1.831337,52.5529],[-1.83153,52.5531],[-1.83213,52.55386],[-1.83242,52.55433],[-1.83302,52.55732],[-1.83298,52.55848],[-1.83277,52.5592],[-1.832443,52.559659],[-1.831857,52.560211],[-1.831356,52.560914],[-1.830276,52.562235],[-1.82915,52.563817],[-1.827789,52.565097],[-1.827256,52.565711],[-1.82668,52.566374],[-1.825723,52.566486],[-1.824275,52.565932],[-1.824181,52.567561],[-1.824402,52.569222],[-1.824439,52.570175],[-1.823893,52.570622],[-1.822732,52.570987],[-1.824144,52.573067],[-1.826241,52.575],[-1.828614,52.577188],[-1.829237,52.579224],[-1.829859,52.579893],[-1.831622,52.581518],[-1.834335,52.583403],[-1.837668,52.584676],[-1.840446,52.586302]]]},"properties":{"code":"M85060","name":"THE OAKS MEDICAL CENTRE","icb":"QHL"}}]}