{"type":"FeatureCollection","features":[{"type":"Feature","geometry":{"type":"Polygon","coordinates":[[[-2.003969,52.402759],[-2.006845,52.403728],[-2.010191,52.404513],[-2.014823,52.404723],[-2.019884,52.406975],[-2.022286,52.407027],[-2.024088,52.406241],[-2.027605,52.407708],[-2.033782,52.402157],[-2.033953,52.395715],[-2.030724,52.391525],[-2.029437,52.389221],[-2.022888,52.381441],[-2.014224,52.375822],[-2.00972,52.374499],[-1.998689,52.375573],[-1.988952,52.377119],[-1.985735,52.375573],[-1.983548,52.376883],[-1.984342,52.379594],[-1.985608,52.386732],[-1.985758,52.387269],[-1.984385,52.392049],[-1.983336,52.394223],[-1.980419,52.397679],[-1.98424,52.402943],[-1.987627,52.404513],[-1.992988,52.405377],[-1.99376,52.405116],[-1.996977,52.405377],[-2.00131,52.404252],[-2.003969,52.402759]]]},"properties":{"code":"M85027","name":"LEACH HEATH MEDICAL CENTRE","icb":"QGH"}}]}