{"type":"FeatureCollection","features":[{"type":"Feature","geometry":{"type":"Polygon","coordinates":[[[-1.916492,52.408336],[-1.917844,52.408074],[-1.923251,52.408493],[-1.927629,52.407577],[-1.928444,52.407315],[-1.92956,52.407027],[-1.931319,52.406634],[-1.932178,52.406032],[-1.933379,52.404592],[-1.935182,52.404225],[-1.937327,52.403257],[-1.939001,52.402969],[-1.94222,52.40179],[-1.94531,52.40166],[-1.953378,52.39946],[-1.959085,52.397653],[-1.956339,52.395794],[-1.953592,52.394092],[-1.949086,52.39184],[-1.944623,52.39053],[-1.940031,52.389692],[-1.936083,52.387911],[-1.932349,52.386654],[-1.928058,52.385397],[-1.928101,52.388147],[-1.928358,52.390766],[-1.927671,52.392049],[-1.924796,52.391787],[-1.921878,52.391106],[-1.920118,52.391054],[-1.919303,52.391499],[-1.916857,52.390425],[-1.911149,52.388854],[-1.910763,52.389352],[-1.910446,52.390179],[-1.910849,52.390373],[-1.910334,52.393411],[-1.913767,52.39548],[-1.91529,52.397784],[-1.918509,52.401267],[-1.916664,52.403545],[-1.91572,52.406529],[-1.913488,52.406451],[-1.91263,52.407105],[-1.916492,52.408336]]]},"properties":{"code":"M85043","name":"HAWKESLEY MEDICAL PRACTICE","icb":"QHL"}}]}