{"type":"FeatureCollection","features":[{"type":"Feature","geometry":{"type":"Polygon","coordinates":[[[-1.989479,52.452704],[-1.9911,52.4522],[-1.98998,52.45194],[-1.98877,52.45174],[-1.99243,52.45168],[-1.99251,52.45153],[-1.99066,52.45139],[-1.98884,52.45135],[-1.99077,52.44673],[-1.99841,52.4467],[-2.00036,52.44306],[-2.01281,52.44503],[-2.01084,52.42985],[-1.99539,52.41881],[-1.99621,52.4101],[-1.99441,52.40964],[-1.98801,52.41006],[-1.98415,52.41041],[-1.98338,52.4094],[-1.98341,52.40832],[-1.98164,52.40816],[-1.97677,52.40738],[-1.97393,52.40882],[-1.97043,52.40825],[-1.96856,52.40811],[-1.96428,52.4104],[-1.96382,52.40836],[-1.95866,52.40916],[-1.95887,52.41391],[-1.95158,52.4147],[-1.94269,52.41505],[-1.938,52.41506],[-1.93419,52.41456],[-1.92838,52.41619],[-1.9239,52.41821],[-1.9209,52.42087],[-1.92223,52.42785],[-1.92079,52.43006],[-1.91928,52.43141],[-1.91682,52.43683],[-1.91553,52.43941],[-1.91525,52.4422],[-1.91423,52.44628],[-1.91314,52.44762],[-1.91055,52.45035],[-1.91327,52.45261],[-1.91047,52.4557],[-1.91628,52.46137],[-1.9192,52.46147],[-1.92035,52.46181],[-1.92126,52.4624],[-1.92208,52.46376],[-1.92223,52.46418],[-1.9221,52.4652],[-1.922052,52.467559],[-1.92229,52.46755],[-1.92202,52.46763],[-1.9248,52.47036],[-1.92843,52.46968],[-1.93252,52.46907],[-1.93653,52.46416],[-1.93746,52.46355],[-1.94178,52.46193],[-1.94419,52.46286],[-1.94958,52.4639],[-1.95502,52.46725],[-1.95603,52.46658],[-1.95729,52.46613],[-1.95884,52.46597],[-1.96043,52.46572],[-1.96606,52.46448],[-1.97034,52.46286],[-1.97471,52.46148],[-1.97656,52.46064],[-1.97975,52.46086],[-1.98496,52.46061],[-1.99138,52.46072],[-1.992,52.45882],[-1.99065,52.45712],[-1.99068,52.45658],[-1.98984,52.45606],[-1.98809,52.45538],[-1.98909,52.4541],[-1.989479,52.452704]]]},"properties":{"code":"M85056","name":"WEOLEY PARK SURGERY","icb":"QHL"}}]}