{"type":"FeatureCollection","features":[{"type":"Feature","geometry":{"type":"Polygon","coordinates":[[[-1.997988,52.380852],[-1.996765,52.381101],[-1.994812,52.381035],[-1.993268,52.381703],[-1.992409,52.382017],[-1.990092,52.382227],[-1.988697,52.382672],[-1.988204,52.383222],[-1.98801,52.383851],[-1.988118,52.384702],[-1.985414,52.386078],[-1.983912,52.387479],[-1.97994,52.38775],[-1.975436,52.389194],[-1.974471,52.389692],[-1.973634,52.39036],[-1.971896,52.391447],[-1.967368,52.393463],[-1.963205,52.391132],[-1.961532,52.38998],[-1.960588,52.389155],[-1.958206,52.388867],[-1.957412,52.389705],[-1.955996,52.390949],[-1.951511,52.395715],[-1.950009,52.396619],[-1.948249,52.397287],[-1.940718,52.398347],[-1.93295,52.403505],[-1.931083,52.404644],[-1.928337,52.406516],[-1.927671,52.407236],[-1.927865,52.40814],[-1.927736,52.40899],[-1.929495,52.411111],[-1.93085,52.41289],[-1.93085,52.41478],[-1.930954,52.415509],[-1.930482,52.416307],[-1.932821,52.420769],[-1.932929,52.422641],[-1.933508,52.423818],[-1.935246,52.426462],[-1.93574,52.428176],[-1.936083,52.42989],[-1.938872,52.433383],[-1.939774,52.434377],[-1.939731,52.437974],[-1.939902,52.438537],[-1.940203,52.43906],[-1.94183,52.43822],[-1.94492,52.43634],[-1.94595,52.43425],[-1.95488,52.425506],[-1.96587,52.41875],[-1.967754,52.417799],[-1.970201,52.417393],[-1.972024,52.416045],[-1.97308,52.41457],[-1.973484,52.413755],[-1.973226,52.413022],[-1.97299,52.41136],[-1.973526,52.410221],[-1.974406,52.409161],[-1.9899,52.39446],[-1.991444,52.393136],[-1.992624,52.391984],[-1.99883,52.38775],[-2.00157,52.38545],[-2.00228,52.384257],[-2.00226,52.38314],[-2.001615,52.38131],[-2.000477,52.381651],[-1.997988,52.380852]]]},"properties":{"code":"M85047","name":"WOODLAND ROAD SURGERY","icb":"QHL"}}]}