{"type":"FeatureCollection","features":[{"type":"Feature","geometry":{"type":"Polygon","coordinates":[[[-1.819892,52.474943],[-1.825255,52.469694],[-1.831424,52.46531],[-1.837107,52.461391],[-1.839,52.458933],[-1.839403,52.45649],[-1.838734,52.454645],[-1.837822,52.453978],[-1.836126,52.453746],[-1.829782,52.45077],[-1.826966,52.448708],[-1.824157,52.446906],[-1.819983,52.446859],[-1.816074,52.445298],[-1.811482,52.443073],[-1.8094,52.444678],[-1.807863,52.446926],[-1.806014,52.45044],[-1.800855,52.450382],[-1.795533,52.454162],[-1.791214,52.455951],[-1.790434,52.45731],[-1.790918,52.458994],[-1.783433,52.460039],[-1.77753,52.460092],[-1.776247,52.464474],[-1.787515,52.464603],[-1.789539,52.469626],[-1.7926,52.471869],[-1.791597,52.474939],[-1.807189,52.473204],[-1.813531,52.474072],[-1.819892,52.474943]]]},"properties":{"code":"M85011","name":"THE SWAN MEDICAL CENTRE","icb":"QHL"}}]}