{"type":"FeatureCollection","features":[{"type":"Feature","geometry":{"type":"Polygon","coordinates":[[[-1.911277,52.516441],[-1.910584,52.516455],[-1.90437,52.51586],[-1.908592,52.516893],[-1.91716,52.52144],[-1.92046,52.52268],[-1.92274,52.52436],[-1.9281,52.5262],[-1.9316,52.52724],[-1.93265,52.53187],[-1.93804,52.53191],[-1.93829,52.531],[-1.94188,52.52872],[-1.9411,52.52432],[-1.952,52.5164],[-1.94724,52.51404],[-1.95615,52.50925],[-1.94565,52.50549],[-1.94544,52.50554],[-1.93574,52.50345],[-1.90593,52.50263],[-1.91001,52.51034],[-1.91036,52.51121],[-1.915092,52.516214],[-1.91254,52.51591],[-1.91171,52.51597],[-1.911277,52.516441]]]},"properties":{"code":"M85009","name":"HAMSTEAD ROAD SURGERY","icb":"QHL"}}]}