{"type":"FeatureCollection","features":[{"type":"Feature","geometry":{"type":"Polygon","coordinates":[[[-1.87317,52.46166],[-1.877116,52.461658],[-1.878661,52.455696],[-1.886646,52.443246],[-1.870853,52.436706],[-1.83952,52.4242],[-1.82905,52.432572],[-1.82493,52.441048],[-1.824587,52.446489],[-1.824241,52.457369],[-1.837378,52.460507],[-1.850423,52.459723],[-1.863728,52.464377],[-1.87197,52.46113],[-1.87317,52.46166]]]},"properties":{"code":"M85116","name":"FERNLEY MEDICAL CENTRE","icb":"QHL"}}]}