{"type":"FeatureCollection","features":[{"type":"Feature","geometry":{"type":"Polygon","coordinates":[[[-1.886044,52.511677],[-1.889777,52.509587],[-1.902394,52.510971],[-1.903296,52.509535],[-1.903338,52.509535],[-1.901971,52.505001],[-1.899743,52.503074],[-1.898189,52.50243],[-1.896601,52.50243],[-1.894155,52.502456],[-1.89261,52.502377],[-1.889906,52.502194],[-1.885314,52.50209],[-1.881516,52.504005],[-1.87957,52.505673],[-1.881237,52.507027],[-1.882567,52.508333],[-1.886044,52.511677]]]},"properties":{"code":"M85123","name":"AL-SHAFA MEDICAL CENTRE","icb":"QHL"}}]}