{"type":"FeatureCollection","features":[{"type":"Feature","geometry":{"type":"Polygon","coordinates":[[[-1.89214,52.43655],[-1.892109,52.436527],[-1.892084,52.436501],[-1.89018,52.435789],[-1.86167,52.42514],[-1.85995,52.43665],[-1.860135,52.436853],[-1.860166,52.436887],[-1.860228,52.436955],[-1.860251,52.436985],[-1.860266,52.437018],[-1.860273,52.437051],[-1.860273,52.437084],[-1.860264,52.437117],[-1.860247,52.437149],[-1.860222,52.437179],[-1.860191,52.437207],[-1.862456,52.451482],[-1.862458,52.451509],[-1.862454,52.451536],[-1.862446,52.451562],[-1.862432,52.451588],[-1.862413,52.451612],[-1.862389,52.451635],[-1.862362,52.451656],[-1.86233,52.451675],[-1.86154,52.45209],[-1.8621,52.46331],[-1.87557,52.47107],[-1.881,52.46665],[-1.888783,52.443044],[-1.888793,52.44302],[-1.89214,52.43655]]]},"properties":{"code":"M85174","name":"THE BROOK SURGERY","icb":"QHL"}}]}