{"type":"FeatureCollection","features":[{"type":"Feature","geometry":{"type":"Polygon","coordinates":[[[-1.976423,52.396131],[-1.971046,52.346591],[-1.937396,52.313715],[-1.941008,52.388889],[-1.927101,52.394167],[-1.926661,52.399877],[-1.924123,52.403464],[-1.925554,52.407092],[-1.922158,52.428865],[-1.925731,52.428397],[-1.928155,52.427627],[-1.936276,52.42595],[-1.936707,52.425342],[-1.939282,52.42481],[-1.94123,52.425025],[-1.942443,52.425681],[-1.945207,52.428077],[-1.95134,52.430563],[-1.993566,52.409141],[-2.041544,52.375375],[-1.976423,52.396131]]]},"properties":{"code":"M85134","name":"","icb":""}}]}