{"type":"FeatureCollection","features":[{"type":"Feature","geometry":{"type":"Polygon","coordinates":[[[-1.899609,52.383048],[-1.894114,52.379581],[-1.876607,52.382725],[-1.885023,52.384371],[-1.88278,52.38639],[-1.88519,52.38859],[-1.8845,52.39111],[-1.8833,52.39184],[-1.88304,52.39331],[-1.8821,52.3954],[-1.88072,52.39687],[-1.878836,52.400377],[-1.878921,52.406765],[-1.88141,52.410954],[-1.88004,52.41331],[-1.87866,52.41321],[-1.88845,52.41519],[-1.89583,52.41436],[-1.90355,52.41373],[-1.90939,52.41048],[-1.9166,52.4086],[-1.92913,52.40734],[-1.92879,52.40221],[-1.9257,52.39802],[-1.92123,52.39362],[-1.916992,52.390617],[-1.92003,52.39121],[-1.916292,52.390121],[-1.91488,52.38912],[-1.91334,52.38817],[-1.90578,52.38587],[-1.90201,52.38314],[-1.899609,52.383048]]]},"properties":{"code":"M85136","name":"DRUIDS HEATH SURGERY","icb":"QHL"}}]}