{"type":"FeatureCollection","features":[{"type":"Feature","geometry":{"type":"Polygon","coordinates":[[[-1.955824,52.447862],[-1.959075,52.448046],[-1.959467,52.446362],[-1.959955,52.445502],[-1.959488,52.444665],[-1.959145,52.444204],[-1.95757,52.443473],[-1.955652,52.440368],[-1.953104,52.438257],[-1.945696,52.435353],[-1.939543,52.434102],[-1.936314,52.430169],[-1.936134,52.429296],[-1.934897,52.430133],[-1.932932,52.431731],[-1.932685,52.431996],[-1.932046,52.432097],[-1.929769,52.432298],[-1.927229,52.432845],[-1.924399,52.430779],[-1.919022,52.433343],[-1.917962,52.435894],[-1.91557,52.436686],[-1.911031,52.437517],[-1.911976,52.445155],[-1.909345,52.447948],[-1.911933,52.447437],[-1.913015,52.447771],[-1.906901,52.455316],[-1.91024,52.455905],[-1.902175,52.465292],[-1.907542,52.463933],[-1.910335,52.466626],[-1.906368,52.468691],[-1.911364,52.47073],[-1.915118,52.471946],[-1.919687,52.472795],[-1.929646,52.471802],[-1.943378,52.471645],[-1.959989,52.473697],[-1.964645,52.473397],[-1.96591,52.47324],[-1.969815,52.471802],[-1.967835,52.469658],[-1.965689,52.464691],[-1.961596,52.459657],[-1.958077,52.457879],[-1.958184,52.45563],[-1.959236,52.454113],[-1.956575,52.453773],[-1.955824,52.447862]]]},"properties":{"code":"M85167","name":"UNIVERSITY MEDICAL PRACTICE","icb":"QHL"}}]}