{"type":"FeatureCollection","features":[{"type":"Feature","geometry":{"type":"Polygon","coordinates":[[[-1.889648,52.489732],[-1.882439,52.495741],[-1.881924,52.496786],[-1.88098,52.497518],[-1.875572,52.499922],[-1.870337,52.501698],[-1.867933,52.502795],[-1.867075,52.504102],[-1.864586,52.505721],[-1.860981,52.507393],[-1.858921,52.506844],[-1.854672,52.504702],[-1.854372,52.504311],[-1.854243,52.502717],[-1.84948,52.50337],[-1.837678,52.505904],[-1.825275,52.506766],[-1.799183,52.510475],[-1.799526,52.513609],[-1.800041,52.514654],[-1.809463,52.512607],[-1.809732,52.512679],[-1.81162,52.515455],[-1.811478,52.515636],[-1.798325,52.517997],[-1.800297,52.519997],[-1.80026,52.520156],[-1.790085,52.52583],[-1.796694,52.526509],[-1.801114,52.527005],[-1.810126,52.529799],[-1.820469,52.534707],[-1.822892,52.53436],[-1.823132,52.534712],[-1.823215,52.534655],[-1.824031,52.5316],[-1.828537,52.532932],[-1.828623,52.532984],[-1.828151,52.534263],[-1.829481,52.535098],[-1.829567,52.533297],[-1.834974,52.535594],[-1.834916,52.535885],[-1.835318,52.536116],[-1.835442,52.536474],[-1.835489,52.536273],[-1.837978,52.536795],[-1.840725,52.536952],[-1.843717,52.539321],[-1.84671,52.541691],[-1.848965,52.54259],[-1.849823,52.543007],[-1.848106,52.543007],[-1.847785,52.543157],[-1.847463,52.543307],[-1.847141,52.543457],[-1.846819,52.543608],[-1.848664,52.54349],[-1.85051,52.543373],[-1.850939,52.543477],[-1.851196,52.543529],[-1.854544,52.545147],[-1.859608,52.544625],[-1.859694,52.544625],[-1.859951,52.545095],[-1.860268,52.545342],[-1.859951,52.545356],[-1.859951,52.545565],[-1.860267,52.545581],[-1.864815,52.548824],[-1.864818,52.548987],[-1.863384,52.550054],[-1.883984,52.561952],[-1.887246,52.561795],[-1.891708,52.562108],[-1.892524,52.561143],[-1.894798,52.560073],[-1.899047,52.558038],[-1.907587,52.554437],[-1.914883,52.548697],[-1.914796,52.548668],[-1.914711,52.548488],[-1.903117,52.544237],[-1.903025,52.544152],[-1.90115,52.53596],[-1.88766,52.526842],[-1.88765,52.526679],[-1.887932,52.526457],[-1.894455,52.523219],[-1.894712,52.522854],[-1.895571,52.521861],[-1.895914,52.521861],[-1.893253,52.519355],[-1.894197,52.516221],[-1.890507,52.511206],[-1.891022,52.509221],[-1.897802,52.510005],[-1.902437,52.508333],[-1.899605,52.504311],[-1.894112,52.500444],[-1.893511,52.499922],[-1.894026,52.499504],[-1.893597,52.498824],[-1.894455,52.49663],[-1.894026,52.490463],[-1.889648,52.489732]]]},"properties":{"code":"M85669","name":"TUDOR PRACTICE STOCKLAND GREEN","icb":"QHL"}}]}