{"type":"FeatureCollection","features":[{"type":"Feature","geometry":{"type":"Polygon","coordinates":[[[-1.894265,52.402038],[-1.89411,52.40192],[-1.8827,52.4217],[-1.89137,52.44403],[-1.91454,52.4462],[-1.93282,52.43964],[-1.940503,52.438955],[-1.941018,52.438628],[-1.941533,52.438236],[-1.942585,52.437595],[-1.9434,52.437098],[-1.943915,52.436823],[-1.944344,52.436548],[-1.944687,52.4363],[-1.944859,52.436182],[-1.945095,52.436051],[-1.945374,52.435646],[-1.945567,52.435096],[-1.945632,52.434796],[-1.946179,52.434164],[-1.946661,52.433697],[-1.947069,52.43333],[-1.9484,52.431983],[-1.949601,52.430845],[-1.952133,52.428372],[-1.954579,52.426043],[-1.955738,52.424918],[-1.956017,52.424656],[-1.956511,52.42425],[-1.957111,52.423871],[-1.957991,52.42336],[-1.958764,52.422889],[-1.959407,52.422523],[-1.960094,52.422104],[-1.961789,52.421057],[-1.962347,52.420756],[-1.962991,52.420403],[-1.963828,52.41988],[-1.965115,52.419121],[-1.966596,52.417995],[-1.969428,52.414985],[-1.97226,52.411739],[-1.973484,52.410155],[-1.974664,52.408912],[-1.97608,52.40755],[-1.977239,52.406438],[-1.978204,52.405508],[-1.979535,52.404147],[-1.980093,52.403597],[-1.981337,52.402445],[-1.98226,52.401555],[-1.983011,52.400874],[-1.983955,52.399944],[-1.9855,52.398504],[-1.987367,52.396815],[-1.987946,52.396344],[-1.988375,52.395977],[-1.988933,52.395467],[-1.989298,52.395218],[-1.989706,52.394877],[-1.990446,52.394275],[-1.991208,52.393555],[-1.992345,52.392501],[-1.993182,52.391754],[-1.993654,52.391368],[-1.994255,52.390923],[-1.994855,52.390537],[-1.995381,52.390177],[-1.995907,52.389816],[-1.997076,52.389044],[-1.998289,52.388219],[-1.992817,52.385344],[-1.99642,52.3822],[-1.95711,52.379],[-1.92046,52.38008],[-1.90956,52.38325],[-1.91231,52.39477],[-1.894265,52.402038]]]},"properties":{"code":"M85600","name":"REA VALLEY HEALTH PARTNERSHIP","icb":"QHL"}}]}