{"type":"FeatureCollection","features":[{"type":"Feature","geometry":{"type":"Polygon","coordinates":[[[-1.83643,52.44345],[-1.83251,52.452194],[-1.832423,52.452264],[-1.828318,52.459757],[-1.8014,52.463353],[-1.76974,52.47489],[-1.777001,52.482283],[-1.76468,52.50128],[-1.791156,52.493997],[-1.791289,52.493992],[-1.820404,52.499365],[-1.820467,52.499652],[-1.809611,52.503788],[-1.831797,52.501502],[-1.832013,52.501515],[-1.845489,52.496186],[-1.866517,52.48751],[-1.847355,52.478752],[-1.847401,52.478497],[-1.87506,52.47086],[-1.876494,52.456071],[-1.88458,52.44879],[-1.860478,52.446087],[-1.847989,52.446686],[-1.842609,52.453],[-1.83643,52.44345]]]},"properties":{"code":"M85722","name":"NASEBY MEDICAL CENTRE","icb":"QHL"}}]}