{"type":"FeatureCollection","features":[{"type":"Feature","geometry":{"type":"MultiPolygon","coordinates":[[[[-1.943911,52.514798],[-1.948045,52.514689],[-1.952147,52.514362],[-1.956187,52.513817],[-1.960134,52.513059],[-1.963957,52.512094],[-1.967628,52.51093],[-1.971118,52.509574],[-1.974402,52.508038],[-1.977453,52.506334],[-1.980248,52.504473],[-1.982767,52.502471],[-1.984991,52.500342],[-1.986901,52.498103],[-1.988485,52.495771],[-1.989729,52.493364],[-1.990625,52.490899],[-1.991165,52.488396],[-1.991346,52.485875],[-1.991166,52.483353],[-1.990627,52.48085],[-1.989732,52.478385],[-1.98849,52.475978],[-1.986908,52.473645],[-1.985,52.471406],[-1.98278,52.469277],[-1.980265,52.467273],[-1.977473,52.465412],[-1.974427,52.463706],[-1.971149,52.462168],[-1.967665,52.460811],[-1.964,52.459644],[-1.960183,52.458677],[-1.956243,52.457917],[-1.952209,52.457369],[-1.948112,52.457037],[-1.943984,52.456925],[-1.939856,52.457033],[-1.935758,52.457361],[-1.931723,52.457905],[-1.927781,52.458662],[-1.923961,52.459625],[-1.920294,52.460788],[-1.916806,52.462142],[-1.913524,52.463677],[-1.910474,52.46538],[-1.907678,52.467239],[-1.905157,52.46924],[-1.902932,52.471367],[-1.901018,52.473604],[-1.899431,52.475935],[-1.898182,52.478342],[-1.897282,52.480805],[-1.896736,52.483308],[-1.89655,52.485829],[-1.896724,52.488351],[-1.897258,52.490855],[-1.898148,52.49332],[-1.899386,52.495728],[-1.900963,52.498062],[-1.902868,52.500303],[-1.905086,52.502434],[-1.9076,52.504438],[-1.910391,52.506302],[-1.913438,52.508009],[-1.916717,52.509548],[-1.920204,52.510907],[-1.923871,52.512075],[-1.927692,52.513044],[-1.931637,52.513805],[-1.935676,52.514354],[-1.939777,52.514685],[-1.943911,52.514798]]],[[[-1.765456,52.464698],[-1.762234,52.466247],[-1.759243,52.46796],[-1.756508,52.469824],[-1.754047,52.471827],[-1.751879,52.473952],[-1.750022,52.476185],[-1.748488,52.478507],[-1.747289,52.480902],[-1.746435,52.483352],[-1.74593,52.485838],[-1.745781,52.488342],[-1.745987,52.490845],[-1.746546,52.493329],[-1.747456,52.495773],[-1.748708,52.498161],[-1.750294,52.500474],[-1.752202,52.502695],[-1.754417,52.504808],[-1.756922,52.506796],[-1.7597,52.508644],[-1.762728,52.51034],[-1.765985,52.511869],[-1.769446,52.51322],[-1.773085,52.514385],[-1.776875,52.515352],[-1.780787,52.516116],[-1.784791,52.516671],[-1.788859,52.517012],[-1.792959,52.517138],[-1.797084,52.517037],[-1.801178,52.516717],[-1.80521,52.516181],[-1.809149,52.515433],[-1.812967,52.514479],[-1.816633,52.513325],[-1.82012,52.51198],[-1.823402,52.510455],[-1.826363,52.510748],[-1.829348,52.510926],[-1.832346,52.510988],[-1.83644,52.510893],[-1.840506,52.510582],[-1.844511,52.510058],[-1.848427,52.509325],[-1.852224,52.508388],[-1.855873,52.507254],[-1.859348,52.505932],[-1.862623,52.504431],[-1.865672,52.502763],[-1.868474,52.50094],[-1.871006,52.498976],[-1.873251,52.496885],[-1.875192,52.494683],[-1.876813,52.492387],[-1.878104,52.490014],[-1.879053,52.487582],[-1.879655,52.485108],[-1.879904,52.482611],[-1.879799,52.48011],[-1.879341,52.477623],[-1.878533,52.47517],[-1.87738,52.472768],[-1.875893,52.470435],[-1.874081,52.468189],[-1.871958,52.466047],[-1.869541,52.464025],[-1.866846,52.462137],[-1.863896,52.460398],[-1.86071,52.458821],[-1.857314,52.457418],[-1.855804,52.455138],[-1.853982,52.452944],[-1.851863,52.450852],[-1.849461,52.448878],[-1.846794,52.447034],[-1.84388,52.445335],[-1.840742,52.443794],[-1.837401,52.44242],[-1.833882,52.441223],[-1.830209,52.440214],[-1.826411,52.439398],[-1.822513,52.438782],[-1.818544,52.43837],[-1.814533,52.438166],[-1.810509,52.43817],[-1.8065,52.438382],[-1.802536,52.438801],[-1.798645,52.439425],[-1.794855,52.440248],[-1.791194,52.441264],[-1.787689,52.442467],[-1.784363,52.443848],[-1.781242,52.445396],[-1.778347,52.4471],[-1.7757,52.448948],[-1.77332,52.450928],[-1.771224,52.453024],[-1.769428,52.455221],[-1.767943,52.457504],[-1.766781,52.459856],[-1.76595,52.462259],[-1.765456,52.464698]]]]},"properties":{"code":"M85706","name":"DRUID GROUP - EMC SURGERY","icb":"QHL"}}]}