{"type":"FeatureCollection","features":[{"type":"Feature","geometry":{"type":"Polygon","coordinates":[[[-1.961939,52.508272],[-1.963291,52.508385],[-1.980801,52.49616],[-1.938057,52.486648],[-1.908389,52.502516],[-1.907761,52.503325],[-1.90544,52.50369],[-1.90562,52.52281],[-1.9231,52.52722],[-1.93097,52.53508],[-1.948239,52.527999],[-1.95952,52.52313],[-1.96483,52.52291],[-1.96414,52.51539],[-1.96243,52.50839],[-1.961939,52.508272]]]},"properties":{"code":"M85757","name":"SOHO ROAD HEALTH CENTRE","icb":"QHL"}}]}