{"type":"FeatureCollection","features":[{"type":"Feature","geometry":{"type":"Polygon","coordinates":[[[-1.79781,52.48597],[-1.78107,52.48921],[-1.77088,52.48862],[-1.77004,52.49127],[-1.76839,52.49607],[-1.77601,52.49856],[-1.81506,52.50107],[-1.83077,52.50159],[-1.84467,52.50076],[-1.85051,52.50055],[-1.85652,52.49856],[-1.86493,52.49261],[-1.864071,52.471384],[-1.831627,52.469083],[-1.821327,52.475462],[-1.805363,52.478703],[-1.79781,52.48597]]]},"properties":{"code":"M85803","name":"PEARL MEDICAL CENTRE","icb":"QHL"}}]}