{"type":"FeatureCollection","features":[{"type":"Feature","geometry":{"type":"Polygon","coordinates":[[[-1.46616,52.37277],[-1.46616,52.37927],[-1.451225,52.370673],[-1.438179,52.370988],[-1.425648,52.373084],[-1.4217,52.382201],[-1.414661,52.383353],[-1.40831,52.385239],[-1.402817,52.391211],[-1.388569,52.3998],[-1.39492,52.405247],[-1.395264,52.409017],[-1.407795,52.420953],[-1.411743,52.422628],[-1.416206,52.422523],[-1.438179,52.414043],[-1.46032,52.40409],[-1.47251,52.40724],[-1.48058,52.40567],[-1.48693,52.4065],[-1.48727,52.40116],[-1.522808,52.399382],[-1.533451,52.388697],[-1.51886,52.371093],[-1.508732,52.362603],[-1.490707,52.36428],[-1.485214,52.360506],[-1.479034,52.365433],[-1.473541,52.367529],[-1.46616,52.37277]]]},"properties":{"code":"M86033","name":"WILLENHAL OAK MEDICAL CENTRE","icb":"QWU"}}]}