{"type":"FeatureCollection","features":[{"type":"Feature","geometry":{"type":"Polygon","coordinates":[[[-1.54225,52.4036],[-1.53691,52.4045],[-1.532399,52.406344],[-1.529936,52.408565],[-1.529398,52.408545],[-1.526311,52.407426],[-1.52329,52.40623],[-1.522157,52.405922],[-1.521007,52.405737],[-1.520341,52.405917],[-1.519028,52.408594],[-1.518029,52.409688],[-1.516616,52.410719],[-1.510911,52.413158],[-1.50975,52.41316],[-1.509935,52.414725],[-1.509432,52.416271],[-1.506684,52.420184],[-1.505624,52.421459],[-1.505029,52.422057],[-1.50441,52.42268],[-1.502279,52.425015],[-1.502813,52.427588],[-1.503349,52.430169],[-1.504934,52.432727],[-1.50618,52.435151],[-1.50434,52.4367],[-1.502716,52.438454],[-1.49925,52.441662],[-1.497961,52.443588],[-1.49744,52.44558],[-1.49854,52.44763],[-1.499738,52.448727],[-1.50098,52.449197],[-1.502978,52.452429],[-1.505069,52.455117],[-1.513641,52.4579],[-1.514782,52.459366],[-1.518514,52.461163],[-1.519623,52.462422],[-1.520517,52.463437],[-1.522333,52.465769],[-1.526697,52.466544],[-1.523055,52.468454],[-1.530629,52.46942],[-1.53857,52.470513],[-1.541678,52.47094],[-1.545124,52.471271],[-1.54842,52.47147],[-1.551718,52.471465],[-1.556087,52.471313],[-1.560362,52.470964],[-1.573743,52.469213],[-1.580572,52.468452],[-1.587279,52.467904],[-1.590141,52.467708],[-1.60187,52.46675],[-1.59873,52.46514],[-1.593851,52.463095],[-1.595825,52.45957],[-1.60487,52.45713],[-1.60896,52.45498],[-1.60863,52.45452],[-1.607683,52.454107],[-1.60483,52.45188],[-1.601206,52.452231],[-1.593622,52.446111],[-1.59615,52.43602],[-1.59527,52.43267],[-1.58365,52.42939],[-1.575936,52.427997],[-1.572889,52.426469],[-1.570697,52.422933],[-1.56778,52.41519],[-1.562122,52.411451],[-1.559341,52.409411],[-1.55937,52.40724],[-1.552713,52.406058],[-1.547428,52.405062],[-1.54225,52.4036]]]},"properties":{"code":"M86021","name":"SPRINGFIELD MEDICAL PRACTICE","icb":"QWU"}}]}