{"type":"FeatureCollection","features":[{"type":"Feature","geometry":{"type":"Polygon","coordinates":[[[-1.50328,52.37822],[-1.50075,52.37892],[-1.49952,52.37936],[-1.498885,52.380181],[-1.49732,52.38135],[-1.49599,52.38306],[-1.49384,52.3861],[-1.49283,52.38849],[-1.49212,52.39088],[-1.49263,52.39151],[-1.493927,52.39217],[-1.494615,52.392951],[-1.494951,52.393633],[-1.49663,52.39786],[-1.4978,52.39956],[-1.499386,52.401296],[-1.50072,52.40311],[-1.50129,52.40363],[-1.50269,52.40445],[-1.504555,52.404341],[-1.50534,52.40437],[-1.50633,52.40423],[-1.50719,52.40392],[-1.508797,52.403161],[-1.510772,52.402728],[-1.51317,52.40285],[-1.515176,52.40228],[-1.515532,52.402456],[-1.51546,52.40265],[-1.51583,52.40336],[-1.516195,52.403692],[-1.515726,52.403953],[-1.51496,52.40357],[-1.51417,52.40353],[-1.51385,52.40458],[-1.515887,52.405532],[-1.515952,52.405678],[-1.51315,52.40996],[-1.514685,52.411097],[-1.514489,52.411354],[-1.515463,52.411349],[-1.515665,52.411606],[-1.51538,52.41182],[-1.515141,52.41417],[-1.51497,52.4146],[-1.51516,52.41499],[-1.51671,52.41686],[-1.518933,52.418613],[-1.518972,52.418697],[-1.51883,52.41948],[-1.51906,52.42031],[-1.52212,52.42045],[-1.52248,52.42041],[-1.52295,52.42014],[-1.525157,52.418195],[-1.526912,52.416969],[-1.531384,52.414067],[-1.53324,52.41207],[-1.534911,52.410089],[-1.536748,52.40805],[-1.537001,52.407992],[-1.539537,52.408547],[-1.541744,52.409392],[-1.54667,52.41149],[-1.548638,52.41224],[-1.55169,52.41682],[-1.55378,52.41748],[-1.556485,52.417981],[-1.561,52.41899],[-1.56458,52.418811],[-1.56586,52.419],[-1.567272,52.418921],[-1.56824,52.41898],[-1.569219,52.418732],[-1.569503,52.418806],[-1.570562,52.420468],[-1.57096,52.4221],[-1.57169,52.4237],[-1.57235,52.42468],[-1.57336,52.42558],[-1.57541,52.42707],[-1.576236,52.427197],[-1.57641,52.42736],[-1.591427,52.431069],[-1.593178,52.431547],[-1.59461,52.4321],[-1.596203,52.432414],[-1.60006,52.43364],[-1.603495,52.434562],[-1.60795,52.43597],[-1.61542,52.42435],[-1.61513,52.424236],[-1.60774,52.38147],[-1.60605,52.38052],[-1.600411,52.387846],[-1.59914,52.38874],[-1.598835,52.389424],[-1.598515,52.389511],[-1.58946,52.38669],[-1.58726,52.38607],[-1.584533,52.385719],[-1.58178,52.38523],[-1.57366,52.38445],[-1.57263,52.3869],[-1.573224,52.387761],[-1.57306,52.38867],[-1.576316,52.393767],[-1.575291,52.397727],[-1.57504,52.39847],[-1.57515,52.398597],[-1.57499,52.40187],[-1.57559,52.40195],[-1.585672,52.401826],[-1.585836,52.401854],[-1.59491,52.40677],[-1.596556,52.407029],[-1.596704,52.407129],[-1.596751,52.407314],[-1.597605,52.413832],[-1.597294,52.413981],[-1.587656,52.413071],[-1.58529,52.41276],[-1.585026,52.412806],[-1.56866,52.40845],[-1.568475,52.408481],[-1.55937,52.40708],[-1.559206,52.407165],[-1.558792,52.407062],[-1.55878,52.40698],[-1.550638,52.405811],[-1.546749,52.405014],[-1.54628,52.40457],[-1.546077,52.404447],[-1.546066,52.404269],[-1.54658,52.40391],[-1.541294,52.400817],[-1.541347,52.400588],[-1.54444,52.3996],[-1.54503,52.39765],[-1.545191,52.394518],[-1.545273,52.394427],[-1.54743,52.39349],[-1.540044,52.393198],[-1.539843,52.393059],[-1.54008,52.39064],[-1.53288,52.389229],[-1.532744,52.389049],[-1.53448,52.38651],[-1.527383,52.383825],[-1.52364,52.38181],[-1.51931,52.38032],[-1.50997,52.37887],[-1.50328,52.37822]]]},"properties":{"code":"M86006","name":"JUBILEE HEALTHCARE","icb":"QWU"}}]}