{"type":"FeatureCollection","features":[{"type":"Feature","geometry":{"type":"Polygon","coordinates":[[[-1.505299,52.405456],[-1.496372,52.405561],[-1.488991,52.405875],[-1.480741,52.407447],[-1.469078,52.408807],[-1.455373,52.414345],[-1.444187,52.417707],[-1.439466,52.423936],[-1.445818,52.431211],[-1.452601,52.435399],[-1.460152,52.44042],[-1.467018,52.442827],[-1.4744,52.444397],[-1.480889,52.444605],[-1.485663,52.444239],[-1.487077,52.44435],[-1.488777,52.443899],[-1.491891,52.442964],[-1.494626,52.441777],[-1.496406,52.441006],[-1.499759,52.440275],[-1.503545,52.438746],[-1.515885,52.434762],[-1.524878,52.431129],[-1.541426,52.42118],[-1.541508,52.416293],[-1.537399,52.410587],[-1.530466,52.408197],[-1.527796,52.407863],[-1.526059,52.407264],[-1.521778,52.406294],[-1.512,52.40598],[-1.505299,52.405456]]]},"properties":{"code":"M86016","name":"GODIVA GROUP PRACTICE","icb":"QWU"}}]}