{"type":"FeatureCollection","features":[{"type":"Feature","geometry":{"type":"Polygon","coordinates":[[[-1.44419,52.38608],[-1.432344,52.394354],[-1.42608,52.403885],[-1.424023,52.409069],[-1.43114,52.412053],[-1.444622,52.413766],[-1.444774,52.413854],[-1.448434,52.422471],[-1.456889,52.418441],[-1.461011,52.416557],[-1.47148,52.41404],[-1.4732,52.40807],[-1.46307,52.405142],[-1.460613,52.405848],[-1.460248,52.405628],[-1.46753,52.39572],[-1.44419,52.38608]]]},"properties":{"code":"M86038","name":"BREDON AVENUE SURGERY","icb":"QWU"}}]}