{"type":"FeatureCollection","features":[{"type":"Feature","geometry":{"type":"Polygon","coordinates":[[[-1.499637,52.369625],[-1.499583,52.369778],[-1.499469,52.369862],[-1.46667,52.37843],[-1.466547,52.378538],[-1.464971,52.378953],[-1.474374,52.384282],[-1.482124,52.390163],[-1.488154,52.392088],[-1.496838,52.397004],[-1.496709,52.397272],[-1.49654,52.39729],[-1.496029,52.397496],[-1.496702,52.397335],[-1.49736,52.39741],[-1.497729,52.397509],[-1.498261,52.39781],[-1.498364,52.397745],[-1.498585,52.397717],[-1.504784,52.399277],[-1.511729,52.400246],[-1.516111,52.401372],[-1.5168,52.400953],[-1.516524,52.400915],[-1.516362,52.400777],[-1.517128,52.395898],[-1.517262,52.395795],[-1.518073,52.395626],[-1.527781,52.394668],[-1.535167,52.386287],[-1.534914,52.386223],[-1.524353,52.380312],[-1.518006,52.376441],[-1.509591,52.370569],[-1.499637,52.369625]]]},"properties":{"code":"M86037","name":"QUINTON PARK MEDICAL CENTRE","icb":"QWU"}}]}