{"type":"FeatureCollection","features":[{"type":"Feature","geometry":{"type":"Polygon","coordinates":[[[-1.523889,52.408603],[-1.524971,52.408713],[-1.523563,52.408713],[-1.523889,52.408603],[-1.523323,52.408545],[-1.523117,52.408671],[-1.542721,52.419969],[-1.556454,52.423654],[-1.57271,52.424125],[-1.606647,52.395286],[-1.585516,52.382966],[-1.56308,52.385543],[-1.53879,52.381656],[-1.529846,52.39184],[-1.519615,52.400565],[-1.519547,52.400565],[-1.523975,52.408524],[-1.523889,52.408603]]]},"properties":{"code":"M86019","name":"WESTWOOD MEDICAL H/CENTRE","icb":"QWU"}}]}