{"type":"FeatureCollection","features":[{"type":"Feature","geometry":{"type":"Polygon","coordinates":[[[-1.513256,52.399792],[-1.511511,52.399709],[-1.508191,52.400073],[-1.505627,52.401282],[-1.500623,52.4021],[-1.496115,52.404882],[-1.494886,52.408787],[-1.498659,52.415027],[-1.499358,52.415449],[-1.498866,52.41591],[-1.498033,52.417347],[-1.497802,52.419256],[-1.504784,52.422663],[-1.502583,52.424968],[-1.503588,52.430182],[-1.502173,52.434409],[-1.500376,52.43977],[-1.500474,52.439755],[-1.497457,52.443821],[-1.497261,52.445436],[-1.497457,52.445555],[-1.498218,52.447319],[-1.499812,52.449157],[-1.50116,52.449456],[-1.505084,52.450517],[-1.510871,52.451519],[-1.517319,52.454395],[-1.519655,52.455192],[-1.523202,52.45637],[-1.526269,52.455548],[-1.528065,52.455067],[-1.533169,52.453951],[-1.540397,52.45237],[-1.546283,52.450532],[-1.553223,52.44403],[-1.554728,52.441525],[-1.55512,52.441301],[-1.556481,52.438954],[-1.55734,52.43846],[-1.55837,52.437974],[-1.564991,52.433452],[-1.567664,52.4318],[-1.568559,52.431097],[-1.568461,52.430955],[-1.575148,52.426512],[-1.572363,52.422806],[-1.570856,52.420322],[-1.570206,52.416977],[-1.567858,52.414274],[-1.564554,52.412041],[-1.562452,52.410619],[-1.560901,52.408061],[-1.559706,52.404886],[-1.559265,52.402614],[-1.555683,52.401994],[-1.544533,52.401194],[-1.530401,52.400421],[-1.522822,52.400005],[-1.519149,52.399369],[-1.515267,52.399571],[-1.513256,52.399792]]]},"properties":{"code":"M86009","name":"ENGLETON HOUSE SURGERY","icb":"QWU"}}]}