{"type":"FeatureCollection","features":[{"type":"Feature","geometry":{"type":"Polygon","coordinates":[[[-1.49443,52.408972],[-1.48693,52.4064],[-1.46403,52.40628],[-1.451325,52.407565],[-1.44196,52.410565],[-1.438907,52.412796],[-1.43687,52.414631],[-1.431144,52.425156],[-1.42342,52.43425],[-1.45104,52.443716],[-1.458153,52.441083],[-1.463285,52.43839],[-1.478047,52.434743],[-1.484846,52.430611],[-1.494007,52.425803],[-1.499282,52.422596],[-1.499989,52.419124],[-1.501074,52.413796],[-1.49443,52.408972]]]},"properties":{"code":"M86041","name":"CLAY LANE MEDICAL PRACTICE","icb":"QWU"}}]}