{"type":"FeatureCollection","features":[{"type":"Feature","geometry":{"type":"Polygon","coordinates":[[[-1.513888,52.369669],[-1.513157,52.369835],[-1.511516,52.37117],[-1.509108,52.373388],[-1.50875,52.374206],[-1.508334,52.37548],[-1.507987,52.375939],[-1.507087,52.376671],[-1.505048,52.377778],[-1.502816,52.378286],[-1.500716,52.378863],[-1.501127,52.378958],[-1.501239,52.379026],[-1.501371,52.379335],[-1.501056,52.379754],[-1.499884,52.380977],[-1.498737,52.38301],[-1.497552,52.383977],[-1.495925,52.384787],[-1.495307,52.385716],[-1.494616,52.386369],[-1.49588,52.388384],[-1.495847,52.388506],[-1.495352,52.388865],[-1.494955,52.389567],[-1.495359,52.391133],[-1.496093,52.392566],[-1.496202,52.3928],[-1.494063,52.392658],[-1.494291,52.392951],[-1.496301,52.392982],[-1.496345,52.39305],[-1.496524,52.393335],[-1.496574,52.393471],[-1.495524,52.393741],[-1.495769,52.394273],[-1.496956,52.394097],[-1.497,52.394226],[-1.497326,52.395034],[-1.499033,52.39429],[-1.499566,52.394131],[-1.499659,52.394237],[-1.500647,52.395297],[-1.500945,52.396918],[-1.50084,52.397039],[-1.496786,52.398379],[-1.498336,52.400135],[-1.499402,52.401505],[-1.502051,52.405267],[-1.501874,52.407289],[-1.502663,52.409313],[-1.505153,52.411001],[-1.507502,52.412196],[-1.510079,52.412933],[-1.515254,52.411905],[-1.519622,52.409439],[-1.519849,52.407089],[-1.519386,52.406213],[-1.51611,52.403656],[-1.515007,52.403095],[-1.514943,52.402966],[-1.515831,52.401174],[-1.515933,52.401102],[-1.520557,52.399755],[-1.521438,52.398809],[-1.521694,52.398753],[-1.522449,52.39893],[-1.5228,52.398477],[-1.52608,52.396409],[-1.525524,52.395958],[-1.524947,52.394479],[-1.525078,52.394328],[-1.527268,52.39383],[-1.528261,52.393439],[-1.529301,52.392427],[-1.532409,52.38918],[-1.534978,52.38642],[-1.537202,52.384256],[-1.539799,52.381542],[-1.533741,52.378205],[-1.527304,52.38193],[-1.526948,52.381897],[-1.525329,52.380149],[-1.52269,52.377493],[-1.521746,52.376756],[-1.52035,52.376189],[-1.518672,52.374175],[-1.518328,52.372711],[-1.517942,52.371904],[-1.513888,52.369669]]]},"properties":{"code":"M86027","name":"CHEYLESMORE SURGERY","icb":"QWU"}}]}