{"type":"FeatureCollection","features":[{"type":"Feature","geometry":{"type":"Polygon","coordinates":[[[-1.51399,52.36983],[-1.507544,52.378438],[-1.507313,52.378509],[-1.50275,52.37791],[-1.502745,52.378087],[-1.502601,52.378264],[-1.502293,52.378414],[-1.50059,52.37882],[-1.49232,52.38961],[-1.49202,52.39026],[-1.49206,52.391],[-1.49249,52.39153],[-1.493954,52.392468],[-1.494664,52.393399],[-1.4953,52.39478],[-1.495745,52.394801],[-1.495938,52.395005],[-1.49551,52.39556],[-1.499144,52.397715],[-1.49885,52.39802],[-1.49634,52.39755],[-1.49663,52.39789],[-1.51391,52.40084],[-1.514023,52.400606],[-1.514294,52.400517],[-1.518891,52.40139],[-1.51955,52.40158],[-1.519873,52.401577],[-1.520695,52.401872],[-1.54016,52.427767],[-1.54077,52.42976],[-1.54152,52.42995],[-1.555387,52.420738],[-1.555605,52.420706],[-1.56019,52.42175],[-1.56527,52.42243],[-1.56937,52.42237],[-1.570167,52.418315],[-1.570323,52.418209],[-1.57089,52.41813],[-1.571002,52.417633],[-1.571152,52.41753],[-1.57214,52.41738],[-1.57313,52.41597],[-1.572602,52.416365],[-1.572097,52.416237],[-1.573187,52.409816],[-1.57345,52.409406],[-1.573949,52.409408],[-1.57435,52.41004],[-1.574023,52.408413],[-1.57416,52.40823],[-1.573964,52.408119],[-1.573854,52.407581],[-1.573654,52.407498],[-1.570493,52.399098],[-1.5704,52.39841],[-1.568,52.3986],[-1.565269,52.398938],[-1.56216,52.39891],[-1.560182,52.399116],[-1.560001,52.399076],[-1.550312,52.39224],[-1.550341,52.392049],[-1.5504,52.39202],[-1.546954,52.387742],[-1.54706,52.38458],[-1.54504,52.38307],[-1.54221,52.38204],[-1.540362,52.381586],[-1.540271,52.381488],[-1.51457,52.36997],[-1.514492,52.370033],[-1.514001,52.369943],[-1.51399,52.36983]]]},"properties":{"code":"M86030","name":"KENSINGTON ROAD SURGERY","icb":"QWU"}}]}