{"type":"FeatureCollection","features":[{"type":"Feature","geometry":{"type":"Polygon","coordinates":[[[-1.52561,52.41201],[-1.53169,52.41414],[-1.53759,52.41631],[-1.54095,52.41319],[-1.54811,52.41259],[-1.5506,52.41151],[-1.55534,52.41188],[-1.55811,52.41147],[-1.56022,52.41055],[-1.559,52.40881],[-1.558896,52.407369],[-1.558669,52.407267],[-1.557645,52.40725],[-1.558672,52.407183],[-1.558829,52.407068],[-1.55817,52.406595],[-1.5589,52.407017],[-1.5589,52.406883],[-1.559004,52.407077],[-1.559305,52.407233],[-1.56578,52.40817],[-1.56969,52.4088],[-1.57319,52.40987],[-1.58473,52.41282],[-1.59718,52.41403],[-1.60337,52.41619],[-1.60552,52.41154],[-1.60214,52.40389],[-1.60126,52.39726],[-1.59624,52.39527],[-1.59768,52.39219],[-1.59913,52.38936],[-1.58847,52.3861],[-1.57992,52.38475],[-1.57304,52.38422],[-1.57353,52.38319],[-1.57418,52.38224],[-1.57354,52.38216],[-1.57235,52.38419],[-1.5701,52.38411],[-1.56789,52.38453],[-1.56512,52.38593],[-1.563685,52.386798],[-1.561432,52.387754],[-1.558964,52.388461],[-1.557012,52.389456],[-1.556153,52.389496],[-1.555831,52.389103],[-1.55669,52.387204],[-1.556861,52.385855],[-1.55547,52.38553],[-1.55467,52.38468],[-1.55285,52.3831],[-1.55231,52.3822],[-1.55211,52.38153],[-1.55325,52.37975],[-1.55137,52.37639],[-1.55006,52.37585],[-1.54932,52.37544],[-1.54918,52.37492],[-1.54981,52.37446],[-1.55105,52.37394],[-1.55521,52.37192],[-1.55665,52.37004],[-1.55636,52.36941],[-1.5556,52.36883],[-1.55268,52.36752],[-1.5443,52.36619],[-1.54305,52.36734],[-1.54368,52.37116],[-1.53938,52.37464],[-1.5447,52.37708],[-1.53495,52.38713],[-1.53526,52.39677],[-1.5331,52.39823],[-1.53102,52.39942],[-1.52998,52.39993],[-1.52744,52.40081],[-1.52691,52.40118],[-1.52668,52.40156],[-1.52668,52.40195],[-1.52647,52.40261],[-1.5262,52.40305],[-1.52607,52.40359],[-1.525847,52.403948],[-1.52666,52.40478],[-1.52764,52.40648],[-1.52761,52.40932],[-1.52561,52.41201]]]},"properties":{"code":"M86010","name":"FORREST MEDICAL CENTRE","icb":"QWU"}}]}