{"type":"FeatureCollection","features":[{"type":"Feature","geometry":{"type":"Polygon","coordinates":[[[-2.124215,52.512578],[-2.12181,52.512592],[-2.119569,52.512674],[-2.112592,52.512661],[-2.105382,52.512923],[-2.09538,52.513024],[-2.098269,52.515637],[-2.108476,52.523833],[-2.105576,52.525146],[-2.102863,52.526099],[-2.099753,52.526789],[-2.099376,52.529629],[-2.098767,52.532159],[-2.098876,52.532155],[-2.098891,52.532152],[-2.098759,52.53223],[-2.105023,52.532417],[-2.105759,52.532486],[-2.111563,52.532562],[-2.113177,52.538247],[-2.113755,52.53956],[-2.114311,52.543571],[-2.137713,52.540327],[-2.136499,52.534811],[-2.145884,52.532583],[-2.149893,52.527292],[-2.15128,52.526858],[-2.152859,52.526227],[-2.162707,52.522766],[-2.162693,52.52271],[-2.163082,52.52241],[-2.165806,52.52132],[-2.168315,52.519841],[-2.19174,52.50346],[-2.190536,52.503055],[-2.187493,52.501561],[-2.184557,52.500231],[-2.174584,52.496186],[-2.137476,52.505333],[-2.126766,52.511902],[-2.124215,52.512578]]]},"properties":{"code":"M87015","name":"LOWER GORNAL MEDICAL PRACTICE","icb":"QUA"}}]}