{"type":"FeatureCollection","features":[{"type":"Feature","geometry":{"type":"Polygon","coordinates":[[[-2.050709,52.487432],[-2.074082,52.503701],[-2.079343,52.501751],[-2.079016,52.498198],[-2.075834,52.496824],[-2.076328,52.494828],[-2.072695,52.487388],[-2.072526,52.485545],[-2.074263,52.484352],[-2.068849,52.480582],[-2.067933,52.475608],[-2.071988,52.470883],[-2.076855,52.467261],[-2.073187,52.460891],[-2.068692,52.460337],[-2.06053,52.453413],[-2.05108,52.452248],[-2.044423,52.452384],[-2.04377,52.450525],[-2.045842,52.44726],[-2.044659,52.443894],[-2.03118,52.44703],[-2.01685,52.44882],[-2.011213,52.448227],[-2.007658,52.451228],[-2.004843,52.462617],[-2.001935,52.46352],[-1.997601,52.463064],[-1.984613,52.466084],[-1.994184,52.47022],[-2.015726,52.483164],[-2.02397,52.50005],[-2.031786,52.497153],[-2.035548,52.495071],[-2.040475,52.494457],[-2.050709,52.487432]]]},"properties":{"code":"M87034","name":"CLEMENT ROAD MEDICAL PRACTICE","icb":"QUA"}}]}