{"type":"FeatureCollection","features":[{"type":"Feature","geometry":{"type":"Polygon","coordinates":[[[-2.249441,52.358799],[-2.139589,52.348751],[-1.928158,52.34371],[-1.729145,52.373016],[-1.647979,52.440932],[-1.631513,52.531294],[-1.659018,52.613092],[-1.810032,52.729695],[-2.087434,52.754622],[-2.263185,52.699745],[-2.367519,52.628119],[-2.408695,52.537967],[-2.381254,52.474437],[-2.356526,52.429227],[-2.249441,52.358799]]]},"properties":{"code":"M87027","name":"QUARRY BANK MEDICAL CENTRE","icb":"QUA"}}]}