{"type":"FeatureCollection","features":[{"type":"Feature","geometry":{"type":"Polygon","coordinates":[[[-2.096802,52.533385],[-2.098634,52.532187],[-2.102611,52.531744],[-2.103667,52.531053],[-2.104504,52.529684],[-2.106506,52.529368],[-2.109658,52.528418],[-2.111646,52.525723],[-2.112202,52.525556],[-2.116219,52.522926],[-2.116176,52.522531],[-2.118189,52.5198],[-2.117884,52.518943],[-2.118763,52.517054],[-2.119494,52.516995],[-2.121235,52.514633],[-2.119075,52.514866],[-2.120645,52.511851],[-2.12438,52.512544],[-2.127261,52.511218],[-2.125742,52.510486],[-2.127984,52.509619],[-2.129221,52.509761],[-2.129838,52.50903],[-2.130367,52.508742],[-2.133844,52.507254],[-2.137488,52.505277],[-2.136577,52.504242],[-2.13625,52.502348],[-2.133405,52.502213],[-2.12448,52.50215],[-2.125727,52.503092],[-2.12377,52.503667],[-2.122542,52.503196],[-2.122943,52.501264],[-2.119331,52.500847],[-2.112646,52.500198],[-2.118916,52.493544],[-2.11611,52.49219],[-2.117906,52.490058],[-2.106476,52.490433],[-2.106917,52.488311],[-2.107323,52.484948],[-2.107172,52.483578],[-2.105968,52.480855],[-2.104752,52.48046],[-2.104394,52.479911],[-2.102345,52.479404],[-2.100393,52.479562],[-2.099986,52.479098],[-2.097851,52.479082],[-2.097514,52.478699],[-2.096581,52.478287],[-2.096064,52.477795],[-2.095404,52.4763],[-2.094414,52.474509],[-2.094711,52.473871],[-2.0967,52.4696],[-2.094221,52.473655],[-2.091329,52.474527],[-2.089616,52.474666],[-2.087279,52.474087],[-2.086338,52.474292],[-2.085023,52.474398],[-2.084425,52.474892],[-2.083043,52.475426],[-2.082081,52.475709],[-2.081138,52.475914],[-2.07982,52.47652],[-2.079058,52.477149],[-2.079178,52.477487],[-2.077985,52.477991],[-2.077136,52.478059],[-2.075775,52.477401],[-2.073811,52.477446],[-2.073457,52.477583],[-2.073252,52.478022],[-2.072845,52.478897],[-2.072385,52.479309],[-2.071556,52.480155],[-2.0718,52.480448],[-2.071408,52.480732],[-2.071168,52.481247],[-2.070263,52.481596],[-2.06744,52.483928],[-2.067413,52.485882],[-2.064198,52.487124],[-2.067062,52.489886],[-2.06926,52.490731],[-2.069774,52.491661],[-2.061166,52.503319],[-2.061118,52.506829],[-2.062488,52.507491],[-2.061084,52.509949],[-2.059797,52.509978],[-2.059292,52.510345],[-2.058036,52.510874],[-2.055515,52.512032],[-2.060042,52.512557],[-2.063294,52.513612],[-2.068558,52.519603],[-2.071812,52.522066],[-2.075927,52.524052],[-2.076907,52.524099],[-2.080147,52.524026],[-2.082841,52.524572],[-2.084277,52.525937],[-2.086228,52.53142],[-2.089201,52.528271],[-2.092324,52.528294],[-2.096802,52.533385]]]},"properties":{"code":"M87605","name":"CENTRAL CLINIC","icb":"QUA"}}]}