{"type":"FeatureCollection","features":[{"type":"Feature","geometry":{"type":"Polygon","coordinates":[[[-2.07429,52.56456],[-2.0763,52.5639],[-2.0783,52.56332],[-2.08029,52.56298],[-2.08204,52.5625],[-2.08233,52.56197],[-2.08289,52.56158],[-2.08343,52.56056],[-2.08459,52.55938],[-2.08568,52.55893],[-2.08595,52.55856],[-2.08635,52.55833],[-2.08701,52.55765],[-2.08745,52.55671],[-2.08856,52.55506],[-2.08995,52.55429],[-2.09313,52.55341],[-2.09357,52.55319],[-2.09482,52.55305],[-2.09684,52.55225],[-2.09296,52.54627],[-2.09109,52.54363],[-2.08942,52.5411],[-2.0883,52.53861],[-2.08674,52.53369],[-2.08566,52.53091],[-2.08387,52.52583],[-2.08312,52.52507],[-2.08198,52.52454],[-2.08073,52.52428],[-2.07948,52.52421],[-2.07627,52.52437],[-2.07479,52.52389],[-2.07264,52.52278],[-2.07025,52.52127],[-2.06803,52.51955],[-2.06681,52.51832],[-2.0657,52.51708],[-2.06489,52.5157],[-2.06382,52.51424],[-2.06199,52.51352],[-2.06132,52.51379],[-2.05925,52.51433],[-2.0566,52.51517],[-2.05524,52.51522],[-2.05331,52.51492],[-2.05137,52.51452],[-2.05009,52.51471],[-2.04947,52.51528],[-2.04327,52.52232],[-2.03955,52.52548],[-2.03863,52.52663],[-2.03606,52.5274],[-2.03555,52.52759],[-2.03204,52.52784],[-2.02872,52.52834],[-2.02584,52.52607],[-2.01649,52.52869],[-2.01836,52.52975],[-2.0211,52.53022],[-2.02383,52.53027],[-2.02651,52.53066],[-2.02852,52.53125],[-2.02994,52.53151],[-2.0317,52.53223],[-2.03294,52.53328],[-2.03376,52.53434],[-2.03438,52.53597],[-2.03432,52.53755],[-2.03438,52.53825],[-2.03517,52.54036],[-2.03496,52.54147],[-2.03458,52.54213],[-2.03421,52.54258],[-2.03351,52.54305],[-2.03108,52.54493],[-2.03038,52.54565],[-2.02994,52.54648],[-2.02982,52.54691],[-2.02992,52.54735],[-2.03041,52.54777],[-2.03006,52.54832],[-2.0299,52.54901],[-2.02977,52.55021],[-2.03033,52.55052],[-2.03013,52.55112],[-2.03045,52.55165],[-2.03241,52.55364],[-2.03331,52.55484],[-2.03394,52.55513],[-2.03398,52.55541],[-2.03464,52.55598],[-2.03575,52.55651],[-2.03693,52.55699],[-2.03874,52.55765],[-2.04035,52.5583],[-2.04485,52.55994],[-2.04771,52.56029],[-2.04851,52.56024],[-2.04931,52.56036],[-2.05006,52.56028],[-2.05282,52.56044],[-2.05856,52.56039],[-2.06125,52.56084],[-2.0662,52.56267],[-2.0676,52.56328],[-2.06866,52.56384],[-2.06997,52.5644],[-2.07181,52.56466],[-2.0735,52.56469],[-2.07429,52.56456]]]},"properties":{"code":"M88010","name":"SWANPOOL MEDICAL CENTRE","icb":"QUA"}}]}