{"type":"FeatureCollection","features":[{"type":"Feature","geometry":{"type":"Polygon","coordinates":[[[-2.044751,52.56204],[-2.044394,52.558943],[-2.046676,52.557583],[-2.04861,52.556431],[-2.050168,52.556022],[-2.052065,52.555041],[-2.051149,52.553501],[-2.050663,52.552221],[-2.050446,52.551128],[-2.058092,52.548111],[-2.058994,52.547782],[-2.059736,52.547587],[-2.060533,52.547296],[-2.06093,52.546793],[-2.057879,52.545472],[-2.054799,52.546079],[-2.051725,52.546195],[-2.050714,52.546212],[-2.050138,52.546227],[-2.049857,52.546269],[-2.049603,52.546319],[-2.049219,52.545867],[-2.048683,52.54546],[-2.047771,52.545065],[-2.046636,52.544752],[-2.045489,52.544464],[-2.044031,52.544098],[-2.042384,52.543644],[-2.040997,52.543303],[-2.040028,52.543036],[-2.039701,52.542788],[-2.039513,52.542418],[-2.039476,52.542227],[-2.039558,52.541904],[-2.039703,52.541475],[-2.039808,52.541078],[-2.039958,52.540397],[-2.040071,52.540055],[-2.040265,52.539472],[-2.040343,52.539115],[-2.040384,52.538664],[-2.040358,52.538533],[-2.040239,52.538398],[-2.039996,52.538136],[-2.039573,52.537741],[-2.038971,52.537219],[-2.038688,52.536823],[-2.038591,52.536469],[-2.038701,52.535774],[-2.038633,52.534808],[-2.03839,52.533919],[-2.037389,52.532841],[-2.036879,52.532127],[-2.036421,52.531561],[-2.036315,52.531281],[-2.03623,52.531056],[-2.036322,52.530878],[-2.036602,52.530628],[-2.037043,52.530235],[-2.037792,52.529566],[-2.041215,52.528095],[-2.039787,52.527408],[-2.035719,52.527474],[-2.034006,52.527579],[-2.033009,52.527705],[-2.032212,52.527726],[-2.03103,52.52791],[-2.03068,52.527478],[-2.029875,52.526564],[-2.02874,52.524974],[-2.028023,52.52416],[-2.027629,52.52333],[-2.027399,52.522491],[-2.026925,52.522048],[-2.026619,52.52191],[-2.026285,52.521805],[-2.024387,52.521645],[-2.022369,52.521388],[-2.021029,52.521139],[-2.020241,52.520953],[-2.018584,52.520495],[-2.016941,52.51998],[-2.016318,52.519827],[-2.015879,52.519649],[-2.015957,52.519536],[-2.015978,52.519381],[-2.015852,52.519168],[-2.015858,52.518738],[-2.015861,52.518414],[-2.014883,52.516769],[-2.014314,52.516336],[-2.01369,52.516012],[-2.012604,52.515384],[-2.011009,52.514124],[-2.010203,52.513285],[-2.009359,52.512644],[-2.007919,52.511299],[-2.007539,52.511101],[-2.006973,52.510945],[-2.007095,52.510602],[-2.006194,52.509998],[-2.004874,52.509462],[-2.003395,52.509113],[-2.002457,52.508938],[-2.001086,52.508961],[-1.999704,52.509013],[-1.998499,52.509087],[-1.9974,52.509077],[-1.996652,52.509123],[-1.995092,52.509059],[-1.994072,52.509075],[-1.992714,52.508984],[-1.991414,52.508698],[-1.990739,52.508641],[-1.990538,52.508111],[-1.986113,52.507592],[-1.984348,52.507263],[-1.981764,52.507127],[-1.979688,52.507108],[-1.978266,52.508149],[-1.97734,52.509488],[-1.975686,52.512669],[-1.975325,52.513051],[-1.974781,52.513741],[-1.974231,52.514322],[-1.973573,52.515156],[-1.972813,52.51612],[-1.972446,52.517153],[-1.974741,52.517455],[-1.975973,52.517519],[-1.977143,52.5175],[-1.978329,52.517511],[-1.979393,52.516876],[-1.981962,52.516052],[-1.982691,52.516684],[-1.984149,52.517949],[-1.987065,52.520479],[-1.986652,52.52236],[-1.98665,52.522516],[-1.986701,52.522705],[-1.98708,52.523342],[-1.986561,52.523374],[-1.985782,52.523422],[-1.985478,52.523469],[-1.985112,52.523401],[-1.985047,52.523428],[-1.984925,52.523509],[-1.984796,52.523624],[-1.984617,52.523784],[-1.984461,52.523877],[-1.984301,52.523994],[-1.983656,52.524379],[-1.983172,52.524288],[-1.982026,52.524241],[-1.982066,52.524443],[-1.982063,52.524823],[-1.981965,52.525113],[-1.981834,52.525603],[-1.981807,52.525798],[-1.98196,52.526357],[-1.98204,52.526514],[-1.983623,52.526648],[-1.983878,52.52686],[-1.984486,52.52707],[-1.984954,52.527383],[-1.985035,52.52768],[-1.985313,52.528228],[-1.985605,52.528637],[-1.985029,52.528874],[-1.984863,52.529366],[-1.984446,52.529806],[-1.98367,52.530207],[-1.983143,52.530874],[-1.982977,52.531494],[-1.982356,52.53215],[-1.982227,52.532959],[-1.98586,52.533758],[-1.985773,52.533803],[-1.985516,52.53426],[-1.984662,52.535023],[-1.984388,52.535312],[-1.983867,52.535862],[-1.983319,52.53644],[-1.983001,52.536551],[-1.981971,52.536007],[-1.981291,52.535857],[-1.980534,52.535793],[-1.980138,52.536295],[-1.979712,52.536745],[-1.979076,52.53667],[-1.978702,52.536744],[-1.978586,52.537088],[-1.97839,52.537817],[-1.978149,52.537797],[-1.977682,52.537793],[-1.975835,52.537636],[-1.974764,52.53819],[-1.974002,52.538747],[-1.973462,52.539107],[-1.972617,52.539544],[-1.972151,52.539705],[-1.971594,52.539993],[-1.971152,52.540221],[-1.970535,52.540299],[-1.969968,52.540294],[-1.969432,52.540773],[-1.973119,52.544744],[-1.973268,52.546033],[-1.973244,52.547981],[-1.972833,52.547638],[-1.972421,52.547296],[-1.971599,52.546612],[-1.969954,52.545242],[-1.967472,52.545556],[-1.967728,52.546491],[-1.968217,52.54778],[-1.969024,52.54891],[-1.970476,52.550556],[-1.971586,52.551711],[-1.972366,52.552676],[-1.972222,52.553739],[-1.970964,52.553074],[-1.969848,52.552621],[-1.96859,52.552254],[-1.967406,52.551994],[-1.965356,52.551754],[-1.962538,52.551515],[-1.961641,52.554169],[-1.961922,52.555194],[-1.961133,52.555602],[-1.95661,52.554354],[-1.955869,52.555293],[-1.953254,52.55453],[-1.953082,52.555793],[-1.952828,52.557393],[-1.95282,52.558193],[-1.952469,52.560781],[-1.952203,52.562451],[-1.957774,52.56236],[-1.959131,52.562324],[-1.959674,52.562329],[-1.963145,52.563529],[-1.96745,52.564331],[-1.971821,52.564843],[-1.978306,52.564673],[-1.982318,52.564567],[-1.986201,52.564329],[-1.987703,52.564096],[-1.98922,52.564002],[-1.990197,52.564117],[-1.990578,52.564201],[-1.991525,52.564585],[-1.99366,52.564253],[-1.995808,52.564725],[-1.998377,52.565289],[-2.005794,52.567453],[-2.008933,52.568681],[-2.010986,52.5703],[-2.011669,52.570938],[-2.011921,52.571208],[-2.012087,52.571647],[-2.012291,52.572173],[-2.012637,52.572901],[-2.012948,52.5737],[-2.013251,52.5745],[-2.01345,52.575223],[-2.013611,52.575542],[-2.014508,52.575589],[-2.015271,52.575596],[-2.015984,52.575498],[-2.01672,52.575288],[-2.017481,52.57507],[-2.019079,52.574047],[-2.019701,52.572851],[-2.019695,52.572588],[-2.019664,52.572322],[-2.020084,52.571515],[-2.020409,52.571278],[-2.020816,52.570963],[-2.021164,52.570709],[-2.022173,52.570188],[-2.02322,52.569841],[-2.024781,52.569432],[-2.025662,52.56918],[-2.026596,52.568913],[-2.027053,52.56885],[-2.027529,52.568785],[-2.028482,52.568655],[-2.029617,52.568291],[-2.030109,52.56808],[-2.03079,52.567674],[-2.032297,52.567154],[-2.033114,52.567027],[-2.033868,52.566994],[-2.034856,52.566934],[-2.035492,52.56673],[-2.036372,52.566275],[-2.037648,52.565993],[-2.038831,52.565601],[-2.039837,52.565188],[-2.044751,52.56204]]]},"properties":{"code":"M88001","name":"THE VILLAGE MEDICAL CENTRE","icb":"QUA"}}]}