{"type":"FeatureCollection","features":[{"type":"Feature","geometry":{"type":"Polygon","coordinates":[[[-2.10629,52.48592],[-2.11113,52.47107],[-2.11942,52.45747],[-2.12682,52.45078],[-2.13045,52.44283],[-2.13201,52.43236],[-2.12156,52.42734],[-2.05946,52.44094],[-2.03665,52.44649],[-2.01598,52.4501],[-2.01285,52.45525],[-2.01385,52.45957],[-2.01506,52.46924],[-2.02073,52.47557],[-2.02504,52.48393],[-2.02178,52.49093],[-2.02408,52.49413],[-2.02776,52.49754],[-2.03579,52.50478],[-2.05185,52.51256],[-2.07306,52.51324],[-2.08191,52.50515],[-2.09221,52.49992],[-2.09667,52.50159],[-2.1056,52.50201],[-2.10903,52.49909],[-2.1056,52.4947],[-2.10629,52.48592]]]},"properties":{"code":"M88043","name":"HADEN VALE SURGERY","icb":"QUA"}}]}