{"type":"FeatureCollection","features":[{"type":"Feature","geometry":{"type":"Polygon","coordinates":[[[-2.02818,52.49945],[-2.03041,52.49731],[-2.03204,52.49658],[-2.0335,52.49553],[-2.03925,52.49464],[-2.04586,52.49156],[-2.04741,52.49062],[-2.04861,52.48926],[-2.04998,52.48696],[-2.04844,52.4856],[-2.04715,52.48471],[-2.04552,52.48487],[-2.03831,52.474],[-2.03178,52.46919],[-2.02766,52.46124],[-2.02389,52.45862],[-2.02183,52.45601],[-2.01653,52.45598],[-2.01277,52.45617],[-2.00891,52.45617],[-2.00558,52.45651],[-2.00363,52.45643],[-2.00138,52.45597],[-2.00049,52.45539],[-1.99954,52.45485],[-1.99726,52.45409],[-1.9921,52.45329],[-1.99041,52.45287],[-1.98724,52.45274],[-1.98619,52.45254],[-1.98488,52.45256],[-1.98029,52.45245],[-1.98063,52.45622],[-1.97548,52.46103],[-1.96999,52.46229],[-1.96484,52.46438],[-1.96655,52.46793],[-1.96827,52.47232],[-1.96964,52.47619],[-1.9693,52.48027],[-1.96621,52.48675],[-1.9681,52.49203],[-1.97016,52.49585],[-1.97561,52.49864],[-1.97908,52.50097],[-1.9811,52.50176],[-1.98312,52.50204],[-1.99612,52.5031],[-1.99925,52.50246],[-2.00282,52.50218],[-2.00638,52.50285],[-2.00882,52.50192],[-2.01376,52.49788],[-2.02028,52.49271],[-2.02818,52.49945]]]},"properties":{"code":"M88645","name":"HILL TOP MEDICAL CENTRE","icb":"QUA"}}]}