{"type":"FeatureCollection","features":[{"type":"Feature","geometry":{"type":"Polygon","coordinates":[[[-1.81867,52.39723],[-1.812119,52.402059],[-1.807667,52.403944],[-1.8027,52.4054],[-1.79519,52.40849],[-1.7929,52.41098],[-1.792111,52.412451],[-1.789898,52.413363],[-1.784927,52.414785],[-1.779619,52.415583],[-1.76871,52.41362],[-1.766566,52.415913],[-1.76309,52.41776],[-1.76248,52.41875],[-1.762547,52.419695],[-1.762503,52.419774],[-1.7603,52.4214],[-1.75783,52.42365],[-1.7564,52.42621],[-1.755467,52.429486],[-1.75386,52.43275],[-1.75352,52.43364],[-1.75404,52.43495],[-1.757822,52.43698],[-1.75936,52.44228],[-1.76185,52.44555],[-1.76584,52.44845],[-1.76648,52.448704],[-1.766569,52.448806],[-1.76652,52.455439],[-1.76472,52.45834],[-1.769253,52.457503],[-1.77614,52.45708],[-1.780671,52.45637],[-1.780961,52.45652],[-1.780605,52.458787],[-1.77864,52.460307],[-1.77824,52.46051],[-1.777569,52.461135],[-1.77635,52.46242],[-1.77661,52.46438],[-1.78326,52.46197],[-1.788643,52.459876],[-1.793222,52.45866],[-1.79605,52.45869],[-1.797952,52.457984],[-1.798179,52.457991],[-1.802778,52.460135],[-1.80433,52.46113],[-1.80699,52.46161],[-1.81566,52.46179],[-1.818034,52.459238],[-1.818139,52.459186],[-1.82073,52.45865],[-1.82287,52.45747],[-1.82995,52.45339],[-1.83193,52.45141],[-1.830803,52.450818],[-1.830736,52.450721],[-1.830979,52.448281],[-1.83279,52.443999],[-1.834966,52.439169],[-1.837677,52.435554],[-1.84047,52.43249],[-1.84261,52.42831],[-1.842533,52.428273],[-1.83954,52.42413],[-1.83707,52.42222],[-1.834571,52.421121],[-1.830826,52.417504],[-1.827596,52.413477],[-1.82382,52.40624],[-1.822566,52.404577],[-1.82201,52.402828],[-1.82206,52.40087],[-1.82073,52.39891],[-1.81867,52.39723]]]},"properties":{"code":"M89007","name":"RICHMOND MEDICAL CENTRE","icb":"QHL"}}]}