{"type":"FeatureCollection","features":[{"type":"Feature","geometry":{"type":"Polygon","coordinates":[[[-1.733867,52.468493],[-1.731012,52.468952],[-1.726506,52.469763],[-1.724242,52.472339],[-1.725885,52.473056],[-1.727441,52.474089],[-1.7357,52.480755],[-1.735735,52.480852],[-1.734447,52.484468],[-1.735321,52.485761],[-1.734887,52.485971],[-1.734402,52.485761],[-1.732914,52.491825],[-1.737051,52.497691],[-1.742002,52.504024],[-1.744447,52.507305],[-1.747583,52.510196],[-1.757381,52.513604],[-1.76326,52.514232],[-1.770199,52.513992],[-1.782008,52.510506],[-1.794548,52.508295],[-1.792436,52.503261],[-1.788642,52.502721],[-1.784833,52.502314],[-1.783115,52.501935],[-1.780948,52.501773],[-1.778176,52.501869],[-1.774436,52.502157],[-1.772521,52.502221],[-1.759091,52.500785],[-1.757177,52.500486],[-1.755638,52.500091],[-1.75553,52.499905],[-1.762905,52.491354],[-1.751582,52.488431],[-1.750349,52.488388],[-1.750195,52.488094],[-1.756216,52.485138],[-1.756423,52.485122],[-1.756608,52.485173],[-1.756956,52.485142],[-1.757801,52.484975],[-1.758083,52.484991],[-1.758361,52.485114],[-1.760144,52.484912],[-1.759803,52.483513],[-1.759847,52.483419],[-1.76129,52.48239],[-1.763464,52.479576],[-1.76331,52.476492],[-1.76331,52.47402],[-1.757688,52.472083],[-1.756551,52.471589],[-1.75584,52.470583],[-1.75429,52.46894],[-1.752143,52.469326],[-1.751472,52.470025],[-1.750805,52.470603],[-1.747542,52.471651],[-1.742205,52.474607],[-1.741909,52.474601],[-1.737444,52.471806],[-1.733867,52.468493]]]},"properties":{"code":"M89008","name":"BOSWORTH MEDICAL GROUP","icb":"QHL"}}]}