{"type":"FeatureCollection","features":[{"type":"Feature","geometry":{"type":"Polygon","coordinates":[[[-2.031097,52.563256],[-2.027171,52.564665],[-2.020862,52.567247],[-2.018373,52.568564],[-2.017021,52.569047],[-2.017837,52.569556],[-2.018266,52.569999],[-2.018416,52.570312],[-2.018716,52.570599],[-2.018867,52.570769],[-2.018352,52.574498],[-2.017869,52.582315],[-2.016056,52.584889],[-2.016013,52.585567],[-2.015884,52.585932],[-2.015476,52.586389],[-2.015133,52.58721],[-2.015305,52.591395],[-2.016356,52.598107],[-2.016699,52.59842],[-2.021742,52.599894],[-2.028008,52.60018],[-2.030582,52.600467],[-2.032224,52.600389],[-2.033211,52.600435],[-2.033801,52.600793],[-2.035089,52.60134],[-2.035882,52.602161],[-2.037385,52.603256],[-2.038736,52.60396],[-2.038844,52.604207],[-2.038736,52.604429],[-2.038522,52.605041],[-2.039037,52.605419],[-2.039605,52.605901],[-2.040775,52.606735],[-2.040346,52.610995],[-2.043972,52.609901],[-2.052233,52.609067],[-2.052705,52.605366],[-2.053993,52.604063],[-2.056267,52.602447],[-2.060151,52.599215],[-2.062833,52.597742],[-2.062168,52.593923],[-2.061911,52.593219],[-2.060151,52.592515],[-2.059035,52.591524],[-2.061052,52.580001],[-2.055216,52.577654],[-2.052298,52.576298],[-2.048779,52.575828],[-2.051482,52.571681],[-2.053027,52.569751],[-2.053585,52.569177],[-2.054014,52.56876],[-2.053714,52.567586],[-2.053757,52.565656],[-2.05307,52.564665],[-2.052212,52.563725],[-2.049637,52.560282],[-2.044744,52.559656],[-2.038736,52.562369],[-2.034295,52.563308],[-2.031097,52.563256]]]},"properties":{"code":"M91028","name":"MODALITY KINGFISHER DARLASTON PRACTICE","icb":"QUA"}}]}