{"type":"FeatureCollection","features":[{"type":"Feature","geometry":{"type":"Polygon","coordinates":[[[-1.886535,52.531915],[-1.881385,52.533216],[-1.878852,52.533815],[-1.877591,52.534177],[-1.87521,52.535144],[-1.871664,52.538179],[-1.869035,52.54082],[-1.866736,52.54254],[-1.864178,52.543362],[-1.861932,52.54382],[-1.858042,52.54474],[-1.853407,52.54733],[-1.850048,52.548892],[-1.846454,52.549308],[-1.841065,52.550107],[-1.837173,52.550558],[-1.834306,52.551305],[-1.831079,52.552927],[-1.832129,52.554348],[-1.832702,52.556702],[-1.832223,52.558895],[-1.831208,52.560928],[-1.829456,52.562628],[-1.826487,52.56614],[-1.82523,52.565813],[-1.823625,52.565865],[-1.823732,52.567409],[-1.823908,52.56994],[-1.823661,52.570526],[-1.82241,52.570852],[-1.823174,52.572766],[-1.827984,52.577467],[-1.829734,52.58185],[-1.835818,52.584577],[-1.840348,52.586606],[-1.845634,52.587981],[-1.85316,52.589323],[-1.860363,52.589241],[-1.869981,52.588928],[-1.875943,52.58886],[-1.881879,52.587927],[-1.889116,52.587843],[-1.896583,52.587756],[-1.906222,52.587644],[-1.910589,52.588061],[-1.907123,52.581999],[-1.910154,52.581963],[-1.913435,52.581186],[-1.913724,52.578626],[-1.91314,52.57421],[-1.913187,52.570442],[-1.912768,52.568732],[-1.913034,52.566374],[-1.914181,52.563639],[-1.914005,52.562918],[-1.918318,52.560746],[-1.919991,52.55876],[-1.923671,52.553923],[-1.924026,52.553092],[-1.925271,52.551818],[-1.926782,52.552494],[-1.92847,52.553058],[-1.930815,52.553394],[-1.933143,52.553529],[-1.934802,52.553474],[-1.935349,52.553167],[-1.935306,52.552562],[-1.935477,52.551772],[-1.936295,52.550125],[-1.935544,52.547747],[-1.934173,52.545944],[-1.930253,52.543351],[-1.927514,52.541075],[-1.922014,52.536504],[-1.906998,52.526565],[-1.906073,52.526863],[-1.904734,52.526053],[-1.901609,52.525605],[-1.899563,52.526387],[-1.89714,52.526748],[-1.896246,52.527248],[-1.895529,52.528418],[-1.891818,52.529613],[-1.886535,52.531915]]]},"properties":{"code":"M91637","name":"BLACKWOOD HEALTH CENTRE","icb":"QUA"}}]}