{"type":"FeatureCollection","features":[{"type":"Feature","geometry":{"type":"Polygon","coordinates":[[[-1.9371,52.62312],[-1.9368,52.62305],[-1.94231,52.62002],[-1.94319,52.61835],[-1.941,52.61858],[-1.93899,52.61918],[-1.93539,52.62085],[-1.93447,52.62008],[-1.9342,52.61939],[-1.92672,52.61467],[-1.92353,52.61522],[-1.92383,52.61815],[-1.92376,52.61959],[-1.9239,52.62102],[-1.92366,52.62111],[-1.9233,52.62042],[-1.92327,52.61887],[-1.91295,52.6118],[-1.90001,52.61705],[-1.89523,52.62347],[-1.90384,52.62635],[-1.91557,52.63585],[-1.90793,52.64193],[-1.90538,52.6434],[-1.88325,52.65549],[-1.92952,52.6566],[-1.93975,52.65632],[-1.94572,52.656326],[-1.94978,52.65579],[-1.94095,52.65224],[-1.93614,52.64892],[-1.9399,52.64705],[-1.94776,52.64405],[-1.956312,52.641499],[-1.96355,52.63707],[-1.97273,52.63306],[-1.957795,52.636655],[-1.94286,52.64025],[-1.92999,52.63426],[-1.93428,52.6253],[-1.93619,52.62362],[-1.9371,52.62312]]]},"properties":{"code":"M91639","name":"WALSALL WOOD HEALTH CENTRE","icb":"QUA"}}]}