{"type":"FeatureCollection","features":[{"type":"Feature","geometry":{"type":"Polygon","coordinates":[[[-1.969158,52.579185],[-1.97001,52.57919],[-1.97172,52.57944],[-1.97368,52.57979],[-1.97361,52.5794],[-1.97535,52.57911],[-1.97797,52.57879],[-1.98044,52.57864],[-1.98045,52.578639],[-1.980827,52.579831],[-1.980767,52.580453],[-1.979891,52.58131],[-1.979946,52.581427],[-1.980787,52.581442],[-1.981568,52.581279],[-1.982939,52.580786],[-1.98373,52.580544],[-1.984632,52.58055],[-1.984974,52.580508],[-1.9851,52.580465],[-1.985191,52.580407],[-1.98529,52.580254],[-1.985635,52.579778],[-1.985782,52.579481],[-1.986047,52.579098],[-1.987148,52.57787],[-1.989059,52.576825],[-1.992268,52.574713],[-1.994441,52.574505],[-1.994893,52.574442],[-1.995553,52.574226],[-1.996065,52.573824],[-1.996376,52.57366],[-1.996714,52.573514],[-1.997345,52.573305],[-1.997653,52.573311],[-1.997977,52.573283],[-1.998209,52.5733],[-1.998691,52.573289],[-2.000599,52.573758],[-2.00053,52.572615],[-2.000573,52.572328],[-2.000615,52.572043],[-2.000698,52.571474],[-2.001144,52.57086],[-2.001355,52.570094],[-2.001239,52.569361],[-2.001046,52.568972],[-2.001362,52.568593],[-2.001401,52.568183],[-2.001988,52.567271],[-2.002698,52.566688],[-2.001634,52.566159],[-2.000602,52.566199],[-2.00001,52.56572],[-1.995272,52.564874],[-1.992008,52.564072],[-1.988775,52.563277],[-1.982513,52.561359],[-1.982165,52.561127],[-1.978827,52.559106],[-1.977274,52.558074],[-1.976637,52.557517],[-1.974859,52.556169],[-1.974432,52.555585],[-1.974309,52.55532],[-1.974076,52.555001],[-1.972134,52.553941],[-1.96881,52.55223],[-1.96402,52.5515],[-1.95589,52.55088],[-1.9546,52.55168],[-1.95361,52.55322],[-1.95303,52.55549],[-1.952628,52.558523],[-1.951783,52.561593],[-1.951327,52.565033],[-1.949105,52.565919],[-1.948021,52.565097],[-1.945095,52.563091],[-1.944323,52.562805],[-1.935253,52.564399],[-1.935784,52.564978],[-1.93615,52.565479],[-1.937406,52.565277],[-1.938002,52.565178],[-1.938553,52.565144],[-1.939101,52.565053],[-1.9394,52.565016],[-1.939989,52.56501],[-1.94034,52.564989],[-1.940448,52.564974],[-1.940637,52.564977],[-1.940785,52.564971],[-1.940928,52.564966],[-1.94104,52.56532],[-1.94089,52.56688],[-1.9407,52.5674],[-1.93992,52.56809],[-1.93892,52.56929],[-1.93887,52.56969],[-1.9375,52.56991],[-1.9369,52.57016],[-1.93643,52.57076],[-1.93604,52.57158],[-1.93651,52.57253],[-1.93698,52.573],[-1.93711,52.57364],[-1.9381,52.57472],[-1.93825,52.57519],[-1.93806,52.57588],[-1.93861,52.57618],[-1.9375,52.57709],[-1.93591,52.57785],[-1.93544,52.57831],[-1.93398,52.5787],[-1.93312,52.57917],[-1.93252,52.57965],[-1.93098,52.58012],[-1.93065,52.58042],[-1.93293,52.58098],[-1.93613,52.58132],[-1.93887,52.58136],[-1.9402,52.58111],[-1.94158,52.58056],[-1.94574,52.57837],[-1.94679,52.57828],[-1.94808,52.5784],[-1.95127,52.57885],[-1.95291,52.57888],[-1.95647,52.57874],[-1.95666,52.57888],[-1.96039,52.57966],[-1.96312,52.58003],[-1.96569,52.57997],[-1.96769,52.57982],[-1.969158,52.579185]],[[-1.96831,52.57918],[-1.968881,52.579183],[-1.96831,52.57919],[-1.96831,52.57918]]]},"properties":{"code":"M91619","name":"BROADWAY MEDICAL CENTRE","icb":"QUA"}}]}