{"type":"FeatureCollection","features":[{"type":"Feature","geometry":{"type":"Polygon","coordinates":[[[-2.078382,52.563161],[-2.066533,52.565261],[-2.054712,52.570678],[-2.044006,52.577491],[-2.03542,52.581925],[-2.026851,52.582862],[-2.01679,52.58513],[-2.015901,52.593754],[-2.020004,52.604616],[-2.028293,52.613109],[-2.034504,52.618845],[-2.045868,52.626336],[-2.057897,52.634261],[-2.079847,52.670697],[-2.102332,52.670716],[-2.118422,52.671114],[-2.126808,52.671023],[-2.138054,52.671299],[-2.162647,52.641365],[-2.164085,52.637052],[-2.166307,52.628715],[-2.162649,52.620735],[-2.161783,52.616798],[-2.170395,52.614847],[-2.186849,52.606322],[-2.194275,52.606322],[-2.192268,52.602729],[-2.189087,52.597035],[-2.188478,52.589847],[-2.201493,52.588406],[-2.204618,52.584942],[-2.204034,52.578078],[-2.20101,52.575291],[-2.195724,52.573498],[-2.18435,52.569638],[-2.183401,52.558405],[-2.178026,52.548768],[-2.160723,52.551851],[-2.145546,52.551847],[-2.138726,52.559399],[-2.136762,52.562379],[-2.130494,52.560845],[-2.120078,52.561132],[-2.101601,52.560674],[-2.086211,52.560671],[-2.078382,52.563161]]]},"properties":{"code":"M92040","name":"MAYFIELD MEDICAL PRACTICE","icb":"QUA"}}]}