{"type":"FeatureCollection","features":[{"type":"Feature","geometry":{"type":"Polygon","coordinates":[[[-2.117969,52.586839],[-2.114975,52.586663],[-2.105792,52.59073],[-2.10268,52.591447],[-2.077205,52.585953],[-2.062737,52.597593],[-2.056385,52.59788],[-2.053113,52.604943],[-2.047985,52.609608],[-2.048006,52.610892],[-2.046622,52.612494],[-2.046869,52.614494],[-2.04733,52.615419],[-2.047126,52.616253],[-2.047244,52.616742],[-2.049422,52.617712],[-2.049851,52.618292],[-2.049626,52.61878],[-2.048414,52.618937],[-2.047158,52.618272],[-2.045914,52.618318],[-2.04747,52.621438],[-2.052115,52.622545],[-2.064089,52.620813],[-2.064282,52.619634],[-2.068777,52.61811],[-2.067393,52.613765],[-2.067361,52.612084],[-2.070708,52.612866],[-2.080954,52.611941],[-2.081856,52.612566],[-2.083089,52.612664],[-2.084291,52.613217],[-2.088507,52.619829],[-2.093164,52.619829],[-2.094762,52.620715],[-2.095857,52.622207],[-2.096393,52.622675],[-2.097273,52.623229],[-2.097927,52.623099],[-2.09915,52.622376],[-2.106178,52.626642],[-2.106189,52.626857],[-2.108817,52.628465],[-2.108903,52.628778],[-2.115887,52.629644],[-2.118173,52.629422],[-2.118902,52.628973],[-2.119278,52.629038],[-2.120426,52.628797],[-2.120812,52.62797],[-2.123945,52.62771],[-2.125329,52.627019],[-2.126799,52.627514],[-2.132238,52.613784],[-2.131251,52.611237],[-2.131315,52.609745],[-2.129953,52.605882],[-2.130532,52.60323],[-2.12962,52.599098],[-2.125071,52.594582],[-2.122958,52.591708],[-2.121885,52.589016],[-2.117969,52.586839]]]},"properties":{"code":"M92013","name":"DR SINHA & TAHIR","icb":"QUA"}}]}