{"type":"FeatureCollection","features":[{"type":"Feature","geometry":{"type":"Polygon","coordinates":[[[-2.20109,52.57944],[-2.19864,52.58003],[-2.199377,52.581623],[-2.199326,52.581781],[-2.199151,52.58187],[-2.19769,52.582028],[-2.19523,52.58187],[-2.19424,52.58203],[-2.192327,52.582529],[-2.19119,52.58252],[-2.187743,52.583857],[-2.1813,52.58382],[-2.17961,52.58412],[-2.174289,52.586687],[-2.174071,52.586677],[-2.173408,52.58644],[-2.173286,52.586327],[-2.17328,52.58622],[-2.170643,52.586835],[-2.16811,52.586161],[-2.166802,52.585739],[-2.164686,52.585844],[-2.162934,52.586112],[-2.161436,52.586473],[-2.160613,52.586419],[-2.159894,52.586464],[-2.159942,52.58642],[-2.159825,52.586368],[-2.159936,52.586324],[-2.15978,52.5863],[-2.159742,52.586901],[-2.15961,52.587031],[-2.159434,52.587077],[-2.15748,52.58725],[-2.15675,52.58778],[-2.157219,52.587956],[-2.157318,52.588107],[-2.156432,52.591733],[-2.15341,52.59269],[-2.15012,52.59403],[-2.149022,52.595807],[-2.14757,52.59664],[-2.149358,52.597388],[-2.154578,52.600805],[-2.154676,52.600972],[-2.154591,52.601102],[-2.152635,52.602526],[-2.150618,52.603868],[-2.14714,52.60559],[-2.1454,52.60778],[-2.14547,52.61055],[-2.151899,52.611911],[-2.16055,52.61492],[-2.162014,52.614939],[-2.16452,52.61588],[-2.16791,52.61509],[-2.17113,52.61428],[-2.169671,52.613102],[-2.169616,52.612981],[-2.169677,52.61286],[-2.17072,52.61231],[-2.174093,52.609292],[-2.17767,52.60756],[-2.17941,52.60602],[-2.181043,52.604279],[-2.181194,52.604191],[-2.181536,52.604192],[-2.188113,52.606318],[-2.188262,52.606453],[-2.1884,52.60733],[-2.19038,52.60724],[-2.19214,52.60689],[-2.19319,52.60638],[-2.19377,52.60595],[-2.19357,52.60487],[-2.19285,52.60405],[-2.191115,52.602329],[-2.18961,52.59799],[-2.189046,52.596786],[-2.188789,52.595795],[-2.188453,52.594018],[-2.1886,52.59219],[-2.188412,52.590647],[-2.189046,52.588923],[-2.189129,52.588824],[-2.18928,52.588761],[-2.19315,52.58871],[-2.197153,52.588112],[-2.197422,52.588213],[-2.19789,52.58888],[-2.20066,52.58831],[-2.199967,52.587192],[-2.199972,52.58707],[-2.200113,52.586952],[-2.20321,52.58661],[-2.20321,52.58648],[-2.20211,52.585773],[-2.201308,52.585067],[-2.200551,52.584245],[-2.20057,52.584121],[-2.200731,52.584008],[-2.20321,52.58355],[-2.20323,52.58338],[-2.20203,52.58207],[-2.20158,52.58174],[-2.201342,52.581687],[-2.201232,52.581591],[-2.201233,52.581437],[-2.201398,52.581319],[-2.20274,52.58103],[-2.20261,52.58067],[-2.20194,52.57957],[-2.20109,52.57944]]]},"properties":{"code":"M92010","name":"TETTENHALL MEDICAL PRACTICE","icb":"QUA"}}]}