{"type":"FeatureCollection","features":[{"type":"Feature","geometry":{"type":"Polygon","coordinates":[[[-2.211883,52.591716],[-2.187987,52.594498],[-2.183258,52.60311],[-2.190838,52.606215],[-2.175594,52.602194],[-2.169192,52.59957],[-2.16867,52.60015],[-2.168636,52.600528],[-2.166224,52.603207],[-2.165821,52.603856],[-2.164401,52.604489],[-2.160643,52.603664],[-2.152687,52.605601],[-2.14482,52.6081],[-2.13006,52.60445],[-2.12843,52.6043],[-2.128,52.60529],[-2.12783,52.60612],[-2.12654,52.60685],[-2.12534,52.60847],[-2.115525,52.603112],[-2.113473,52.609076],[-2.110906,52.609244],[-2.105944,52.612653],[-2.098865,52.614898],[-2.097209,52.616882],[-2.095789,52.618455],[-2.099825,52.622645],[-2.10577,52.62676],[-2.10526,52.62749],[-2.10929,52.63744],[-2.11281,52.63765],[-2.12431,52.63759],[-2.12723,52.63629],[-2.123966,52.638532],[-2.126026,52.640668],[-2.135038,52.642647],[-2.14319,52.63733],[-2.14474,52.63025],[-2.15916,52.63098],[-2.16516,52.62952],[-2.187824,52.633896],[-2.201214,52.631708],[-2.203445,52.627645],[-2.202759,52.622643],[-2.200184,52.618683],[-2.204958,52.609986],[-2.212048,52.602103],[-2.211883,52.591716]]]},"properties":{"code":"M92609","name":"ASHFIELD ROAD SURGERY","icb":"QUA"}}]}