{"type":"FeatureCollection","features":[{"type":"Feature","geometry":{"type":"Polygon","coordinates":[[[-2.0753,52.584017],[-2.082023,52.583516],[-2.085643,52.581766],[-2.098351,52.573463],[-2.101302,52.563598],[-2.101651,52.559903],[-2.101595,52.557397],[-2.101105,52.555334],[-2.098338,52.552974],[-2.095875,52.549972],[-2.094765,52.547877],[-2.094213,52.548372],[-2.088378,52.550098],[-2.079818,52.548781],[-2.067398,52.548091],[-2.060076,52.547683],[-2.054393,52.549059],[-2.052984,52.560334],[-2.050403,52.560865],[-2.053832,52.564949],[-2.054111,52.566127],[-2.054136,52.567309],[-2.054186,52.569673],[-2.054142,52.572018],[-2.054135,52.572339],[-2.054127,52.572785],[-2.060534,52.574042],[-2.056159,52.577313],[-2.058436,52.57827],[-2.068005,52.582974],[-2.0753,52.584017]]]},"properties":{"code":"M92649","name":"DR MUDIGONDA","icb":"QUA"}}]}