{"type":"FeatureCollection","features":[{"type":"Feature","geometry":{"type":"Polygon","coordinates":[[[-2.993092,53.269895],[-2.983304,53.296222],[-2.986931,53.299417],[-2.990528,53.304124],[-2.994126,53.306672],[-3.000834,53.307907],[-3.01013,53.313051],[-3.01247,53.320135],[-3.018247,53.326929],[-3.031444,53.331462],[-3.024608,53.33856],[-3.03686,53.33856],[-3.049134,53.337012],[-3.060566,53.332373],[-3.073155,53.330611],[-3.088356,53.320456],[-3.098581,53.312314],[-3.111021,53.30531],[-3.061489,53.262486],[-3.008648,53.249341],[-2.999961,53.249341],[-2.979406,53.261845],[-2.993092,53.269895]]]},"properties":{"code":"N81060","name":"NESTON SURGERY","icb":"QYG"}}]}