{"type":"FeatureCollection","features":[{"type":"Feature","geometry":{"type":"MultiPolygon","coordinates":[[[[-2.64159,53.38005],[-2.640956,53.379792],[-2.63972,53.37903],[-2.63808,53.380266],[-2.636342,53.38125],[-2.636052,53.381253],[-2.635393,53.380893],[-2.63505,53.38036],[-2.63397,53.37934],[-2.63316,53.37951],[-2.632909,53.380222],[-2.632632,53.380323],[-2.63157,53.38015],[-2.63062,53.38054],[-2.630268,53.381242],[-2.629942,53.381568],[-2.62982,53.381621],[-2.629516,53.381665],[-2.62927,53.38159],[-2.62887,53.38102],[-2.62831,53.38067],[-2.62706,53.38085],[-2.62625,53.38154],[-2.625899,53.382416],[-2.62505,53.38284],[-2.625384,53.384127],[-2.624925,53.385172],[-2.623888,53.385799],[-2.62178,53.38625],[-2.61861,53.38712],[-2.61792,53.38901],[-2.617903,53.389922],[-2.617324,53.390684],[-2.61686,53.39115],[-2.61666,53.39171],[-2.6169,53.39349],[-2.617707,53.396081],[-2.617745,53.397014],[-2.617313,53.39813],[-2.61552,53.40055],[-2.619801,53.40059],[-2.6209,53.40095],[-2.62393,53.40122],[-2.62841,53.40068],[-2.62854,53.40026],[-2.62791,53.39956],[-2.625728,53.398066],[-2.625596,53.395406],[-2.625801,53.395272],[-2.62706,53.39513],[-2.631572,53.39446],[-2.636256,53.393829],[-2.65049,53.39249],[-2.65491,53.39137],[-2.64773,53.390512],[-2.643928,53.389514],[-2.643808,53.389364],[-2.644356,53.38815],[-2.64509,53.38722],[-2.64536,53.38658],[-2.643141,53.383755],[-2.64277,53.3823],[-2.642063,53.381507],[-2.64213,53.38077],[-2.64159,53.38005]]],[[[-2.59844,53.33497],[-2.597114,53.335492],[-2.595035,53.336178],[-2.592942,53.336709],[-2.588611,53.337692],[-2.58349,53.33859],[-2.579282,53.339521],[-2.578676,53.339621],[-2.57744,53.33971],[-2.576247,53.339855],[-2.57511,53.33973],[-2.57421,53.33969],[-2.57242,53.340106],[-2.57089,53.3402],[-2.568357,53.340696],[-2.56677,53.34086],[-2.56603,53.34105],[-2.564759,53.341674],[-2.562475,53.342512],[-2.56001,53.34328],[-2.55905,53.3437],[-2.55808,53.34438],[-2.55657,53.345582],[-2.556184,53.345796],[-2.554864,53.346191],[-2.55316,53.34653],[-2.550609,53.347463],[-2.54969,53.34765],[-2.54869,53.34797],[-2.54691,53.34868],[-2.54616,53.3491],[-2.54576,53.34951],[-2.54515,53.35042],[-2.545875,53.350879],[-2.546112,53.351189],[-2.54658,53.3524],[-2.54692,53.35299],[-2.54747,53.35371],[-2.54972,53.35566],[-2.55159,53.3562],[-2.55271,53.35639],[-2.555651,53.356676],[-2.557382,53.357134],[-2.557497,53.357224],[-2.557575,53.357548],[-2.557051,53.359438],[-2.5566,53.36059],[-2.5566,53.36079],[-2.55688,53.36225],[-2.557957,53.363329],[-2.558031,53.363522],[-2.55801,53.36419],[-2.55833,53.36435],[-2.55855,53.36435],[-2.56003,53.36423],[-2.561266,53.363983],[-2.561534,53.364038],[-2.562716,53.365321],[-2.5627,53.36608],[-2.56308,53.36633],[-2.564015,53.366713],[-2.564458,53.367002],[-2.56521,53.36773],[-2.56642,53.36866],[-2.56691,53.36883],[-2.568253,53.369054],[-2.568554,53.369144],[-2.568765,53.36927],[-2.5695,53.37033],[-2.570018,53.370657],[-2.569979,53.370866],[-2.56926,53.37115],[-2.568807,53.373049],[-2.56769,53.37416],[-2.567356,53.374695],[-2.56656,53.37565],[-2.5664,53.37598],[-2.56643,53.37623],[-2.5675,53.37793],[-2.570043,53.37788],[-2.570389,53.377974],[-2.570642,53.37821],[-2.57063,53.37852],[-2.57089,53.37938],[-2.57089,53.380242],[-2.570653,53.380694],[-2.57032,53.38113],[-2.57066,53.38135],[-2.57157,53.38177],[-2.572823,53.382046],[-2.57342,53.38228],[-2.57538,53.38287],[-2.57648,53.38317],[-2.57704,53.38329],[-2.577605,53.383353],[-2.58089,53.3841],[-2.582,53.38428],[-2.58319,53.38437],[-2.58588,53.38451],[-2.586187,53.384471],[-2.586749,53.384489],[-2.588071,53.384733],[-2.589292,53.385088],[-2.590042,53.385357],[-2.590139,53.385481],[-2.590093,53.385659],[-2.58978,53.38618],[-2.59001,53.38658],[-2.59041,53.38664],[-2.59163,53.38612],[-2.591217,53.385618],[-2.591071,53.385281],[-2.592092,53.385752],[-2.593575,53.38498],[-2.597699,53.38538],[-2.599047,53.385106],[-2.59976,53.381369],[-2.602251,53.376879],[-2.603717,53.375009],[-2.604174,53.374595],[-2.60447,53.3744],[-2.60494,53.37402],[-2.6026,53.37106],[-2.60108,53.3701],[-2.598381,53.368594],[-2.598416,53.368373],[-2.59946,53.36798],[-2.60067,53.36735],[-2.601496,53.3665],[-2.60662,53.36313],[-2.60765,53.36227],[-2.60817,53.36172],[-2.608272,53.361154],[-2.609052,53.36007],[-2.611466,53.358083],[-2.61286,53.35709],[-2.61428,53.35595],[-2.612849,53.355672],[-2.61049,53.35476],[-2.60691,53.35416],[-2.604192,53.354418],[-2.603988,53.354363],[-2.60273,53.35319],[-2.599044,53.350295],[-2.599005,53.350217],[-2.59968,53.344103],[-2.6001,53.3419],[-2.60026,53.33941],[-2.59844,53.33497]]]]},"properties":{"code":"N81028","name":"CAUSEWAY MEDICAL CENTRE","icb":"QYG"}}]}