{"type":"FeatureCollection","features":[{"type":"Feature","geometry":{"type":"Polygon","coordinates":[[[-2.657533,53.28022],[-2.657491,53.280222],[-2.657448,53.280221],[-2.657405,53.280218],[-2.657364,53.280211],[-2.657324,53.280202],[-2.657286,53.28019],[-2.657251,53.280176],[-2.657218,53.280159],[-2.648512,53.27514],[-2.648485,53.275123],[-2.648461,53.275104],[-2.648441,53.275083],[-2.648424,53.275062],[-2.648411,53.275039],[-2.648402,53.275016],[-2.648398,53.274992],[-2.648397,53.274969],[-2.649759,53.256328],[-2.649766,53.256296],[-2.64978,53.256264],[-2.649802,53.256234],[-2.64983,53.256206],[-2.649866,53.256181],[-2.649907,53.256159],[-2.649952,53.256142],[-2.650002,53.256128],[-2.666235,53.252481],[-2.666245,53.252479],[-2.6762,53.25043],[-2.66762,53.24241],[-2.657668,53.243212],[-2.657633,53.243214],[-2.657598,53.243214],[-2.657563,53.243211],[-2.657528,53.243207],[-2.657494,53.243201],[-2.657462,53.243193],[-2.65743,53.243184],[-2.657401,53.243172],[-2.657373,53.243159],[-2.657347,53.243144],[-2.657324,53.243129],[-2.657304,53.243111],[-2.657286,53.243093],[-2.657271,53.243074],[-2.65726,53.243054],[-2.657251,53.243033],[-2.655324,53.237263],[-2.655319,53.237243],[-2.655317,53.237223],[-2.655318,53.237203],[-2.655322,53.237183],[-2.655329,53.237163],[-2.655339,53.237143],[-2.655351,53.237125],[-2.655367,53.237107],[-2.655385,53.23709],[-2.655405,53.237074],[-2.655428,53.237059],[-2.655453,53.237045],[-2.65548,53.237033],[-2.655509,53.237023],[-2.655539,53.237014],[-2.65557,53.237006],[-2.66624,53.23481],[-2.656639,53.216737],[-2.656626,53.216702],[-2.6556,53.21262],[-2.65526,53.21261],[-2.655099,53.212798],[-2.655078,53.212819],[-2.655054,53.212839],[-2.65459,53.213173],[-2.654657,53.213478],[-2.654661,53.213508],[-2.654657,53.213539],[-2.654647,53.213568],[-2.65463,53.213597],[-2.654606,53.213624],[-2.654577,53.213649],[-2.654543,53.213671],[-2.654504,53.21369],[-2.654461,53.213706],[-2.654414,53.213719],[-2.654366,53.213727],[-2.654316,53.213732],[-2.654265,53.213732],[-2.654215,53.213728],[-2.654166,53.21372],[-2.654119,53.213709],[-2.65389,53.21364],[-2.627192,53.226142],[-2.62715,53.226159],[-2.627105,53.226172],[-2.627057,53.226182],[-2.627007,53.226188],[-2.625295,53.226315],[-2.619567,53.227417],[-2.619533,53.227422],[-2.618033,53.22762],[-2.613049,53.229055],[-2.613011,53.229064],[-2.607229,53.230282],[-2.607189,53.230289],[-2.607149,53.230293],[-2.60343,53.230551],[-2.603381,53.230553],[-2.603332,53.23055],[-2.603284,53.230544],[-2.603238,53.230534],[-2.603194,53.23052],[-2.603153,53.230503],[-2.603117,53.230483],[-2.603085,53.230461],[-2.603059,53.230436],[-2.603038,53.230409],[-2.603023,53.230381],[-2.603015,53.230351],[-2.603013,53.230322],[-2.603018,53.230292],[-2.603029,53.230263],[-2.603046,53.230236],[-2.603022,53.230213],[-2.603003,53.230189],[-2.602989,53.230163],[-2.602981,53.230137],[-2.602977,53.23011],[-2.602979,53.230083],[-2.602986,53.230056],[-2.602999,53.23003],[-2.603017,53.230006],[-2.603039,53.229982],[-2.603066,53.229961],[-2.603097,53.229941],[-2.603131,53.229924],[-2.603169,53.22991],[-2.60321,53.229898],[-2.603252,53.229889],[-2.603406,53.229864],[-2.60273,53.22993],[-2.602708,53.229935],[-2.602665,53.229942],[-2.602621,53.229946],[-2.602576,53.229947],[-2.602531,53.229945],[-2.602487,53.229939],[-2.602445,53.229931],[-2.602404,53.229919],[-2.602366,53.229905],[-2.602331,53.229888],[-2.6023,53.229869],[-2.602273,53.229847],[-2.60225,53.229824],[-2.602233,53.229799],[-2.60222,53.229773],[-2.602212,53.229747],[-2.60221,53.22972],[-2.5866,53.23214],[-2.587558,53.232384],[-2.587614,53.232401],[-2.587664,53.232424],[-2.587707,53.232452],[-2.587742,53.232484],[-2.587767,53.232519],[-2.587782,53.232556],[-2.587787,53.232593],[-2.587781,53.232631],[-2.587764,53.232668],[-2.587737,53.232702],[-2.587701,53.232733],[-2.587657,53.23276],[-2.587606,53.232783],[-2.587549,53.2328],[-2.587489,53.23281],[-2.587426,53.232815],[-2.58539,53.23286],[-2.583915,53.23354],[-2.583882,53.233554],[-2.583846,53.233565],[-2.583809,53.233574],[-2.58377,53.233581],[-2.58076,53.23399],[-2.572868,53.236238],[-2.572852,53.236242],[-2.565537,53.238076],[-2.565479,53.238087],[-2.565418,53.238093],[-2.560171,53.238309],[-2.560129,53.238309],[-2.537216,53.237684],[-2.537173,53.237681],[-2.537132,53.237676],[-2.53235,53.23687],[-2.51862,53.2383],[-2.510704,53.240648],[-2.510667,53.240658],[-2.510628,53.240665],[-2.510588,53.240669],[-2.510547,53.240671],[-2.50334,53.24077],[-2.48855,53.247808],[-2.48634,53.26552],[-2.494902,53.267464],[-2.494956,53.267479],[-2.506036,53.271293],[-2.506083,53.271312],[-2.506124,53.271335],[-2.506159,53.271361],[-2.506187,53.271391],[-2.506208,53.271422],[-2.50622,53.271455],[-2.506224,53.271489],[-2.506219,53.271523],[-2.504124,53.279426],[-2.504115,53.279452],[-2.5041,53.279477],[-2.50408,53.279502],[-2.504056,53.279524],[-2.49716,53.28513],[-2.495703,53.302434],[-2.495695,53.302469],[-2.495679,53.302503],[-2.49016,53.31113],[-2.48894,53.31383],[-2.48875,53.31652],[-2.492979,53.315193],[-2.493014,53.315184],[-2.493051,53.315176],[-2.493088,53.315171],[-2.493127,53.315168],[-2.493166,53.315168],[-2.493204,53.31517],[-2.493242,53.315174],[-2.49328,53.315181],[-2.493315,53.31519],[-2.493349,53.315201],[-2.493381,53.315214],[-2.493411,53.315229],[-2.493438,53.315246],[-2.493461,53.315264],[-2.493482,53.315284],[-2.493499,53.315305],[-2.49724,53.32062],[-2.506648,53.325663],[-2.506682,53.325684],[-2.506712,53.325708],[-2.506736,53.325733],[-2.506754,53.325761],[-2.506767,53.325789],[-2.506772,53.325819],[-2.506772,53.325848],[-2.506765,53.325877],[-2.506084,53.327789],[-2.506074,53.327811],[-2.50008,53.33907],[-2.50214,53.34153],[-2.52686,53.33702],[-2.5423,53.33333],[-2.560714,53.321928],[-2.560745,53.321911],[-2.560779,53.321896],[-2.560816,53.321883],[-2.560854,53.321873],[-2.560895,53.321866],[-2.560936,53.321861],[-2.560978,53.32186],[-2.561021,53.321861],[-2.57835,53.32288],[-2.58728,53.32267],[-2.591723,53.318376],[-2.591761,53.318346],[-2.601385,53.311814],[-2.601415,53.311796],[-2.601448,53.31178],[-2.601483,53.311766],[-2.601522,53.311755],[-2.601562,53.311747],[-2.601603,53.311741],[-2.601645,53.311738],[-2.601687,53.311738],[-2.601729,53.311741],[-2.601771,53.311747],[-2.601811,53.311755],[-2.601849,53.311766],[-2.601884,53.31178],[-2.601917,53.311796],[-2.601947,53.311814],[-2.601974,53.311833],[-2.61131,53.3198],[-2.61784,53.31877],[-2.619704,53.314101],[-2.619713,53.314081],[-2.619726,53.314062],[-2.619742,53.314043],[-2.61976,53.314025],[-2.624627,53.309813],[-2.624666,53.309785],[-2.624713,53.30976],[-2.624765,53.309741],[-2.624823,53.309727],[-2.631149,53.308535],[-2.63119,53.308529],[-2.631231,53.308526],[-2.631272,53.308525],[-2.631314,53.308527],[-2.64522,53.3097],[-2.646059,53.308191],[-2.646086,53.308155],[-2.646122,53.308122],[-2.646168,53.308093],[-2.646221,53.30807],[-2.64628,53.308053],[-2.646344,53.308042],[-2.646409,53.308038],[-2.646475,53.30804],[-2.674766,53.310775],[-2.674826,53.310784],[-2.674884,53.310799],[-2.674936,53.310819],[-2.674982,53.310845],[-2.675021,53.310874],[-2.67505,53.310907],[-2.67507,53.310943],[-2.67508,53.31098],[-2.67689,53.31169],[-2.67689,53.311214],[-2.676892,53.31119],[-2.676899,53.311166],[-2.67809,53.3079],[-2.67792,53.30616],[-2.677103,53.30322],[-2.677099,53.3032],[-2.676715,53.300051],[-2.676714,53.300031],[-2.676716,53.30001],[-2.676721,53.29999],[-2.67673,53.299971],[-2.67758,53.29826],[-2.675863,53.290064],[-2.67586,53.290036],[-2.67586,53.28779],[-2.67551,53.28656],[-2.67303,53.28138],[-2.66753,53.27933],[-2.657533,53.28022]]]},"properties":{"code":"N81067","name":"OAKWOOD MEDICAL CENTRE","icb":"QYG"}}]}