{"type":"FeatureCollection","features":[{"type":"Feature","geometry":{"type":"Polygon","coordinates":[[[-2.229195,53.326621],[-2.229109,53.327139],[-2.226534,53.326369],[-2.224345,53.325555],[-2.223293,53.320732],[-2.215977,53.320937],[-2.213917,53.32099],[-2.213187,53.322838],[-2.213525,53.324835],[-2.213483,53.324915],[-2.212228,53.325846],[-2.212222,53.325936],[-2.208677,53.328043],[-2.20853,53.328077],[-2.20761,53.32805],[-2.20336,53.32852],[-2.199969,53.329657],[-2.19645,53.32977],[-2.193348,53.330598],[-2.193105,53.330565],[-2.19229,53.33],[-2.187797,53.328757],[-2.18425,53.326737],[-2.18139,53.32241],[-2.17581,53.3218],[-2.174793,53.323988],[-2.174399,53.32406],[-2.171095,53.322363],[-2.1686,53.32088],[-2.16431,53.32026],[-2.16371,53.32134],[-2.174341,53.324588],[-2.174408,53.324805],[-2.16971,53.32795],[-2.17418,53.32913],[-2.178426,53.325797],[-2.17872,53.325768],[-2.18454,53.328092],[-2.18868,53.33087],[-2.19263,53.33123],[-2.192978,53.331022],[-2.193312,53.331033],[-2.196851,53.333655],[-2.196813,53.333844],[-2.19658,53.33395],[-2.200013,53.342302],[-2.191987,53.343686],[-2.18684,53.343327],[-2.184693,53.343481],[-2.181516,53.344531],[-2.181044,53.345223],[-2.183446,53.346837],[-2.180057,53.347452],[-2.179241,53.348528],[-2.182762,53.350244],[-2.186752,53.350731],[-2.188812,53.350987],[-2.192845,53.351218],[-2.19512,53.350782],[-2.19615,53.352476],[-2.201342,53.353092],[-2.201685,53.350837],[-2.201385,53.34789],[-2.199969,53.346019],[-2.199583,53.343942],[-2.200871,53.343941],[-2.20289,53.34438],[-2.203027,53.344576],[-2.20336,53.344858],[-2.20395,53.345383],[-2.20425,53.345729],[-2.204475,53.345863],[-2.204862,53.346234],[-2.205956,53.346183],[-2.20739,53.34689],[-2.210889,53.346787],[-2.211025,53.346815],[-2.212565,53.347603],[-2.212632,53.347721],[-2.21031,53.35404],[-2.210414,53.354328],[-2.210266,53.354479],[-2.20988,53.35455],[-2.21023,53.35731],[-2.211,53.35752],[-2.212167,53.357264],[-2.21234,53.357275],[-2.212607,53.35739],[-2.215762,53.356981],[-2.217135,53.356776],[-2.218723,53.356954],[-2.219452,53.358569],[-2.22001,53.359747],[-2.218755,53.361091],[-2.217983,53.361738],[-2.217072,53.362355],[-2.215559,53.362043],[-2.214931,53.362621],[-2.215844,53.363818],[-2.21568,53.36395],[-2.215882,53.366407],[-2.215724,53.366536],[-2.21263,53.36702],[-2.21216,53.36853],[-2.212788,53.369574],[-2.212718,53.369715],[-2.2116,53.37022],[-2.21263,53.37273],[-2.2164,53.37273],[-2.21653,53.37276],[-2.21812,53.37263],[-2.22229,53.37191],[-2.22791,53.37058],[-2.230507,53.369737],[-2.23409,53.37009],[-2.235696,53.370016],[-2.236603,53.370203],[-2.24031,53.3713],[-2.241808,53.369575],[-2.242089,53.369077],[-2.24224,53.36899],[-2.242303,53.367685],[-2.244137,53.360342],[-2.24426,53.360248],[-2.253258,53.35804],[-2.25387,53.35806],[-2.25533,53.35793],[-2.255439,53.357649],[-2.255556,53.357566],[-2.26009,53.35644],[-2.2613,53.35598],[-2.26112,53.35514],[-2.26001,53.35337],[-2.25857,53.352703],[-2.25792,53.351813],[-2.25795,53.35168],[-2.247314,53.34776],[-2.247229,53.347691],[-2.246316,53.34568],[-2.246426,53.345534],[-2.24748,53.34522],[-2.24563,53.34481],[-2.241901,53.345097],[-2.241753,53.345071],[-2.240626,53.344521],[-2.240559,53.344391],[-2.240243,53.342917],[-2.240476,53.341987],[-2.241053,53.341322],[-2.24337,53.338771],[-2.248866,53.334114],[-2.2509,53.332905],[-2.252425,53.331148],[-2.25258,53.33108],[-2.250352,53.329566],[-2.249065,53.328722],[-2.247649,53.327569],[-2.245632,53.326928],[-2.244044,53.326902],[-2.243099,53.32701],[-2.241855,53.326952],[-2.240525,53.326753],[-2.239538,53.326728],[-2.23752,53.326621],[-2.235118,53.326267],[-2.233186,53.325875],[-2.231598,53.325879],[-2.230612,53.325807],[-2.22984,53.325936],[-2.229195,53.326621]]]},"properties":{"code":"N81070","name":"HANDFORTH HEALTH CENTRE","icb":"QYG"}}]}