{"type":"FeatureCollection","features":[{"type":"Feature","geometry":{"type":"Polygon","coordinates":[[[-2.70109,53.30585],[-2.686055,53.308798],[-2.683097,53.308891],[-2.6829,53.30883],[-2.682642,53.308904],[-2.68169,53.30893],[-2.681699,53.309167],[-2.681597,53.309275],[-2.67766,53.31062],[-2.677748,53.31457],[-2.677588,53.314694],[-2.67225,53.31549],[-2.67388,53.3178],[-2.67689,53.31816],[-2.67817,53.31713],[-2.677789,53.314856],[-2.678121,53.314704],[-2.700051,53.319648],[-2.705366,53.32125],[-2.705436,53.321467],[-2.70504,53.323491],[-2.703753,53.325439],[-2.701349,53.327285],[-2.699547,53.326516],[-2.698603,53.326106],[-2.697811,53.32662],[-2.697744,53.326003],[-2.697558,53.326648],[-2.69714,53.32652],[-2.692336,53.32467],[-2.69122,53.325491],[-2.690018,53.326413],[-2.687529,53.327285],[-2.685213,53.32749],[-2.683665,53.333795],[-2.690534,53.335383],[-2.692766,53.335973],[-2.693882,53.335793],[-2.694998,53.336562],[-2.697144,53.335742],[-2.699463,53.335486],[-2.700405,53.33523],[-2.700319,53.335896],[-2.70092,53.335691],[-2.701263,53.335537],[-2.701864,53.335845],[-2.701413,53.336428],[-2.70198,53.336501],[-2.702808,53.336152],[-2.703409,53.336716],[-2.703066,53.338202],[-2.70229,53.34051],[-2.705613,53.340927],[-2.705608,53.341295],[-2.70178,53.34174],[-2.70169,53.34451],[-2.72726,53.34379],[-2.739283,53.34425],[-2.74246,53.34451],[-2.74924,53.34117],[-2.7568,53.33533],[-2.747464,53.33642],[-2.747201,53.336307],[-2.746972,53.335312],[-2.747006,53.335229],[-2.75894,53.32513],[-2.7483,53.3159],[-2.746079,53.317494],[-2.745517,53.317266],[-2.747042,53.315576],[-2.747193,53.315515],[-2.74753,53.31549],[-2.74075,53.31283],[-2.739413,53.316002],[-2.739238,53.316094],[-2.716082,53.317778],[-2.715927,53.317748],[-2.6992,53.30872],[-2.69889,53.308728],[-2.698716,53.308401],[-2.69895,53.30831],[-2.70109,53.30585]]]},"properties":{"code":"N81057","name":"TOWER HOUSE PRACTICE","icb":"QYG"}}]}