{"type":"FeatureCollection","features":[{"type":"Feature","geometry":{"type":"Polygon","coordinates":[[[-2.693869,53.364845],[-2.684193,53.366792],[-2.67217,53.36953],[-2.672145,53.369613],[-2.67834,53.368203],[-2.66838,53.37065],[-2.66146,53.37402],[-2.65959,53.37482],[-2.65749,53.37547],[-2.65341,53.37688],[-2.64985,53.37865],[-2.64582,53.37976],[-2.63356,53.38333],[-2.63087,53.38351],[-2.62973,53.38308],[-2.627762,53.382824],[-2.626808,53.381882],[-2.62546,53.38165],[-2.62449,53.38201],[-2.6231,53.38206],[-2.62238,53.38199],[-2.62124,53.38109],[-2.61999,53.38033],[-2.61805,53.37946],[-2.61417,53.38336],[-2.61497,53.38397],[-2.61563,53.38595],[-2.623278,53.387127],[-2.622525,53.388326],[-2.623283,53.388304],[-2.624651,53.388324],[-2.626925,53.388358],[-2.626858,53.389954],[-2.626084,53.391413],[-2.625621,53.392756],[-2.625972,53.394085],[-2.62418,53.394034],[-2.624674,53.396123],[-2.627057,53.398294],[-2.630669,53.401506],[-2.630508,53.402652],[-2.630345,53.403211],[-2.629803,53.403755],[-2.635236,53.403021],[-2.640903,53.402979],[-2.642587,53.405027],[-2.643839,53.407141],[-2.6441,53.408355],[-2.644744,53.411476],[-2.646847,53.414494],[-2.648349,53.413701],[-2.649807,53.413803],[-2.65324,53.414571],[-2.655429,53.41452],[-2.661266,53.41411],[-2.664571,53.413701],[-2.673585,53.413113],[-2.67337,53.41012],[-2.67264,53.406257],[-2.671825,53.403162],[-2.671395,53.400526],[-2.671437,53.400174],[-2.67236,53.400014],[-2.67312,53.39968],[-2.673486,53.399343],[-2.673941,53.398484],[-2.67449,53.39818],[-2.6752,53.39706],[-2.67554,53.39607],[-2.67663,53.393587],[-2.67617,53.39165],[-2.67623,53.38749],[-2.67524,53.385285],[-2.674902,53.384264],[-2.674813,53.384116],[-2.674655,53.384058],[-2.674295,53.383346],[-2.674434,53.382627],[-2.672217,53.382565],[-2.671409,53.382441],[-2.672124,53.381319],[-2.672496,53.380973],[-2.672433,53.380735],[-2.672853,53.380065],[-2.677958,53.376303],[-2.680515,53.375721],[-2.684409,53.375858],[-2.69337,53.377019],[-2.697727,53.376712],[-2.697787,53.372443],[-2.696922,53.367854],[-2.693869,53.364845]]]},"properties":{"code":"N81020","name":"PENKETH HEALTH CENTRE","icb":"QYG"}}]}