{"type":"FeatureCollection","features":[{"type":"Feature","geometry":{"type":"Polygon","coordinates":[[[-2.59586,53.42181],[-2.59861,53.41874],[-2.59724,53.41178],[-2.59415,53.40585],[-2.59483,53.39705],[-2.58591,53.39295],[-2.58728,53.38927],[-2.59037,53.38497],[-2.59106,53.38251],[-2.58556,53.37841],[-2.58213,53.37391],[-2.5066,53.3907],[-2.51793,53.40421],[-2.53475,53.41137],[-2.55192,53.42283],[-2.55947,53.42488],[-2.56496,53.42365],[-2.59586,53.42181]]]},"properties":{"code":"N81007","name":"HOLES LANE MEDICAL LTD.","icb":"QYG"}}]}