{"type":"FeatureCollection","features":[{"type":"Feature","geometry":{"type":"Polygon","coordinates":[[[-2.71019,53.31057],[-2.692989,53.312828],[-2.67483,53.3116],[-2.64221,53.32677],[-2.644334,53.32793],[-2.64438,53.328078],[-2.6314,53.34358],[-2.617828,53.355777],[-2.617141,53.360694],[-2.646246,53.349732],[-2.617054,53.360797],[-2.623832,53.365201],[-2.68032,53.351371],[-2.6865,53.356187],[-2.698862,53.356699],[-2.711626,53.346927],[-2.71175,53.34689],[-2.74675,53.34492],[-2.757569,53.336511],[-2.76216,53.32785],[-2.76109,53.32657],[-2.760429,53.325875],[-2.760839,53.325633],[-2.76203,53.32605],[-2.75002,53.31601],[-2.74263,53.31303],[-2.73319,53.31211],[-2.72547,53.31324],[-2.72117,53.313442],[-2.742106,53.319569],[-2.71019,53.31057]]]},"properties":{"code":"N81019","name":"CASTLEFIELDS HEALTH CENTRE","icb":"QYG"}}]}