{"type":"FeatureCollection","features":[{"type":"Feature","geometry":{"type":"Polygon","coordinates":[[[-2.197829,53.308929],[-2.198512,53.295661],[-2.17722,53.29136],[-2.17072,53.27676],[-2.16701,53.27425],[-2.1392,53.27355],[-2.12826,53.26644],[-2.12109,53.26488],[-2.11869,53.26349],[-2.11779,53.26377],[-2.11694,53.26386],[-2.11523,53.2643],[-2.11422,53.26437],[-2.11238,53.2647],[-2.10972,53.26547],[-2.10653,53.26598],[-2.10505,53.2665],[-2.10365,53.26732],[-2.10229,53.26845],[-2.10045,53.26917],[-2.0992,53.27045],[-2.09496,53.27137],[-2.09086,53.27216],[-2.08968,53.27182],[-2.08749,53.2716],[-2.08578,53.27219],[-2.08161,53.27453],[-2.08043,53.27789],[-2.07843,53.27887],[-2.07695,53.27897],[-2.07633,53.27979],[-2.0752,53.28039],[-2.07398,53.2813],[-2.07292,53.28261],[-2.07148,53.28328],[-2.07032,53.28359],[-2.06766,53.28441],[-2.06406,53.28451],[-2.06182,53.28646],[-2.05822,53.28985],[-2.05786,53.29189],[-2.0544,53.2929],[-2.05195,53.2939],[-2.04981,53.29713],[-2.04559,53.29695],[-2.04292,53.29831],[-2.04067,53.30165],[-1.991518,53.313647],[-2.0046,53.339722],[-1.993394,53.36882],[-2.051448,53.368311],[-2.09233,53.374488],[-2.113209,53.376673],[-2.137185,53.362504],[-2.156867,53.358406],[-2.172544,53.354342],[-2.174373,53.34775],[-2.198967,53.329233],[-2.197829,53.308929]]]},"properties":{"code":"N81022","name":"MIDDLEWOOD PARTNERSHIP","icb":"QYG"}}]}