{"type":"FeatureCollection","features":[{"type":"Feature","geometry":{"type":"Polygon","coordinates":[[[-2.9203,53.11134],[-2.896658,53.118527],[-2.86091,53.12803],[-2.834637,53.137349],[-2.79808,53.14842],[-2.805062,53.160141],[-2.808948,53.169203],[-2.81181,53.1867],[-2.811917,53.187009],[-2.81181,53.18773],[-2.811958,53.187719],[-2.812197,53.187821],[-2.815923,53.198609],[-2.80907,53.22207],[-2.820193,53.224387],[-2.820329,53.224491],[-2.8204,53.22495],[-2.823009,53.224973],[-2.90794,53.24262],[-2.9083,53.242552],[-2.90863,53.24262],[-2.94777,53.23214],[-2.967,53.22556],[-2.967059,53.225197],[-2.967169,53.225101],[-2.96768,53.22495],[-2.968195,53.21821],[-2.972996,53.188644],[-2.973535,53.186147],[-2.974156,53.186127],[-2.97455,53.18711],[-2.983066,53.174195],[-2.98691,53.16983],[-2.973174,53.15868],[-2.96631,53.12659],[-2.9203,53.11134]]]},"properties":{"code":"N81082","name":"CITY WALLS MEDICAL CENTRE","icb":"QYG"}}]}