{"type":"FeatureCollection","features":[{"type":"Feature","geometry":{"type":"Polygon","coordinates":[[[-2.6571,53.20865],[-2.71801,53.243],[-2.74283,53.23788],[-2.79121,53.23645],[-2.82692,53.21693],[-2.83722,53.20871],[-2.83859,53.19585],[-2.84237,53.19441],[-2.84134,53.1905],[-2.84409,53.18027],[-2.84374,53.17582],[-2.84168,53.17137],[-2.85301,53.16262],[-2.84831,53.15525],[-2.86215,53.13573],[-2.84417,53.12664],[-2.82582,53.1136],[-2.81492,53.10708],[-2.80128,53.10056],[-2.76525,53.10334],[-2.72921,53.10777],[-2.70876,53.1076],[-2.69514,53.10242],[-2.66158,53.10505],[-2.62391,53.1057],[-2.61067,53.12437],[-2.57089,53.14821],[-2.58041,53.17929],[-2.58591,53.19966],[-2.6571,53.20865]]]},"properties":{"code":"N81018","name":"TARPORLEY HEALTH CENTRE","icb":"QYG"}}]}