{"type":"FeatureCollection","features":[{"type":"Feature","geometry":{"type":"Polygon","coordinates":[[[-2.596207,53.24077],[-2.622986,53.242003],[-2.624702,53.235633],[-2.620583,53.230906],[-2.604103,53.225563],[-2.564278,53.214668],[-2.487717,53.212818],[-2.468147,53.233784],[-2.422142,53.243441],[-2.446175,53.277121],[-2.467117,53.286358],[-2.486,53.294362],[-2.52068,53.29518],[-2.521706,53.281022],[-2.535439,53.268088],[-2.566338,53.249809],[-2.596207,53.24077]]]},"properties":{"code":"N81055","name":"WATLING STREET SURGERY","icb":"QYG"}}]}