{"type":"FeatureCollection","features":[{"type":"Feature","geometry":{"type":"Polygon","coordinates":[[[-2.45907,53.10241],[-2.46196,53.10233],[-2.46489,53.10209],[-2.46682,53.10177],[-2.46875,53.10138],[-2.47064,53.10086],[-2.47574,53.09976],[-2.47896,53.09813],[-2.48096,53.09705],[-2.48308,53.09627],[-2.48467,53.09622],[-2.48596,53.09668],[-2.4859,53.09598],[-2.48641,53.09527],[-2.48659,53.09419],[-2.48748,53.09272],[-2.48965,53.09138],[-2.49246,53.08834],[-2.50025,53.08358],[-2.50235,53.08249],[-2.50649,53.08045],[-2.51218,53.07798],[-2.51799,53.07389],[-2.51473,53.07011],[-2.51348,53.06952],[-2.51284,53.06884],[-2.51367,53.06741],[-2.51441,53.0658],[-2.50997,53.06474],[-2.50553,53.06387],[-2.50292,53.06341],[-2.5006,53.063312],[-2.498941,53.063019],[-2.493803,53.062909],[-2.49146,53.062158],[-2.489497,53.06149],[-2.48822,53.060334],[-2.48669,53.059612],[-2.486137,53.059503],[-2.483594,53.059779],[-2.480487,53.060549],[-2.477197,53.0606],[-2.475291,53.060145],[-2.475751,53.050417],[-2.476104,53.042955],[-2.47545,53.018631],[-2.46377,53.01959],[-2.4577,53.03016],[-2.45389,53.03394],[-2.451279,53.03448],[-2.448838,53.032378],[-2.446732,53.031022],[-2.444129,53.028001],[-2.441167,53.025316],[-2.433807,53.021178],[-2.43001,53.02265],[-2.422389,53.016185],[-2.417678,53.005531],[-2.417248,53.003632],[-2.418429,53.002352],[-2.417198,52.998672],[-2.416286,52.998159],[-2.414145,52.993884],[-2.41216,52.991578],[-2.410528,52.988318],[-2.409297,52.989187],[-2.408046,52.9897],[-2.406237,52.99064],[-2.404899,52.991748],[-2.405354,52.992595],[-2.405935,52.993674],[-2.405656,52.994283],[-2.40647,52.994668],[-2.407403,52.995752],[-2.404361,52.995848],[-2.402603,52.995284],[-2.399753,52.995327],[-2.397865,52.995373],[-2.396224,52.995425],[-2.391684,52.996247],[-2.390783,52.996071],[-2.389175,52.995647],[-2.389051,52.99633],[-2.388206,52.996181],[-2.386989,52.996653],[-2.385651,52.996798],[-2.384787,52.997513],[-2.38108,52.998536],[-2.379966,53.000477],[-2.38043,53.002527],[-2.380356,53.004101],[-2.380311,53.005053],[-2.380884,53.005814],[-2.382796,53.007721],[-2.381275,53.008544],[-2.379475,53.009412],[-2.378076,53.010398],[-2.37545,53.010683],[-2.37327,53.011863],[-2.373017,53.013125],[-2.371743,53.014389],[-2.381255,53.023877],[-2.384885,53.026215],[-2.380208,53.027504],[-2.381329,53.028622],[-2.382209,53.031249],[-2.384105,53.03139],[-2.386405,53.033231],[-2.385603,53.033894],[-2.384995,53.034187],[-2.38466,53.034915],[-2.385106,53.035272],[-2.384189,53.03655],[-2.383988,53.037758],[-2.383988,53.040059],[-2.384567,53.040522],[-2.384158,53.041412],[-2.383334,53.041992],[-2.382715,53.043341],[-2.383413,53.044918],[-2.379401,53.046163],[-2.374162,53.052305],[-2.36895,53.06092],[-2.37662,53.06353],[-2.38206,53.06814],[-2.390955,53.073135],[-2.392,53.072707],[-2.394486,53.072909],[-2.39667,53.072956],[-2.399687,53.071846],[-2.403884,53.072008],[-2.409622,53.071433],[-2.42291,53.0701],[-2.42755,53.07028],[-2.4351,53.08201],[-2.43695,53.08719],[-2.4382,53.08888],[-2.43951,53.09149],[-2.43951,53.09466],[-2.43752,53.09543],[-2.43721,53.09607],[-2.43725,53.09667],[-2.43759,53.09712],[-2.43866,53.09825],[-2.43977,53.10107],[-2.44345,53.10031],[-2.44534,53.10039],[-2.44705,53.10084],[-2.45315,53.10197],[-2.45907,53.10241]]]},"properties":{"code":"N81084","name":"ROPE GREEN MEDICAL CENTRE","icb":"QYG"}}]}