{"type":"FeatureCollection","features":[{"type":"Feature","geometry":{"type":"Polygon","coordinates":[[[-2.58817,53.36876],[-2.585177,53.368454],[-2.58213,53.369427],[-2.581186,53.370528],[-2.579456,53.370551],[-2.57114,53.37022],[-2.56462,53.37288],[-2.560752,53.373051],[-2.560287,53.373011],[-2.559967,53.373086],[-2.556004,53.373261],[-2.554965,53.373088],[-2.552476,53.373267],[-2.549043,53.37337],[-2.548347,53.3736],[-2.54608,53.3737],[-2.54248,53.375727],[-2.539172,53.376852],[-2.536871,53.378039],[-2.53338,53.37903],[-2.530713,53.379207],[-2.526298,53.379207],[-2.523221,53.379704],[-2.52102,53.37985],[-2.519952,53.380232],[-2.518058,53.380538],[-2.515728,53.381744],[-2.51244,53.38292],[-2.510818,53.382409],[-2.509646,53.381383],[-2.507205,53.381271],[-2.5066,53.38108],[-2.506528,53.38124],[-2.505527,53.381101],[-2.505081,53.384447],[-2.5042,53.3864],[-2.505535,53.388951],[-2.505698,53.390188],[-2.508702,53.396355],[-2.510571,53.398566],[-2.51106,53.3995],[-2.511937,53.400053],[-2.515783,53.403366],[-2.521706,53.406743],[-2.526611,53.408698],[-2.53837,53.414087],[-2.544537,53.418382],[-2.551797,53.423318],[-2.55501,53.4257],[-2.555448,53.425668],[-2.555652,53.425799],[-2.558145,53.425471],[-2.597408,53.422576],[-2.598524,53.418075],[-2.598469,53.417762],[-2.59895,53.41628],[-2.597715,53.413601],[-2.596893,53.409992],[-2.595153,53.407638],[-2.59449,53.39643],[-2.594201,53.396294],[-2.59419,53.396125],[-2.589495,53.394072],[-2.586383,53.392603],[-2.586301,53.392458],[-2.589634,53.38716],[-2.590027,53.386861],[-2.590074,53.38646],[-2.59037,53.38599],[-2.59827,53.37452],[-2.59621,53.3692],[-2.58817,53.36876]]]},"properties":{"code":"N81107","name":"MANCHESTER ROAD SURGERY","icb":"QYG"}}]}