{"type":"FeatureCollection","features":[{"type":"Feature","geometry":{"type":"Polygon","coordinates":[[[-2.53973,53.345428],[-2.50351,53.35055],[-2.47398,53.32964],[-2.44205,53.32288],[-2.41837,53.31201],[-2.411181,53.330641],[-2.403514,53.347302],[-2.390283,53.36292],[-2.386181,53.368969],[-2.385062,53.379437],[-2.401454,53.386148],[-2.408472,53.385479],[-2.414761,53.386809],[-2.412806,53.391867],[-2.418709,53.394283],[-2.436526,53.399748],[-2.445382,53.399751],[-2.449398,53.395015],[-2.454414,53.400526],[-2.458363,53.406564],[-2.468147,53.397763],[-2.50282,53.39019],[-2.58213,53.37329],[-2.57114,53.33456],[-2.53973,53.345428]]]},"properties":{"code":"N81108","name":"THE LAKESIDE SURGERY","icb":"QYG"}}]}