{"type":"FeatureCollection","features":[{"type":"Feature","geometry":{"type":"Polygon","coordinates":[[[-2.913555,53.165665],[-2.903652,53.16607],[-2.88168,53.161594],[-2.86726,53.167871],[-2.861853,53.17245],[-2.85224,53.165196],[-2.834816,53.150785],[-2.821341,53.169003],[-2.814817,53.173274],[-2.818937,53.181556],[-2.823915,53.18567],[-2.837906,53.185208],[-2.835846,53.187933],[-2.838764,53.192407],[-2.840052,53.195544],[-2.844,53.197755],[-2.845373,53.207266],[-2.824001,53.206701],[-2.830267,53.218574],[-2.824087,53.224946],[-2.831554,53.225974],[-2.844601,53.221401],[-2.854128,53.216621],[-2.880064,53.233068],[-2.879963,53.23327],[-2.900476,53.232499],[-2.906141,53.231883],[-2.907686,53.23065],[-2.909403,53.227233],[-2.907944,53.218214],[-2.909832,53.212766],[-2.926483,53.223302],[-2.928886,53.223919],[-2.93232,53.224432],[-2.935238,53.226385],[-2.939787,53.230033],[-2.942877,53.232756],[-2.945023,53.234554],[-2.951889,53.229211],[-2.95455,53.230239],[-2.959356,53.227156],[-2.955923,53.226539],[-2.965622,53.218574],[-2.9494,53.211276],[-2.937813,53.197909],[-2.935324,53.19611],[-2.929401,53.194413],[-2.922449,53.189425],[-2.920132,53.179035],[-2.926655,53.173171],[-2.927513,53.171524],[-2.94425,53.165247],[-2.913609,53.165556],[-2.913555,53.165665]]]},"properties":{"code":"N81102","name":"FOUNTAINS MEDICAL PRACTICE","icb":"QYG"}}]}