{"type":"FeatureCollection","features":[{"type":"Feature","geometry":{"type":"Polygon","coordinates":[[[-2.778509,53.335793],[-2.769585,53.345018],[-2.765196,53.347721],[-2.759738,53.349767],[-2.750428,53.350859],[-2.744154,53.35027],[-2.733626,53.347929],[-2.732602,53.35006],[-2.731327,53.352712],[-2.727587,53.355014],[-2.722398,53.355434],[-2.716786,53.357145],[-2.711222,53.359828],[-2.695976,53.382928],[-2.703438,53.385758],[-2.706196,53.388937],[-2.712334,53.387068],[-2.714506,53.389618],[-2.717576,53.391118],[-2.719998,53.392674],[-2.724108,53.394682],[-2.730608,53.396892],[-2.738279,53.397858],[-2.745842,53.398403],[-2.759308,53.396825],[-2.769067,53.390416],[-2.778855,53.373498],[-2.788239,53.353983],[-2.802597,53.335716],[-2.778509,53.335793]]]},"properties":{"code":"N81619","name":"OAKS PLACE SURGERY","icb":"QYG"}}]}