{"type":"FeatureCollection","features":[{"type":"Feature","geometry":{"type":"Polygon","coordinates":[[[-2.79671,53.39561],[-2.79705,53.3909],[-2.79053,53.37821],[-2.78812,53.3608],[-2.7816,53.361],[-2.77542,53.36039],[-2.76958,53.35875],[-2.76066,53.35998],[-2.75379,53.361],[-2.74727,53.3608],[-2.7404,53.3608],[-2.73319,53.35977],[-2.72633,53.36059],[-2.72221,53.3653],[-2.71774,53.37145],[-2.71706,53.38579],[-2.71912,53.38742],[-2.72873,53.39009],[-2.7404,53.39029],[-2.75448,53.38988],[-2.76821,53.38742],[-2.78091,53.39234],[-2.79671,53.39561]]]},"properties":{"code":"N81651","name":"UPTON ROCKS PRIMARY CARE","icb":"QYG"}}]}