{"type":"FeatureCollection","features":[{"type":"Feature","geometry":{"type":"Polygon","coordinates":[[[-2.186966,53.256382],[-2.18997,53.251966],[-2.198639,53.249758],[-2.198811,53.246882],[-2.196665,53.246266],[-2.194262,53.245906],[-2.192717,53.244314],[-2.192116,53.242619],[-2.190313,53.242208],[-2.189498,53.241707],[-2.18806,53.24145],[-2.186773,53.240577],[-2.186172,53.239974],[-2.185378,53.239421],[-2.183361,53.238715],[-2.181044,53.23702],[-2.177954,53.235376],[-2.172804,53.233064],[-2.170744,53.231729],[-2.172289,53.229982],[-2.17164,53.22827],[-2.167826,53.227772],[-2.164736,53.229725],[-2.160358,53.229417],[-2.159071,53.227618],[-2.156925,53.227361],[-2.154694,53.228209],[-2.152462,53.228338],[-2.150831,53.228389],[-2.149372,53.227978],[-2.148128,53.228183],[-2.147141,53.227721],[-2.146454,53.227002],[-2.146239,53.226565],[-2.145853,53.225691],[-2.143965,53.224869],[-2.142034,53.224689],[-2.139931,53.224407],[-2.136326,53.223996],[-2.133837,53.223713],[-2.130876,53.223919],[-2.12903,53.222403],[-2.127872,53.222428],[-2.127142,53.221632],[-2.125468,53.221786],[-2.123494,53.222583],[-2.122464,53.222917],[-2.12225,53.223482],[-2.12049,53.224073],[-2.1171,53.228286],[-2.107444,53.232062],[-2.094526,53.240153],[-2.087746,53.247344],[-2.087059,53.254226],[-2.086887,53.260798],[-2.080364,53.266342],[-2.081051,53.270398],[-2.081695,53.274375],[-2.084055,53.273657],[-2.085943,53.27358],[-2.086587,53.274247],[-2.087617,53.274863],[-2.088733,53.276813],[-2.089977,53.278173],[-2.090707,53.279046],[-2.090921,53.279662],[-2.092166,53.281997],[-2.092338,53.282484],[-2.092767,53.282638],[-2.092853,53.283023],[-2.093453,53.283305],[-2.094355,53.286435],[-2.096114,53.289437],[-2.095556,53.29131],[-2.096758,53.291412],[-2.097788,53.290335],[-2.098475,53.291617],[-2.098603,53.293695],[-2.099633,53.294029],[-2.101007,53.293464],[-2.102895,53.293413],[-2.10474,53.293003],[-2.107401,53.292977],[-2.110147,53.293567],[-2.112637,53.29249],[-2.115383,53.291874],[-2.118044,53.291976],[-2.120705,53.291438],[-2.122207,53.29154],[-2.123795,53.291079],[-2.127528,53.29113],[-2.129459,53.291386],[-2.130618,53.291284],[-2.131348,53.290668],[-2.133579,53.292053],[-2.134223,53.292926],[-2.134781,53.293977],[-2.135875,53.293823],[-2.136734,53.293554],[-2.138386,53.293631],[-2.140038,53.293593],[-2.142656,53.293618],[-2.143879,53.293695],[-2.145252,53.293631],[-2.146947,53.292643],[-2.147462,53.292336],[-2.147934,53.291861],[-2.148085,53.291771],[-2.148213,53.291245],[-2.148364,53.291015],[-2.148836,53.290848],[-2.149501,53.29063],[-2.150102,53.29013],[-2.150939,53.289899],[-2.152097,53.288642],[-2.152934,53.288731],[-2.153814,53.288603],[-2.154415,53.288334],[-2.155852,53.287885],[-2.156947,53.287615],[-2.157633,53.287372],[-2.158105,53.287064],[-2.159296,53.286249],[-2.159865,53.285678],[-2.160487,53.285435],[-2.162075,53.284742],[-2.162268,53.28455],[-2.161968,53.284293],[-2.162118,53.283947],[-2.162075,53.28369],[-2.163491,53.282458],[-2.16538,53.28192],[-2.167075,53.278058],[-2.167718,53.27571],[-2.17186,53.27417],[-2.174177,53.271014],[-2.182932,53.267972],[-2.183983,53.261465],[-2.182503,53.258949],[-2.184219,53.257615],[-2.186966,53.256382]]]},"properties":{"code":"N81632","name":"BROKEN CROSS SURGERY","icb":"QYG"}}]}