{"type":"FeatureCollection","features":[{"type":"Feature","geometry":{"type":"Polygon","coordinates":[[[-2.931053,53.196247],[-2.920114,53.188863],[-2.918381,53.179629],[-2.925359,53.172423],[-2.928595,53.166173],[-2.912306,53.158686],[-2.905896,53.157272],[-2.897609,53.15795],[-2.890345,53.159455],[-2.883824,53.161523],[-2.869785,53.16681],[-2.85706,53.176435],[-2.850724,53.186419],[-2.846408,53.195626],[-2.848939,53.21638],[-2.867636,53.232593],[-2.879463,53.239518],[-2.902888,53.236405],[-2.925167,53.22712],[-2.936646,53.221849],[-2.948125,53.216577],[-2.942789,53.206089],[-2.937112,53.200336],[-2.931053,53.196247]]]},"properties":{"code":"N81655","name":"ST WERBURGH'S MEDICAL PRACTICE HOMELESS","icb":"QYG"}}]}