{"type":"FeatureCollection","features":[{"type":"Feature","geometry":{"type":"Polygon","coordinates":[[[-2.8784,53.4074],[-2.87932,53.40712],[-2.88027,53.40701],[-2.88207,53.40695],[-2.88437,53.40678],[-2.88668,53.4064],[-2.88822,53.40605],[-2.89053,53.40566],[-2.89067,53.40518],[-2.89096,53.40484],[-2.8953,53.40275],[-2.89609,53.40282],[-2.89674,53.40319],[-2.89703,53.40343],[-2.89766,53.40367],[-2.89861,53.40426],[-2.89874,53.4044],[-2.89884,53.40443],[-2.89893,53.40441],[-2.8989,53.40438],[-2.89912,53.40437],[-2.8993,53.40429],[-2.89926,53.40393],[-2.89836,53.40177],[-2.89773,53.40066],[-2.89627,53.39664],[-2.89535,53.39619],[-2.89267,53.39505],[-2.89232,53.39468],[-2.89203,53.39423],[-2.89317,53.39268],[-2.89354,53.39129],[-2.89421,53.39005],[-2.8953,53.38958],[-2.89338,53.38917],[-2.89065,53.38866],[-2.88799,53.3883],[-2.88199,53.38705],[-2.87922,53.3863],[-2.88038,53.38439],[-2.87877,53.38359],[-2.8789,53.38333],[-2.88071,53.38268],[-2.88135,53.38252],[-2.88186,53.38278],[-2.8835,53.38232],[-2.88426,53.38215],[-2.88459,53.38259],[-2.88473,53.38295],[-2.88498,53.38381],[-2.88498,53.38412],[-2.88526,53.38454],[-2.88609,53.38519],[-2.88651,53.38569],[-2.8865,53.38624],[-2.88663,53.38657],[-2.88728,53.38686],[-2.88898,53.38678],[-2.8897,53.38646],[-2.88993,53.38613],[-2.88964,53.38458],[-2.89005,53.38443],[-2.89094,53.38431],[-2.89141,53.38419],[-2.89204,53.3841],[-2.89232,53.38401],[-2.89093,53.38311],[-2.89064,53.38301],[-2.88959,53.38236],[-2.88915,53.38217],[-2.88777,53.38135],[-2.88563,53.37979],[-2.88004,53.37626],[-2.87665,53.37358],[-2.87383,53.37146],[-2.86923,53.37304],[-2.86669,53.37286],[-2.86632,53.3729],[-2.86601,53.37301],[-2.86588,53.37311],[-2.86555,53.37286],[-2.86541,53.37268],[-2.86392,53.37205],[-2.86375,53.37168],[-2.86379,53.37157],[-2.8645,53.3709],[-2.86487,53.37079],[-2.86587,53.37077],[-2.86624,53.37064],[-2.86738,53.36996],[-2.86767,53.36962],[-2.86774,53.36933],[-2.86771,53.36884],[-2.86673,53.367],[-2.86651,53.36619],[-2.8663,53.36585],[-2.86593,53.36569],[-2.86552,53.36561],[-2.86504,53.36566],[-2.86414,53.36588],[-2.86254,53.36694],[-2.86161,53.36699],[-2.858,53.36698],[-2.85776,53.36706],[-2.85764,53.36726],[-2.85721,53.36734],[-2.85546,53.36742],[-2.85319,53.36746],[-2.85384,53.36615],[-2.85408,53.36546],[-2.85457,53.36542],[-2.85523,53.36544],[-2.85686,53.36532],[-2.85701,53.36522],[-2.85717,53.36473],[-2.85698,53.36274],[-2.85703,53.36283],[-2.8566,53.36032],[-2.85613,53.35937],[-2.85561,53.35912],[-2.85266,53.35982],[-2.85187,53.36006],[-2.85118,53.36018],[-2.85096,53.36018],[-2.85076,53.36025],[-2.85048,53.36044],[-2.84961,53.36066],[-2.84895,53.36089],[-2.84765,53.36103],[-2.84623,53.36098],[-2.84295,53.36017],[-2.83971,53.35953],[-2.83735,53.35881],[-2.83541,53.35798],[-2.83343,53.35726],[-2.83152,53.35692],[-2.82632,53.35615],[-2.82537,53.35607],[-2.82476,53.35614],[-2.82357,53.35616],[-2.82261,53.3561],[-2.82153,53.35592],[-2.82077,53.3568],[-2.82057,53.35734],[-2.82088,53.3579],[-2.82123,53.35828],[-2.82149,53.35872],[-2.8221,53.35907],[-2.82168,53.36],[-2.82161,53.36085],[-2.82136,53.36194],[-2.8229,53.36626],[-2.82253,53.36669],[-2.82251,53.36701],[-2.82211,53.36756],[-2.82091,53.36861],[-2.81969,53.36938],[-2.81852,53.37036],[-2.81761,53.37092],[-2.81718,53.3715],[-2.8172,53.37182],[-2.81733,53.37208],[-2.81782,53.37263],[-2.81838,53.37402],[-2.81852,53.37405],[-2.81892,53.37388],[-2.82022,53.37382],[-2.82078,53.37396],[-2.8211,53.37421],[-2.82134,53.37428],[-2.82291,53.37344],[-2.82373,53.37313],[-2.82526,53.3736],[-2.82604,53.37539],[-2.82622,53.37567],[-2.82667,53.3759],[-2.82736,53.37569],[-2.8278,53.37522],[-2.82866,53.3754],[-2.82961,53.37574],[-2.83189,53.37519],[-2.83565,53.37667],[-2.82916,53.37965],[-2.82742,53.38029],[-2.82659,53.38039],[-2.8252,53.38043],[-2.82462,53.38011],[-2.82437,53.38001],[-2.82401,53.37994],[-2.82321,53.37997],[-2.82281,53.38013],[-2.822,53.38064],[-2.822,53.38086],[-2.82223,53.38135],[-2.82286,53.38231],[-2.82361,53.38265],[-2.82592,53.38459],[-2.82611,53.3851],[-2.82837,53.38673],[-2.83289,53.38876],[-2.83261,53.39062],[-2.8337,53.39141],[-2.83462,53.39186],[-2.83504,53.39217],[-2.83575,53.39252],[-2.83732,53.39342],[-2.83846,53.39342],[-2.84052,53.39293],[-2.84214,53.39202],[-2.84355,53.39141],[-2.84429,53.39146],[-2.84614,53.39174],[-2.8472,53.39233],[-2.84768,53.39267],[-2.84849,53.39361],[-2.84867,53.39417],[-2.84821,53.39633],[-2.84908,53.39677],[-2.85007,53.39703],[-2.85037,53.39701],[-2.85179,53.39661],[-2.85605,53.39575],[-2.85888,53.39622],[-2.86129,53.39738],[-2.86415,53.39821],[-2.86696,53.39926],[-2.86732,53.39998],[-2.8649,53.40066],[-2.86427,53.40096],[-2.86437,53.40153],[-2.86538,53.40354],[-2.86606,53.40462],[-2.86724,53.40615],[-2.86852,53.40696],[-2.87031,53.40751],[-2.87304,53.4081],[-2.87561,53.40789],[-2.87645,53.40764],[-2.87735,53.40744],[-2.8784,53.4074]]]},"properties":{"code":"N82050","name":"GATEACRE MEDICAL CENTRE","icb":"QYG"}}]}