{"type":"FeatureCollection","features":[{"type":"Feature","geometry":{"type":"Polygon","coordinates":[[[-2.91816,53.39858],[-2.91743,53.39248],[-2.92316,53.39014],[-2.92431,53.39005],[-2.92711,53.39482],[-2.92997,53.39566],[-2.93338,53.39261],[-2.9301,53.39026],[-2.92709,53.39001],[-2.92473,53.3866],[-2.92458,53.38449],[-2.92398,53.38308],[-2.92249,53.38232],[-2.92212,53.37913],[-2.92083,53.37686],[-2.92593,53.37553],[-2.92719,53.37552],[-2.92705,53.37765],[-2.92973,53.37784],[-2.93441,53.37335],[-2.9332,53.37106],[-2.93023,53.3695],[-2.92001,53.37355],[-2.91842,53.37027],[-2.91818,53.36786],[-2.91622,53.36651],[-2.91494,53.36705],[-2.90669,53.37025],[-2.90075,53.37151],[-2.8989,53.37258],[-2.89329,53.36687],[-2.88843,53.36883],[-2.88059,53.37093],[-2.87395,53.37145],[-2.87782,53.37475],[-2.88601,53.37989],[-2.88067,53.38086],[-2.87476,53.38272],[-2.87787,53.38328],[-2.8807,53.38461],[-2.88286,53.38517],[-2.88401,53.38703],[-2.88507,53.39181],[-2.88641,53.39316],[-2.88767,53.3938],[-2.89232,53.39543],[-2.89697,53.39749],[-2.90412,53.39665],[-2.90893,53.39756],[-2.91105,53.39814],[-2.91816,53.39858]]]},"properties":{"code":"N82026","name":"PENNY LANE SURGERY","icb":"QYG"}}]}