{"type":"FeatureCollection","features":[{"type":"Feature","geometry":{"type":"Polygon","coordinates":[[[-2.937257,53.374381],[-2.93706,53.37532],[-2.93496,53.37547],[-2.93333,53.37661],[-2.93217,53.37794],[-2.93209,53.37792],[-2.93163,53.37868],[-2.93132,53.38042],[-2.93005,53.38087],[-2.92888,53.38108],[-2.92249,53.38138],[-2.91866,53.38304],[-2.91679,53.38072],[-2.91442,53.37965],[-2.90843,53.38266],[-2.90669,53.38453],[-2.90713,53.3851],[-2.90775,53.38571],[-2.91032,53.38786],[-2.91121,53.38827],[-2.91224,53.38859],[-2.91422,53.38901],[-2.91446,53.39045],[-2.91645,53.39105],[-2.91742,53.39267],[-2.92394,53.39022],[-2.92619,53.39358],[-2.92842,53.39711],[-2.93392,53.39273],[-2.93333,53.39211],[-2.93762,53.39125],[-2.94324,53.39132],[-2.94336,53.38888],[-2.94673,53.3878],[-2.9499,53.38603],[-2.95278,53.38401],[-2.95643,53.38159],[-2.95516,53.3811],[-2.955237,53.381069],[-2.95404,53.38075],[-2.95044,53.37942],[-2.94076,53.3756],[-2.937257,53.374381]]]},"properties":{"code":"N82059","name":"GREENBANK DRIVE SURGERY","icb":"QYG"}}]}