{"type":"FeatureCollection","features":[{"type":"Feature","geometry":{"type":"Polygon","coordinates":[[[-2.9267,53.36172],[-2.910268,53.363019],[-2.905,53.36317],[-2.902499,53.364701],[-2.902309,53.364734],[-2.89726,53.36402],[-2.8828,53.36756],[-2.872418,53.382908],[-2.86087,53.39288],[-2.86076,53.40184],[-2.86803,53.40713],[-2.887017,53.405058],[-2.92498,53.40984],[-2.95657,53.40692],[-2.97186,53.397069],[-2.982785,53.39451],[-2.98322,53.39446],[-2.96858,53.37736],[-2.95653,53.37247],[-2.94659,53.36863],[-2.9267,53.36172]]]},"properties":{"code":"N82046","name":"SEFTON PARK MEDICAL CENTRE","icb":"QYG"}}]}