{"type":"FeatureCollection","features":[{"type":"Feature","geometry":{"type":"Polygon","coordinates":[[[-2.89123,53.35528],[-2.88659,53.35556],[-2.89002,53.35911],[-2.88951,53.36348],[-2.88813,53.36405],[-2.88642,53.36381],[-2.88453,53.36572],[-2.88864,53.36868],[-2.8931,53.36713],[-2.89824,53.37296],[-2.91359,53.36771],[-2.92654,53.3596],[-2.92062,53.35611],[-2.91556,53.3537],[-2.91394,53.35549],[-2.90922,53.35451],[-2.90117,53.3487],[-2.90253,53.34771],[-2.89279,53.34363],[-2.88872,53.34699],[-2.88245,53.35076],[-2.88228,53.35188],[-2.88638,53.35259],[-2.89208,53.35346],[-2.89202,53.35346],[-2.89123,53.35528]]]},"properties":{"code":"N82034","name":"THE VILLAGE SURGERY","icb":"QYG"}}]}