{"type":"FeatureCollection","features":[{"type":"Feature","geometry":{"type":"Polygon","coordinates":[[[-2.97613,53.42886],[-2.97562,53.4272],[-2.975,53.42598],[-2.97363,53.42346],[-2.97208,53.42111],[-2.97232,53.42034],[-2.97139,53.41864],[-2.97024,53.4169],[-2.9679,53.41229],[-2.96781,53.41169],[-2.96781,53.41036],[-2.96146,53.41091],[-2.95717,53.41164],[-2.94966,53.41206],[-2.94541,53.4121],[-2.93444,53.41405],[-2.93193,53.41428],[-2.92535,53.4151],[-2.91947,53.41531],[-2.91983,53.41616],[-2.92088,53.41732],[-2.92234,53.41854],[-2.92635,53.42155],[-2.92783,53.423],[-2.92983,53.42517],[-2.92884,53.42556],[-2.92833,53.42566],[-2.92805,53.42586],[-2.92822,53.42613],[-2.92674,53.42818],[-2.92554,53.42934],[-2.92369,53.43156],[-2.92618,53.4338],[-2.92942,53.43534],[-2.93511,53.43775],[-2.93794,53.439],[-2.93805,53.44042],[-2.93831,53.44154],[-2.93871,53.44274],[-2.94022,53.44533],[-2.9411,53.44651],[-2.94268,53.4484],[-2.95655,53.44401],[-2.95809,53.44469],[-2.9609,53.44608],[-2.96339,53.44717],[-2.96659,53.44759],[-2.96961,53.44736],[-2.97322,53.44741],[-2.97326,53.44702],[-2.97305,53.44653],[-2.97071,53.44295],[-2.97077,53.44051],[-2.97122,53.43886],[-2.97225,53.4366],[-2.97283,53.43424],[-2.97363,53.43222],[-2.97577,53.43124],[-2.97661,53.43024],[-2.97613,53.42886]]]},"properties":{"code":"N82099","name":"MERE LANE GROUP PRACTICE","icb":"QYG"}}]}