{"type":"FeatureCollection","features":[{"type":"Feature","geometry":{"type":"Polygon","coordinates":[[[-2.974672,53.437012],[-2.97528,53.43577],[-2.9809,53.43444],[-2.98403,53.43447],[-2.98588,53.43472],[-2.98296,53.42938],[-2.98292,53.42841],[-2.97953,53.42848],[-2.97777,53.4282],[-2.97605,53.42836],[-2.97275,53.42899],[-2.97325,53.430901],[-2.97154,53.4314],[-2.96772,53.43091],[-2.96777,53.43309],[-2.96923,53.43306],[-2.96725,53.4372],[-2.96764,53.43756],[-2.96948,53.4381],[-2.97287,53.43825],[-2.974577,53.437118],[-2.97459,53.43718],[-2.974672,53.437012]]]},"properties":{"code":"N82077","name":"BOUSFIELD SURGERY - DR SHAH","icb":"QYG"}}]}