{"type":"FeatureCollection","features":[{"type":"Feature","geometry":{"type":"Polygon","coordinates":[[[-2.91953,53.45453],[-2.92429,53.45315],[-2.92871,53.45218],[-2.93095,53.44538],[-2.92388,53.44036],[-2.91948,53.43698],[-2.91797,53.43619],[-2.91573,53.43558],[-2.91149,53.43309],[-2.90972,53.43265],[-2.90594,53.43056],[-2.90523,53.43025],[-2.90449,53.43061],[-2.9013,53.43195],[-2.89794,53.43349],[-2.89652,53.43391],[-2.8948,53.434],[-2.89316,53.43401],[-2.89194,53.43424],[-2.88649,53.43584],[-2.88443,53.43672],[-2.88108,53.43779],[-2.87747,53.43885],[-2.86194,53.44827],[-2.86462,53.45142],[-2.86815,53.45441],[-2.87346,53.45812],[-2.87713,53.46031],[-2.88164,53.46041],[-2.8864,53.46138],[-2.88975,53.46332],[-2.89378,53.46281],[-2.89782,53.46179],[-2.90537,53.45974],[-2.91734,53.45627],[-2.91953,53.45453]]]},"properties":{"code":"N82083","name":"JUBILEE MEDICAL CENTRE","icb":"QYG"}}]}