{"type":"FeatureCollection","features":[{"type":"Feature","geometry":{"type":"Polygon","coordinates":[[[-2.85214,53.37056],[-2.85246,53.37258],[-2.85338,53.37553],[-2.85434,53.37739],[-2.85665,53.37916],[-2.85957,53.38126],[-2.8622,53.38351],[-2.86384,53.38459],[-2.86456,53.38488],[-2.86543,53.38532],[-2.86662,53.38631],[-2.86802,53.3873],[-2.87289,53.39034],[-2.87328,53.38648],[-2.8739,53.38463],[-2.87477,53.3828],[-2.87995,53.38112],[-2.8821,53.38065],[-2.88603,53.38],[-2.87845,53.37498],[-2.87411,53.37155],[-2.87356,53.371],[-2.87169,53.36552],[-2.87059,53.364],[-2.86609,53.36017],[-2.86503,53.3591],[-2.86398,53.35865],[-2.86328,53.35853],[-2.86142,53.35835],[-2.86018,53.35839],[-2.85144,53.36046],[-2.85309,53.36272],[-2.85352,53.36368],[-2.85362,53.36455],[-2.85367,53.36599],[-2.85339,53.36671],[-2.85203,53.36911],[-2.85214,53.37056]]]},"properties":{"code":"N82066","name":"WOOLTON HOUSE MEDICAL CTR","icb":"QYG"}}]}