{"type":"FeatureCollection","features":[{"type":"Feature","geometry":{"type":"Polygon","coordinates":[[[-2.944181,53.432914],[-2.947502,53.433576],[-2.951698,53.434413],[-2.954499,53.432684],[-2.958168,53.435491],[-2.963163,53.437884],[-2.961159,53.442979],[-2.964077,53.443388],[-2.966793,53.443357],[-2.96906,53.443135],[-2.975065,53.44257],[-2.977553,53.441599],[-2.982187,53.438736],[-2.983758,53.436701],[-2.985962,53.434697],[-2.988088,53.433697],[-2.991124,53.430936],[-2.992918,53.426363],[-2.994393,53.421339],[-2.994563,53.416885],[-2.993486,53.412475],[-2.985513,53.41352],[-2.98206,53.413858],[-2.982535,53.411374],[-2.981949,53.411292],[-2.980309,53.411023],[-2.977849,53.411179],[-2.973964,53.411545],[-2.967847,53.411888],[-2.962582,53.411887],[-2.955592,53.411709],[-2.955482,53.411687],[-2.955519,53.411625],[-2.953567,53.411809],[-2.949157,53.412088],[-2.94638,53.41212],[-2.944354,53.412356],[-2.945972,53.416682],[-2.947651,53.421173],[-2.944771,53.421983],[-2.940391,53.422493],[-2.941388,53.423863],[-2.945903,53.425823],[-2.94846,53.426933],[-2.949821,53.428125],[-2.944615,53.42999],[-2.940676,53.432422],[-2.944181,53.432914]]]},"properties":{"code":"N82081","name":"ISLINGTON HOUSE MEDICAL CENTRE","icb":"QYG"}}]}