{"type":"FeatureCollection","features":[{"type":"Feature","geometry":{"type":"Polygon","coordinates":[[[-2.793024,53.322632],[-2.79018,53.32185],[-2.785018,53.323905],[-2.78366,53.32431],[-2.77988,53.32657],[-2.77748,53.32944],[-2.778283,53.330999],[-2.77782,53.3321],[-2.77714,53.33456],[-2.777799,53.334778],[-2.77748,53.33559],[-2.78194,53.33656],[-2.78512,53.33784],[-2.80366,53.34174],[-2.804557,53.343863],[-2.80735,53.35219],[-2.792077,53.352028],[-2.79139,53.35199],[-2.791328,53.35202],[-2.78847,53.35199],[-2.787712,53.353797],[-2.78744,53.35393],[-2.78606,53.35629],[-2.78572,53.35721],[-2.78572,53.35844],[-2.78521,53.3589],[-2.787406,53.358792],[-2.79121,53.35936],[-2.79808,53.35916],[-2.80495,53.36244],[-2.8149,53.36612],[-2.817813,53.366923],[-2.82143,53.36827],[-2.82795,53.3694],[-2.832358,53.369363],[-2.83276,53.3694],[-2.84306,53.37186],[-2.84992,53.37288],[-2.85192,53.373037],[-2.85336,53.37327],[-2.852683,53.373097],[-2.85782,53.3735],[-2.858023,53.373459],[-2.85859,53.37355],[-2.861299,53.372804],[-2.86297,53.37247],[-2.86412,53.372107],[-2.8688,53.37145],[-2.868561,53.370705],[-2.8688,53.37063],[-2.867813,53.368373],[-2.86709,53.36612],[-2.86674,53.36592],[-2.86983,53.36428],[-2.874305,53.36375],[-2.8767,53.36387],[-2.876492,53.362613],[-2.87704,53.36223],[-2.877145,53.361793],[-2.87739,53.36182],[-2.87945,53.35526],[-2.879103,53.354447],[-2.881299,53.350517],[-2.881865,53.350044],[-2.88721,53.348592],[-2.88837,53.3485],[-2.888827,53.348153],[-2.88906,53.34809],[-2.889641,53.347535],[-2.89215,53.34563],[-2.893615,53.343739],[-2.89421,53.34317],[-2.894239,53.342944],[-2.89627,53.34112],[-2.894525,53.340703],[-2.89455,53.34051],[-2.890522,53.339566],[-2.88734,53.33784],[-2.88391,53.33661],[-2.88151,53.33518],[-2.87773,53.33395],[-2.8743,53.33354],[-2.87121,53.33251],[-2.86674,53.33046],[-2.861277,53.32912],[-2.86022,53.32862],[-2.855328,53.328328],[-2.85439,53.32821],[-2.84889,53.3278],[-2.84374,53.32759],[-2.84134,53.32759],[-2.83756,53.32739],[-2.83241,53.32841],[-2.830834,53.329118],[-2.82898,53.32944],[-2.82211,53.33169],[-2.81696,53.33087],[-2.80838,53.32841],[-2.807334,53.327994],[-2.80632,53.32739],[-2.802066,53.325897],[-2.799857,53.325024],[-2.79602,53.32308],[-2.793024,53.322632]]]},"properties":{"code":"N82001","name":"THE MARGARET THOMPSON MED CENTRE","icb":"QYG"}}]}