{"type":"FeatureCollection","features":[{"type":"Feature","geometry":{"type":"Polygon","coordinates":[[[-2.93296,53.41946],[-2.92567,53.42107],[-2.9238,53.41974],[-2.92088,53.41731],[-2.91968,53.41594],[-2.91955,53.41529],[-2.91839,53.41511],[-2.9141,53.41371],[-2.91466,53.41644],[-2.91578,53.41916],[-2.91442,53.41956],[-2.91436,53.42026],[-2.91445,53.42153],[-2.91399,53.42198],[-2.91093,53.42134],[-2.90872,53.42021],[-2.90797,53.41923],[-2.90537,53.4198],[-2.90161,53.42079],[-2.89794,53.42182],[-2.89649,53.42121],[-2.89299,53.42265],[-2.89018,53.42433],[-2.89013,53.42464],[-2.89061,53.42495],[-2.89239,53.42568],[-2.89636,53.42749],[-2.89831,53.42798],[-2.90022,53.42882],[-2.90236,53.42884],[-2.90522,53.43026],[-2.90661,53.43123],[-2.90934,53.43257],[-2.90996,53.43302],[-2.90992,53.43323],[-2.90775,53.43448],[-2.91045,53.43589],[-2.91472,53.43751],[-2.91487,53.43755],[-2.91833,53.43578],[-2.92181,53.43378],[-2.92275,53.43291],[-2.92365,53.43159],[-2.92597,53.43364],[-2.93279,53.4366],[-2.93336,53.43587],[-2.93479,53.43477],[-2.93535,53.43442],[-2.93759,53.43378],[-2.94,53.43247],[-2.93776,53.4285],[-2.93893,53.42813],[-2.94045,53.42744],[-2.94451,53.42531],[-2.942705,53.424494],[-2.941504,53.424341],[-2.941375,53.423523],[-2.94086,53.422755],[-2.941117,53.423292],[-2.940345,53.422986],[-2.939744,53.422858],[-2.939938,53.422603],[-2.93893,53.42217],[-2.93837,53.42232],[-2.93738,53.42249],[-2.93655,53.42238],[-2.93587,53.42217],[-2.93577,53.42181],[-2.93531,53.42114],[-2.93403,53.42025],[-2.93335,53.4194],[-2.93296,53.41946]]]},"properties":{"code":"N82090","name":"GREEN LANE MEDICAL CENTRE","icb":"QYG"}}]}