{"type":"FeatureCollection","features":[{"type":"Feature","geometry":{"type":"Polygon","coordinates":[[[-2.941327,53.38123],[-2.941074,53.380205],[-2.941074,53.38082],[-2.940098,53.376986],[-2.9391,53.376109],[-2.936268,53.374368],[-2.92923,53.3757],[-2.921762,53.376365],[-2.917728,53.368018],[-2.910519,53.368684],[-2.90966,53.368633],[-2.909918,53.368582],[-2.908287,53.367916],[-2.90624,53.366345],[-2.903051,53.364536],[-2.902822,53.364296],[-2.902294,53.364024],[-2.902193,53.364024],[-2.902279,53.363614],[-2.901936,53.363563],[-2.901688,53.363304],[-2.901077,53.363102],[-2.8984,53.36562],[-2.89299,53.36666],[-2.8902,53.36783],[-2.88825,53.36879],[-2.88696,53.36748],[-2.8844,53.36574],[-2.88301,53.36493],[-2.88099,53.36633],[-2.87913,53.36693],[-2.87368,53.37104],[-2.87151,53.37254],[-2.86559,53.37397],[-2.86288,53.37471],[-2.8608,53.37552],[-2.85934,53.37743],[-2.85891,53.37781],[-2.85793,53.37811],[-2.85597,53.37884],[-2.86003,53.38172],[-2.86187,53.38335],[-2.86411,53.38309],[-2.86662,53.38225],[-2.86803,53.38365],[-2.87385,53.38513],[-2.87308,53.38827],[-2.8729,53.3919],[-2.87419,53.3934],[-2.87606,53.39459],[-2.87848,53.39564],[-2.88039,53.39719],[-2.88372,53.39959],[-2.88689,53.40123],[-2.88902,53.40187],[-2.89191,53.4022],[-2.89612,53.40253],[-2.89966,53.40443],[-2.90125,53.40557],[-2.94841,53.40531],[-2.948542,53.403955],[-2.949142,53.401294],[-2.949743,53.397149],[-2.949228,53.393822],[-2.949657,53.391263],[-2.949657,53.389267],[-2.949314,53.387833],[-2.947855,53.3864],[-2.946396,53.385376],[-2.946426,53.385331],[-2.945329,53.384607],[-2.94528,53.384813],[-2.942448,53.382765],[-2.942609,53.382856],[-2.941327,53.38123]]]},"properties":{"code":"N82108","name":"RUTHERFORD MEDICAL CENTRE","icb":"QYG"}}]}