{"type":"FeatureCollection","features":[{"type":"Feature","geometry":{"type":"Polygon","coordinates":[[[-2.99295,53.39894],[-2.986441,53.402301],[-2.98574,53.40256],[-2.981935,53.404358],[-2.980138,53.405072],[-2.97794,53.40516],[-2.968756,53.40594],[-2.96543,53.4061],[-2.96306,53.40631],[-2.964372,53.407732],[-2.964038,53.407968],[-2.96106,53.40735],[-2.95143,53.40727],[-2.94876,53.40839],[-2.94771,53.41023],[-2.948007,53.411975],[-2.947803,53.41212],[-2.94428,53.41228],[-2.947821,53.421099],[-2.947669,53.421254],[-2.94025,53.42253],[-2.94196,53.42419],[-2.94469,53.42539],[-2.94884,53.42698],[-2.950279,53.42734],[-2.950333,53.427597],[-2.94402,53.43046],[-2.93813,53.43378],[-2.93761,53.43657],[-2.940527,53.439372],[-2.94511,53.44715],[-2.956483,53.444218],[-2.956684,53.444232],[-2.96326,53.44716],[-2.96682,53.44768],[-2.98184,53.44707],[-3.00631,53.44283],[-3.00626,53.42908],[-3.00244,53.41084],[-3.002304,53.410753],[-2.994354,53.400465],[-2.99418,53.40016],[-2.99371,53.39958],[-2.993475,53.399516],[-2.99295,53.39894]]]},"properties":{"code":"N82115","name":"VAUXHALL HEALTH CENTRE","icb":"QYG"}}]}