{"type":"FeatureCollection","features":[{"type":"Feature","geometry":{"type":"Polygon","coordinates":[[[-2.972556,53.448396],[-2.97266,53.44819],[-2.9633,53.4463],[-2.96047,53.44886],[-2.95584,53.45014],[-2.94451,53.44911],[-2.94597,53.44998],[-2.9373,53.4485],[-2.93438,53.45141],[-2.91241,53.45663],[-2.91009,53.45882],[-2.906044,53.459781],[-2.898889,53.461759],[-2.896344,53.462296],[-2.895335,53.463301],[-2.89368,53.463342],[-2.892531,53.46401],[-2.889826,53.464077],[-2.89224,53.46542],[-2.88666,53.46337],[-2.885079,53.464945],[-2.888087,53.46582],[-2.891082,53.467487],[-2.891453,53.467731],[-2.893305,53.468948],[-2.894656,53.469444],[-2.896695,53.470784],[-2.897809,53.471364],[-2.899164,53.472189],[-2.900383,53.472565],[-2.901892,53.473484],[-2.903032,53.474178],[-2.904534,53.47495],[-2.906132,53.476342],[-2.90723,53.477299],[-2.909111,53.479179],[-2.912181,53.481032],[-2.913708,53.481953],[-2.92013,53.47972],[-2.91996,53.47727],[-2.92562,53.48018],[-2.92614,53.48156],[-2.9288,53.48437],[-2.93352,53.48478],[-2.93756,53.4861],[-2.9385,53.48733],[-2.94588,53.49024],[-2.95112,53.49055],[-2.951155,53.490481],[-2.95189,53.49346],[-2.95026,53.49785],[-2.95609,53.49662],[-2.9682,53.50081],[-2.97378,53.49683],[-2.98202,53.49795],[-2.98219,53.49601],[-2.98373,53.49519],[-2.98416,53.49417],[-2.98622,53.49285],[-2.98862,53.49295],[-2.9894,53.49075],[-2.98991,53.48886],[-2.9912,53.48651],[-2.99343,53.48667],[-2.99489,53.4833],[-2.993,53.48141],[-2.98974,53.48227],[-2.98742,53.48171],[-2.98468,53.47885],[-2.98347,53.48151],[-2.97867,53.47339],[-2.98476,53.47083],[-2.97541,53.46864],[-2.96648,53.46756],[-2.961777,53.469602],[-2.973,53.46307],[-2.97129,53.46158],[-2.97309,53.45341],[-2.97438,53.45106],[-2.972556,53.448396]]]},"properties":{"code":"N82648","name":"POULTER ROAD MEDICAL CENTRE","icb":"QYG"}}]}