{"type":"FeatureCollection","features":[{"type":"Feature","geometry":{"type":"Polygon","coordinates":[[[-2.97541,53.38333],[-2.95584,53.382],[-2.95223,53.38384],[-2.95481,53.38179],[-2.95034,53.38005],[-2.93507,53.37503],[-2.92168,53.38486],[-2.9052,53.39193],[-2.8985,53.39899],[-2.90417,53.40667],[-2.91361,53.4081],[-2.91258,53.41373],[-2.92597,53.41424],[-2.94022,53.41383],[-2.95567,53.40933],[-2.99652,53.41189],[-2.9888,53.39966],[-2.978903,53.385542],[-2.97725,53.38507],[-2.97712,53.38456],[-2.97592,53.38456],[-2.97541,53.38333]]]},"properties":{"code":"N82662","name":"DUNSTAN VILLAGE GROUP PRACTICE","icb":"QYG"}}]}