{"type":"FeatureCollection","features":[{"type":"Feature","geometry":{"type":"Polygon","coordinates":[[[-2.93265,53.43136],[-2.91376,53.4366],[-2.911862,53.439773],[-2.91065,53.44073],[-2.90966,53.44173],[-2.90863,53.4429],[-2.908295,53.443712],[-2.90739,53.44477],[-2.90584,53.44853],[-2.90533,53.44993],[-2.905903,53.449966],[-2.909582,53.460016],[-2.90901,53.460162],[-2.910041,53.461268],[-2.91099,53.46386],[-2.92087,53.47099],[-2.93499,53.469976],[-2.93944,53.4703],[-2.939501,53.470018],[-2.939718,53.469906],[-2.94026,53.46991],[-2.94562,53.46935],[-2.951522,53.468059],[-2.951678,53.468086],[-2.95678,53.46618],[-2.96064,53.4645],[-2.961324,53.463602],[-2.96768,53.46174],[-2.96925,53.44698],[-2.962148,53.44038],[-2.96176,53.43891],[-2.95961,53.4373],[-2.95777,53.43631],[-2.961603,53.439873],[-2.961052,53.440124],[-2.952405,53.434375],[-2.95052,53.4336],[-2.94884,53.43326],[-2.946894,53.433026],[-2.942049,53.431929],[-2.941973,53.431951],[-2.93992,53.43155],[-2.93601,53.43137],[-2.93419,53.431591],[-2.93265,53.43136]]]},"properties":{"code":"N82678","name":"STOPGATE LANE MEDICAL CTR","icb":"QYG"}}]}