{"type":"FeatureCollection","features":[{"type":"Feature","geometry":{"type":"Polygon","coordinates":[[[-2.882966,53.441599],[-2.884509,53.440781],[-2.888457,53.439196],[-2.88571,53.43603],[-2.87928,53.43168],[-2.87447,53.43022],[-2.87078,53.42774],[-2.86288,53.42355],[-2.862582,53.42406],[-2.862174,53.424124],[-2.861724,53.424533],[-2.861166,53.424801],[-2.860917,53.424842],[-2.860629,53.425044],[-2.859921,53.425057],[-2.859449,53.425006],[-2.858848,53.425095],[-2.859213,53.425019],[-2.858827,53.425044],[-2.858752,53.425118],[-2.858708,53.425779],[-2.858702,53.425749],[-2.858612,53.425984],[-2.858397,53.426259],[-2.858674,53.426259],[-2.858414,53.426336],[-2.857642,53.426984],[-2.856853,53.427374],[-2.855914,53.427991],[-2.855757,53.428151],[-2.855844,53.428509],[-2.856187,53.428662],[-2.856101,53.428765],[-2.856187,53.429174],[-2.85104,53.432009],[-2.851569,53.432405],[-2.852594,53.433629],[-2.853875,53.434041],[-2.854128,53.434671],[-2.854386,53.434786],[-2.854257,53.434748],[-2.854472,53.435016],[-2.854277,53.435004],[-2.854343,53.435259],[-2.854601,53.435668],[-2.854879,53.435885],[-2.85726,53.43835],[-2.85859,53.44007],[-2.85915,53.44091],[-2.86288,53.44157],[-2.86765,53.44219],[-2.87082,53.44076],[-2.876786,53.441855],[-2.879274,53.442059],[-2.882966,53.441599]]]},"properties":{"code":"N83018","name":"STOCKBRIDGE VILLAGE HC","icb":"QYG"}}]}