{"type":"FeatureCollection","features":[{"type":"Feature","geometry":{"type":"Polygon","coordinates":[[[-2.591966,53.448504],[-2.59046,53.4487],[-2.57235,53.46424],[-2.56805,53.46772],[-2.58428,53.46756],[-2.59947,53.46899],[-2.61337,53.47063],[-2.62479,53.47124],[-2.63483,53.47093],[-2.63466,53.46746],[-2.63569,53.46669],[-2.63844,53.46501],[-2.64277,53.46266],[-2.65262,53.45635],[-2.6526,53.45642],[-2.66358,53.4484],[-2.66466,53.444],[-2.66418,53.44277],[-2.66577,53.44157],[-2.66702,53.44022],[-2.66865,53.43695],[-2.66994,53.42882],[-2.65579,53.42191],[-2.65387,53.42078],[-2.65243,53.41961],[-2.65057,53.41938],[-2.64706,53.41772],[-2.61028,53.4237],[-2.59655,53.42744],[-2.57389,53.43429],[-2.58513,53.4394],[-2.591966,53.448504]]]},"properties":{"code":"N83005","name":"VISTA ROAD SURGERY","icb":"QYG"}}]}