{"type":"FeatureCollection","features":[{"type":"Feature","geometry":{"type":"Polygon","coordinates":[[[-2.83162,53.40095],[-2.826308,53.40657],[-2.826164,53.406628],[-2.81181,53.40789],[-2.815107,53.412883],[-2.815015,53.413041],[-2.813255,53.413652],[-2.78583,53.42189],[-2.79865,53.42671],[-2.8078,53.42963],[-2.82177,53.42743],[-2.821921,53.427352],[-2.82692,53.42672],[-2.825748,53.423345],[-2.826414,53.423229],[-2.82864,53.42672],[-2.84063,53.421822],[-2.85216,53.42022],[-2.849125,53.417778],[-2.848771,53.415606],[-2.84879,53.41342],[-2.845493,53.412728],[-2.843946,53.412312],[-2.842991,53.412003],[-2.842954,53.411763],[-2.84421,53.41116],[-2.84546,53.41032],[-2.84696,53.4091],[-2.84752,53.40849],[-2.84715,53.40743],[-2.84596,53.40679],[-2.84215,53.40535],[-2.838812,53.404411],[-2.83162,53.40095]]]},"properties":{"code":"N83043","name":"LONGVIEW MEDICAL CENTRE","icb":"QYG"}}]}