{"type":"FeatureCollection","features":[{"type":"Feature","geometry":{"type":"Polygon","coordinates":[[[-2.8506,53.3596],[-2.84931,53.36008],[-2.84829,53.36032],[-2.84779,53.36039],[-2.84728,53.36039],[-2.84667,53.3602],[-2.8465,53.35955],[-2.84556,53.35827],[-2.84502,53.35865],[-2.84501,53.35877],[-2.84472,53.35886],[-2.84378,53.35769],[-2.84068,53.35417],[-2.8213,53.35472],[-2.82166,53.35614],[-2.82106,53.3572],[-2.82104,53.35756],[-2.8214,53.35822],[-2.82235,53.35889],[-2.82249,53.35911],[-2.82213,53.36008],[-2.82194,53.36085],[-2.82196,53.36163],[-2.82219,53.36334],[-2.82267,53.36462],[-2.82315,53.36545],[-2.81734,53.36631],[-2.81961,53.36712],[-2.82145,53.36764],[-2.82208,53.36775],[-2.82051,53.36914],[-2.8203,53.36939],[-2.82025,53.36964],[-2.81948,53.36985],[-2.81824,53.37068],[-2.8175,53.37098],[-2.81708,53.37162],[-2.81746,53.37224],[-2.81797,53.37285],[-2.81845,53.37408],[-2.81878,53.37393],[-2.8201,53.37382],[-2.82053,53.37384],[-2.82102,53.37413],[-2.82135,53.37423],[-2.82378,53.37308],[-2.82489,53.37351],[-2.82555,53.37356],[-2.82613,53.37333],[-2.82792,53.37222],[-2.82942,53.37157],[-2.82948,53.37138],[-2.83004,53.37137],[-2.83057,53.37121],[-2.83135,53.37087],[-2.83273,53.37083],[-2.83338,53.37088],[-2.83401,53.37109],[-2.83519,53.37164],[-2.83851,53.3735],[-2.83902,53.37387],[-2.83946,53.37397],[-2.83964,53.37419],[-2.84116,53.37528],[-2.84162,53.37548],[-2.84275,53.3758],[-2.84343,53.37589],[-2.8483,53.37533],[-2.85074,53.37497],[-2.8531,53.37469],[-2.85237,53.37215],[-2.85209,53.37021],[-2.85203,53.36911],[-2.85336,53.36689],[-2.85369,53.36609],[-2.85366,53.36448],[-2.85355,53.36367],[-2.85341,53.36324],[-2.8529,53.36239],[-2.8506,53.3596]]]},"properties":{"code":"N83013","name":"THE HEALTH CENTRE SURGERY","icb":"QYG"}}]}