{"type":"FeatureCollection","features":[{"type":"Feature","geometry":{"type":"Polygon","coordinates":[[[-2.635503,53.470186],[-2.642511,53.471298],[-2.647806,53.471129],[-2.653413,53.461959],[-2.665593,53.450762],[-2.683752,53.452769],[-2.685067,53.450618],[-2.668503,53.447027],[-2.672701,53.437514],[-2.672203,53.434407],[-2.666962,53.420495],[-2.66264,53.41424],[-2.63835,53.4168],[-2.61475,53.4214],[-2.59028,53.42324],[-2.573987,53.423762],[-2.573076,53.426897],[-2.57164,53.43407],[-2.57566,53.4358],[-2.58403,53.43957],[-2.58762,53.44271],[-2.59086,53.44617],[-2.60009,53.45123],[-2.60213,53.45418],[-2.60537,53.45713],[-2.60948,53.45947],[-2.61461,53.46109],[-2.6262,53.46524],[-2.635503,53.470186]]]},"properties":{"code":"N83002","name":"PATTERDALE LODGE MED CTRE","icb":"QYG"}}]}