{"type":"FeatureCollection","features":[{"type":"Feature","geometry":{"type":"Polygon","coordinates":[[[-2.85181,53.426484],[-2.852154,53.426399],[-2.868547,53.431271],[-2.872453,53.428944],[-2.87271,53.427691],[-2.878418,53.42429],[-2.884169,53.420479],[-2.889125,53.418523],[-2.891722,53.414584],[-2.892323,53.411259],[-2.892644,53.40833],[-2.891078,53.406846],[-2.877796,53.408624],[-2.871916,53.400552],[-2.865715,53.400654],[-2.868655,53.406181],[-2.860372,53.408764],[-2.859857,53.407562],[-2.857411,53.408304],[-2.856381,53.407792],[-2.853549,53.406526],[-2.848914,53.406833],[-2.846789,53.406743],[-2.847261,53.408445],[-2.846146,53.409724],[-2.839751,53.413471],[-2.842669,53.421681],[-2.847691,53.420812],[-2.851381,53.426463],[-2.85181,53.426484]]]},"properties":{"code":"N83030","name":"DR M SUARES' PRACTICE","icb":"QYG"}}]}