{"type":"FeatureCollection","features":[{"type":"Feature","geometry":{"type":"Polygon","coordinates":[[[-2.78847,53.44922],[-2.79345,53.43357],[-2.81104,53.43403],[-2.82658,53.42713],[-2.80907,53.42171],[-2.80615,53.40017],[-2.80229,53.39666],[-2.79551,53.39531],[-2.78666,53.393],[-2.78624,53.39295],[-2.78847,53.4105],[-2.781,53.41062],[-2.76976,53.41155],[-2.76375,53.40708],[-2.7471,53.40421],[-2.7592,53.435],[-2.78847,53.44922]]]},"properties":{"code":"N83024","name":"PARK HOUSE MEDICAL CENTRE","icb":"QYG"}}]}