{"type":"FeatureCollection","features":[{"type":"Feature","geometry":{"type":"Polygon","coordinates":[[[-2.75688,53.41935],[-2.756506,53.418179],[-2.75688,53.4214],[-2.85404,53.45709],[-2.8549,53.45606],[-2.85662,53.43275],[-2.86503,53.40288],[-2.84889,53.40012],[-2.75276,53.40503],[-2.74933,53.40298],[-2.75551,53.41506],[-2.756506,53.418179],[-2.756046,53.414215],[-2.75585,53.41301],[-2.75517,53.41035],[-2.75517,53.4083],[-2.756046,53.414215],[-2.75688,53.41935]]]},"properties":{"code":"N83610","name":"COLBY MEDICAL CENTRE","icb":"QYG"}}]}