{"type":"FeatureCollection","features":[{"type":"Feature","geometry":{"type":"Polygon","coordinates":[[[-2.811786,53.389852],[-2.81113,53.40053],[-2.78727,53.40134],[-2.76478,53.40789],[-2.77576,53.41874],[-2.78881,53.42345],[-2.79259,53.44308],[-2.80409,53.46537],[-2.81885,53.467],[-2.83825,53.46639],[-2.87653,53.46414],[-2.871035,53.457598],[-2.87292,53.46271],[-2.853261,53.437543],[-2.85301,53.43736],[-2.83997,53.43613],[-2.852457,53.436512],[-2.84306,53.42447],[-2.82623,53.39029],[-2.82692,53.3952],[-2.81662,53.38497],[-2.79585,53.3736],[-2.80666,53.38108],[-2.811786,53.389852]]]},"properties":{"code":"N83609","name":"CEDAR CROSS MEDICAL CENTRE","icb":"QYG"}}]}