{"type":"FeatureCollection","features":[{"type":"Feature","geometry":{"type":"Polygon","coordinates":[[[-3.041595,53.502151],[-3.050641,53.497482],[-3.05303,53.497026],[-3.056721,53.497183],[-3.058184,53.49711],[-3.052596,53.488608],[-3.046654,53.482412],[-3.04155,53.479471],[-3.034952,53.475368],[-3.024227,53.468696],[-3.021427,53.469652],[-3.018961,53.469773],[-3.016073,53.46537],[-3.010329,53.466466],[-3.014672,53.471183],[-3.015726,53.474696],[-3.017228,53.476986],[-3.014034,53.479699],[-3.006513,53.486086],[-3.00169,53.488894],[-3.000827,53.492999],[-3.009199,53.497346],[-3.01185,53.499556],[-3.014753,53.500228],[-3.019373,53.497845],[-3.025475,53.499545],[-3.027729,53.498233],[-3.030452,53.497138],[-3.036809,53.498163],[-3.041595,53.502151]]]},"properties":{"code":"N84041","name":"KINGSWAY SURGERY","icb":"QYG"}}]}