{"type":"FeatureCollection","features":[{"type":"Feature","geometry":{"type":"Polygon","coordinates":[[[-3.053125,53.511372],[-3.05918,53.51143],[-3.059053,53.510676],[-3.05922,53.51066],[-3.058818,53.509279],[-3.05832,53.50632],[-3.058181,53.507091],[-3.05293,53.48904],[-3.04871,53.48233],[-3.044355,53.479225],[-3.03858,53.47479],[-3.037475,53.474318],[-3.02536,53.46766],[-3.0094,53.45916],[-3.009123,53.459158],[-3.00892,53.45905],[-2.98837,53.45904],[-3.00034,53.4679],[-3.005493,53.470029],[-3.00367,53.46948],[-3.00251,53.469],[-3.00227,53.46881],[-3.001117,53.468906],[-3.010995,53.472302],[-3.013,53.47313],[-3.01262,53.48272],[-3.006332,53.486714],[-2.9979,53.49237],[-2.98922,53.49732],[-2.99747,53.50352],[-3.003791,53.505699],[-3.010744,53.509247],[-3.01214,53.51133],[-3.015542,53.513351],[-3.01645,53.51419],[-3.01696,53.514194],[-3.01729,53.51439],[-3.020923,53.514336],[-3.027283,53.516758],[-3.02862,53.51776],[-3.042087,53.51345],[-3.045027,53.512608],[-3.053125,53.511372]]]},"properties":{"code":"N84011","name":"EASTVIEW SURGERY","icb":"QYG"}}]}