{"type":"FeatureCollection","features":[{"type":"Feature","geometry":{"type":"Polygon","coordinates":[[[-3.01264,53.45827],[-3.01173,53.45692],[-3.00723,53.45125],[-3.00491,53.44818],[-2.99899,53.44909],[-2.99892,53.44924],[-2.99693,53.44846],[-2.98418,53.44872],[-2.98071,53.44766],[-2.97663,53.4475],[-2.97472,53.45619],[-2.97592,53.4624],[-2.98088,53.46135],[-2.98697,53.46654],[-2.98847,53.46816],[-2.98957,53.46908],[-2.99107,53.46948],[-3.00375,53.46414],[-3.0068,53.46208],[-3.0095,53.46041],[-3.01017,53.45931],[-3.01264,53.45827]]]},"properties":{"code":"N84016","name":"MOORE STREET MEDICAL CENTRE","icb":"QYG"}}]}