{"type":"FeatureCollection","features":[{"type":"Feature","geometry":{"type":"Polygon","coordinates":[[[-3.015468,53.61154],[-3.008752,53.617077],[-3.001049,53.625057],[-2.999375,53.631776],[-3.002379,53.634104],[-3.014309,53.642882],[-3.012958,53.644205],[-3.014717,53.645528],[-3.035102,53.632629],[-3.034801,53.632629],[-3.036604,53.631509],[-3.026712,53.623556],[-3.028858,53.62031],[-3.025961,53.620104],[-3.029759,53.616491],[-3.024781,53.6128],[-3.015468,53.61154]]]},"properties":{"code":"N84024","name":"GRANGE SURGERY","icb":"QYG"}}]}