{"type":"FeatureCollection","features":[{"type":"Feature","geometry":{"type":"Polygon","coordinates":[[[-2.923458,53.522587],[-2.922915,53.522713],[-2.922606,53.522918],[-2.924683,53.523829],[-2.925004,53.523893],[-2.925219,53.524034],[-2.925519,53.524289],[-2.926355,53.525488],[-2.926484,53.52661],[-2.92687,53.527886],[-2.92687,53.528447],[-2.926805,53.5286],[-2.927082,53.529079],[-2.927942,53.530067],[-2.92923,53.530819],[-2.929851,53.531275],[-2.942021,53.538924],[-2.94351,53.53979],[-2.945408,53.540409],[-2.94794,53.540741],[-2.949995,53.541264],[-2.952158,53.541557],[-2.953045,53.542352],[-2.953488,53.542634],[-2.953852,53.543132],[-2.953862,53.54375],[-2.954679,53.544694],[-2.956224,53.545918],[-2.95691,53.5463],[-2.957672,53.547817],[-2.95794,53.551145],[-2.959592,53.553898],[-2.962875,53.546938],[-2.965836,53.543291],[-2.968365,53.541123],[-2.970428,53.540715],[-2.971454,53.540358],[-2.972401,53.539893],[-2.972338,53.539574],[-2.972141,53.539134],[-2.971587,53.53886],[-2.971884,53.538318],[-2.97257,53.537604],[-2.972016,53.53666],[-2.971716,53.535819],[-2.970171,53.534008],[-2.970203,53.533147],[-2.969742,53.532567],[-2.969248,53.531578],[-2.968637,53.530858],[-2.967658,53.529526],[-2.96708,53.528626],[-2.966651,53.526636],[-2.965278,53.525156],[-2.964248,53.523319],[-2.96407,53.52239],[-2.96477,53.51884],[-2.96495,53.51709],[-2.96375,53.51535],[-2.96245,53.51386],[-2.96193,53.51306],[-2.96134,53.51234],[-2.9592,53.50936],[-2.95698,53.50703],[-2.95616,53.50554],[-2.95565,53.505],[-2.95441,53.50402],[-2.95351,53.50351],[-2.95286,53.50299],[-2.9517,53.50241],[-2.95024,53.50199],[-2.94912,53.50141],[-2.94833,53.50081],[-2.94698,53.50058],[-2.94674,53.50044],[-2.94466,53.50427],[-2.933177,53.501733],[-2.934434,53.504772],[-2.93569,53.50781],[-2.933178,53.502142],[-2.92923,53.501628],[-2.926655,53.501934],[-2.928371,53.502447],[-2.927341,53.502651],[-2.920646,53.505814],[-2.915839,53.509183],[-2.92117,53.509982],[-2.9265,53.51078],[-2.915668,53.509287],[-2.911548,53.511023],[-2.910174,53.512655],[-2.91275,53.514798],[-2.92175,53.51615],[-2.914595,53.515384],[-2.916569,53.51717],[-2.917642,53.517502],[-2.918458,53.518089],[-2.920002,53.518743],[-2.919821,53.519052],[-2.91995,53.519262],[-2.920218,53.519454],[-2.920368,53.519537],[-2.920669,53.519562],[-2.921495,53.519785],[-2.922461,53.519964],[-2.922503,53.520532],[-2.922793,53.52094],[-2.923565,53.522563],[-2.923458,53.522587]]]},"properties":{"code":"N84003","name":"HIGH PASTURES SURGERY","icb":"QYG"}}]}