{"type":"FeatureCollection","features":[{"type":"Feature","geometry":{"type":"Polygon","coordinates":[[[-2.950935,53.484355],[-2.952036,53.485488],[-2.954833,53.48622],[-2.957706,53.486786],[-2.960845,53.486427],[-2.964272,53.487769],[-2.9675,53.4874],[-2.97015,53.48753],[-2.97287,53.48844],[-2.97592,53.48967],[-2.98269,53.49024],[-2.98816,53.49014],[-2.99114,53.48841],[-2.99588,53.48336],[-2.99661,53.48143],[-2.99611,53.47728],[-2.99621,53.47647],[-2.99792,53.47312],[-3.00047,53.47083],[-2.99604,53.46857],[-2.99273,53.4658],[-2.98603,53.46001],[-2.99257,53.45877],[-2.99121,53.45454],[-2.98454,53.45611],[-2.97092,53.45621],[-2.96759,53.45691],[-2.96798,53.45328],[-2.95847,53.45207],[-2.9555,53.45289],[-2.95437,53.45617],[-2.95359,53.45904],[-2.95058,53.4609],[-2.95185,53.46252],[-2.93687,53.46902],[-2.930143,53.476005],[-2.928595,53.477651],[-2.929357,53.477715],[-2.928991,53.478044],[-2.933648,53.477513],[-2.934375,53.479784],[-2.937619,53.480832],[-2.939158,53.481027],[-2.943533,53.482165],[-2.946996,53.482847],[-2.948363,53.484028],[-2.950935,53.484355]]]},"properties":{"code":"N84027","name":"ORRELL PARK MEDICAL CENTRE","icb":"QYG"}}]}