{"type":"FeatureCollection","features":[{"type":"Feature","geometry":{"type":"Polygon","coordinates":[[[-3.038464,53.582915],[-3.014497,53.611353],[-3.007642,53.608534],[-3.004095,53.611585],[-3.002327,53.613359],[-3.00813,53.617101],[-3.008185,53.617043],[-3.008239,53.617171],[-3.00813,53.617101],[-3.006907,53.618377],[-3.005955,53.618899],[-3.006319,53.619766],[-3.008897,53.620771],[-3.010488,53.620816],[-3.012779,53.620881],[-3.015113,53.620439],[-3.015723,53.620579],[-3.017116,53.620824],[-3.017707,53.621342],[-3.019701,53.621137],[-3.020142,53.62055],[-3.026684,53.619476],[-3.030711,53.615269],[-3.05008,53.61972],[-3.05489,53.6133],[-3.057234,53.605731],[-3.058566,53.601427],[-3.059084,53.597013],[-3.05731,53.592221],[-3.049551,53.587472],[-3.038464,53.582915]]]},"properties":{"code":"N84014","name":"AINSDALE VILLAGE SURGERY","icb":"QYG"}}]}