{"type":"FeatureCollection","features":[{"type":"Feature","geometry":{"type":"Polygon","coordinates":[[[-2.98618,53.65036],[-2.98427,53.64819],[-2.98777,53.64558],[-2.97468,53.64211],[-2.97101,53.63363],[-2.96798,53.63108],[-2.95704,53.64403],[-2.959592,53.647945],[-2.960494,53.649026],[-2.960987,53.650247],[-2.961459,53.653414],[-2.962446,53.653388],[-2.962682,53.654291],[-2.965118,53.654348],[-2.965826,53.656898],[-2.964807,53.658042],[-2.964538,53.658557],[-2.965075,53.659371],[-2.96544,53.660268],[-2.965879,53.66215],[-2.963541,53.663675],[-2.956288,53.67096],[-2.958755,53.671977],[-2.960923,53.6741],[-2.96088,53.675155],[-2.961717,53.675987],[-2.96294,53.677455],[-2.9653,53.67926],[-2.976608,53.683416],[-2.99905,53.66295],[-2.998,53.65942],[-2.99949,53.65882],[-2.98618,53.65036]]]},"properties":{"code":"N84008","name":"NORWOOD SURGERY","icb":"QYG"}}]}