{"type":"FeatureCollection","features":[{"type":"Feature","geometry":{"type":"Polygon","coordinates":[[[-3.018468,53.404396],[-3.01841,53.40431],[-3.01566,53.40523],[-3.01455,53.40554],[-3.01626,53.4102],[-3.01764,53.41219],[-3.02021,53.41449],[-3.02399,53.41833],[-3.02407,53.41905],[-3.0245,53.41935],[-3.0251,53.4192],[-3.02931,53.42508],[-3.03214,53.42948],[-3.0336,53.43352],[-3.03643,53.43955],[-3.03961,53.44088],[-3.04278,53.44047],[-3.04313,53.44068],[-3.044616,53.440195],[-3.04551,53.44125],[-3.0478,53.44122],[-3.05062,53.44087],[-3.05197,53.44017],[-3.05622,53.44031],[-3.06184,53.43881],[-3.07171,53.43521],[-3.075647,53.433169],[-3.11892,53.41588],[-3.11651,53.41045],[-3.116402,53.410452],[-3.11368,53.40587],[-3.1119,53.4022],[-3.1117,53.40165],[-3.11106,53.40114],[-3.10617,53.40172],[-3.10471,53.40271],[-3.09844,53.4048],[-3.0982,53.40722],[-3.09855,53.40786],[-3.09973,53.40928],[-3.102073,53.41082],[-3.09437,53.41148],[-3.08967,53.41172],[-3.08792,53.41189],[-3.08617,53.41319],[-3.07969,53.41675],[-3.07735,53.41696],[-3.07518,53.41667],[-3.06639,53.41649],[-3.06323,53.4162],[-3.06042,53.41518],[-3.05572,53.41269],[-3.05308,53.4105],[-3.05304,53.40983],[-3.05094,53.40843],[-3.04708,53.40677],[-3.04416,53.40467],[-3.04124,53.40411],[-3.028974,53.404738],[-3.02579,53.40365],[-3.022877,53.403601],[-3.02184,53.40411],[-3.018468,53.404396]]]},"properties":{"code":"N85012","name":"ST GEORGES MEDICAL CENTRE","icb":"QYG"}}]}