{"type":"FeatureCollection","features":[{"type":"Feature","geometry":{"type":"Polygon","coordinates":[[[-3.098918,53.385037],[-3.10359,53.386244],[-3.10426,53.386502],[-3.105099,53.386824],[-3.11072,53.38788],[-3.11475,53.38788],[-3.11934,53.38823],[-3.12385,53.38791],[-3.12947,53.38676],[-3.14505,53.38151],[-3.14994,53.38164],[-3.15355,53.38049],[-3.15316,53.37693],[-3.1532,53.37637],[-3.15282,53.37288],[-3.14977,53.37155],[-3.1463,53.37058],[-3.14306,53.37087],[-3.13956,53.37194],[-3.13703,53.3716],[-3.13544,53.3682],[-3.12932,53.36662],[-3.12691,53.36571],[-3.12484,53.36602],[-3.136949,53.35797],[-3.130376,53.350579],[-3.121266,53.350813],[-3.112773,53.35385],[-3.107121,53.355317],[-3.111137,53.360293],[-3.11716,53.36529],[-3.11504,53.36584],[-3.11301,53.36683],[-3.11205,53.36838],[-3.1115,53.3697],[-3.10962,53.37126],[-3.10826,53.37286],[-3.10621,53.37396],[-3.09694,53.37606],[-3.09883,53.38077],[-3.098778,53.381489],[-3.098918,53.385037]]]},"properties":{"code":"N85032","name":"GREASBY GROUP PRACTICE","icb":"QYG"}}]}