{"type":"FeatureCollection","features":[{"type":"Feature","geometry":{"type":"Polygon","coordinates":[[[-3.04441,53.43991],[-3.05306,53.44013],[-3.057388,53.439793],[-3.06171,53.43851],[-3.06976,53.43612],[-3.073587,53.434618],[-3.07746,53.4328],[-3.10741,53.41874],[-3.1181,53.414622],[-3.11497,53.40789],[-3.111549,53.401091],[-3.108439,53.401256],[-3.106738,53.401437],[-3.10453,53.40265],[-3.099473,53.404153],[-3.096178,53.40477],[-3.093215,53.40458],[-3.08767,53.40442],[-3.085875,53.407714],[-3.081958,53.410541],[-3.072977,53.414415],[-3.067116,53.415514],[-3.061854,53.414303],[-3.055227,53.412016],[-3.049771,53.40889],[-3.046223,53.40736],[-3.042562,53.405262],[-3.040007,53.405042],[-3.037749,53.40541],[-3.030813,53.406147],[-3.027179,53.405159],[-3.024817,53.404615],[-3.021959,53.404542],[-3.018642,53.407453],[-3.017399,53.409735],[-3.018323,53.412936],[-3.02227,53.41634],[-3.029708,53.425362],[-3.033757,53.433917],[-3.03605,53.43847],[-3.03744,53.44058],[-3.03987,53.44065],[-3.04441,53.43991]]]},"properties":{"code":"N85025","name":"ST HILARY GROUP PRACTICE","icb":"QYG"}}]}