{"type":"FeatureCollection","features":[{"type":"Feature","geometry":{"type":"Polygon","coordinates":[[[-3.01496,53.388355],[-3.014927,53.388357],[-3.01492,53.388371],[-3.014974,53.38835],[-3.015602,53.388444],[-3.016699,53.38858],[-3.01739,53.388689],[-3.017992,53.388795],[-3.01978,53.389017],[-3.019977,53.389027],[-3.020251,53.388996],[-3.020451,53.388968],[-3.020815,53.388918],[-3.021517,53.388924],[-3.023025,53.388819],[-3.024254,53.388779],[-3.0254,53.388741],[-3.026494,53.38871],[-3.026801,53.388712],[-3.027005,53.38872],[-3.028362,53.388675],[-3.028877,53.388658],[-3.030065,53.388196],[-3.030535,53.388999],[-3.03055,53.38936],[-3.031145,53.389358],[-3.032664,53.389352],[-3.037606,53.389334],[-3.04622,53.38952],[-3.050121,53.389505],[-3.050226,53.390471],[-3.051456,53.390497],[-3.052332,53.390964],[-3.053729,53.391708],[-3.055676,53.392067],[-3.057245,53.392312],[-3.059533,53.392003],[-3.063017,53.391758],[-3.062276,53.390892],[-3.060184,53.388824],[-3.05991,53.38806],[-3.05669,53.38428],[-3.05562,53.38371],[-3.05398,53.3832],[-3.05244,53.38236],[-3.051818,53.381632],[-3.051332,53.380841],[-3.05042,53.37977],[-3.050031,53.379137],[-3.04974,53.37852],[-3.050563,53.37836],[-3.063192,53.375727],[-3.066271,53.375085],[-3.072296,53.374268],[-3.071104,53.370531],[-3.070814,53.369077],[-3.069425,53.365302],[-3.066466,53.361936],[-3.061248,53.357989],[-3.045922,53.348274],[-3.040414,53.348433],[-3.033067,53.348274],[-3.029159,53.348402],[-3.026517,53.348489],[-3.01828,53.348421],[-3.012488,53.348441],[-3.004825,53.350036],[-3.00329,53.350417],[-3.003306,53.356671],[-3.004054,53.360448],[-3.004652,53.362889],[-3.005277,53.366045],[-3.01084,53.377375],[-3.013034,53.379874],[-3.01436,53.381487],[-3.014907,53.383398],[-3.014394,53.385389],[-3.01486,53.387737],[-3.014927,53.388357],[-3.014942,53.388325],[-3.01496,53.388355]]]},"properties":{"code":"N85020","name":"ST CATHERINE'S SURGERY","icb":"QYG"}}]}