{"type":"FeatureCollection","features":[{"type":"Feature","geometry":{"type":"Polygon","coordinates":[[[-3.05716,53.43981],[-3.05703,53.44001],[-3.06218,53.43861],[-3.06536,53.43766],[-3.07231,53.43513],[-3.07214,53.4347],[-3.07167,53.43431],[-3.07059,53.43222],[-3.07081,53.4316],[-3.07158,53.43045],[-3.07257,53.42946],[-3.0733,53.4283],[-3.07785,53.42588],[-3.07883,53.42472],[-3.07883,53.42288],[-3.07789,53.4204],[-3.07647,53.41736],[-3.07514,53.41472],[-3.07398,53.41439],[-3.06965,53.41559],[-3.0675,53.41593],[-3.06325,53.41593],[-3.06124,53.41508],[-3.06004,53.41414],[-3.05763,53.41357],[-3.052654,53.408918],[-3.05008,53.40769],[-3.047677,53.406667],[-3.04373,53.404825],[-3.037381,53.404415],[-3.032745,53.405029],[-3.020736,53.404825],[-3.017132,53.405132],[-3.015073,53.407383],[-3.015919,53.409941],[-3.017722,53.412448],[-3.022444,53.416592],[-3.024679,53.418433],[-3.026219,53.420377],[-3.026563,53.421298],[-3.028894,53.424261],[-3.03098,53.42815],[-3.0324,53.4303],[-3.03339,53.43263],[-3.03416,53.43465],[-3.03407,53.43465],[-3.03626,53.43884],[-3.04006,53.44187],[-3.05716,53.43981]]]},"properties":{"code":"N85620","name":"THE VILLAGE MEDICAL CENTRE","icb":"QYG"}}]}