{"type":"FeatureCollection","features":[{"type":"Feature","geometry":{"type":"Polygon","coordinates":[[[-3.082755,53.431213],[-3.109516,53.419225],[-3.09866,53.40789],[-3.094953,53.405322],[-3.087739,53.408202],[-3.078093,53.413586],[-3.065979,53.416589],[-3.058914,53.414259],[-3.049662,53.410207],[-3.046004,53.407736],[-3.039965,53.405566],[-3.037064,53.405673],[-3.035733,53.406609],[-3.013164,53.404792],[-3.025498,53.423937],[-3.032358,53.433795],[-3.035159,53.438921],[-3.04132,53.44308],[-3.059034,53.440133],[-3.076253,53.435002],[-3.082445,53.430646],[-3.082755,53.431213]]]},"properties":{"code":"N85616","name":"LISCARD GROUP PRACTICE","icb":"QYG"}}]}