{"type":"FeatureCollection","features":[{"type":"Feature","geometry":{"type":"Polygon","coordinates":[[[-2.3032,53.79727],[-2.30412,53.79609],[-2.30593,53.79513],[-2.2994,53.78935],[-2.25872,53.77063],[-2.19057,53.75315],[-2.178939,53.779076],[-2.179499,53.80259],[-2.181129,53.802463],[-2.182825,53.802438],[-2.183061,53.802919],[-2.18364,53.803312],[-2.18478,53.80359],[-2.185378,53.803654],[-2.186065,53.803578],[-2.187824,53.804693],[-2.188103,53.805035],[-2.188232,53.805682],[-2.18984,53.80582],[-2.19061,53.80856],[-2.196879,53.814627],[-2.199412,53.818288],[-2.201428,53.820314],[-2.203445,53.821302],[-2.204604,53.821201],[-2.206106,53.821302],[-2.207522,53.821784],[-2.213745,53.822696],[-2.220185,53.823253],[-2.226449,53.824368],[-2.230912,53.823709],[-2.236662,53.82376],[-2.244215,53.824621],[-2.25258,53.81707],[-2.27662,53.80909],[-2.3032,53.79727]]]},"properties":{"code":"P81047","name":"PARKSIDE SURGERY","icb":"QE1"}}]}