{"type":"FeatureCollection","features":[{"type":"Feature","geometry":{"type":"Polygon","coordinates":[[[-2.758917,54.075855],[-2.70195,54.085979],[-2.69268,54.09585],[-2.66762,54.10611],[-2.64736,54.12121],[-2.63294,54.14032],[-2.61681,54.16545],[-2.608566,54.180119],[-2.644272,54.195387],[-2.686157,54.21908],[-2.686157,54.239149],[-2.698517,54.263419],[-2.71637,54.275449],[-2.704697,54.282865],[-2.71225,54.296893],[-2.728386,54.299097],[-2.745895,54.289078],[-2.777481,54.289279],[-2.832069,54.288477],[-2.817993,54.255398],[-2.795334,54.229517],[-2.831039,54.210247],[-2.870522,54.188155],[-2.831383,54.153387],[-2.81559,54.13629],[-2.79533,54.12221],[-2.820889,54.090221],[-2.820516,54.091573],[-2.826576,54.084166],[-2.82486,54.085778],[-2.824489,54.085711],[-2.828293,54.080944],[-2.769928,54.073894],[-2.759119,54.075819],[-2.708817,54.076311],[-2.708647,54.076502],[-2.758917,54.075855]]]},"properties":{"code":"P81029","name":"ASH TREES SURGERY","icb":"QE1"}}]}