{"type":"FeatureCollection","features":[{"type":"Feature","geometry":{"type":"Polygon","coordinates":[[[-2.22336,53.87346],[-2.26314,53.86784],[-2.26503,53.86878],[-2.27181,53.86693],[-2.28254,53.86161],[-2.29138,53.84346],[-2.28709,53.83336],[-2.28099,53.82766],[-2.27022,53.82867],[-2.26533,53.83004],[-2.26014,53.82105],[-2.25786,53.81955],[-2.25181,53.81702],[-2.24555,53.81613],[-2.2222,53.81715],[-2.22173,53.81836],[-2.19632,53.81325],[-2.18963,53.81281],[-2.17954,53.81403],[-2.17521,53.82265],[-2.1783,53.83042],[-2.16941,53.84741],[-2.16928,53.85273],[-2.181,53.85341],[-2.18194,53.85539],[-2.19091,53.86118],[-2.20078,53.86326],[-2.22336,53.87346]]]},"properties":{"code":"P81032","name":"REEDYFORD HLTH CARE GROUP","icb":"QE1"}}]}