{"type":"FeatureCollection","features":[{"type":"Feature","geometry":{"type":"Polygon","coordinates":[[[-2.7074,53.774778],[-2.708645,53.775957],[-2.702057,53.77602],[-2.689826,53.776502],[-2.68738,53.777669],[-2.679055,53.778949],[-2.677081,53.780826],[-2.659829,53.783742],[-2.660151,53.785466],[-2.664528,53.788711],[-2.663691,53.79439],[-2.670708,53.796595],[-2.695169,53.813246],[-2.703667,53.816641],[-2.70092,53.822822],[-2.70195,53.830573],[-2.726326,53.834372],[-2.738643,53.833081],[-2.74581,53.823354],[-2.749329,53.823456],[-2.754865,53.824418],[-2.756603,53.818566],[-2.758641,53.81564],[-2.761066,53.815057],[-2.759199,53.813385],[-2.758942,53.80947],[-2.760057,53.805796],[-2.761817,53.803464],[-2.76422,53.799637],[-2.763963,53.797229],[-2.777095,53.793832],[-2.781644,53.791196],[-2.781258,53.787545],[-2.775764,53.781409],[-2.772095,53.780851],[-2.769992,53.77919],[-2.76495,53.778442],[-2.75774,53.778163],[-2.751775,53.779127],[-2.751324,53.784325],[-2.744737,53.783894],[-2.741218,53.780179],[-2.738578,53.779482],[-2.735445,53.77914],[-2.733986,53.778227],[-2.734845,53.777288],[-2.731841,53.775741],[-2.730446,53.77318],[-2.728987,53.772736],[-2.728515,53.770846],[-2.71579,53.773281],[-2.713516,53.769857],[-2.705791,53.771595],[-2.7074,53.774778]]]},"properties":{"code":"P81015","name":"LYTHAM ROAD SURGERY","icb":"QE1"}}]}