{"type":"FeatureCollection","features":[{"type":"Feature","geometry":{"type":"Polygon","coordinates":[[[-3.05377,53.84964],[-3.05568,53.83056],[-3.05553,53.81309],[-3.05658,53.7943],[-3.05856,53.78986],[-3.05814,53.78541],[-3.05771,53.77974],[-3.05523,53.77692],[-3.02566,53.78194],[-3.02224,53.78288],[-3.02075,53.78168],[-3.01891,53.78088],[-3.0156,53.77454],[-2.98914,53.77509],[-2.99122,53.78084],[-2.9909,53.78501],[-2.98598,53.78799],[-2.98098,53.78965],[-2.99891,53.80288],[-3.00062,53.80471],[-3.01296,53.80562],[-3.01349,53.80669],[-3.01299,53.80867],[-3.01678,53.80952],[-3.0198,53.81093],[-3.01708,53.81593],[-3.01702,53.81882],[-3.01811,53.82012],[-3.01719,53.8218],[-3.01782,53.82322],[-3.01181,53.82645],[-3.00616,53.8276],[-3.00442,53.82825],[-3.00278,53.82916],[-2.99757,53.82954],[-2.9941,53.83008],[-2.99373,53.83154],[-2.9936,53.8358],[-2.99136,53.83984],[-2.99228,53.8432],[-2.99208,53.84615],[-3.00034,53.85048],[-3.00184,53.85243],[-3.02605,53.86104],[-3.03489,53.85286],[-3.05377,53.84964]]]},"properties":{"code":"P81016","name":"WATERLOO MEDICAL CENTRE","icb":"QE1"}}]}