{"type":"FeatureCollection","features":[{"type":"Feature","geometry":{"type":"Polygon","coordinates":[[[-2.521642,53.937196],[-2.522421,53.936983],[-2.523646,53.936358],[-2.524955,53.936292],[-2.525451,53.936253],[-2.525907,53.936172],[-2.526477,53.935853],[-2.52723,53.935691],[-2.528202,53.935048],[-2.528936,53.934321],[-2.529408,53.933455],[-2.529473,53.932552],[-2.529149,53.932514],[-2.529815,53.930709],[-2.529691,53.930743],[-2.529604,53.930726],[-2.529479,53.930665],[-2.529369,53.930637],[-2.529202,53.930643],[-2.529093,53.930669],[-2.528998,53.930723],[-2.528927,53.930731],[-2.528821,53.930687],[-2.528609,53.930569],[-2.528263,53.930555],[-2.527837,53.930466],[-2.527034,53.93026],[-2.526292,53.929949],[-2.526104,53.929283],[-2.525783,53.92852],[-2.525347,53.927769],[-2.524606,53.927139],[-2.524107,53.926756],[-2.523344,53.926437],[-2.523215,53.926071],[-2.523033,53.925732],[-2.523112,53.925518],[-2.52337,53.925447],[-2.523453,53.925328],[-2.52335,53.925191],[-2.523366,53.925045],[-2.523351,53.924975],[-2.523229,53.924907],[-2.523534,53.924504],[-2.52377,53.924095],[-2.523519,53.923276],[-2.523998,53.921979],[-2.524211,53.920665],[-2.524038,53.920342],[-2.523588,53.920071],[-2.522382,53.919566],[-2.520405,53.918685],[-2.520083,53.918442],[-2.519819,53.918243],[-2.519862,53.917841],[-2.520358,53.917563],[-2.521619,53.917078],[-2.523464,53.916575],[-2.523659,53.915151],[-2.523884,53.914769],[-2.526645,53.914201],[-2.527681,53.913834],[-2.52841,53.913248],[-2.529181,53.911943],[-2.529874,53.909574],[-2.530323,53.907035],[-2.530365,53.905096],[-2.530438,53.904072],[-2.530101,53.903729],[-2.529761,53.903385],[-2.528285,53.902457],[-2.526778,53.901723],[-2.528631,53.899697],[-2.530885,53.897862],[-2.531762,53.897461],[-2.532559,53.897096],[-2.532802,53.896731],[-2.532574,53.89626],[-2.531449,53.895736],[-2.531148,53.895367],[-2.530895,53.895056],[-2.53079,53.894686],[-2.532305,53.89334],[-2.533354,53.891954],[-2.534072,53.890799],[-2.533942,53.890087],[-2.533859,53.889638],[-2.53381,53.889371],[-2.534759,53.888994],[-2.536013,53.88877],[-2.539,53.888443],[-2.540342,53.888316],[-2.54171,53.888022],[-2.542582,53.887713],[-2.542662,53.887264],[-2.542476,53.886658],[-2.541936,53.886112],[-2.540948,53.885945],[-2.539929,53.886197],[-2.538922,53.886202],[-2.538405,53.885762],[-2.538599,53.884667],[-2.53834,53.884221],[-2.537793,53.883849],[-2.536624,53.883801],[-2.535078,53.88341],[-2.534275,53.883163],[-2.534506,53.882872],[-2.535407,53.882585],[-2.536772,53.882042],[-2.5363,53.881923],[-2.535953,53.881781],[-2.535749,53.881525],[-2.535622,53.881309],[-2.53545,53.88109],[-2.535433,53.880904],[-2.535201,53.880706],[-2.535079,53.880388],[-2.53487,53.880257],[-2.534698,53.880027],[-2.534468,53.879844],[-2.53428,53.879624],[-2.534242,53.87944],[-2.53394,53.879224],[-2.53371,53.878932],[-2.533003,53.878388],[-2.532159,53.878106],[-2.53127,53.878008],[-2.531421,53.877493],[-2.531267,53.876991],[-2.531053,53.876688],[-2.530354,53.876019],[-2.529792,53.875305],[-2.528875,53.874921],[-2.528596,53.873842],[-2.527955,53.872736],[-2.528084,53.871534],[-2.528257,53.870265],[-2.528276,53.869368],[-2.529197,53.868655],[-2.528917,53.868486],[-2.528678,53.867182],[-2.528538,53.862931],[-2.534788,53.85859],[-2.533863,53.85501],[-2.533093,53.853936],[-2.534012,53.85171],[-2.533846,53.847785],[-2.535219,53.842578],[-2.533439,53.839374],[-2.532429,53.837939],[-2.532608,53.836923],[-2.533357,53.83618],[-2.533045,53.835813],[-2.533441,53.835428],[-2.534015,53.834565],[-2.534469,53.833964],[-2.534479,53.833529],[-2.535076,53.832892],[-2.535312,53.831997],[-2.534329,53.831585],[-2.53371,53.831176],[-2.533404,53.830697],[-2.53339,53.829866],[-2.532292,53.8289],[-2.532136,53.827818],[-2.531069,53.826564],[-2.531215,53.826082],[-2.531206,53.825519],[-2.530849,53.825041],[-2.530426,53.82468],[-2.529983,53.824302],[-2.529657,53.823578],[-2.530407,53.822758],[-2.529822,53.821974],[-2.529892,53.821818],[-2.529481,53.821267],[-2.529422,53.820947],[-2.529215,53.820765],[-2.529301,53.820393],[-2.528353,53.820007],[-2.528433,53.819556],[-2.529142,53.819259],[-2.52791,53.818483],[-2.527268,53.817727],[-2.526701,53.817352],[-2.525941,53.817244],[-2.524916,53.816941],[-2.525365,53.816265],[-2.526042,53.815763],[-2.526341,53.815256],[-2.526949,53.814737],[-2.52743,53.814224],[-2.526362,53.813627],[-2.52494,53.813208],[-2.523471,53.813216],[-2.521855,53.813426],[-2.521536,53.81252],[-2.51974,53.812907],[-2.519554,53.81288],[-2.517967,53.813665],[-2.517574,53.813884],[-2.517343,53.814113],[-2.516446,53.814613],[-2.516151,53.814707],[-2.51587,53.814688],[-2.515218,53.814578],[-2.515247,53.814909],[-2.514936,53.815524],[-2.514049,53.816495],[-2.511439,53.818062],[-2.508213,53.819464],[-2.507187,53.819989],[-2.506148,53.820488],[-2.50355,53.82141],[-2.50177,53.822227],[-2.499869,53.823098],[-2.499053,53.823014],[-2.497867,53.821971],[-2.496829,53.820348],[-2.495504,53.818788],[-2.494862,53.818001],[-2.493477,53.818109],[-2.491954,53.818807],[-2.490732,53.820021],[-2.490375,53.821153],[-2.489332,53.822188],[-2.487158,53.823054],[-2.484413,53.823248],[-2.483842,53.822992],[-2.482992,53.82293],[-2.482119,53.823169],[-2.481879,53.823035],[-2.481477,53.822779],[-2.481424,53.82226],[-2.481005,53.821859],[-2.480926,53.821269],[-2.480859,53.820498],[-2.480761,53.819965],[-2.480809,53.819306],[-2.480272,53.8189],[-2.482172,53.81776],[-2.481515,53.817466],[-2.481394,53.817068],[-2.481394,53.816558],[-2.48149,53.816141],[-2.48119,53.815361],[-2.480991,53.814415],[-2.48118,53.813066],[-2.48118,53.812527],[-2.479643,53.811456],[-2.478683,53.810906],[-2.477929,53.810449],[-2.477319,53.809811],[-2.47705,53.80917],[-2.476917,53.808539],[-2.477127,53.808223],[-2.477029,53.807904],[-2.4774,53.807435],[-2.477817,53.807295],[-2.478431,53.807234],[-2.479238,53.807101],[-2.479681,53.806979],[-2.480009,53.806909],[-2.480399,53.806828],[-2.481225,53.806565],[-2.481561,53.806393],[-2.48185,53.80626],[-2.482011,53.806325],[-2.482192,53.806261],[-2.482372,53.806296],[-2.482504,53.806451],[-2.482692,53.806418],[-2.483072,53.806388],[-2.48322,53.806361],[-2.48341,53.806576],[-2.483791,53.806417],[-2.484037,53.806322],[-2.484013,53.806209],[-2.484289,53.806125],[-2.484172,53.806037],[-2.48412,53.805963],[-2.484438,53.805928],[-2.484576,53.805738],[-2.484715,53.805547],[-2.484669,53.805242],[-2.484372,53.804906],[-2.484394,53.804782],[-2.484453,53.80453],[-2.484659,53.804198],[-2.474487,53.80206],[-2.470195,53.801446],[-2.455804,53.79774],[-2.456831,53.795713],[-2.456632,53.795004],[-2.455756,53.794769],[-2.455122,53.794494],[-2.453971,53.794319],[-2.452917,53.794195],[-2.452038,53.794027],[-2.451228,53.793201],[-2.449633,53.791163],[-2.448221,53.7895],[-2.447607,53.789093],[-2.44757,53.788973],[-2.445538,53.790137],[-2.443823,53.79133],[-2.439984,53.795231],[-2.435888,53.797296],[-2.431601,53.799264],[-2.422955,53.803045],[-2.420933,53.804159],[-2.419124,53.805394],[-2.416984,53.807047],[-2.412427,53.809784],[-2.412705,53.811701],[-2.413189,53.812208],[-2.413433,53.812663],[-2.413847,53.812769],[-2.414737,53.8134],[-2.41534,53.813586],[-2.415885,53.813882],[-2.417109,53.814584],[-2.415881,53.815536],[-2.416349,53.815873],[-2.416697,53.816391],[-2.417153,53.81724],[-2.41778,53.817172],[-2.416212,53.819152],[-2.416455,53.819233],[-2.416914,53.819157],[-2.41801,53.819469],[-2.418112,53.818839],[-2.41846,53.818764],[-2.418555,53.819706],[-2.416754,53.821493],[-2.415303,53.820706],[-2.412563,53.819843],[-2.409834,53.81927],[-2.407696,53.818835],[-2.405748,53.818281],[-2.404587,53.818531],[-2.404237,53.818731],[-2.403299,53.818805],[-2.401581,53.818778],[-2.400299,53.818823],[-2.399025,53.819021],[-2.397787,53.81891],[-2.39738,53.81872],[-2.397014,53.818231],[-2.396589,53.816435],[-2.395674,53.815939],[-2.394345,53.815432],[-2.393413,53.814816],[-2.393241,53.814147],[-2.394745,53.812498],[-2.396453,53.811473],[-2.398438,53.810562],[-2.399211,53.80994],[-2.399407,53.809092],[-2.398563,53.807393],[-2.397937,53.806554],[-2.397669,53.805792],[-2.398477,53.804771],[-2.398909,53.804121],[-2.398785,53.803444],[-2.398004,53.803146],[-2.397101,53.803017],[-2.393191,53.803214],[-2.391893,53.803028],[-2.390441,53.80257],[-2.389191,53.802359],[-2.387621,53.80247],[-2.386026,53.802391],[-2.386026,53.802774],[-2.386664,53.803282],[-2.386545,53.803452],[-2.387186,53.8038],[-2.387242,53.804065],[-2.387315,53.804608],[-2.386966,53.80511],[-2.386452,53.805575],[-2.386281,53.80604],[-2.386837,53.806723],[-2.386991,53.807],[-2.38667,53.807352],[-2.385848,53.807822],[-2.385053,53.8083],[-2.38377,53.808606],[-2.382665,53.809007],[-2.38238,53.810091],[-2.381797,53.810142],[-2.381562,53.810317],[-2.381217,53.810282],[-2.380974,53.810403],[-2.380666,53.810613],[-2.380193,53.810622],[-2.379991,53.810818],[-2.379208,53.811057],[-2.378267,53.811622],[-2.37799,53.812068],[-2.378332,53.812498],[-2.378212,53.813379],[-2.378124,53.813617],[-2.378221,53.813792],[-2.377717,53.813857],[-2.377178,53.814086],[-2.376415,53.814238],[-2.375929,53.814506],[-2.375677,53.814665],[-2.375828,53.81516],[-2.375642,53.81519],[-2.375444,53.815533],[-2.37509,53.815736],[-2.374758,53.815882],[-2.374922,53.815981],[-2.375072,53.816182],[-2.375345,53.816415],[-2.375312,53.816866],[-2.375144,53.81701],[-2.374853,53.817122],[-2.374595,53.817449],[-2.374645,53.817627],[-2.374494,53.817817],[-2.374713,53.818111],[-2.37473,53.818305],[-2.37475,53.818529],[-2.375071,53.818731],[-2.375552,53.819234],[-2.375677,53.819763],[-2.37613,53.820276],[-2.376634,53.820705],[-2.37701,53.821009],[-2.377321,53.821257],[-2.37774,53.821553],[-2.377945,53.821874],[-2.378435,53.822292],[-2.378936,53.822678],[-2.379575,53.822812],[-2.380225,53.822949],[-2.377427,53.825332],[-2.374645,53.827081],[-2.371163,53.82919],[-2.367119,53.831812],[-2.363647,53.832869],[-2.362526,53.833055],[-2.361976,53.833267],[-2.361598,53.833529],[-2.36102,53.83354],[-2.364529,53.83711],[-2.360581,53.839149],[-2.358228,53.840267],[-2.355609,53.841065],[-2.354589,53.842131],[-2.353901,53.842642],[-2.351917,53.843928],[-2.349755,53.842376],[-2.349121,53.842827],[-2.348677,53.842969],[-2.348332,53.84286],[-2.347968,53.842867],[-2.347417,53.843658],[-2.346897,53.844003],[-2.346399,53.844183],[-2.344935,53.844864],[-2.343661,53.845689],[-2.337949,53.850346],[-2.337245,53.850359],[-2.335607,53.850881],[-2.334359,53.851809],[-2.331986,53.852669],[-2.331465,53.853073],[-2.330741,53.854315],[-2.329836,53.854932],[-2.327374,53.856286],[-2.319629,53.858327],[-2.319834,53.85838],[-2.319909,53.858572],[-2.31979,53.858948],[-2.320068,53.859185],[-2.320257,53.859476],[-2.320223,53.859624],[-2.320254,53.859988],[-2.319945,53.860379],[-2.319578,53.86065],[-2.319532,53.860934],[-2.319309,53.861107],[-2.319408,53.861293],[-2.318985,53.861676],[-2.318434,53.861958],[-2.318024,53.86207],[-2.317756,53.862206],[-2.317446,53.862305],[-2.317216,53.862621],[-2.316125,53.863098],[-2.315911,53.863368],[-2.315356,53.863582],[-2.314937,53.864136],[-2.314063,53.864586],[-2.312801,53.865011],[-2.311745,53.865501],[-2.308608,53.868291],[-2.305156,53.870688],[-2.297519,53.872054],[-2.296382,53.872457],[-2.288737,53.873624],[-2.28569,53.873957],[-2.28214,53.875744],[-2.278552,53.87731],[-2.275994,53.878482],[-2.273887,53.878902],[-2.27347,53.878985],[-2.272931,53.87863],[-2.273077,53.87847],[-2.271637,53.877094],[-2.271046,53.87664],[-2.27063,53.876118],[-2.270109,53.875744],[-2.269318,53.875705],[-2.26586,53.875825],[-2.263567,53.876451],[-2.263474,53.876801],[-2.26279,53.876751],[-2.25886,53.877736],[-2.258571,53.878306],[-2.258987,53.879081],[-2.258503,53.879611],[-2.258521,53.880678],[-2.259171,53.881178],[-2.2594,53.881926],[-2.258161,53.882279],[-2.256933,53.882434],[-2.255559,53.882475],[-2.255149,53.882992],[-2.254379,53.883146],[-2.253486,53.88311],[-2.25281,53.883849],[-2.25172,53.884372],[-2.250442,53.884924],[-2.249628,53.885028],[-2.249397,53.885191],[-2.249319,53.885365],[-2.248882,53.885606],[-2.248529,53.885365],[-2.246284,53.885825],[-2.245293,53.886176],[-2.242693,53.886712],[-2.241583,53.88691],[-2.239986,53.886885],[-2.238429,53.886782],[-2.237174,53.887311],[-2.235252,53.887118],[-2.234204,53.887278],[-2.231882,53.888681],[-2.231115,53.888625],[-2.230352,53.888816],[-2.230336,53.888739],[-2.22989,53.8889],[-2.228858,53.888931],[-2.228302,53.889198],[-2.227476,53.889449],[-2.226721,53.889574],[-2.226254,53.889788],[-2.225951,53.890005],[-2.225424,53.890233],[-2.224787,53.890426],[-2.224257,53.890702],[-2.223986,53.891044],[-2.223432,53.892136],[-2.223202,53.892861],[-2.222874,53.893104],[-2.223175,53.893819],[-2.223142,53.894608],[-2.223105,53.896344],[-2.224115,53.897031],[-2.225297,53.897565],[-2.226452,53.897799],[-2.227449,53.897711],[-2.22697,53.898772],[-2.227392,53.899213],[-2.227764,53.899793],[-2.229349,53.901942],[-2.231113,53.903934],[-2.233807,53.906499],[-2.234255,53.906992],[-2.234547,53.907442],[-2.235261,53.908618],[-2.235849,53.910537],[-2.236911,53.912979],[-2.23719,53.914305],[-2.237682,53.915647],[-2.239351,53.918028],[-2.240109,53.918957],[-2.240722,53.919255],[-2.24212,53.921289],[-2.243357,53.923364],[-2.243659,53.923767],[-2.244492,53.926551],[-2.244503,53.92894],[-2.244866,53.931638],[-2.245847,53.933399],[-2.245434,53.93375],[-2.243513,53.934296],[-2.242245,53.935237],[-2.240913,53.935511],[-2.240806,53.935649],[-2.24018,53.935871],[-2.240042,53.936462],[-2.239418,53.93666],[-2.237889,53.936713],[-2.237025,53.937302],[-2.235945,53.937645],[-2.234965,53.937924],[-2.23456,53.938156],[-2.234009,53.938254],[-2.233774,53.938564],[-2.232325,53.938853],[-2.230893,53.939009],[-2.22985,53.939504],[-2.228481,53.940832],[-2.228361,53.941098],[-2.225033,53.941813],[-2.226052,53.942707],[-2.225787,53.942791],[-2.22562,53.942965],[-2.225698,53.943186],[-2.225954,53.943324],[-2.225733,53.943626],[-2.225272,53.943736],[-2.225004,53.943761],[-2.224907,53.943696],[-2.224814,53.943504],[-2.224953,53.943269],[-2.224829,53.943159],[-2.224673,53.943152],[-2.224453,53.943207],[-2.224307,53.943136],[-2.224064,53.943154],[-2.224035,53.943044],[-2.224359,53.942781],[-2.224277,53.942681],[-2.223741,53.942684],[-2.223105,53.942696],[-2.222754,53.942789],[-2.222698,53.942924],[-2.222637,53.943072],[-2.222466,53.943165],[-2.222131,53.943225],[-2.222007,53.943355],[-2.221794,53.943437],[-2.221277,53.943338],[-2.220797,53.943352],[-2.220728,53.943451],[-2.220428,53.943513],[-2.220235,53.94341],[-2.220078,53.943276],[-2.219795,53.943205],[-2.219597,53.943351],[-2.219242,53.943506],[-2.218867,53.943573],[-2.217989,53.943515],[-2.217617,53.943316],[-2.217726,53.943022],[-2.217558,53.942875],[-2.217463,53.942799],[-2.217455,53.942707],[-2.217328,53.942404],[-2.216885,53.942207],[-2.21643,53.94182],[-2.21589,53.941823],[-2.215353,53.941584],[-2.215048,53.941896],[-2.214672,53.942068],[-2.214603,53.942222],[-2.213005,53.942479],[-2.211536,53.943044],[-2.210403,53.943124],[-2.208342,53.944437],[-2.204947,53.945917],[-2.198597,53.947771],[-2.196363,53.948358],[-2.1936,53.948815],[-2.189941,53.949909],[-2.186589,53.951137],[-2.184622,53.952158],[-2.184918,53.952738],[-2.185683,53.953324],[-2.187729,53.954206],[-2.188067,53.955155],[-2.190962,53.957762],[-2.192098,53.959113],[-2.192979,53.960694],[-2.193533,53.961387],[-2.194129,53.962622],[-2.194995,53.964737],[-2.196025,53.967103],[-2.196237,53.969528],[-2.200744,53.970171],[-2.200304,53.969675],[-2.201415,53.968852],[-2.201335,53.968062],[-2.202897,53.967865],[-2.20528,53.966826],[-2.206465,53.96653],[-2.206958,53.96556],[-2.206975,53.965172],[-2.207372,53.964854],[-2.207626,53.964319],[-2.208499,53.963755],[-2.209746,53.962949],[-2.210927,53.962941],[-2.211594,53.963211],[-2.213033,53.963417],[-2.213652,53.964382],[-2.214323,53.965063],[-2.214966,53.964948],[-2.217608,53.964062],[-2.220608,53.963465],[-2.225786,53.960984],[-2.226034,53.962825],[-2.225411,53.9655],[-2.226084,53.966354],[-2.225888,53.967195],[-2.227506,53.967456],[-2.228711,53.966978],[-2.2294,53.967372],[-2.229833,53.967824],[-2.2292,53.96845],[-2.229421,53.969023],[-2.229563,53.969256],[-2.229897,53.969483],[-2.229781,53.969669],[-2.23011,53.969842],[-2.230077,53.970146],[-2.230398,53.970161],[-2.230609,53.970393],[-2.231372,53.971118],[-2.231818,53.97106],[-2.232031,53.971212],[-2.227519,53.97501],[-2.22573,53.975305],[-2.224929,53.975588],[-2.224472,53.976065],[-2.22346,53.976256],[-2.2226,53.97709],[-2.221796,53.977457],[-2.221118,53.977918],[-2.221697,53.97793],[-2.221964,53.978115],[-2.222872,53.978261],[-2.223039,53.97835],[-2.223916,53.978652],[-2.224899,53.978451],[-2.225207,53.978499],[-2.2258,53.978428],[-2.22615,53.978261],[-2.226725,53.978284],[-2.227092,53.978317],[-2.227462,53.978489],[-2.22733,53.978557],[-2.227784,53.978954],[-2.22802,53.979201],[-2.228243,53.979745],[-2.228114,53.979879],[-2.229089,53.980541],[-2.229161,53.980824],[-2.229375,53.980805],[-2.229702,53.980908],[-2.22984,53.9811],[-2.230014,53.981099],[-2.230349,53.981518],[-2.230897,53.981469],[-2.231342,53.981284],[-2.231431,53.981087],[-2.231618,53.981114],[-2.232048,53.981211],[-2.232277,53.981255],[-2.232516,53.981219],[-2.232695,53.980951],[-2.233036,53.981156],[-2.233684,53.981168],[-2.233726,53.981259],[-2.233465,53.981338],[-2.233584,53.981435],[-2.233867,53.981429],[-2.233859,53.981542],[-2.233611,53.981607],[-2.233652,53.981706],[-2.23383,53.981751],[-2.234127,53.981604],[-2.234478,53.981789],[-2.234654,53.981747],[-2.234774,53.981669],[-2.234589,53.981443],[-2.23468,53.981379],[-2.234875,53.981338],[-2.235162,53.981447],[-2.235284,53.981373],[-2.235279,53.981249],[-2.235484,53.981137],[-2.235793,53.981086],[-2.236392,53.98114],[-2.236806,53.980936],[-2.23703,53.980967],[-2.237194,53.981124],[-2.23778,53.980928],[-2.23805,53.981165],[-2.23824,53.981126],[-2.239212,53.98085],[-2.240198,53.980976],[-2.240395,53.980885],[-2.24092,53.980974],[-2.241232,53.980842],[-2.241744,53.98108],[-2.242466,53.980986],[-2.242314,53.980704],[-2.242993,53.980819],[-2.24328,53.981117],[-2.243934,53.98113],[-2.244397,53.98102],[-2.244512,53.980918],[-2.244469,53.980733],[-2.245034,53.980661],[-2.245461,53.980077],[-2.245161,53.979869],[-2.24588,53.979196],[-2.247054,53.979113],[-2.247179,53.97872],[-2.250715,53.978409],[-2.256408,53.977544],[-2.26853,53.975955],[-2.283984,53.97393],[-2.284238,53.973595],[-2.286435,53.974663],[-2.286938,53.974383],[-2.292122,53.974914],[-2.293606,53.974774],[-2.294513,53.974453],[-2.295363,53.974616],[-2.295123,53.975027],[-2.298702,53.976481],[-2.298854,53.977307],[-2.297824,53.978604],[-2.296966,53.978838],[-2.296561,53.97958],[-2.297013,53.980564],[-2.299201,53.981394],[-2.300067,53.981429],[-2.304158,53.983586],[-2.305265,53.983955],[-2.304422,53.98446],[-2.306546,53.985792],[-2.309019,53.986942],[-2.309287,53.987396],[-2.310288,53.987776],[-2.310908,53.987514],[-2.311507,53.988093],[-2.313839,53.988425],[-2.314784,53.989047],[-2.315324,53.990166],[-2.317173,53.991065],[-2.318314,53.992149],[-2.318858,53.993834],[-2.325197,53.99409],[-2.327237,53.993674],[-2.333776,53.990455],[-2.333911,53.990907],[-2.33644,53.991701],[-2.338364,53.991228],[-2.339909,53.989284],[-2.34573,53.992271],[-2.352449,53.994583],[-2.353391,54.000036],[-2.35364,54.003645],[-2.353176,54.005107],[-2.352435,54.010516],[-2.351131,54.011479],[-2.350686,54.012423],[-2.348874,54.011388],[-2.348184,54.010231],[-2.34623,54.009351],[-2.344741,54.009243],[-2.343596,54.008687],[-2.342588,54.008738],[-2.340616,54.007548],[-2.340172,54.008482],[-2.339356,54.008823],[-2.340102,54.01059],[-2.342076,54.014463],[-2.343433,54.016296],[-2.343414,54.017166],[-2.344626,54.01744],[-2.345634,54.018198],[-2.347528,54.018065],[-2.349349,54.017633],[-2.350402,54.01858],[-2.35727,54.019031],[-2.357527,54.020249],[-2.356324,54.021315],[-2.357968,54.022575],[-2.357743,54.023284],[-2.359467,54.023397],[-2.36044,54.024378],[-2.359596,54.026415],[-2.361669,54.02728],[-2.361201,54.027778],[-2.361876,54.029326],[-2.359296,54.03174],[-2.362631,54.034377],[-2.362013,54.036046],[-2.361819,54.037854],[-2.362755,54.038965],[-2.364233,54.040077],[-2.361918,54.040733],[-2.373929,54.049057],[-2.375077,54.048723],[-2.384432,54.047614],[-2.386899,54.045308],[-2.389568,54.044284],[-2.391253,54.044165],[-2.394657,54.043273],[-2.39713,54.044123],[-2.400612,54.043513],[-2.401748,54.043686],[-2.403794,54.043492],[-2.405639,54.042482],[-2.40622,54.042751],[-2.408407,54.042362],[-2.414573,54.042095],[-2.418227,54.041444],[-2.422481,54.040533],[-2.42586,54.038137],[-2.432387,54.041482],[-2.434362,54.041477],[-2.436963,54.041914],[-2.439764,54.041832],[-2.442513,54.042249],[-2.446991,54.041934],[-2.450749,54.040608],[-2.456848,54.040179],[-2.462737,54.042569],[-2.468834,54.045042],[-2.488407,54.041896],[-2.490958,54.040733],[-2.490525,54.040715],[-2.490323,54.040677],[-2.49014,54.040616],[-2.489967,54.040609],[-2.489825,54.040656],[-2.489689,54.04066],[-2.489616,54.040605],[-2.489499,54.040583],[-2.489391,54.040562],[-2.489269,54.040566],[-2.489133,54.04058],[-2.488984,54.040591],[-2.488816,54.040603],[-2.488673,54.040597],[-2.488524,54.040574],[-2.488354,54.040528],[-2.488231,54.040505],[-2.488079,54.040453],[-2.487806,54.040424],[-2.487635,54.040429],[-2.48751,54.040423],[-2.487347,54.040456],[-2.487211,54.040411],[-2.486948,54.040344],[-2.486824,54.040396],[-2.48668,54.040441],[-2.486561,54.040437],[-2.486484,54.040502],[-2.486314,54.040553],[-2.486164,54.040589],[-2.486078,54.040606],[-2.485988,54.040603],[-2.485896,54.04067],[-2.485771,54.040679],[-2.485624,54.040661],[-2.485519,54.040626],[-2.485379,54.040632],[-2.485245,54.040638],[-2.485131,54.040621],[-2.48501,54.040634],[-2.484884,54.040616],[-2.484759,54.040598],[-2.484644,54.040564],[-2.484517,54.04053],[-2.484421,54.040539],[-2.484269,54.040533],[-2.484124,54.040511],[-2.483999,54.040506],[-2.483786,54.040497],[-2.483683,54.0405],[-2.483523,54.04049],[-2.483451,54.04045],[-2.483234,54.040459],[-2.483127,54.040423],[-2.483036,54.040351],[-2.48289,54.040255],[-2.482769,54.040241],[-2.482657,54.040227],[-2.482585,54.040164],[-2.482442,54.040103],[-2.482222,54.040118],[-2.482128,54.040084],[-2.482001,54.040038],[-2.481829,54.039976],[-2.481719,54.03991],[-2.481533,54.03987],[-2.481417,54.039836],[-2.481262,54.039843],[-2.481159,54.039798],[-2.481118,54.039748],[-2.481056,54.039642],[-2.480983,54.039583],[-2.480894,54.039601],[-2.480728,54.039569],[-2.480577,54.039514],[-2.480516,54.039522],[-2.480391,54.039517],[-2.480252,54.039527],[-2.480178,54.039452],[-2.480138,54.039403],[-2.480041,54.039432],[-2.479941,54.039411],[-2.479815,54.039387],[-2.479711,54.039406],[-2.479581,54.039385],[-2.479367,54.039376],[-2.479209,54.039346],[-2.479075,54.039281],[-2.478981,54.039235],[-2.478861,54.03923],[-2.478742,54.03925],[-2.478642,54.039257],[-2.478523,54.039222],[-2.478383,54.039176],[-2.478281,54.039132],[-2.478105,54.039104],[-2.477986,54.039078],[-2.477956,54.038996],[-2.477904,54.038927],[-2.477822,54.03889],[-2.477668,54.038927],[-2.477491,54.038986],[-2.477324,54.039022],[-2.477229,54.039026],[-2.477095,54.039004],[-2.477029,54.038954],[-2.476935,54.038892],[-2.476907,54.038832],[-2.476879,54.038771],[-2.476832,54.038706],[-2.476765,54.038662],[-2.476672,54.038624],[-2.476505,54.038581],[-2.476399,54.038566],[-2.476307,54.038556],[-2.476224,54.038519],[-2.476131,54.038456],[-2.476063,54.038405],[-2.476052,54.038329],[-2.476026,54.038277],[-2.475922,54.038214],[-2.475787,54.038197],[-2.47567,54.038205],[-2.475542,54.038148],[-2.475499,54.038075],[-2.475479,54.038012],[-2.475383,54.037958],[-2.475268,54.03794],[-2.475173,54.037906],[-2.475098,54.037849],[-2.475116,54.037782],[-2.475067,54.037699],[-2.474994,54.037634],[-2.474868,54.037595],[-2.474792,54.037558],[-2.474705,54.037575],[-2.474627,54.037577],[-2.47452,54.037566],[-2.474491,54.037502],[-2.474468,54.03743],[-2.474404,54.037372],[-2.474305,54.037293],[-2.47421,54.03723],[-2.474107,54.037189],[-2.474046,54.037084],[-2.474076,54.037035],[-2.474146,54.036997],[-2.474187,54.036953],[-2.47416,54.036909],[-2.47408,54.03688],[-2.474014,54.036829],[-2.473965,54.03682],[-2.473865,54.036841],[-2.473809,54.036865],[-2.473749,54.036895],[-2.473691,54.036911],[-2.473612,54.036908],[-2.473525,54.036881],[-2.473477,54.036833],[-2.47343,54.036785],[-2.473386,54.036732],[-2.473402,54.036672],[-2.473416,54.03662],[-2.473468,54.036572],[-2.473488,54.036506],[-2.47342,54.036423],[-2.473298,54.036418],[-2.473181,54.036386],[-2.47313,54.036321],[-2.473055,54.036261],[-2.472929,54.036205],[-2.472754,54.03609],[-2.472646,54.03603],[-2.472585,54.036031],[-2.47249,54.036059],[-2.472373,54.036061],[-2.472306,54.036026],[-2.472286,54.035977],[-2.472303,54.03595],[-2.472332,54.0359],[-2.472324,54.035827],[-2.472312,54.035787],[-2.472223,54.035729],[-2.472189,54.035654],[-2.472149,54.035588],[-2.472152,54.035534],[-2.472215,54.035481],[-2.472281,54.035439],[-2.472279,54.035388],[-2.472222,54.035336],[-2.472152,54.03529],[-2.472071,54.035282],[-2.471961,54.035292],[-2.471854,54.035294],[-2.471769,54.035266],[-2.471707,54.035217],[-2.471684,54.035177],[-2.471677,54.035133],[-2.471664,54.035047],[-2.471598,54.03503],[-2.471529,54.035037],[-2.471479,54.035074],[-2.471443,54.035136],[-2.471386,54.035153],[-2.471314,54.035121],[-2.471264,54.035028],[-2.471226,54.034936],[-2.471233,54.03487],[-2.471266,54.034796],[-2.471317,54.034685],[-2.47131,54.034609],[-2.471252,54.03455],[-2.471122,54.034497],[-2.470998,54.034456],[-2.470853,54.034434],[-2.470803,54.03439],[-2.470773,54.034276],[-2.47075,54.034185],[-2.470667,54.034101],[-2.470584,54.03413],[-2.470512,54.034119],[-2.470417,54.034105],[-2.470333,54.034071],[-2.470295,54.034022],[-2.470312,54.033986],[-2.470308,54.033937],[-2.47027,54.033899],[-2.470201,54.033879],[-2.470113,54.033888],[-2.470011,54.033881],[-2.469926,54.033849],[-2.469852,54.033793],[-2.469831,54.033711],[-2.469864,54.033668],[-2.469897,54.033616],[-2.469892,54.033572],[-2.469812,54.033525],[-2.469708,54.03351],[-2.469624,54.033511],[-2.469569,54.033509],[-2.469452,54.033511],[-2.469375,54.03349],[-2.469316,54.033445],[-2.469179,54.033378],[-2.468455,54.032902],[-2.467732,54.032427],[-2.467009,54.031951],[-2.466647,54.031713],[-2.466286,54.031475],[-2.466047,54.031423],[-2.465921,54.031418],[-2.4658,54.031413],[-2.465706,54.031436],[-2.465647,54.031433],[-2.465609,54.031414],[-2.465582,54.031364],[-2.465573,54.031305],[-2.465547,54.031262],[-2.465525,54.031178],[-2.465437,54.031139],[-2.465351,54.031114],[-2.465261,54.031116],[-2.465206,54.031118],[-2.465301,54.031029],[-2.464908,54.031078],[-2.464733,54.031066],[-2.464457,54.031027],[-2.464001,54.031118],[-2.46391,54.030949],[-2.463877,54.030771],[-2.463507,54.030592],[-2.463127,54.03038],[-2.462952,54.030167],[-2.462981,54.030005],[-2.462891,54.029885],[-2.462455,54.029728],[-2.462145,54.029616],[-2.462145,54.029349],[-2.461987,54.029222],[-2.461904,54.029275],[-2.461859,54.029353],[-2.461719,54.029417],[-2.461534,54.02943],[-2.461405,54.029378],[-2.461267,54.029273],[-2.461219,54.02919],[-2.461206,54.029044],[-2.461307,54.02895],[-2.461428,54.028917],[-2.461535,54.028869],[-2.461539,54.028777],[-2.461563,54.028687],[-2.461541,54.0286],[-2.461484,54.028528],[-2.461399,54.028493],[-2.461303,54.028454],[-2.461124,54.028426],[-2.46096,54.02841],[-2.460712,54.028485],[-2.460523,54.028515],[-2.4603,54.028531],[-2.460135,54.02851],[-2.460029,54.02844],[-2.460012,54.028255],[-2.460252,54.02825],[-2.460376,54.028181],[-2.46036,54.02808],[-2.460298,54.027993],[-2.460142,54.02801],[-2.460053,54.027997],[-2.459965,54.027955],[-2.459818,54.027826],[-2.459635,54.027678],[-2.459451,54.027609],[-2.459263,54.027595],[-2.459062,54.027662],[-2.45892,54.027704],[-2.458697,54.027726],[-2.458521,54.027687],[-2.45843,54.027596],[-2.458372,54.027496],[-2.458272,54.027427],[-2.458125,54.027362],[-2.457985,54.027365],[-2.4578,54.027283],[-2.457705,54.027186],[-2.457641,54.026979],[-2.45768,54.026851],[-2.457741,54.026753],[-2.457689,54.026656],[-2.457502,54.026608],[-2.457244,54.026633],[-2.457035,54.026637],[-2.456847,54.026569],[-2.456752,54.026454],[-2.456664,54.026291],[-2.45638,54.026137],[-2.456209,54.026064],[-2.455551,54.025964],[-2.455186,54.025884],[-2.454892,54.025828],[-2.454597,54.025701],[-2.454426,54.025528],[-2.454309,54.025311],[-2.453859,54.025161],[-2.453352,54.025242],[-2.452938,54.02525],[-2.452552,54.025085],[-2.452152,54.024997],[-2.451875,54.025016],[-2.451576,54.025237],[-2.45105,54.025366],[-2.450637,54.025468],[-2.450027,54.025443],[-2.44942,54.025455],[-2.448851,54.025465],[-2.448222,54.02551],[-2.447768,54.025525],[-2.447305,54.025541],[-2.447126,54.025829],[-2.446808,54.026167],[-2.446512,54.026481],[-2.44624,54.026735],[-2.445885,54.026897],[-2.445447,54.026928],[-2.445045,54.026936],[-2.444567,54.026887],[-2.444121,54.026726],[-2.443906,54.026509],[-2.44373,54.026235],[-2.443372,54.025677],[-2.443199,54.025711],[-2.442981,54.025763],[-2.442801,54.025908],[-2.44261,54.026061],[-2.442254,54.026157],[-2.441901,54.026084],[-2.441726,54.025906],[-2.441743,54.025753],[-2.4416,54.025609],[-2.441289,54.025421],[-2.440938,54.025395],[-2.440958,54.025627],[-2.440761,54.025785],[-2.440418,54.025771],[-2.440202,54.025678],[-2.439851,54.025483],[-2.439556,54.025024],[-2.439633,54.024736],[-2.439511,54.024511],[-2.439344,54.024223],[-2.438926,54.024043],[-2.438612,54.023675],[-2.438152,54.023471],[-2.438009,54.023296],[-2.438142,54.023053],[-2.438271,54.022876],[-2.438749,54.022523],[-2.438909,54.02217],[-2.438865,54.021669],[-2.438501,54.021318],[-2.437835,54.021114],[-2.437431,54.020934],[-2.437076,54.020432],[-2.436853,54.020134],[-2.436385,54.019764],[-2.436101,54.018968],[-2.435827,54.018587],[-2.435479,54.018418],[-2.435044,54.018308],[-2.434743,54.018296],[-2.434396,54.018413],[-2.434072,54.018358],[-2.433758,54.018105],[-2.433648,54.017819],[-2.433485,54.017518],[-2.433255,54.017211],[-2.433087,54.017006],[-2.432824,54.016864],[-2.432204,54.016682],[-2.431585,54.016394],[-2.431007,54.015981],[-2.430691,54.01568],[-2.430548,54.015369],[-2.430972,54.015133],[-2.431186,54.015061],[-2.431272,54.014944],[-2.431062,54.014869],[-2.430654,54.014693],[-2.43052,54.014397],[-2.430406,54.014102],[-2.429979,54.013336],[-2.429754,54.012918],[-2.429125,54.012725],[-2.428927,54.012257],[-2.428543,54.01216],[-2.428157,54.012063],[-2.42731,54.011803],[-2.426837,54.011658],[-2.426575,54.011219],[-2.426374,54.010443],[-2.425805,54.010269],[-2.422102,54.010294],[-2.4205,54.010304],[-2.419769,54.010229],[-2.41923,54.009979],[-2.418138,54.009509],[-2.417272,54.009386],[-2.41687,54.009207],[-2.416636,54.009002],[-2.416553,54.008185],[-2.416135,54.007409],[-2.415498,54.00656],[-2.415639,54.006098],[-2.415423,54.005696],[-2.414359,54.002794],[-2.41769,53.997803],[-2.420379,53.997599],[-2.42202,53.997391],[-2.42281,53.997336],[-2.424111,53.997134],[-2.425787,53.996776],[-2.427238,53.996264],[-2.427633,53.996083],[-2.428122,53.996177],[-2.429007,53.99609],[-2.429934,53.996019],[-2.430599,53.995742],[-2.431569,53.995417],[-2.432156,53.99554],[-2.432961,53.996244],[-2.431945,53.997196],[-2.43207,53.997788],[-2.431758,53.997947],[-2.431737,53.998142],[-2.431471,53.998308],[-2.431298,53.998526],[-2.431223,53.998659],[-2.431117,53.998839],[-2.430847,53.998905],[-2.430525,53.999179],[-2.430536,53.999888],[-2.429003,54.001988],[-2.435871,54.004095],[-2.442747,54.005931],[-2.452255,54.008847],[-2.455817,54.003134],[-2.456794,54.001081],[-2.45751,53.999872],[-2.457776,53.999445],[-2.4589,53.999339],[-2.459591,53.999309],[-2.460163,53.999306],[-2.46109,53.999301],[-2.461927,53.999264],[-2.463108,53.999011],[-2.464513,53.99871],[-2.466369,53.998269],[-2.46711,53.998122],[-2.469937,53.997667],[-2.473471,53.996828],[-2.473623,53.996755],[-2.473706,53.996652],[-2.473666,53.996571],[-2.473675,53.996487],[-2.473599,53.996426],[-2.473553,53.996316],[-2.473571,53.996258],[-2.473628,53.996222],[-2.473732,53.996178],[-2.473899,53.996022],[-2.475966,53.994542],[-2.476141,53.994475],[-2.476216,53.994415],[-2.47629,53.994297],[-2.476258,53.994175],[-2.476483,53.993633],[-2.476725,53.992719],[-2.477036,53.992388],[-2.478149,53.991691],[-2.47906,53.991146],[-2.479321,53.99098],[-2.479658,53.990978],[-2.480636,53.990871],[-2.481673,53.990819],[-2.48277,53.990932],[-2.483714,53.990914],[-2.484529,53.99107],[-2.484716,53.991066],[-2.485127,53.991035],[-2.485442,53.990809],[-2.486128,53.99038],[-2.486788,53.989923],[-2.487305,53.989422],[-2.48801,53.988921],[-2.488497,53.98865],[-2.488767,53.988463],[-2.489159,53.987945],[-2.489736,53.987405],[-2.490403,53.98689],[-2.491094,53.986624],[-2.491866,53.98646],[-2.492064,53.98642],[-2.492257,53.986457],[-2.498843,53.989132],[-2.500189,53.986486],[-2.497199,53.984517],[-2.496086,53.983394],[-2.495544,53.982309],[-2.494797,53.979876],[-2.498589,53.976945],[-2.499442,53.976402],[-2.500785,53.975073],[-2.50491,53.97121],[-2.509957,53.969153],[-2.503418,53.962523],[-2.502216,53.961303],[-2.502055,53.960683],[-2.501817,53.960164],[-2.501858,53.95978],[-2.501847,53.959511],[-2.501969,53.95935],[-2.501451,53.959368],[-2.50135,53.958976],[-2.501067,53.958706],[-2.500883,53.958389],[-2.500682,53.958044],[-2.500296,53.958104],[-2.499839,53.957952],[-2.499493,53.957704],[-2.499783,53.957307],[-2.50004,53.956938],[-2.500129,53.956751],[-2.500467,53.956734],[-2.500882,53.956713],[-2.501039,53.956288],[-2.501168,53.956151],[-2.501374,53.956019],[-2.501482,53.955612],[-2.501745,53.955424],[-2.502302,53.955112],[-2.502498,53.95458],[-2.502427,53.954051],[-2.50238,53.953508],[-2.501819,53.953196],[-2.50153,53.952835],[-2.501233,53.952414],[-2.501283,53.951943],[-2.501088,53.951607],[-2.501237,53.951203],[-2.501134,53.950712],[-2.501297,53.950412],[-2.501524,53.950276],[-2.502077,53.950045],[-2.50186,53.949773],[-2.502577,53.949603],[-2.502673,53.949191],[-2.502446,53.948838],[-2.501995,53.948687],[-2.50181,53.948368],[-2.502015,53.948149],[-2.501936,53.947945],[-2.5017,53.947814],[-2.501605,53.947552],[-2.501143,53.947365],[-2.500514,53.947233],[-2.500317,53.947092],[-2.500586,53.946969],[-2.501549,53.946941],[-2.502735,53.946791],[-2.503384,53.946584],[-2.504425,53.946706],[-2.505612,53.947055],[-2.506694,53.947181],[-2.508721,53.947508],[-2.509608,53.947605],[-2.510136,53.947582],[-2.510519,53.947627],[-2.510952,53.94752],[-2.512509,53.946998],[-2.512962,53.946271],[-2.513903,53.945909],[-2.515496,53.945375],[-2.516805,53.944912],[-2.516384,53.944543],[-2.516623,53.944038],[-2.516457,53.942801],[-2.515867,53.941802],[-2.516535,53.941266],[-2.517039,53.941036],[-2.517272,53.940742],[-2.517272,53.940143],[-2.517196,53.939732],[-2.517519,53.939473],[-2.517967,53.93933],[-2.518414,53.939188],[-2.518247,53.938951],[-2.518335,53.938673],[-2.518588,53.938423],[-2.518915,53.938227],[-2.520017,53.938718],[-2.520772,53.937893],[-2.521642,53.937196]]]},"properties":{"code":"P81069","name":"PENDLESIDE MEDICAL PRACT","icb":"QE1"}}]}