{"type":"FeatureCollection","features":[{"type":"Feature","geometry":{"type":"Polygon","coordinates":[[[-2.25185,53.83956],[-2.31331,53.82741],[-2.3243,53.80836],[-2.31809,53.80566],[-2.31298,53.80295],[-2.30232,53.79741],[-2.234,53.77712],[-2.18413,53.74759],[-2.17855,53.76226],[-2.17838,53.76782],[-2.18044,53.77626],[-2.18115,53.77785],[-2.18169,53.78293],[-2.18175,53.78548],[-2.18276,53.79036],[-2.18611,53.7972],[-2.1995,53.81616],[-2.20988,53.82351],[-2.21924,53.83227],[-2.25185,53.83956]]]},"properties":{"code":"P81095","name":"THURSBY SURGERY","icb":"QE1"}}]}