{"type":"FeatureCollection","features":[{"type":"Feature","geometry":{"type":"Polygon","coordinates":[[[-2.691372,53.765235],[-2.690542,53.763541],[-2.690247,53.76284],[-2.689801,53.76203],[-2.69034,53.761153],[-2.688832,53.760829],[-2.687485,53.760376],[-2.685643,53.759215],[-2.68304,53.757064],[-2.681887,53.755798],[-2.679818,53.752962],[-2.65646,53.7618],[-2.64719,53.76515],[-2.649122,53.76831],[-2.658797,53.767684],[-2.658919,53.765806],[-2.66334,53.765812],[-2.665728,53.767201],[-2.668205,53.768505],[-2.671476,53.770316],[-2.673486,53.771036],[-2.675627,53.77171],[-2.691372,53.765235]]]},"properties":{"code":"P81071","name":"THE NEW HALL LANE PRACTICE","icb":"QE1"}}]}