{"type":"FeatureCollection","features":[{"type":"Feature","geometry":{"type":"Polygon","coordinates":[[[-2.735154,53.946533],[-2.7228,53.94815],[-2.717929,53.950983],[-2.7077,53.951786],[-2.697404,53.952999],[-2.685746,53.957488],[-2.685398,53.959261],[-2.679559,53.959059],[-2.673015,53.962622],[-2.673287,53.963503],[-2.667205,53.963503],[-2.656223,53.965522],[-2.649304,53.969164],[-2.637691,53.970369],[-2.628989,53.97293],[-2.627449,53.973247],[-2.626787,53.973502],[-2.617786,53.97562],[-2.610237,53.97885],[-2.605432,53.981677],[-2.605432,53.987332],[-2.604746,53.994192],[-2.607491,54.00065],[-2.612296,54.005896],[-2.617698,54.01119],[-2.622299,54.016841],[-2.623174,54.017476],[-2.623964,54.018404],[-2.632886,54.024859],[-2.638526,54.026792],[-2.64241,54.028382],[-2.650045,54.032522],[-2.655065,54.03423],[-2.660382,54.036393],[-2.664482,54.039593],[-2.66452,54.039674],[-2.663835,54.043672],[-2.660751,54.049506],[-2.661095,54.053134],[-2.662468,54.057568],[-2.663495,54.058894],[-2.668577,54.065981],[-2.671519,54.067712],[-2.674141,54.07006],[-2.675525,54.071009],[-2.6775,54.072831],[-2.679678,54.073854],[-2.680321,54.074291],[-2.686496,54.077712],[-2.693024,54.081945],[-2.700584,54.083423],[-2.701733,54.083734],[-2.709846,54.086778],[-2.712957,54.087751],[-2.715203,54.088919],[-2.717309,54.094178],[-2.721427,54.098205],[-2.726315,54.09966],[-2.729042,54.10089],[-2.736527,54.107465],[-2.738164,54.107606],[-2.741089,54.10832],[-2.746929,54.108834],[-2.751627,54.111893],[-2.751905,54.111951],[-2.752419,54.112345],[-2.759972,54.113352],[-2.771622,54.113753],[-2.779541,54.115163],[-2.789497,54.115968],[-2.790406,54.115631],[-2.791288,54.115354],[-2.79145,54.115354],[-2.791665,54.115163],[-2.799795,54.112145],[-2.803617,54.110081],[-2.80752,54.10782],[-2.81353,54.104294],[-2.814903,54.099664],[-2.815929,54.093449],[-2.818261,54.089041],[-2.819069,54.086765],[-2.820779,54.083108],[-2.825548,54.079159],[-2.820541,54.076809],[-2.828735,54.073663],[-2.826214,54.06955],[-2.818725,54.071308],[-2.813456,54.067199],[-2.816649,54.066261],[-2.822797,54.065134],[-2.824769,54.064063],[-2.827612,54.063768],[-2.830095,54.062209],[-2.827911,54.061073],[-2.824329,54.059537],[-2.826713,54.058284],[-2.827876,54.057321],[-2.835358,54.054967],[-2.839759,54.051866],[-2.836904,54.048512],[-2.842712,54.046281],[-2.842712,54.043661],[-2.841998,54.042602],[-2.84154,54.040183],[-2.839434,54.038797],[-2.838249,54.037008],[-2.834937,54.0352],[-2.831948,54.028527],[-2.83207,54.026921],[-2.833099,54.021682],[-2.833099,54.017055],[-2.832727,54.012463],[-2.835734,54.008267],[-2.835814,54.007211],[-2.838143,54.006216],[-2.843279,54.004304],[-2.84831,54.003626],[-2.85507,54.003096],[-2.861246,53.999984],[-2.871208,53.998682],[-2.871978,53.99336],[-2.872197,53.993239],[-2.874311,53.993239],[-2.875678,53.992028],[-2.872379,53.991852],[-2.872178,53.991712],[-2.872238,53.991215],[-2.868046,53.990722],[-2.867894,53.990645],[-2.865032,53.985968],[-2.865058,53.985859],[-2.870522,53.981323],[-2.874985,53.976679],[-2.874768,53.976538],[-2.87475,53.976382],[-2.875172,53.976023],[-2.869681,53.971985],[-2.861702,53.970979],[-2.859626,53.970589],[-2.855954,53.969158],[-2.849747,53.967637],[-2.846931,53.967085],[-2.84461,53.966456],[-2.840309,53.963149],[-2.83795,53.962423],[-2.83399,53.960675],[-2.81889,53.957847],[-2.811395,53.955686],[-2.809995,53.954452],[-2.807061,53.953308],[-2.802298,53.952272],[-2.796953,53.950962],[-2.787036,53.948274],[-2.775744,53.947103],[-2.765471,53.946037],[-2.756188,53.945348],[-2.741099,53.945916],[-2.735154,53.946533]]]},"properties":{"code":"P81002","name":"LANCASTER MEDICAL PRACTICE","icb":"QE1"}}]}