{"type":"FeatureCollection","features":[{"type":"Feature","geometry":{"type":"Polygon","coordinates":[[[-2.49574,53.7234],[-2.49566,53.72341],[-2.49244,53.72114],[-2.505226,53.717689],[-2.521362,53.703414],[-2.501965,53.692107],[-2.495012,53.690989],[-2.488146,53.692285],[-2.4857,53.693454],[-2.48385,53.69221],[-2.49059,53.68939],[-2.44811,53.66206],[-2.4139,53.66577],[-2.409201,53.687724],[-2.414103,53.701023],[-2.422746,53.705661],[-2.425695,53.706015],[-2.427291,53.706618],[-2.433185,53.707615],[-2.436206,53.707047],[-2.44154,53.70819],[-2.44446,53.71182],[-2.4448,53.71352],[-2.44622,53.71347],[-2.44656,53.712],[-2.45017,53.71261],[-2.45231,53.71187],[-2.4566,53.71637],[-2.46167,53.72396],[-2.46677,53.72348],[-2.46832,53.72322],[-2.47162,53.72328],[-2.47248,53.72251],[-2.47441,53.72264],[-2.47587,53.72234],[-2.4778,53.72325],[-2.47935,53.72269],[-2.48385,53.72432],[-2.488524,53.725449],[-2.48845,53.72547],[-2.49063,53.72501],[-2.49312,53.7275],[-2.49482,53.72739],[-2.49679,53.72508],[-2.49574,53.7234]]]},"properties":{"code":"P81051","name":"DARWEN HEALTHCARE","icb":"QE1"}}]}