{"type":"FeatureCollection","features":[{"type":"Feature","geometry":{"type":"Polygon","coordinates":[[[-2.95657,53.73638],[-2.95489,53.73792],[-2.95435,53.73964],[-2.95445,53.74067],[-2.9549,53.74171],[-2.95672,53.74343],[-2.95797,53.74713],[-2.96076,53.7477],[-2.9627,53.75217],[-2.99094,53.77054],[-3.00523,53.77971],[-3.0154,53.79092],[-3.05815,53.78402],[-3.05643,53.77682],[-3.0518,53.77067],[-3.04716,53.76391],[-3.03583,53.75079],[-3.03398,53.74896],[-3.02852,53.74546],[-3.01812,53.74138],[-3.01425,53.74037],[-3.01004,53.73988],[-2.97635,53.7344],[-2.95657,53.73638]]]},"properties":{"code":"P81031","name":"POPLAR HOUSE SURGERY","icb":"QE1"}}]}