{"type":"FeatureCollection","features":[{"type":"Feature","geometry":{"type":"Polygon","coordinates":[[[-2.69641,53.77509],[-2.69852,53.77522],[-2.70109,53.7752],[-2.70444,53.77494],[-2.70963,53.77426],[-2.73731,53.76908],[-2.73055,53.76482],[-2.72578,53.76488],[-2.72302,53.7642],[-2.72284,53.76346],[-2.72073,53.76102],[-2.71787,53.7565],[-2.71663,53.74962],[-2.70998,53.74815],[-2.70454,53.75061],[-2.69875,53.75226],[-2.69151,53.75008],[-2.68986,53.74879],[-2.6865,53.74871],[-2.68315,53.75054],[-2.67998,53.75302],[-2.68232,53.75634],[-2.68706,53.7601],[-2.67664,53.76334],[-2.67344,53.76415],[-2.67023,53.76527],[-2.66673,53.76569],[-2.66389,53.76574],[-2.66341,53.76582],[-2.66343,53.76592],[-2.66381,53.76624],[-2.66906,53.76902],[-2.67176,53.77053],[-2.67323,53.77106],[-2.67477,53.77147],[-2.68661,53.77387],[-2.69018,53.77455],[-2.69215,53.77504],[-2.69217,53.77508],[-2.69641,53.77509]]]},"properties":{"code":"P81046","name":"PARK VIEW SURGERY","icb":"QE1"}}]}