{"type":"FeatureCollection","features":[{"type":"Feature","geometry":{"type":"Polygon","coordinates":[[[-2.690517,53.602918],[-2.662213,53.604912],[-2.652475,53.60634],[-2.647055,53.608466],[-2.634848,53.613548],[-2.628846,53.631345],[-2.629272,53.63513],[-2.630583,53.63484],[-2.631557,53.634907],[-2.635179,53.635717],[-2.636161,53.635936],[-2.636422,53.636305],[-2.63659,53.636877],[-2.636933,53.637462],[-2.637277,53.637895],[-2.637471,53.638046],[-2.63895,53.638226],[-2.639609,53.638221],[-2.640367,53.638327],[-2.640432,53.638291],[-2.639963,53.638216],[-2.639562,53.638215],[-2.638489,53.638065],[-2.63833,53.637957],[-2.639963,53.638216],[-2.64056,53.638219],[-2.640432,53.638291],[-2.64662,53.637641],[-2.649697,53.638328],[-2.651347,53.639034],[-2.653454,53.639178],[-2.66003,53.641404],[-2.671345,53.642172],[-2.6809,53.640982],[-2.691775,53.636715],[-2.691404,53.63378],[-2.69017,53.630902],[-2.69017,53.630902],[-2.686662,53.624514],[-2.685592,53.616045],[-2.690517,53.602918]]]},"properties":{"code":"P81033","name":"COPPULL MEDICAL PRACTICE","icb":"QE1"}}]}