{"type":"FeatureCollection","features":[{"type":"Feature","geometry":{"type":"Polygon","coordinates":[[[-2.67599,53.65306],[-2.65157,53.63204],[-2.64629,53.62993],[-2.60895,53.62767],[-2.60084,53.64242],[-2.59552,53.64627],[-2.58891,53.65947],[-2.57732,53.6672],[-2.57724,53.67035],[-2.58762,53.67299],[-2.59067,53.67457],[-2.59642,53.67579],[-2.60046,53.67782],[-2.62033,53.67772],[-2.63912,53.6777],[-2.63916,53.67482],[-2.63586,53.67437],[-2.63496,53.67294],[-2.63333,53.67091],[-2.6341,53.66913],[-2.63509,53.66768],[-2.64895,53.66966],[-2.67002,53.67442],[-2.67431,53.67571],[-2.67749,53.67831],[-2.67916,53.67831],[-2.68367,53.66974],[-2.68367,53.66491],[-2.67942,53.66252],[-2.67461,53.66237],[-2.67474,53.66094],[-2.6741,53.65853],[-2.67599,53.65306]]]},"properties":{"code":"P81062","name":"REGENT HOUSE SURGERY","icb":"QE1"}}]}