{"type":"FeatureCollection","features":[{"type":"Feature","geometry":{"type":"Polygon","coordinates":[[[-3.020634,53.89032],[-3.020619,53.890322],[-3.020597,53.890334],[-3.018617,53.890576],[-3.018327,53.891511],[-3.018901,53.891771],[-3.020822,53.891296],[-3.02285,53.891113],[-3.0259,53.89071],[-3.03979,53.88877],[-3.039387,53.891564],[-3.040496,53.893282],[-3.043312,53.892268],[-3.04725,53.892151],[-3.04712,53.87892],[-3.04695,53.87856],[-3.04673,53.8782],[-3.047108,53.878059],[-3.046752,53.877635],[-3.04748,53.876926],[-3.047706,53.875782],[-3.047998,53.875716],[-3.047441,53.875724],[-3.04723,53.87575],[-3.04761,53.87487],[-3.04777,53.87406],[-3.04763,53.87226],[-3.04498,53.87205],[-3.04506,53.87108],[-3.04293,53.8711],[-3.04265,53.87036],[-3.04474,53.86886],[-3.04682,53.86756],[-3.0473,53.86603],[-3.04603,53.86612],[-3.04494,53.86587],[-3.04421,53.86611],[-3.0424,53.86645],[-3.03932,53.86614],[-3.03876,53.8616],[-3.0404,53.85908],[-3.0404,53.85661],[-3.04119,53.85162],[-3.03889,53.85222],[-3.03658,53.85241],[-3.03481,53.85281],[-3.03446,53.85358],[-3.03333,53.85496],[-3.03214,53.85627],[-3.02992,53.85707],[-3.0266,53.85787],[-3.02562,53.8586],[-3.0255,53.85943],[-3.02594,53.86094],[-3.02174,53.86175],[-3.02008,53.85977],[-3.01937,53.85973],[-3.01841,53.85787],[-3.01727,53.85678],[-3.01559,53.85702],[-3.01449,53.85686],[-3.01425,53.85559],[-3.01813,53.8538],[-3.0188,53.85266],[-3.01921,53.85169],[-3.01907,53.85066],[-3.02394,53.84907],[-3.02291,53.84452],[-3.025368,53.836281],[-3.027713,53.834596],[-3.02609,53.83386],[-3.01845,53.8345],[-3.00549,53.83934],[-3.0009,53.83511],[-3.000491,53.832372],[-3.000169,53.831257],[-2.997744,53.829864],[-2.996886,53.829965],[-2.994933,53.830079],[-2.99415,53.830387],[-2.994102,53.831257],[-2.993367,53.831637],[-2.991728,53.831246],[-2.990258,53.830944],[-2.989163,53.830921],[-2.984539,53.830455],[-2.979269,53.833752],[-2.962,53.83898],[-2.96314,53.84704],[-2.958155,53.851894],[-2.96299,53.85942],[-2.95951,53.86587],[-2.95784,53.8714],[-2.95337,53.87364],[-2.9515,53.87399],[-2.94981,53.87388],[-2.94721,53.87463],[-2.94827,53.87566],[-2.94985,53.87649],[-2.9521,53.87917],[-2.959164,53.87935],[-2.966853,53.878806],[-2.965927,53.87755],[-2.96486,53.87589],[-2.962923,53.872875],[-2.95807,53.87172],[-2.95869,53.87134],[-2.9599,53.87112],[-2.96122,53.87051],[-2.96104,53.86924],[-2.96043,53.86786],[-2.96024,53.86617],[-2.9624,53.86313],[-2.96653,53.85674],[-2.968411,53.856779],[-2.971501,53.857336],[-2.977552,53.860171],[-2.97678,53.86341],[-2.977295,53.866295],[-2.978239,53.869231],[-2.977939,53.875974],[-2.977788,53.876758],[-2.980278,53.880135],[-2.984354,53.880135],[-2.98614,53.88056],[-2.986615,53.88204],[-2.986729,53.882262],[-2.988022,53.882848],[-2.98994,53.883948],[-2.995345,53.886479],[-3.002143,53.887017],[-3.003949,53.88863],[-3.003676,53.888895],[-3.0041,53.889037],[-3.004354,53.88961],[-3.004739,53.889433],[-3.005259,53.890052],[-3.005848,53.890578],[-3.005217,53.890065],[-3.005552,53.890714],[-3.006779,53.891842],[-3.009953,53.892049],[-3.015532,53.891669],[-3.017136,53.890686],[-3.020619,53.890322],[-3.020629,53.890316],[-3.020634,53.89032]],[[-3.020639,53.890329],[-3.020638,53.890329],[-3.020638,53.890329],[-3.020639,53.890329]]]},"properties":{"code":"P81079","name":"THE THORNTON PRACTICE","icb":"QE1"}}]}