{"type":"FeatureCollection","features":[{"type":"Feature","geometry":{"type":"Polygon","coordinates":[[[-3.04699,53.87984],[-3.046894,53.879897],[-3.04127,53.88096],[-3.040331,53.880883],[-3.039361,53.880765],[-3.039103,53.880772],[-3.03896,53.88077],[-3.032548,53.880208],[-3.03154,53.880119],[-3.02995,53.88031],[-3.028224,53.880517],[-3.02673,53.8811],[-3.024515,53.881914],[-3.0218,53.88239],[-3.017742,53.883265],[-3.012733,53.884412],[-3.012446,53.884338],[-3.00987,53.88051],[-3.00819,53.88064],[-3.007375,53.882283],[-3.00446,53.88375],[-3.005607,53.885599],[-3.004438,53.88704],[-3.004799,53.887903],[-3.004743,53.888036],[-3.005344,53.889475],[-3.005847,53.89068],[-3.00862,53.89309],[-3.01347,53.89503],[-3.013558,53.895147],[-3.01352,53.89531],[-3.014603,53.89572],[-3.014473,53.895869],[-3.014317,53.896068],[-3.01412,53.89632],[-3.018172,53.897684],[-3.020413,53.899027],[-3.02292,53.901015],[-3.022909,53.901163],[-3.02279,53.90125],[-3.023716,53.908162],[-3.023627,53.908271],[-3.022006,53.908904],[-3.00957,53.90955],[-3.00955,53.910551],[-3.009481,53.910591],[-3.009374,53.91843],[-3.009267,53.918535],[-3.00622,53.91951],[-3.009278,53.921434],[-3.009329,53.921659],[-3.00925,53.921753],[-3.0054,53.92347],[-3.00506,53.92428],[-3.008157,53.9288],[-3.008018,53.928977],[-3.00828,53.92898],[-3.009477,53.928754],[-3.025186,53.926281],[-3.03926,53.92446],[-3.04871,53.92102],[-3.049739,53.91995],[-3.050641,53.918135],[-3.050456,53.916313],[-3.050628,53.916262],[-3.05111,53.91627],[-3.050934,53.911943],[-3.047006,53.879999],[-3.04704,53.879866],[-3.04699,53.87984]]]},"properties":{"code":"P81089","name":"THE MOUNT VIEW PRACTICE","icb":"QE1"}}]}