{"type":"FeatureCollection","features":[{"type":"Feature","geometry":{"type":"MultiPolygon","coordinates":[[[[-2.875671,53.660916],[-2.880476,53.688982],[-2.885971,53.693962],[-2.892837,53.697926],[-2.906914,53.70321],[-2.926828,53.694877],[-2.950517,53.681357],[-2.953264,53.671087],[-2.944338,53.665799],[-2.931977,53.664171],[-2.911377,53.657254],[-2.89507,53.663154],[-2.875671,53.660916]]],[[[-2.76546,53.56111],[-2.77542,53.58619],[-2.86503,53.58761],[-2.90657,53.58048],[-2.9179,53.54235],[-2.87155,53.52419],[-2.817478,53.539797],[-2.803058,53.543878],[-2.80357,53.54459],[-2.78212,53.54041],[-2.75345,53.54153],[-2.7574,53.55051],[-2.76546,53.56111]]]]},"properties":{"code":"P81112","name":"BEACON PRIMARY CARE","icb":"QE1"}}]}