{"type":"FeatureCollection","features":[{"type":"Feature","geometry":{"type":"Polygon","coordinates":[[[-2.61784,53.80653],[-2.63402,53.811328],[-2.637132,53.811921],[-2.639095,53.811041],[-2.644038,53.810762],[-2.648647,53.810768],[-2.654468,53.809611],[-2.659515,53.808561],[-2.661211,53.807258],[-2.665616,53.806028],[-2.670173,53.805393],[-2.674756,53.80444],[-2.679218,53.804445],[-2.681697,53.80358],[-2.687401,53.803587],[-2.690338,53.803128],[-2.692478,53.802169],[-2.69562,53.801072],[-2.697956,53.799713],[-2.6861,53.789773],[-2.684351,53.785645],[-2.682728,53.78476],[-2.679772,53.783632],[-2.677823,53.782201],[-2.677697,53.780199],[-2.679671,53.779132],[-2.68161,53.778262],[-2.683873,53.778025],[-2.687362,53.777659],[-2.689268,53.776549],[-2.690021,53.774702],[-2.681475,53.767533],[-2.677055,53.763328],[-2.671426,53.764902],[-2.66963,53.765708],[-2.666461,53.765887],[-2.664978,53.765971],[-2.655085,53.765959],[-2.647696,53.770264],[-2.645422,53.772012],[-2.643405,53.773422],[-2.635393,53.778088],[-2.631888,53.780782],[-2.628405,53.783458],[-2.612566,53.788987],[-2.610988,53.793245],[-2.612064,53.795333],[-2.613089,53.797319],[-2.616317,53.801465],[-2.618762,53.803789],[-2.61784,53.80653]]]},"properties":{"code":"P81184","name":"RIBBLETON MEDICAL CENTRE","icb":"QE1"}}]}