{"type":"FeatureCollection","features":[{"type":"Feature","geometry":{"type":"Polygon","coordinates":[[[-2.810264,53.552772],[-2.81061,53.55255],[-2.81027,53.55102],[-2.81233,53.55061],[-2.81353,53.55056],[-2.81404,53.55015],[-2.81499,53.54837],[-2.81507,53.54643],[-2.81456,53.54495],[-2.81404,53.54413],[-2.81259,53.54423],[-2.81147,53.54474],[-2.81087,53.54439],[-2.80967,53.54434],[-2.80864,53.54449],[-2.80821,53.54378],[-2.80769,53.54311],[-2.80684,53.54316],[-2.80495,53.54357],[-2.80426,53.54398],[-2.80426,53.54454],[-2.8034,53.54495],[-2.8022,53.5451],[-2.80057,53.54546],[-2.79902,53.54561],[-2.79696,53.54602],[-2.79508,53.54607],[-2.7931,53.54633],[-2.79027,53.54633],[-2.78812,53.54648],[-2.78658,53.54694],[-2.78555,53.5477],[-2.78538,53.54837],[-2.78495,53.54944],[-2.78486,53.55046],[-2.78512,53.55112],[-2.78563,53.55199],[-2.78606,53.55311],[-2.78684,53.55392],[-2.78727,53.55469],[-2.78855,53.55566],[-2.7895,53.55607],[-2.79087,53.55652],[-2.79602,53.55652],[-2.79757,53.55642],[-2.798437,53.555738],[-2.798437,53.555738],[-2.7986,53.55561],[-2.80684,53.55428],[-2.807321,53.554165],[-2.806765,53.554401],[-2.80752,53.55428],[-2.80898,53.55382],[-2.809137,53.553676],[-2.80967,53.55362],[-2.81035,53.55311],[-2.810264,53.552772]]]},"properties":{"code":"P81136","name":"DR A BISARYA","icb":"QE1"}}]}