{"type":"FeatureCollection","features":[{"type":"Feature","geometry":{"type":"Polygon","coordinates":[[[-3.0142,53.80339],[-3.01854,53.80476],[-3.056,53.79834],[-3.05851,53.77288],[-3.03287,53.75044],[-3.03109,53.74962],[-2.98202,53.73685],[-2.9896,53.77238],[-2.98983,53.77671],[-2.99116,53.78213],[-2.99094,53.78764],[-2.99275,53.79066],[-2.99291,53.79303],[-2.9874,53.79834],[-2.99665,53.80287],[-3.01068,53.8022],[-3.0142,53.80339]]]},"properties":{"code":"P81159","name":"STONYHILL MEDICAL PRACTICE","icb":"QE1"}}]}