{"type":"FeatureCollection","features":[{"type":"Feature","geometry":{"type":"Polygon","coordinates":[[[-2.72032,53.75602],[-2.72847,53.75763],[-2.73474,53.75782],[-2.74693,53.75759],[-2.75826,53.75635],[-2.76958,53.75429],[-2.78117,53.75287],[-2.79224,53.75074],[-2.8149,53.74688],[-2.79502,53.707364],[-2.793494,53.707463],[-2.790825,53.707918],[-2.784392,53.709959],[-2.778681,53.712588],[-2.768747,53.719048],[-2.750385,53.717742],[-2.73826,53.71688],[-2.717949,53.701236],[-2.71455,53.699831],[-2.713498,53.700429],[-2.712684,53.700311],[-2.708436,53.701814],[-2.706396,53.704111],[-2.708453,53.707207],[-2.705857,53.71013],[-2.703281,53.713641],[-2.699755,53.716262],[-2.695096,53.717229],[-2.69264,53.717833],[-2.691535,53.718362],[-2.683232,53.720404],[-2.686577,53.722545],[-2.688706,53.724987],[-2.693021,53.726771],[-2.687621,53.727312],[-2.68178,53.72749],[-2.67829,53.72784],[-2.67548,53.7292],[-2.67674,53.73092],[-2.67753,53.73475],[-2.68227,53.74188],[-2.70384,53.74211],[-2.70641,53.74942],[-2.70993,53.74742],[-2.71465,53.74846],[-2.72032,53.75602]]]},"properties":{"code":"P81181","name":"KINGSFOLD MEDICAL CENTRE","icb":"QE1"}}]}