{"type":"FeatureCollection","features":[{"type":"Feature","geometry":{"type":"Polygon","coordinates":[[[-2.41459,53.72658],[-2.40811,53.7234],[-2.39957,53.72307],[-2.38523,53.7216],[-2.35245,53.72028],[-2.32927,53.7217],[-2.31846,53.72454],[-2.29786,53.76272],[-2.29752,53.77895],[-2.30799,53.78838],[-2.31983,53.79457],[-2.33271,53.80106],[-2.34695,53.80552],[-2.36927,53.80481],[-2.39021,53.80004],[-2.42798,53.78503],[-2.44514,53.76109],[-2.44926,53.75155],[-2.44652,53.74435],[-2.44308,53.73978],[-2.43296,53.7347],[-2.41459,53.72658]]]},"properties":{"code":"P81147","name":"ARG HEALTHCARE","icb":"QE1"}}]}