{"type":"FeatureCollection","features":[{"type":"Feature","geometry":{"type":"Polygon","coordinates":[[[-2.679633,53.677188],[-2.686844,53.670884],[-2.69564,53.67371],[-2.70419,53.67142],[-2.71362,53.66952],[-2.71659,53.66246],[-2.70673,53.65917],[-2.69898,53.65832],[-2.68575,53.63408],[-2.68629,53.62918],[-2.678948,53.626317],[-2.67098,53.62979],[-2.65603,53.6334],[-2.65606,53.63767],[-2.66807,53.64143],[-2.66321,53.64664],[-2.66392,53.64993],[-2.66213,53.65608],[-2.66039,53.65957],[-2.65895,53.66441],[-2.66178,53.67166],[-2.66526,53.673],[-2.6719,53.67521],[-2.679633,53.677188]]]},"properties":{"code":"P81171","name":"THE EUXTON MEDICAL CENTRE","icb":"QE1"}}]}