{"type":"FeatureCollection","features":[{"type":"Feature","geometry":{"type":"Polygon","coordinates":[[[-2.606502,53.691755],[-2.606301,53.69174],[-2.60599,53.69157],[-2.60591,53.6931],[-2.60479,53.69594],[-2.6011,53.70291],[-2.600174,53.705508],[-2.59981,53.7055],[-2.59921,53.70809],[-2.59887,53.71098],[-2.59955,53.71307],[-2.60522,53.71571],[-2.60685,53.71566],[-2.632206,53.70626],[-2.632541,53.706184],[-2.6332,53.70692],[-2.63569,53.70738],[-2.63869,53.70722],[-2.64058,53.70849],[-2.64436,53.70824],[-2.64556,53.70728],[-2.64633,53.7056],[-2.64977,53.70387],[-2.652227,53.701809],[-2.65449,53.70153],[-2.65852,53.7026],[-2.66118,53.70265],[-2.66384,53.70189],[-2.664828,53.701038],[-2.667574,53.699959],[-2.666673,53.698968],[-2.665579,53.698345],[-2.667124,53.697964],[-2.672376,53.697487],[-2.6726,53.69752],[-2.67963,53.68166],[-2.678851,53.681515],[-2.67946,53.68156],[-2.68272,53.67851],[-2.6829,53.67515],[-2.6865,53.66824],[-2.6877,53.66498],[-2.68856,53.65898],[-2.68599,53.65837],[-2.68393,53.65827],[-2.68238,53.65797],[-2.68015,53.65858],[-2.67826,53.65878],[-2.67603,53.65898],[-2.67431,53.65878],[-2.67431,53.6602],[-2.67414,53.66112],[-2.67225,53.66081],[-2.66556,53.66081],[-2.66856,53.661438],[-2.66298,53.66122],[-2.66075,53.66],[-2.65594,53.65776],[-2.655301,53.657381],[-2.653799,53.657127],[-2.652898,53.657432],[-2.652297,53.658042],[-2.651052,53.65789],[-2.649378,53.657966],[-2.646418,53.657941],[-2.644658,53.657178],[-2.642169,53.657407],[-2.639809,53.65672],[-2.636504,53.65611],[-2.63483,53.656466],[-2.635173,53.657763],[-2.63397,53.661221],[-2.632298,53.662239],[-2.628607,53.662137],[-2.61899,53.662066],[-2.61895,53.66178],[-2.61788,53.66198],[-2.61736,53.66282],[-2.617495,53.662843],[-2.61475,53.66427],[-2.614694,53.664547],[-2.61226,53.66015],[-2.61071,53.66015],[-2.60942,53.66051],[-2.60805,53.66239],[-2.60702,53.66361],[-2.60668,53.66468],[-2.60565,53.66549],[-2.60299,53.66539],[-2.60153,53.66539],[-2.59998,53.66509],[-2.596416,53.664222],[-2.59629,53.66387],[-2.59458,53.66265],[-2.59123,53.66163],[-2.58951,53.66239],[-2.58891,53.6632],[-2.58093,53.66544],[-2.57698,53.66544],[-2.57595,53.66697],[-2.587927,53.67596],[-2.5878,53.67597],[-2.6017,53.68492],[-2.606502,53.691755]]]},"properties":{"code":"P81143","name":"WHITTLE SURGERY","icb":"QE1"}}]}