{"type":"FeatureCollection","features":[{"type":"Feature","geometry":{"type":"Polygon","coordinates":[[[-2.709369,53.515485],[-2.70298,53.517859],[-2.701437,53.518088],[-2.692767,53.520236],[-2.702637,53.558258],[-2.759113,53.562132],[-2.75533,53.54316],[-2.76882,53.54481],[-2.77199,53.54526],[-2.775149,53.545918],[-2.77516,53.54597],[-2.78134,53.54597],[-2.78512,53.54653],[-2.78529,53.54939],[-2.78512,53.55127],[-2.78727,53.55474],[-2.79036,53.55673],[-2.79327,53.55683],[-2.79954,53.55556],[-2.80709,53.55454],[-2.80984,53.55372],[-2.81104,53.55265],[-2.81044,53.55071],[-2.81507,53.55076],[-2.82426,53.55367],[-2.83113,53.55637],[-2.8349,53.55744],[-2.83422,53.55413],[-2.8343,53.5526],[-2.83525,53.54867],[-2.83387,53.54796],[-2.83404,53.54607],[-2.83258,53.5451],[-2.8313,53.54439],[-2.8307,53.5423],[-2.82949,53.53868],[-2.82778,53.53755],[-2.82615,53.53669],[-2.82409,53.5374],[-2.82177,53.53811],[-2.81868,53.53888],[-2.81585,53.54005],[-2.81404,53.54072],[-2.80632,53.54296],[-2.80512,53.54321],[-2.80306,53.54342],[-2.79722,53.54296],[-2.79525,53.5423],[-2.79293,53.54184],[-2.79018,53.54112],[-2.78864,53.54051],[-2.78684,53.54015],[-2.78478,53.53959],[-2.78306,53.53903],[-2.7804,53.53862],[-2.77808,53.53811],[-2.77559,53.53766],[-2.77328,53.53694],[-2.77331,53.537082],[-2.74924,53.53291],[-2.74729,53.53771],[-2.74722,53.54043],[-2.73533,53.509081],[-2.734736,53.509081],[-2.734619,53.509127],[-2.734566,53.509285],[-2.734566,53.509148],[-2.734222,53.509285],[-2.73428,53.509182],[-2.722938,53.511817],[-2.709369,53.515485]]]},"properties":{"code":"P81208","name":"EXCEL PRIMARY CARE","icb":"QE1"}}]}