{"type":"FeatureCollection","features":[{"type":"Feature","geometry":{"type":"Polygon","coordinates":[[[-3.047592,53.878294],[-3.04865,53.86166],[-3.05017,53.85702],[-3.05335,53.84924],[-3.05347,53.84788],[-3.05338,53.84681],[-3.0544,53.8405],[-3.05491,53.83287],[-3.05519,53.83255],[-3.05546,53.8324],[-3.05568,53.83205],[-3.05544,53.82645],[-3.05535,53.82563],[-3.05548,53.82358],[-3.05522,53.82194],[-3.055,53.82113],[-3.05539,53.81988],[-3.05574,53.81908],[-3.05512,53.81898],[-3.04945,53.82087],[-3.04865,53.82108],[-3.04669,53.8234],[-3.04534,53.82416],[-3.04228,53.82496],[-3.03972,53.8257],[-3.03914,53.82387],[-3.03789,53.81873],[-3.03613,53.81912],[-3.0351,53.81924],[-3.03344,53.81905],[-3.03294,53.81909],[-3.03059,53.8196],[-3.02943,53.81977],[-3.02814,53.8201],[-3.02754,53.82031],[-3.02475,53.82098],[-3.02012,53.82265],[-3.01828,53.823],[-3.01635,53.8239],[-3.01296,53.82575],[-3.01129,53.82653],[-3.01019,53.82692],[-3.00871,53.82725],[-3.00502,53.82793],[-3.0035,53.82889],[-3.00241,53.82926],[-2.99857,53.82956],[-2.99485,53.83003],[-2.99407,53.83021],[-2.99403,53.83121],[-2.99327,53.83219],[-2.99271,53.83344],[-2.99347,53.83479],[-2.99364,53.8356],[-2.99308,53.83679],[-2.99235,53.83798],[-2.99202,53.83966],[-2.99139,53.83989],[-2.99234,53.84341],[-2.99239,53.84468],[-2.99218,53.84592],[-2.99199,53.8462],[-2.99109,53.84639],[-2.99111,53.8475],[-2.99121,53.84797],[-2.99069,53.84879],[-2.98936,53.85011],[-2.98848,53.85108],[-2.986821,53.852053],[-2.98564,53.85311],[-2.98402,53.85401],[-2.98292,53.85521],[-2.98247,53.85645],[-2.99825,53.85745],[-3.00033,53.85778],[-3.00188,53.8581],[-3.00231,53.85814],[-3.00423,53.85876],[-3.00693,53.85973],[-3.00702,53.86036],[-3.00825,53.86258],[-3.00852,53.86301],[-3.010166,53.86335],[-3.00973,53.86365],[-3.01472,53.865442],[-3.018745,53.868229],[-3.022986,53.872447],[-3.023638,53.874503],[-3.029706,53.875464],[-3.047592,53.878294]]]},"properties":{"code":"P81681","name":"NORTH SHORE SURGERY","icb":"QE1"}}]}