{"type":"FeatureCollection","features":[{"type":"Feature","geometry":{"type":"Polygon","coordinates":[[[-2.78503,53.586246],[-2.787951,53.598988],[-2.805267,53.61057],[-2.8073,53.619434],[-2.813391,53.621112],[-2.814686,53.622798],[-2.818937,53.62264],[-2.818635,53.627939],[-2.817798,53.633374],[-2.828268,53.64785],[-2.832027,53.672391],[-2.860696,53.665229],[-2.875702,53.662584],[-2.881682,53.652238],[-2.887045,53.630096],[-2.891856,53.624813],[-2.898595,53.613142],[-2.893531,53.596765],[-2.875926,53.584986],[-2.863124,53.580518],[-2.849071,53.576643],[-2.805399,53.574566],[-2.78503,53.586246]]]},"properties":{"code":"P81646","name":"LATHOM HOUSE SURGERY","icb":"QE1"}}]}