{"type":"FeatureCollection","features":[{"type":"Feature","geometry":{"type":"Polygon","coordinates":[[[-2.518848,53.733301],[-2.537074,53.726339],[-2.515157,53.718698],[-2.483247,53.71738],[-2.476121,53.722293],[-2.472742,53.722282],[-2.444479,53.728927],[-2.435063,53.739803],[-2.438207,53.743797],[-2.443493,53.746342],[-2.446432,53.756484],[-2.454352,53.762897],[-2.464589,53.764655],[-2.467193,53.766762],[-2.46768,53.766323],[-2.477997,53.779403],[-2.507312,53.77528],[-2.508762,53.774281],[-2.520972,53.774317],[-2.521786,53.761228],[-2.517544,53.749844],[-2.518848,53.733301]]]},"properties":{"code":"P81622","name":"SHIFA SURGERY","icb":"QE1"}}]}