{"type":"FeatureCollection","features":[{"type":"Feature","geometry":{"type":"Polygon","coordinates":[[[-2.728574,53.67023],[-2.694087,53.680939],[-2.69577,53.679203],[-2.694582,53.679203],[-2.694028,53.68094],[-2.69371,53.679203],[-2.694582,53.679203],[-2.696526,53.673111],[-2.676268,53.670831],[-2.652297,53.6747],[-2.647107,53.683582],[-2.658113,53.694608],[-2.665901,53.713974],[-2.711563,53.714787],[-2.746117,53.70114],[-2.74472,53.688398],[-2.762765,53.682503],[-2.728574,53.67023]]]},"properties":{"code":"P81741","name":"STATION SURGERY","icb":"QE1"}}]}