{"type":"FeatureCollection","features":[{"type":"Feature","geometry":{"type":"Polygon","coordinates":[[[-2.433765,53.793272],[-2.44034,53.79842],[-2.44884,53.80473],[-2.49836,53.7932],[-2.53801,53.77852],[-2.57664,53.7683],[-2.57556,53.75739],[-2.56145,53.75054],[-2.55518,53.72749],[-2.519192,53.709262],[-2.52274,53.70951],[-2.51849,53.708906],[-2.48463,53.69173],[-2.44532,53.69671],[-2.429693,53.700357],[-2.415909,53.718283],[-2.415368,53.73126],[-2.413559,53.731349],[-2.410668,53.735107],[-2.402304,53.741949],[-2.402942,53.752427],[-2.402916,53.753786],[-2.403147,53.755778],[-2.403653,53.764087],[-2.403431,53.769413],[-2.403774,53.773674],[-2.404348,53.77547],[-2.404461,53.777326],[-2.406006,53.781789],[-2.416961,53.787048],[-2.433765,53.793272]]]},"properties":{"code":"P81771","name":"PRIMROSE BANK MEDICAL CENTRE","icb":"QE1"}}]}