{"type":"FeatureCollection","features":[{"type":"Feature","geometry":{"type":"Polygon","coordinates":[[[-2.650366,53.783615],[-2.65483,53.78291],[-2.65723,53.78204],[-2.657661,53.781132],[-2.657918,53.780319],[-2.658433,53.779305],[-2.659377,53.77824],[-2.659806,53.777429],[-2.660664,53.776414],[-2.661865,53.775604],[-2.662895,53.774741],[-2.665556,53.773625],[-2.666844,53.773115],[-2.668818,53.772098],[-2.669676,53.771538],[-2.671652,53.771189],[-2.671822,53.770269],[-2.671651,53.770268],[-2.671737,53.770327],[-2.671651,53.770371],[-2.668905,53.769054],[-2.666845,53.768041],[-2.665043,53.767079],[-2.6623,53.76586],[-2.658434,53.767434],[-2.655173,53.768751],[-2.6544,53.769917],[-2.651225,53.768751],[-2.649852,53.768852],[-2.647105,53.769917],[-2.645646,53.771035],[-2.644272,53.773116],[-2.64539,53.77682],[-2.650366,53.783615]]]},"properties":{"code":"P81735","name":"DR A HUSSAIN","icb":"QE1"}}]}