{"type":"FeatureCollection","features":[{"type":"Feature","geometry":{"type":"MultiPolygon","coordinates":[[[[-2.53372,53.53337],[-2.52617,53.53582],[-2.522054,53.542343],[-2.51724,53.54765],[-2.52342,53.55132],[-2.53647,53.55418],[-2.570088,53.560296],[-2.58385,53.56519],[-2.57149,53.53786],[-2.56255,53.536628],[-2.55089,53.53419],[-2.53372,53.53337]]],[[[-2.52411,53.55948],[-2.51312,53.55989],[-2.49802,53.56805],[-2.493881,53.573763],[-2.48497,53.57987],[-2.48016,53.58802],[-2.49939,53.5978],[-2.515208,53.600261],[-2.53304,53.60758],[-2.565324,53.612884],[-2.574242,53.615324],[-2.59003,53.62143],[-2.60239,53.62428],[-2.60788,53.6251],[-2.60582,53.61695],[-2.601009,53.608399],[-2.58797,53.58313],[-2.55295,53.56519],[-2.52411,53.55948]]]]},"properties":{"code":"P82006","name":"PIKE VIEW, DR MALHOTRA & PARTNERS","icb":"QOP"}}]}