{"type":"FeatureCollection","features":[{"type":"Feature","geometry":{"type":"Polygon","coordinates":[[[-2.49853,53.55183],[-2.49699,53.55],[-2.48583,53.54918],[-2.47862,53.54765],[-2.46849,53.54714],[-2.46849,53.54979],[-2.46059,53.54949],[-2.45441,53.54939],[-2.44669,53.54877],[-2.41999,53.54883],[-2.42094,53.55902],[-2.42047,53.55897],[-2.42,53.55882],[-2.41999,53.55877],[-2.41287,53.55805],[-2.41081,53.55918],[-2.40892,53.56183],[-2.41442,53.56611],[-2.42094,53.57172],[-2.42455,53.5761],[-2.42626,53.57875],[-2.4254,53.58079],[-2.42403,53.5815],[-2.42523,53.58272],[-2.42729,53.58609],[-2.4309,53.58975],[-2.43811,53.59301],[-2.45287,53.59719],[-2.45905,53.59668],[-2.46437,53.59373],[-2.47124,53.59434],[-2.47364,53.59444],[-2.47725,53.59312],[-2.48016,53.59057],[-2.48428,53.58843],[-2.4836,53.58609],[-2.4836,53.58354],[-2.48703,53.58221],[-2.4884,53.57987],[-2.49372,53.57956],[-2.50145,53.58038],[-2.50162,53.57528],[-2.49802,53.57212],[-2.49441,53.57273],[-2.50162,53.56509],[-2.50832,53.56091],[-2.49166,53.55561],[-2.49853,53.55183]]]},"properties":{"code":"P82002","name":"PIKES LANE 1","icb":"QOP"}}]}