{"type":"FeatureCollection","features":[{"type":"Feature","geometry":{"type":"Polygon","coordinates":[[[-2.45012,53.58361],[-2.44582,53.58522],[-2.44405,53.58691],[-2.4446,53.58798],[-2.44225,53.59385],[-2.44978,53.59595],[-2.45243,53.59653],[-2.45806,53.59661],[-2.4636,53.59369],[-2.46119,53.5912],[-2.46064,53.58886],[-2.46248,53.58866],[-2.45978,53.57992],[-2.45296,53.58053],[-2.45227,53.58175],[-2.45125,53.58211],[-2.45199,53.58303],[-2.45012,53.58361]]]},"properties":{"code":"P82634","name":"WYRESDALE ROAD SURGERY","icb":"QOP"}}]}