{"type":"FeatureCollection","features":[{"type":"Feature","geometry":{"type":"Polygon","coordinates":[[[-2.402334,53.592298],[-2.40326,53.59271],[-2.435235,53.616721],[-2.43553,53.61655],[-2.4345,53.61512],[-2.43587,53.61654],[-2.45647,53.60228],[-2.46059,53.59964],[-2.46471,53.59821],[-2.46952,53.59699],[-2.47295,53.59556],[-2.48085,53.59087],[-2.4884,53.58823],[-2.496659,53.583326],[-2.500189,53.580844],[-2.49904,53.5815],[-2.51072,53.57335],[-2.50886,53.575241],[-2.508455,53.575768],[-2.510401,53.575454],[-2.51096,53.575146],[-2.51037,53.57518],[-2.511033,53.575106],[-2.51312,53.57396],[-2.514361,53.574018],[-2.5145,53.57396],[-2.51381,53.57334],[-2.513915,53.57338],[-2.49939,53.56294],[-2.50042,53.56193],[-2.39914,53.54235],[-2.38575,53.55295],[-2.37888,53.56009],[-2.38229,53.573048],[-2.38613,53.5843],[-2.399976,53.591457],[-2.402167,53.592471],[-2.402334,53.592298]]]},"properties":{"code":"P82625","name":"DR SIDDA'S SURGERY, WATERS MEETING HC","icb":"QOP"}}]}