{"type":"FeatureCollection","features":[{"type":"Feature","geometry":{"type":"Polygon","coordinates":[[[-2.57149,53.59699],[-2.57286,53.59006],[-2.56531,53.58068],[-2.55226,53.56968],[-2.53853,53.56519],[-2.55638,53.5448],[-2.50763,53.52439],[-2.45544,53.50112],[-2.38678,53.5003],[-2.31125,53.50357],[-2.27486,53.52235],[-2.26318,53.54969],[-2.26524,53.55744],[-2.27074,53.57742],[-2.27074,53.59291],[-2.29202,53.59454],[-2.31194,53.59902],[-2.3243,53.60595],[-2.34146,53.61451],[-2.39845,53.62021],[-2.4424,53.6308],[-2.48978,53.63772],[-2.56737,53.6255],[-2.57149,53.59699]]]},"properties":{"code":"P82660","name":"DEANE CLINIC 1","icb":"QOP"}}]}