{"type":"FeatureCollection","features":[{"type":"Feature","geometry":{"type":"Polygon","coordinates":[[[-2.378367,53.645709],[-2.37442,53.65751],[-2.37837,53.66519],[-2.42326,53.66544],[-2.4678,53.66529],[-2.4684,53.66051],[-2.46866,53.65125],[-2.46883,53.63874],[-2.46918,53.62632],[-2.46444,53.62403],[-2.46163,53.62156],[-2.45815,53.61868],[-2.45375,53.61578],[-2.44983,53.61499],[-2.43935,53.60829],[-2.43512,53.60488],[-2.43313,53.60127],[-2.41699,53.60534],[-2.41116,53.603],[-2.40772,53.59964],[-2.39107,53.59561],[-2.38725,53.59338],[-2.38343,53.5934],[-2.37442,53.59363],[-2.3697,53.59826],[-2.36957,53.60017],[-2.37391,53.60055],[-2.38129,53.60827],[-2.38214,53.61537],[-2.38352,53.63029],[-2.383489,53.630384],[-2.37399,53.63482],[-2.376523,53.641124],[-2.378988,53.640427],[-2.37897,53.64047],[-2.376526,53.64113],[-2.378367,53.645709]]]},"properties":{"code":"P82643","name":"BROMLEY MEADOWS SURGERY","icb":"QOP"}}]}