{"type":"FeatureCollection","features":[{"type":"Feature","geometry":{"type":"Polygon","coordinates":[[[-2.223489,53.515819],[-2.21684,53.51663],[-2.220268,53.518539],[-2.240491,53.52326],[-2.244982,53.528501],[-2.2419,53.53684],[-2.2407,53.53837],[-2.23967,53.5401],[-2.240529,53.542929],[-2.239535,53.547384],[-2.239144,53.548333],[-2.23864,53.54918],[-2.238344,53.551301],[-2.23812,53.55173],[-2.23778,53.55357],[-2.23795,53.55448],[-2.24018,53.55601],[-2.24344,53.55846],[-2.24653,53.55887],[-2.251438,53.55984],[-2.253216,53.56038],[-2.25512,53.56111],[-2.259633,53.561748],[-2.261466,53.562188],[-2.266812,53.563861],[-2.270681,53.567292],[-2.271663,53.571753],[-2.271724,53.572695],[-2.27125,53.57763],[-2.27142,53.57916],[-2.27228,53.58211],[-2.272805,53.583544],[-2.272991,53.585156],[-2.27194,53.59006],[-2.27846,53.59261],[-2.282912,53.594192],[-2.284372,53.594946],[-2.2879,53.59729],[-2.29305,53.59872],[-2.299048,53.599528],[-2.30198,53.60004],[-2.305315,53.599878],[-2.30885,53.60025],[-2.32155,53.59964],[-2.325977,53.598583],[-2.327371,53.598306],[-2.33322,53.5974],[-2.3394,53.59577],[-2.34524,53.59373],[-2.351466,53.591325],[-2.35416,53.59067],[-2.35863,53.58924],[-2.36034,53.58761],[-2.36069,53.58578],[-2.359466,53.582163],[-2.35931,53.581258],[-2.35931,53.57946],[-2.35691,53.57579],[-2.354844,53.573954],[-2.35142,53.57049],[-2.35039,53.56682],[-2.350041,53.564179],[-2.35004,53.5603],[-2.34833,53.55663],[-2.34077,53.55092],[-2.33768,53.54867],[-2.33494,53.54684],[-2.331848,53.545199],[-2.32704,53.54255],[-2.323244,53.541333],[-2.32052,53.5397],[-2.30855,53.533261],[-2.306193,53.530346],[-2.3061,53.5299],[-2.304527,53.528085],[-2.30335,53.52643],[-2.302213,53.525046],[-2.30112,53.52337],[-2.299401,53.522711],[-2.298134,53.522043],[-2.29666,53.52102],[-2.29408,53.51847],[-2.29305,53.51674],[-2.29065,53.51521],[-2.28825,53.51418],[-2.287232,53.51388],[-2.28327,53.51143],[-2.28138,53.5102],[-2.27846,53.50898],[-2.27692,53.50888],[-2.27614,53.509165],[-2.27194,53.5099],[-2.242372,53.513515],[-2.239145,53.513413],[-2.236977,53.513028],[-2.232353,53.514738],[-2.223489,53.515819]]]},"properties":{"code":"P83027","name":"GREYLAND MEDICAL CENTRE","icb":"QOP"}}]}