{"type":"FeatureCollection","features":[{"type":"Feature","geometry":{"type":"Polygon","coordinates":[[[-2.300091,53.582946],[-2.30935,53.582848],[-2.311695,53.580649],[-2.307278,53.570441],[-2.308373,53.565344],[-2.322321,53.557161],[-2.336569,53.552419],[-2.33614,53.548111],[-2.320347,53.538293],[-2.295198,53.539262],[-2.288439,53.539797],[-2.263233,53.549919],[-2.270565,53.564171],[-2.280865,53.572862],[-2.29434,53.582086],[-2.300091,53.582946]]]},"properties":{"code":"P83009","name":"BLACKFORD HOUSE MEDICAL CENTRE","icb":"QOP"}}]}