{"type":"FeatureCollection","features":[{"type":"Feature","geometry":{"type":"Polygon","coordinates":[[[-2.311589,53.650539],[-2.324982,53.650336],[-2.343526,53.646673],[-2.34799,53.640974],[-2.34902,53.64016],[-2.349363,53.638328],[-2.348332,53.637311],[-2.33412,53.63372],[-2.33515,53.63314],[-2.33867,53.63176],[-2.33786,53.62497],[-2.34198,53.6209],[-2.34223,53.61899],[-2.34146,53.61644],[-2.34168,53.61502],[-2.34086,53.61382],[-2.34017,53.61219],[-2.33841,53.61087],[-2.33803,53.60934],[-2.33696,53.6087],[-2.33674,53.60776],[-2.34125,53.60806],[-2.34142,53.60666],[-2.34352,53.6044],[-2.34176,53.60333],[-2.34017,53.60249],[-2.33949,53.60114],[-2.33996,53.59765],[-2.3397,53.59533],[-2.34069,53.5934],[-2.34305,53.59207],[-2.34159,53.5896],[-2.34271,53.58512],[-2.34296,53.5813],[-2.342838,53.5709],[-2.32039,53.5632],[-2.31743,53.56389],[-2.31245,53.56639],[-2.31078,53.56504],[-2.30889,53.56511],[-2.29743,53.5632],[-2.29327,53.56557],[-2.29181,53.56611],[-2.28601,53.57072],[-2.28533,53.57205],[-2.27202,53.5814],[-2.28172,53.58239],[-2.28245,53.58417],[-2.28164,53.5868],[-2.28035,53.58598],[-2.27842,53.58555],[-2.27782,53.58677],[-2.27872,53.58871],[-2.2773,53.59047],[-2.27602,53.59156],[-2.27434,53.59108],[-2.27022,53.58909],[-2.26936,53.58991],[-2.26945,53.592],[-2.2658,53.59151],[-2.26494,53.5924],[-2.25915,53.59215],[-2.25756,53.59554],[-2.25391,53.5977],[-2.25065,53.59928],[-2.24662,53.59941],[-2.24743,53.60386],[-2.2667,53.6102],[-2.27535,53.62153],[-2.28915,53.63199],[-2.29863,53.63123],[-2.31174,53.63231],[-2.31302,53.63812],[-2.29545,53.650946],[-2.311589,53.650539]]]},"properties":{"code":"P83017","name":"WOODBANK SURGERY","icb":"QOP"}}]}