{"type":"FeatureCollection","features":[{"type":"Feature","geometry":{"type":"Polygon","coordinates":[[[-2.326318,53.548449],[-2.313066,53.547688],[-2.301424,53.549916],[-2.295037,53.542363],[-2.283783,53.545264],[-2.290193,53.5514],[-2.292899,53.564492],[-2.293576,53.566796],[-2.294751,53.56878],[-2.294651,53.569824],[-2.307566,53.575069],[-2.31923,53.57594],[-2.321905,53.57614],[-2.329043,53.580229],[-2.342167,53.580757],[-2.344175,53.580837],[-2.348225,53.579792],[-2.351899,53.57764],[-2.353233,53.575807],[-2.353299,53.575108],[-2.355256,53.573962],[-2.356253,53.573208],[-2.362114,53.568782],[-2.359319,53.567471],[-2.358078,53.567619],[-2.354574,53.565443],[-2.352742,53.562358],[-2.349924,53.560554],[-2.347948,53.559929],[-2.342469,53.550699],[-2.341562,53.547621],[-2.334438,53.54709],[-2.327056,53.548505],[-2.32704,53.54847],[-2.326318,53.548449]]]},"properties":{"code":"P83007","name":"RADCLIFFE MEDICAL PRACTICE","icb":"QOP"}}]}