{"type":"FeatureCollection","features":[{"type":"Feature","geometry":{"type":"Polygon","coordinates":[[[-2.2943,53.61586],[-2.3179,53.61153],[-2.33439,53.60929],[-2.32402,53.60464],[-2.32536,53.59201],[-2.31966,53.58868],[-2.30687,53.59138],[-2.29873,53.58298],[-2.29786,53.58125],[-2.29085,53.5827],[-2.28598,53.58248],[-2.28519,53.58813],[-2.28425,53.58807],[-2.28419,53.58893],[-2.28092,53.59065],[-2.28227,53.59267],[-2.27945,53.59219],[-2.27533,53.5923],[-2.2473,53.60376],[-2.26273,53.60361],[-2.26431,53.60202],[-2.26829,53.60398],[-2.27472,53.60514],[-2.27981,53.60379],[-2.28078,53.60622],[-2.28799,53.60812],[-2.289,53.61146],[-2.29133,53.61417],[-2.2943,53.61586]]]},"properties":{"code":"P83621","name":"HUNTLEY MOUNT MEDICAL CENTRE","icb":"QOP"}}]}