{"type":"FeatureCollection","features":[{"type":"Feature","geometry":{"type":"Polygon","coordinates":[[[-2.248482,53.527071],[-2.24001,53.53888],[-2.24034,53.538745],[-2.23984,53.53908],[-2.24293,53.54276],[-2.25082,53.54541],[-2.26318,53.54908],[-2.268199,53.546927],[-2.27314,53.54554],[-2.28198,53.54237],[-2.28494,53.54079],[-2.28389,53.540192],[-2.286584,53.539035],[-2.28687,53.53908],[-2.286776,53.538953],[-2.287882,53.538478],[-2.28824,53.53847],[-2.287854,53.538416],[-2.276804,53.525452],[-2.27606,53.52408],[-2.275844,53.524169],[-2.27314,53.52051],[-2.253386,53.522032],[-2.253018,53.522016],[-2.25151,53.52143],[-2.251236,53.52194],[-2.25078,53.52192],[-2.251186,53.522033],[-2.248482,53.527071]]]},"properties":{"code":"P83623","name":"LONGFIELD MEDICAL PRACTICE","icb":"QOP"}}]}