{"type":"FeatureCollection","features":[{"type":"Feature","geometry":{"type":"Polygon","coordinates":[[[-2.23658,53.53898],[-2.23778,53.53857],[-2.23949,53.53735],[-2.24361,53.53245],[-2.24567,53.52898],[-2.24842,53.52255],[-2.24894,53.51663],[-2.25151,53.51061],[-2.25271,53.50428],[-2.24619,53.50265],[-2.24001,53.5002],[-2.22748,53.50285],[-2.22576,53.49254],[-2.21083,53.49662],[-2.20036,53.49989],[-2.19349,53.50847],[-2.18679,53.51357],[-2.18044,53.51827],[-2.17701,53.52643],[-2.18096,53.52745],[-2.18954,53.52929],[-2.19486,53.53102],[-2.20087,53.53133],[-2.20533,53.53204],[-2.20911,53.5348],[-2.21392,53.53868],[-2.21924,53.54041],[-2.22422,53.54031],[-2.22988,53.53898],[-2.23658,53.53898]]]},"properties":{"code":"P84040","name":"CONRAN MEDICAL CENTRE","icb":"QOP"}}]}