{"type":"FeatureCollection","features":[{"type":"Feature","geometry":{"type":"Polygon","coordinates":[[[-2.205681,53.461939],[-2.20555,53.46194],[-2.20744,53.4598],[-2.20628,53.45964],[-2.20465,53.4599],[-2.20323,53.45921],[-2.20293,53.45916],[-2.20242,53.45928],[-2.20096,53.45951],[-2.1995,53.45985],[-2.19765,53.46054],[-2.19714,53.46153],[-2.19765,53.46276],[-2.19761,53.4637],[-2.19585,53.46565],[-2.19613,53.46543],[-2.20139,53.46636],[-2.201774,53.465944],[-2.20156,53.46636],[-2.20941,53.46769],[-2.21177,53.46812],[-2.21297,53.46841],[-2.21555,53.46887],[-2.21589,53.46907],[-2.21589,53.46938],[-2.21563,53.46984],[-2.21555,53.47058],[-2.215759,53.470583],[-2.21572,53.47127],[-2.21623,53.47239],[-2.21647,53.47427],[-2.21671,53.4751],[-2.21701,53.47526],[-2.21812,53.47533],[-2.21819,53.4754],[-2.218171,53.475331],[-2.21902,53.47534],[-2.22033,53.47446],[-2.22136,53.47365],[-2.22256,53.47336],[-2.22587,53.47337],[-2.22771,53.47363],[-2.22872,53.47385],[-2.22988,53.47391],[-2.231118,53.473415],[-2.23125,53.47343],[-2.23374,53.47237],[-2.23469,53.47208],[-2.235413,53.47192],[-2.23548,53.47196],[-2.23834,53.47147],[-2.236387,53.469576],[-2.236438,53.46956],[-2.23859,53.47155],[-2.23889,53.47134],[-2.24037,53.47104],[-2.24123,53.47067],[-2.2416,53.47008],[-2.241509,53.470054],[-2.24148,53.46994],[-2.24036,53.46869],[-2.24029,53.46874],[-2.23994,53.4683],[-2.239748,53.46829],[-2.239768,53.468088],[-2.23731,53.4653],[-2.23709,53.46534],[-2.236772,53.465383],[-2.2352,53.46439],[-2.234464,53.463759],[-2.23512,53.46153],[-2.235047,53.460872],[-2.235108,53.46057],[-2.235586,53.460491],[-2.23572,53.45816],[-2.23263,53.4577],[-2.22928,53.45765],[-2.22739,53.45785],[-2.22671,53.4576],[-2.22542,53.45785],[-2.2243,53.45821],[-2.22216,53.45775],[-2.22018,53.4575],[-2.21829,53.45785],[-2.21735,53.45819],[-2.2149,53.45826],[-2.21366,53.45847],[-2.20945,53.45882],[-2.20799,53.45928],[-2.207237,53.460083],[-2.20722,53.46005],[-2.205681,53.461939]]]},"properties":{"code":"P84037","name":"ARDWICK MEDICAL PRACTICE","icb":"QOP"}}]}