{"type":"FeatureCollection","features":[{"type":"Feature","geometry":{"type":"Polygon","coordinates":[[[-2.22628,53.39889],[-2.21623,53.40058],[-2.22027,53.40892],[-2.21855,53.41255],[-2.2134,53.42068],[-2.21881,53.42155],[-2.21512,53.43173],[-2.2146,53.43357],[-2.22542,53.4338],[-2.22902,53.43316],[-2.23168,53.43309],[-2.23572,53.43209],[-2.249411,53.431986],[-2.251728,53.429788],[-2.252199,53.429097],[-2.25245,53.42876],[-2.25477,53.42539],[-2.25756,53.42304],[-2.26018,53.41966],[-2.26336,53.41536],[-2.25327,53.41132],[-2.24696,53.40442],[-2.24256,53.40101],[-2.23662,53.39874],[-2.22628,53.39889]]]},"properties":{"code":"P84034","name":"BARLOW MEDICAL CENTRE","icb":"QOP"}}]}