{"type":"FeatureCollection","features":[{"type":"Feature","geometry":{"type":"Polygon","coordinates":[[[-2.20808,53.53255],[-2.20877,53.53164],[-2.211428,53.527197],[-2.215118,53.523982],[-2.215204,53.522299],[-2.213058,53.517859],[-2.212801,53.515103],[-2.216063,53.509336],[-2.217779,53.505967],[-2.218122,53.502189],[-2.214603,53.499228],[-2.212372,53.497237],[-2.208853,53.496675],[-2.205334,53.497901],[-2.199068,53.499841],[-2.17066,53.50571],[-2.169757,53.514312],[-2.167826,53.51888],[-2.165079,53.52235],[-2.18619,53.52878],[-2.19718,53.530258],[-2.20808,53.53255]]]},"properties":{"code":"P84065","name":"CHURCH VIEW MEDICAL CENTRE","icb":"QOP"}}]}