{"type":"FeatureCollection","features":[{"type":"Feature","geometry":{"type":"Polygon","coordinates":[[[-2.18143,53.46262],[-2.18229,53.46226],[-2.18308,53.46249],[-2.18439,53.46215],[-2.18615,53.46158],[-2.1886,53.46111],[-2.19016,53.46096],[-2.19235,53.46046],[-2.19053,53.45742],[-2.1901,53.45594],[-2.1893,53.4547],[-2.1884,53.45435],[-2.1884,53.45411],[-2.18757,53.45366],[-2.1863,53.45411],[-2.18424,53.45389],[-2.18351,53.45376],[-2.18102,53.45379],[-2.1798,53.45033],[-2.1739,53.45135],[-2.17244,53.45191],[-2.16873,53.45282],[-2.1689,53.45302],[-2.16784,53.45413],[-2.16673,53.454156],[-2.162234,53.454914],[-2.161777,53.455393],[-2.161149,53.45686],[-2.160803,53.457482],[-2.160977,53.45808],[-2.160927,53.458428],[-2.16202,53.45902],[-2.18143,53.46262]]]},"properties":{"code":"P84050","name":"MOUNT ROAD SURGERY","icb":"QOP"}}]}