{"type":"FeatureCollection","features":[{"type":"Feature","geometry":{"type":"Polygon","coordinates":[[[-2.339311,53.451875],[-2.339365,53.451137],[-2.339253,53.450718],[-2.339283,53.450313],[-2.33578,53.449179],[-2.33235,53.4487],[-2.332823,53.44615],[-2.334149,53.441426],[-2.332164,53.438015],[-2.320367,53.436017],[-2.311768,53.43456],[-2.302918,53.432023],[-2.297426,53.433334],[-2.294569,53.434336],[-2.291198,53.435287],[-2.288699,53.436586],[-2.286698,53.437002],[-2.284346,53.437224],[-2.2825,53.4348],[-2.279619,53.430342],[-2.271004,53.427143],[-2.264761,53.420712],[-2.260836,53.419254],[-2.252618,53.415082],[-2.249323,53.414057],[-2.238021,53.40614],[-2.231089,53.400018],[-2.222641,53.403434],[-2.211017,53.405845],[-2.216918,53.415007],[-2.216611,53.415957],[-2.216713,53.416475],[-2.216271,53.41701],[-2.215564,53.417962],[-2.214142,53.418854],[-2.213704,53.42021],[-2.212656,53.421476],[-2.21128,53.424759],[-2.20945,53.429126],[-2.207975,53.432105],[-2.204073,53.441951],[-2.206315,53.446328],[-2.202192,53.446435],[-2.199553,53.447983],[-2.196735,53.449748],[-2.195159,53.45246],[-2.196196,53.453825],[-2.198113,53.456979],[-2.199937,53.456546],[-2.204647,53.459846],[-2.210196,53.462664],[-2.217289,53.46682],[-2.219735,53.467797],[-2.221701,53.468582],[-2.222391,53.469927],[-2.224522,53.471418],[-2.22037,53.474107],[-2.219581,53.47506],[-2.218088,53.47646],[-2.21851,53.477669],[-2.220765,53.478195],[-2.222768,53.479368],[-2.224916,53.480626],[-2.226763,53.483488],[-2.239075,53.494339],[-2.239163,53.494219],[-2.245425,53.494054],[-2.249657,53.49186],[-2.25214,53.490572],[-2.259698,53.490747],[-2.264976,53.489652],[-2.268754,53.489044],[-2.275773,53.488963],[-2.279866,53.485119],[-2.290101,53.484265],[-2.294158,53.484217],[-2.303538,53.490765],[-2.310332,53.490197],[-2.314009,53.487159],[-2.329189,53.486977],[-2.330326,53.483435],[-2.296255,53.477666],[-2.28656,53.475643],[-2.282898,53.473084],[-2.284032,53.467009],[-2.284397,53.465052],[-2.303846,53.471088],[-2.315277,53.47706],[-2.320051,53.479165],[-2.324493,53.479917],[-2.350641,53.474472],[-2.331287,53.465946],[-2.33861,53.459433],[-2.339691,53.452613],[-2.339311,53.451875]]]},"properties":{"code":"P84039","name":"THE RANGE MEDICAL CENTRE","icb":"QOP"}}]}