{"type":"FeatureCollection","features":[{"type":"Feature","geometry":{"type":"Polygon","coordinates":[[[-2.205813,53.438552],[-2.21048,53.42692],[-2.1928,53.42304],[-2.17821,53.42887],[-2.174988,53.435596],[-2.17495,53.43551],[-2.17478,53.43603],[-2.17426,53.43828],[-2.17405,53.44139],[-2.17336,53.44546],[-2.17958,53.44597],[-2.179529,53.445855],[-2.18044,53.44594],[-2.18027,53.45003],[-2.187633,53.44963],[-2.18735,53.45356],[-2.188669,53.454564],[-2.18868,53.45463],[-2.188741,53.454619],[-2.1889,53.45474],[-2.190852,53.454225],[-2.19469,53.45351],[-2.194729,53.453453],[-2.195234,53.453367],[-2.19521,53.45351],[-2.197503,53.454568],[-2.19885,53.45537],[-2.200926,53.454756],[-2.202513,53.454353],[-2.20688,53.45361],[-2.20752,53.452676],[-2.20842,53.45167],[-2.208336,53.451482],[-2.20868,53.45106],[-2.208315,53.451123],[-2.20448,53.44247],[-2.205813,53.438552]]]},"properties":{"code":"P84016","name":"LEVENSHULME MEDICAL PRACTICE","icb":"QOP"}}]}