{"type":"FeatureCollection","features":[{"type":"Feature","geometry":{"type":"Polygon","coordinates":[[[-2.20791,53.53235],[-2.23778,53.53929],[-2.24396,53.53623],[-2.24945,53.51582],[-2.25357,53.50336],[-2.25769,53.50255],[-2.24567,53.48866],[-2.2419,53.48968],[-2.24018,53.48723],[-2.23297,53.48478],[-2.21855,53.47783],[-2.21752,53.47558],[-2.19418,53.47436],[-2.17873,53.47395],[-2.14989,53.47272],[-2.13066,53.47803],[-2.11555,53.48253],[-2.11727,53.48968],[-2.14439,53.5197],[-2.15504,53.52276],[-2.16087,53.52174],[-2.16637,53.52276],[-2.18628,53.52888],[-2.20791,53.53235]]]},"properties":{"code":"P84605","name":"FERNCLOUGH SURGERY","icb":"QOP"}}]}