{"type":"FeatureCollection","features":[{"type":"Feature","geometry":{"type":"Polygon","coordinates":[[[-2.21825,53.44252],[-2.21976,53.43999],[-2.22264,53.43757],[-2.22745,53.43502],[-2.22805,53.43431],[-2.22917,53.43324],[-2.22852,53.43193],[-2.22875,53.43124],[-2.22864,53.43061],[-2.22795,53.42965],[-2.22795,53.42894],[-2.22867,53.4276],[-2.22728,53.42737],[-2.22479,53.42595],[-2.22122,53.42484],[-2.2182,53.42432],[-2.21523,53.42457],[-2.21028,53.42358],[-2.20843,53.42313],[-2.20735,53.42292],[-2.20372,53.42438],[-2.20311,53.42473],[-2.2029,53.42521],[-2.20331,53.42629],[-2.20215,53.4281],[-2.20104,53.42934],[-2.20103,53.42982],[-2.20031,53.43415],[-2.19978,53.43877],[-2.20532,53.43778],[-2.204,53.44201],[-2.21825,53.44252]]]},"properties":{"code":"P84639","name":"FALLOWFIELD MEDICAL CENTRE","icb":"QOP"}}]}