{"type":"FeatureCollection","features":[{"type":"Feature","geometry":{"type":"Polygon","coordinates":[[[-2.25568,53.450307],[-2.261821,53.448999],[-2.277175,53.436406],[-2.275008,53.427256],[-2.270311,53.422087],[-2.268685,53.419718],[-2.259112,53.416811],[-2.248094,53.417027],[-2.236896,53.416487],[-2.228767,53.416703],[-2.221021,53.416833],[-2.208883,53.417587],[-2.19931,53.417695],[-2.194253,53.419957],[-2.192086,53.42674],[-2.199103,53.442214],[-2.216444,53.447918],[-2.220958,53.450501],[-2.237215,53.452976],[-2.24787,53.453729],[-2.255456,53.452115],[-2.25568,53.450307]]]},"properties":{"code":"P84665","name":"WITHINGTON MEDICAL PRACTICE","icb":"QOP"}}]}