{"type":"FeatureCollection","features":[{"type":"Feature","geometry":{"type":"Polygon","coordinates":[[[-2.20139,53.51745],[-2.201095,53.517625],[-2.200763,53.517616],[-2.20053,53.51745],[-2.17615,53.525],[-2.188511,53.529391],[-2.191644,53.530398],[-2.194927,53.53138],[-2.19836,53.531814],[-2.200945,53.531898],[-2.207917,53.533664],[-2.20903,53.534549],[-2.210402,53.536029],[-2.211213,53.537323],[-2.212458,53.538497],[-2.21572,53.54021],[-2.21896,53.54097],[-2.22154,53.54114],[-2.231069,53.53955],[-2.23177,53.5397],[-2.231904,53.539339],[-2.23203,53.539252],[-2.234128,53.538789],[-2.23735,53.53898],[-2.241211,53.536737],[-2.2434,53.53398],[-2.245846,53.529722],[-2.246921,53.527628],[-2.247992,53.525845],[-2.237778,53.524314],[-2.237489,53.524393],[-2.23264,53.524188],[-2.229952,53.523858],[-2.228036,53.523243],[-2.223186,53.522375],[-2.218539,53.523029],[-2.2184,53.523017],[-2.20139,53.51745]]]},"properties":{"code":"P84690","name":"DAM HEAD MEDICAL CENTRE","icb":"QOP"}}]}