{"type":"FeatureCollection","features":[{"type":"Feature","geometry":{"type":"Polygon","coordinates":[[[-2.26559,53.46925],[-2.27451,53.46209],[-2.27039,53.46332],[-2.26387,53.46455],[-2.25735,53.46537],[-2.25735,53.45985],[-2.25769,53.45637],[-2.257,53.45249],[-2.25666,53.4486],[-2.25735,53.44329],[-2.2522,53.44349],[-2.24293,53.44288],[-2.23572,53.44329],[-2.22885,53.44349],[-2.21821,53.44288],[-2.21855,53.44758],[-2.22095,53.45106],[-2.22439,53.45412],[-2.22507,53.4576],[-2.22164,53.4576],[-2.21821,53.45862],[-2.21546,53.45964],[-2.2134,53.46169],[-2.21203,53.46414],[-2.21924,53.467],[-2.22679,53.47088],[-2.23057,53.4762],[-2.23949,53.47926],[-2.24361,53.47681],[-2.24773,53.47456],[-2.25357,53.47354],[-2.26559,53.46925]]]},"properties":{"code":"P84669","name":"CORNBROOK MEDICAL PRACTICE","icb":"QOP"}}]}