{"type":"FeatureCollection","features":[{"type":"Feature","geometry":{"type":"Polygon","coordinates":[[[-2.0641,53.5464],[-2.06055,53.54635],[-2.05933,53.54602],[-2.05734,53.54587],[-2.05561,53.54537],[-2.05773,53.54417],[-2.05878,53.54383],[-2.05965,53.54318],[-2.0603,53.54004],[-2.05886,53.53727],[-2.05434,53.53148],[-2.04712,53.53211],[-2.03788,53.52919],[-1.99415,53.5297],[-1.98795,53.52722],[-1.98071,53.52567],[-1.97063,53.55385],[-1.96662,53.57033],[-1.96896,53.58201],[-2.03972,53.60093],[-2.05652,53.59728],[-2.04258,53.59244],[-2.04726,53.58632],[-2.05187,53.58055],[-2.05922,53.57396],[-2.04783,53.56879],[-2.03627,53.56408],[-2.03715,53.56106],[-2.03554,53.55819],[-2.03627,53.55577],[-2.03971,53.55413],[-2.0489,53.55346],[-2.058,53.54955],[-2.06298,53.5476],[-2.0641,53.5464]]]},"properties":{"code":"P85016","name":"SADDLEWORTH MEDICAL PRACTICE","icb":"QOP"}}]}