{"type":"FeatureCollection","features":[{"type":"Feature","geometry":{"type":"Polygon","coordinates":[[[-2.129619,53.550424],[-2.130829,53.551496],[-2.131298,53.552302],[-2.132017,53.553214],[-2.134768,53.554407],[-2.136684,53.555311],[-2.138477,53.556196],[-2.14003,53.55501],[-2.140728,53.555897],[-2.141369,53.556398],[-2.142974,53.557274],[-2.145992,53.557778],[-2.148384,53.557389],[-2.149283,53.556837],[-2.150775,53.557001],[-2.15382,53.555439],[-2.159736,53.552951],[-2.161353,53.552429],[-2.164813,53.551867],[-2.167914,53.551716],[-2.168359,53.551594],[-2.169159,53.551258],[-2.168841,53.550011],[-2.168705,53.549475],[-2.168441,53.548439],[-2.168506,53.547076],[-2.168971,53.544928],[-2.169449,53.542865],[-2.168778,53.541348],[-2.16905,53.540174],[-2.165634,53.539893],[-2.162708,53.540491],[-2.162481,53.54029],[-2.161875,53.53998],[-2.160037,53.539359],[-2.159249,53.538542],[-2.158773,53.53774],[-2.15802,53.537074],[-2.155513,53.536159],[-2.153786,53.535002],[-2.152971,53.534457],[-2.150076,53.532689],[-2.15043,53.531823],[-2.146317,53.53106],[-2.145314,53.530448],[-2.144292,53.530039],[-2.1421,53.531164],[-2.139692,53.532642],[-2.133986,53.534613],[-2.13153,53.535114],[-2.130419,53.536047],[-2.125661,53.538248],[-2.126327,53.538988],[-2.125457,53.539236],[-2.124503,53.539517],[-2.125361,53.540607],[-2.125941,53.541378],[-2.124964,53.541634],[-2.124058,53.543248],[-2.125401,53.546914],[-2.126537,53.548359],[-2.129619,53.550424]]]},"properties":{"code":"P85004","name":"CHADDERTON MEDICAL PRACTICE","icb":"QOP"}}]}