{"type":"FeatureCollection","features":[{"type":"Feature","geometry":{"type":"Polygon","coordinates":[[[-2.135911,53.557762],[-2.17272,53.59291],[-2.18036,53.60982],[-2.18395,53.61356],[-2.18729,53.61788],[-2.20025,53.61832],[-2.20805,53.61132],[-2.2143,53.59974],[-2.24027,53.5938],[-2.2567,53.58789],[-2.29292,53.56756],[-2.242743,53.534057],[-2.24559,53.52602],[-2.24396,53.52556],[-2.2425,53.52485],[-2.233342,53.527773],[-2.21555,53.51587],[-2.11761,53.54026],[-2.129764,53.551885],[-2.13032,53.55265],[-2.130774,53.55285],[-2.134849,53.556746],[-2.1159,53.56336],[-2.135911,53.557762]]]},"properties":{"code":"P86015","name":"ROCHDALE ROAD MEDICAL CENTRE","icb":"QOP"}}]}