{"type":"FeatureCollection","features":[{"type":"Feature","geometry":{"type":"Polygon","coordinates":[[[-2.10008,53.60554],[-2.08914,53.64721],[-2.162251,53.650336],[-2.160614,53.648047],[-2.161301,53.641331],[-2.184822,53.638328],[-2.184047,53.638912],[-2.18289,53.639575],[-2.180957,53.640822],[-2.18167,53.642035],[-2.182288,53.643086],[-2.183619,53.64535],[-2.19321,53.62718],[-2.22038,53.6039],[-2.21618,53.59543],[-2.20993,53.58492],[-2.150656,53.567179],[-2.152118,53.576914],[-2.152033,53.578901],[-2.156497,53.582366],[-2.146627,53.583691],[-2.136672,53.583385],[-2.1262,53.58634],[-2.123194,53.589856],[-2.118305,53.592658],[-2.112809,53.592709],[-2.111779,53.597344],[-2.112208,53.598872],[-2.110319,53.599687],[-2.107315,53.599229],[-2.106199,53.597955],[-2.102852,53.597089],[-2.100276,53.597803],[-2.098131,53.596529],[-2.096842,53.596173],[-2.094698,53.596223],[-2.092637,53.596529],[-2.090834,53.597242],[-2.10008,53.60554]]]},"properties":{"code":"P86007","name":"WELLFIELD HEALTH CENTRE","icb":"QOP"}}]}