{"type":"FeatureCollection","features":[{"type":"Feature","geometry":{"type":"Polygon","coordinates":[[[-2.17748,53.65161],[-2.17654,53.65265],[-2.17705,53.65626],[-2.18156,53.65746],[-2.19006,53.65527],[-2.18954,53.64311],[-2.20915,53.63304],[-2.22705,53.62973],[-2.21748,53.60503],[-2.207497,53.607663],[-2.1919,53.60677],[-2.18757,53.60491],[-2.18748,53.60295],[-2.19366,53.60093],[-2.188683,53.593035],[-2.165955,53.586799],[-2.10637,53.60369],[-2.09547,53.6127],[-2.10324,53.63059],[-2.09534,53.6338],[-2.09019,53.64151],[-2.08723,53.64881],[-2.0847,53.65593],[-2.10809,53.65176],[-2.12834,53.65499],[-2.14143,53.65456],[-2.13869,53.64665],[-2.16074,53.64642],[-2.16143,53.64085],[-2.17353,53.64059],[-2.17461,53.65095],[-2.17748,53.65161]]]},"properties":{"code":"P86008","name":"MARK STREET SURGERY","icb":"QOP"}}]}