{"type":"FeatureCollection","features":[{"type":"Feature","geometry":{"type":"Polygon","coordinates":[[[-2.22851,53.61349],[-2.213573,53.606155],[-2.193918,53.604169],[-2.190571,53.595663],[-2.18903,53.59057],[-2.175465,53.586391],[-2.15675,53.58822],[-2.15057,53.58919],[-2.14165,53.592],[-2.13203,53.59368],[-2.125,53.60136],[-2.12251,53.61532],[-2.11972,53.62527],[-2.10637,53.63166],[-2.11899,53.63812],[-2.1244,53.64723],[-2.12809,53.65247],[-2.14165,53.6543],[-2.18019,53.6485],[-2.21259,53.64423],[-2.22851,53.61349]]]},"properties":{"code":"P86026","name":"THE DAWES FAMILY PRACTICE","icb":"QOP"}}]}