{"type":"FeatureCollection","features":[{"type":"Feature","geometry":{"type":"MultiPolygon","coordinates":[[[[-2.103578,53.642336],[-2.103575,53.642271],[-2.103564,53.642285],[-2.103578,53.642336]]],[[[-2.103666,53.642157],[-2.11796,53.63731],[-2.07367,53.63466],[-2.103413,53.641551],[-2.103544,53.641661],[-2.103575,53.642271],[-2.103666,53.642157]]],[[[-2.103647,53.643721],[-2.103479,53.643849],[-2.00638,53.65624],[-1.99883,53.69345],[-2.094825,53.685541],[-2.105078,53.689087],[-2.105175,53.689225],[-2.1032,53.69386],[-2.13856,53.63935],[-2.104212,53.643755],[-2.103944,53.643646],[-2.103578,53.642336],[-2.103647,53.643721]]]]},"properties":{"code":"P86608","name":"THE VILLAGE MEDICAL CTR.","icb":"QOP"}}]}