{"type":"FeatureCollection","features":[{"type":"Feature","geometry":{"type":"Polygon","coordinates":[[[-2.2831,53.509819],[-2.28095,53.508082],[-2.271218,53.500216],[-2.26215,53.49632],[-2.25082,53.49519],[-2.24499,53.50147],[-2.24078,53.49966],[-2.2364,53.50398],[-2.23168,53.50362],[-2.22816,53.50561],[-2.22267,53.51541],[-2.22353,53.52016],[-2.2261,53.52306],[-2.243958,53.533829],[-2.266238,53.530115],[-2.278866,53.52603],[-2.27795,53.51765],[-2.283788,53.513588],[-2.2831,53.509819]]]},"properties":{"code":"P87026","name":"NEWBURY GREEN MEDICAL PRACTICE","icb":"QOP"}}]}