{"type":"FeatureCollection","features":[{"type":"Feature","geometry":{"type":"Polygon","coordinates":[[[-2.386595,53.473497],[-2.383635,53.471988],[-2.37544,53.468219],[-2.370797,53.469034],[-2.368092,53.470053],[-2.350156,53.475439],[-2.34066,53.47774],[-2.330281,53.480254],[-2.330785,53.48282],[-2.331082,53.48539],[-2.338333,53.487743],[-2.350035,53.49532],[-2.351156,53.496098],[-2.35456,53.493421],[-2.355785,53.493679],[-2.363167,53.494541],[-2.36413,53.49472],[-2.364792,53.494935],[-2.37006,53.496852],[-2.371713,53.497319],[-2.373642,53.498021],[-2.375447,53.497814],[-2.377472,53.498023],[-2.379428,53.498435],[-2.382259,53.500398],[-2.38408,53.498816],[-2.384141,53.495969],[-2.376707,53.489239],[-2.376246,53.485298],[-2.383417,53.481601],[-2.386072,53.478206],[-2.386595,53.473497]]]},"properties":{"code":"P87024","name":"3/SPRINGFIELD HOUSE MEDICAL PRACTICE","icb":"QOP"}}]}