{"type":"FeatureCollection","features":[{"type":"Feature","geometry":{"type":"Polygon","coordinates":[[[-2.39605,53.53786],[-2.405663,53.538879],[-2.41184,53.53786],[-2.424374,53.531738],[-2.430532,53.523383],[-2.436476,53.520257],[-2.438407,53.517987],[-2.438407,53.515614],[-2.434502,53.511939],[-2.433085,53.51028],[-2.432184,53.508774],[-2.43109,53.508353],[-2.427506,53.507932],[-2.426262,53.507741],[-2.424974,53.507319],[-2.424245,53.506873],[-2.423923,53.506196],[-2.404118,53.50806],[-2.38369,53.513776],[-2.375278,53.530309],[-2.39605,53.53786]]]},"properties":{"code":"P87008","name":"WALKDEN MEDICAL CENTRE","icb":"QOP"}}]}