{"type":"FeatureCollection","features":[{"type":"Feature","geometry":{"type":"Polygon","coordinates":[[[-2.288077,53.512806],[-2.310828,53.50908],[-2.30258,53.50367],[-2.293397,53.499483],[-2.296057,53.494952],[-2.294298,53.494033],[-2.292216,53.493139],[-2.290607,53.492718],[-2.288847,53.492527],[-2.27331,53.48508],[-2.26524,53.48355],[-2.25769,53.48386],[-2.25185,53.48835],[-2.24619,53.48886],[-2.25821,53.50183],[-2.262325,53.507907],[-2.268591,53.507396],[-2.27138,53.507524],[-2.274342,53.5076],[-2.278118,53.513801],[-2.288077,53.512806]]]},"properties":{"code":"P87022","name":"MOCHA PARADE MEDICAL PRACTICE","icb":"QOP"}}]}