{"type":"FeatureCollection","features":[{"type":"Feature","geometry":{"type":"Polygon","coordinates":[[[-2.336869,53.525908],[-2.35305,53.52434],[-2.35931,53.52327],[-2.36532,53.51975],[-2.36815,53.51704],[-2.36987,53.51112],[-2.37373,53.5077],[-2.3673,53.5027],[-2.36498,53.50204],[-2.36386,53.50066],[-2.36094,53.50076],[-2.35597,53.50188],[-2.35416,53.50071],[-2.34979,53.49443],[-2.35459,53.49249],[-2.3509,53.4906],[-2.34223,53.48723],[-2.33914,53.48779],[-2.33245,53.48968],[-2.32876,53.48902],[-2.31863,53.48896],[-2.30996,53.49239],[-2.31194,53.49463],[-2.30988,53.49713],[-2.31039,53.5028],[-2.31288,53.50837],[-2.30661,53.51041],[-2.29897,53.51076],[-2.29305,53.51459],[-2.30249,53.51776],[-2.30344,53.5222],[-2.31013,53.52658],[-2.32653,53.52806],[-2.33691,53.52592],[-2.336869,53.525908]]]},"properties":{"code":"P87025","name":"THE LAKES MEDICAL PRACTICE","icb":"QOP"}}]}