{"type":"FeatureCollection","features":[{"type":"Feature","geometry":{"type":"Polygon","coordinates":[[[-2.310969,53.509055],[-2.313244,53.508072],[-2.314768,53.50917],[-2.316956,53.509999],[-2.31992,53.51112],[-2.32157,53.51176],[-2.32294,53.51272],[-2.324102,53.513814],[-2.3255,53.51454],[-2.33047,53.5176],[-2.3414,53.51313],[-2.33245,53.507958],[-2.34434,53.50452],[-2.348499,53.503567],[-2.34747,53.502393],[-2.348242,53.502036],[-2.349529,53.501117],[-2.3493,53.50003],[-2.350559,53.497696],[-2.34964,53.49431],[-2.35395,53.492156],[-2.35101,53.49081],[-2.347448,53.489054],[-2.346182,53.48839],[-2.345238,53.487867],[-2.344292,53.487573],[-2.343756,53.487471],[-2.343113,53.487254],[-2.342706,53.487177],[-2.342513,53.486679],[-2.342191,53.486245],[-2.340968,53.486169],[-2.339423,53.48613],[-2.338221,53.486182],[-2.338178,53.485913],[-2.338329,53.485364],[-2.34071,53.483424],[-2.340367,53.482543],[-2.340109,53.481879],[-2.33983,53.481713],[-2.338499,53.481393],[-2.336612,53.4817],[-2.335753,53.481917],[-2.334831,53.482134],[-2.332299,53.48207],[-2.331526,53.482006],[-2.330861,53.48161],[-2.330046,53.480538],[-2.329338,53.480704],[-2.328694,53.480998],[-2.327363,53.481278],[-2.32599,53.481419],[-2.325518,53.481253],[-2.325239,53.480806],[-2.324918,53.478699],[-2.325111,53.477371],[-2.325753,53.476081],[-2.325346,53.475736],[-2.323028,53.47497],[-2.322792,53.474638],[-2.321934,53.474893],[-2.320389,53.474881],[-2.316999,53.472876],[-2.315175,53.471752],[-2.313974,53.471994],[-2.312944,53.472454],[-2.312,53.472965],[-2.310927,53.473246],[-2.309575,53.472403],[-2.308416,53.47142],[-2.306465,53.470896],[-2.300756,53.469465],[-2.291832,53.467141],[-2.289126,53.466502],[-2.289276,53.465774],[-2.289362,53.465429],[-2.289297,53.465033],[-2.286379,53.464752],[-2.284512,53.464535],[-2.282239,53.471981],[-2.283053,53.476528],[-2.28271,53.478469],[-2.281895,53.478878],[-2.280865,53.478801],[-2.278891,53.478163],[-2.275115,53.47755],[-2.269881,53.476758],[-2.269192,53.476656],[-2.268849,53.476886],[-2.268333,53.478112],[-2.267389,53.479261],[-2.265201,53.481151],[-2.264128,53.483245],[-2.264643,53.483398],[-2.264515,53.486845],[-2.260568,53.488965],[-2.259838,53.489246],[-2.258851,53.489756],[-2.25957,53.49071],[-2.259364,53.492156],[-2.261595,53.492233],[-2.261853,53.491135],[-2.26357,53.491416],[-2.267045,53.494888],[-2.268291,53.497186],[-2.270221,53.4991],[-2.27095,53.49938],[-2.27301,53.49882],[-2.27498,53.49794],[-2.276445,53.496854],[-2.276919,53.496879],[-2.277304,53.496982],[-2.27683,53.49726],[-2.27786,53.49859],[-2.27829,53.499228],[-2.277689,53.5003],[-2.27805,53.5008],[-2.278247,53.502266],[-2.279105,53.503567],[-2.284298,53.508187],[-2.28816,53.511684],[-2.28874,53.512245],[-2.288933,53.512602],[-2.289941,53.513138],[-2.290907,53.513827],[-2.292409,53.51495],[-2.293139,53.514414],[-2.294469,53.513674],[-2.295177,53.512845],[-2.295671,53.512015],[-2.296658,53.511275],[-2.298288,53.510829],[-2.300584,53.510548],[-2.301937,53.510816],[-2.302172,53.510574],[-2.302751,53.510612],[-2.303889,53.510625],[-2.305026,53.510548],[-2.308695,53.509757],[-2.310969,53.509055]]]},"properties":{"code":"P87040","name":"SORREL BANK MEDICAL PRACTICE","icb":"QOP"}}]}