{"type":"FeatureCollection","features":[{"type":"Feature","geometry":{"type":"Polygon","coordinates":[[[-2.39639,53.53766],[-2.44926,53.5451],[-2.45098,53.54321],[-2.45793,53.52707],[-2.43236,53.52266],[-2.43613,53.52061],[-2.43845,53.51796],[-2.43768,53.51434],[-2.43587,53.51398],[-2.43467,53.51235],[-2.42952,53.50449],[-2.43008,53.49971],[-2.42789,53.49458],[-2.42425,53.49519],[-2.42009,53.49754],[-2.41195,53.49927],[-2.40836,53.49719],[-2.40699,53.49595],[-2.40425,53.49563],[-2.39645,53.49636],[-2.38693,53.49883],[-2.38412,53.50122],[-2.37266,53.50918],[-2.36515,53.52357],[-2.36747,53.5274],[-2.39639,53.53766]]]},"properties":{"code":"P87017","name":"THE LIMES MEDICAL PRACTICE","icb":"QOP"}}]}