{"type":"FeatureCollection","features":[{"type":"Feature","geometry":{"type":"Polygon","coordinates":[[[-2.326581,53.501876],[-2.32721,53.50183],[-2.33039,53.48243],[-2.29863,53.47175],[-2.28335,53.47528],[-2.28361,53.48013],[-2.29451,53.48156],[-2.29589,53.48662],[-2.303193,53.494371],[-2.303062,53.494329],[-2.304084,53.495426],[-2.30902,53.50316],[-2.322674,53.502162],[-2.32756,53.50219],[-2.326581,53.501876]]]},"properties":{"code":"P87658","name":"THE WILLOWS MEDICAL PRACTICE","icb":"QOP"}}]}