{"type":"FeatureCollection","features":[{"type":"Feature","geometry":{"type":"Polygon","coordinates":[[[-2.17334,53.44539],[-2.17447,53.44234],[-2.17444,53.43934],[-2.17618,53.43354],[-2.17521,53.42864],[-2.16793,53.42267],[-2.16059,53.41921],[-2.15913,53.41903],[-2.15655,53.41936],[-2.15631,53.42132],[-2.14927,53.42387],[-2.15074,53.43088],[-2.14422,53.43683],[-2.14464,53.44365],[-2.1378,53.45078],[-2.13643,53.45338],[-2.13677,53.45388],[-2.13696,53.45533],[-2.13742,53.45702],[-2.14184,53.45707],[-2.14579,53.4573],[-2.14803,53.45738],[-2.14844,53.45749],[-2.15047,53.4575],[-2.15293,53.45759],[-2.15542,53.4576],[-2.15733,53.45767],[-2.15907,53.45779],[-2.15978,53.45774],[-2.16015,53.45717],[-2.16195,53.4561],[-2.16177,53.45401],[-2.16078,53.45217],[-2.16614,53.44961],[-2.16821,53.44931],[-2.17046,53.44875],[-2.17334,53.44539]]]},"properties":{"code":"P88005","name":"FAMILY SURGERY","icb":"QOP"}}]}