{"type":"FeatureCollection","features":[{"type":"Feature","geometry":{"type":"Polygon","coordinates":[[[-2.14667,53.37242],[-2.145013,53.373191],[-2.14203,53.37322],[-2.13834,53.37409],[-2.13512,53.37639],[-2.133949,53.379589],[-2.131478,53.381722],[-2.128782,53.383852],[-2.127438,53.384277],[-2.127161,53.384237],[-2.12414,53.38166],[-2.11804,53.3841],[-2.117334,53.38609],[-2.114997,53.387941],[-2.114772,53.387984],[-2.10092,53.38543],[-2.100414,53.390119],[-2.0965,53.39267],[-2.0968,53.394],[-2.097746,53.394136],[-2.09976,53.39574],[-2.101258,53.395411],[-2.107762,53.395539],[-2.111609,53.396304],[-2.111749,53.396413],[-2.112138,53.400143],[-2.112074,53.400217],[-2.11311,53.40421],[-2.118566,53.404095],[-2.12448,53.406],[-2.125459,53.406048],[-2.141317,53.412928],[-2.141318,53.413157],[-2.14019,53.41365],[-2.13903,53.4146],[-2.13937,53.41524],[-2.14405,53.41626],[-2.14787,53.41577],[-2.147986,53.415658],[-2.15238,53.41434],[-2.154977,53.413174],[-2.155251,53.413183],[-2.15667,53.41398],[-2.15817,53.4138],[-2.16083,53.41265],[-2.1668,53.40994],[-2.169394,53.408402],[-2.17388,53.40695],[-2.175892,53.406088],[-2.176081,53.406074],[-2.17718,53.40633],[-2.1789,53.40639],[-2.18216,53.40605],[-2.185481,53.403542],[-2.19134,53.40186],[-2.19349,53.40063],[-2.187917,53.399731],[-2.18246,53.39856],[-2.179036,53.397937],[-2.178907,53.397863],[-2.177977,53.396291],[-2.178,53.39618],[-2.153426,53.385885],[-2.153341,53.38578],[-2.153522,53.384073],[-2.157252,53.380935],[-2.16019,53.37967],[-2.16109,53.37844],[-2.1619,53.37557],[-2.1592,53.37396],[-2.146934,53.372545],[-2.14667,53.37242]]]},"properties":{"code":"P88003","name":"MANOR MEDICAL PRACTICE","icb":"QOP"}}]}