{"type":"FeatureCollection","features":[{"type":"Feature","geometry":{"type":"Polygon","coordinates":[[[-2.25494,53.37811],[-2.2546,53.37593],[-2.24378,53.372],[-2.25288,53.36529],[-2.24537,53.34686],[-2.24052,53.34702],[-2.24108,53.34822],[-2.24396,53.35849],[-2.21736,53.35898],[-2.20675,53.35896],[-2.20478,53.36524],[-2.20385,53.36981],[-2.19479,53.37645],[-2.20007,53.37707],[-2.21761,53.3731],[-2.22868,53.38807],[-2.24361,53.38748],[-2.23949,53.3773],[-2.24722,53.37713],[-2.25494,53.37811]]]},"properties":{"code":"P88023","name":"HEALD GREEN HEALTH CENTRE 2","icb":"QOP"}}]}