{"type":"FeatureCollection","features":[{"type":"Feature","geometry":{"type":"Polygon","coordinates":[[[-2.17388,53.39505],[-2.173852,53.395108],[-2.172494,53.398943],[-2.170817,53.398056],[-2.17087,53.39743],[-2.17076,53.396735],[-2.170332,53.397799],[-2.16761,53.39636],[-2.169238,53.400521],[-2.16913,53.40079],[-2.169274,53.400614],[-2.1695,53.40119],[-2.17173,53.40518],[-2.1734,53.40708],[-2.17534,53.40618],[-2.17654,53.40603],[-2.17791,53.40644],[-2.18122,53.40621],[-2.18358,53.40518],[-2.18619,53.40326],[-2.18928,53.40672],[-2.19533,53.40352],[-2.20096,53.40219],[-2.20812,53.40198],[-2.21576,53.40045],[-2.21679,53.40198],[-2.2198,53.40705],[-2.22332,53.40705],[-2.2246,53.40493],[-2.22696,53.40124],[-2.23512,53.40022],[-2.24143,53.39966],[-2.247,53.39595],[-2.24563,53.39597],[-2.245586,53.395802],[-2.246448,53.395627],[-2.24711,53.396],[-2.2467,53.39568],[-2.245734,53.392793],[-2.245767,53.393335],[-2.245092,53.39132],[-2.245245,53.391328],[-2.244666,53.389599],[-2.24477,53.3902],[-2.24472,53.390212],[-2.243587,53.386831],[-2.243741,53.386834],[-2.241391,53.379803],[-2.24117,53.37896],[-2.23499,53.36174],[-2.21531,53.36],[-2.19551,53.36262],[-2.190344,53.36597],[-2.18818,53.36644],[-2.18544,53.36912],[-2.18328,53.37055],[-2.182886,53.371588],[-2.1824,53.37195],[-2.17673,53.38376],[-2.177258,53.386408],[-2.177184,53.386602],[-2.17529,53.38791],[-2.173254,53.396279],[-2.173511,53.395806],[-2.1734,53.3963],[-2.173852,53.395108],[-2.173889,53.395003],[-2.17388,53.39505]]]},"properties":{"code":"P88020","name":"CHEADLE MEDICAL PRACTICE","icb":"QOP"}}]}