{"type":"FeatureCollection","features":[{"type":"Feature","geometry":{"type":"Polygon","coordinates":[[[-2.135207,53.388243],[-2.142761,53.383226],[-2.146882,53.380461],[-2.155808,53.375392],[-2.15315,53.37176],[-2.13615,53.36674],[-2.11779,53.3652],[-2.09736,53.36725],[-2.08843,53.36356],[-2.07161,53.36438],[-2.068,53.37503],[-2.06749,53.37944],[-2.10251,53.38394],[-2.10268,53.38681],[-2.10182,53.39039],[-2.0977,53.39326],[-2.12585,53.39848],[-2.135207,53.388243]]]},"properties":{"code":"P88606","name":"SPRINGFIELD SURGERY","icb":"QOP"}}]}