{"type":"FeatureCollection","features":[{"type":"Feature","geometry":{"type":"Polygon","coordinates":[[[-2.123265,53.480984],[-2.11822,53.47543],[-2.1098,53.47471],[-2.0959,53.48365],[-2.09719,53.48529],[-2.08955,53.48697],[-2.0832,53.48743],[-2.06903,53.48539],[-2.06637,53.48907],[-2.07762,53.49331],[-2.07916,53.49264],[-2.08242,53.49412],[-2.08284,53.494055],[-2.0826,53.49412],[-2.09229,53.49366],[-2.09255,53.49279],[-2.09993,53.49228],[-2.099658,53.491465],[-2.107324,53.490283],[-2.11229,53.48999],[-2.122389,53.481835],[-2.12337,53.4811],[-2.12334,53.481067],[-2.12362,53.48084],[-2.123265,53.480984]]]},"properties":{"code":"P89030","name":"WEST END MEDICAL CENTRE","icb":"QOP"}}]}