{"type":"FeatureCollection","features":[{"type":"Feature","geometry":{"type":"Polygon","coordinates":[[[-2.057996,53.502917],[-2.05809,53.50336],[-2.07208,53.51283],[-2.09328,53.51135],[-2.09204,53.49093],[-2.09144,53.49096],[-2.08838,53.49014],[-2.088,53.48963],[-2.08912,53.48856],[-2.08766,53.4881],[-2.08749,53.48728],[-2.08423,53.48759],[-2.06869,53.48534],[-2.05333,53.4858],[-2.05401,53.49729],[-2.057996,53.502917]]]},"properties":{"code":"P89011","name":"GORDON STREET MEDICAL CENTRE","icb":"QOP"}}]}