{"type":"FeatureCollection","features":[{"type":"Feature","geometry":{"type":"Polygon","coordinates":[[[-2.08024,53.42322],[-2.077911,53.424624],[-2.071661,53.427555],[-2.06915,53.4284],[-2.06783,53.42853],[-2.06522,53.43015],[-2.064592,53.43077],[-2.06255,53.431963],[-2.062362,53.431994],[-2.06075,53.43176],[-2.0574,53.43153],[-2.05612,53.43186],[-2.055117,53.432882],[-2.053607,53.433384],[-2.050996,53.433845],[-2.04934,53.43385],[-2.0454,53.434572],[-2.045218,53.434551],[-2.0438,53.43388],[-2.04277,53.43347],[-2.04178,53.43362],[-2.041046,53.434725],[-2.03938,53.43667],[-2.03879,53.438502],[-2.03565,53.44083],[-2.035323,53.441643],[-2.03521,53.441724],[-2.03337,53.44221],[-2.029931,53.443472],[-2.029513,53.443252],[-2.03007,53.44252],[-2.02947,53.44183],[-2.0238,53.44362],[-2.02174,53.44541],[-2.023728,53.446158],[-2.024528,53.446813],[-2.024522,53.446964],[-2.018637,53.45138],[-2.01749,53.45164],[-2.01364,53.454602],[-2.01149,53.45576],[-2.01183,53.45755],[-2.015812,53.456682],[-2.018765,53.456206],[-2.018917,53.456219],[-2.021237,53.45706],[-2.03384,53.46682],[-2.03741,53.46708],[-2.040208,53.466736],[-2.04273,53.46741],[-2.04535,53.46728],[-2.04607,53.46708],[-2.04688,53.466655],[-2.047202,53.466673],[-2.050494,53.46915],[-2.050611,53.469347],[-2.05075,53.47022],[-2.05157,53.47201],[-2.05221,53.47259],[-2.05371,53.47298],[-2.057736,53.473207],[-2.05852,53.47354],[-2.059676,53.473475],[-2.06148,53.47402],[-2.06307,53.47438],[-2.06706,53.4741],[-2.067968,53.473797],[-2.068137,53.47379],[-2.07058,53.47436],[-2.070776,53.474158],[-2.071065,53.474107],[-2.07719,53.47599],[-2.07959,53.47546],[-2.079276,53.475258],[-2.078609,53.474208],[-2.079354,53.470366],[-2.079489,53.470265],[-2.085945,53.468925],[-2.087322,53.468689],[-2.08831,53.468662],[-2.08845,53.468692],[-2.09047,53.46978],[-2.09131,53.46925],[-2.089977,53.467775],[-2.088432,53.465638],[-2.088447,53.465527],[-2.08903,53.46498],[-2.08792,53.45716],[-2.087735,53.456832],[-2.087656,53.455116],[-2.088053,53.454983],[-2.09021,53.45582],[-2.09214,53.45624],[-2.097187,53.45629],[-2.100151,53.45675],[-2.100309,53.456895],[-2.10017,53.45742],[-2.10079,53.46004],[-2.10263,53.45987],[-2.10384,53.46027],[-2.10609,53.46079],[-2.10635,53.455985],[-2.10686,53.45348],[-2.10665,53.45268],[-2.101345,53.453121],[-2.101169,53.453083],[-2.10083,53.45286],[-2.098379,53.45225],[-2.09827,53.452182],[-2.09695,53.45008],[-2.094126,53.449369],[-2.094007,53.449202],[-2.09566,53.44665],[-2.096795,53.44423],[-2.09725,53.44368],[-2.09723,53.44322],[-2.09644,53.443269],[-2.09556,53.443212],[-2.09317,53.44263],[-2.092604,53.443705],[-2.091445,53.44477],[-2.09095,53.444717],[-2.086672,53.43303],[-2.08688,53.432866],[-2.0886,53.4328],[-2.09062,53.43252],[-2.09101,53.43222],[-2.09144,53.43145],[-2.09144,53.430869],[-2.091525,53.430771],[-2.09534,53.42917],[-2.09144,53.43048],[-2.09144,53.430745],[-2.091355,53.430842],[-2.087016,53.432663],[-2.086614,53.432543],[-2.086511,53.43032],[-2.086605,53.430215],[-2.09766,53.42603],[-2.095732,53.425801],[-2.0932,53.42455],[-2.09118,53.4237],[-2.08024,53.42322]]]},"properties":{"code":"P89012","name":"CLARENDON MEDICAL CENTRE","icb":"QOP"}}]}