{"type":"FeatureCollection","features":[{"type":"Feature","geometry":{"type":"Polygon","coordinates":[[[-2.0067,53.4404],[-2.01198,53.45865],[-2.03511,53.45948],[-2.04698,53.45916],[-2.05876,53.45955],[-2.05889,53.46135],[-2.06156,53.46114],[-2.06423,53.46068],[-2.06686,53.45984],[-2.06854,53.45877],[-2.07089,53.45774],[-2.07303,53.45665],[-2.07873,53.45507],[-2.07902,53.45453],[-2.07927,53.45438],[-2.08104,53.45461],[-2.0829,53.45425],[-2.08412,53.4537],[-2.085,53.45277],[-2.08466,53.45143],[-2.0838,53.44998],[-2.0836,53.44868],[-2.08311,53.44743],[-2.08208,53.44636],[-2.08062,53.44545],[-2.07859,53.44477],[-2.07635,53.44412],[-2.07669,53.43903],[-2.07441,53.43782],[-2.0717,53.4367],[-2.06677,53.43582],[-2.01897,53.43672],[-2.0067,53.4404]]]},"properties":{"code":"P89013","name":"HATTERSLEY GROUP PRACTICE","icb":"QOP"}}]}