{"type":"FeatureCollection","features":[{"type":"Feature","geometry":{"type":"Polygon","coordinates":[[[-2.34168,53.42332],[-2.33442,53.42074],[-2.33271,53.41973],[-2.33138,53.41925],[-2.32924,53.41836],[-2.32716,53.41762],[-2.32633,53.41741],[-2.31969,53.42416],[-2.3147,53.42946],[-2.31252,53.43045],[-2.313308,53.42989],[-2.311506,53.430708],[-2.314253,53.431168],[-2.317343,53.430964],[-2.31894,53.43124],[-2.32629,53.43213],[-2.32768,53.43215],[-2.32814,53.43207],[-2.32951,53.43171],[-2.33075,53.43153],[-2.3329,53.43137],[-2.33655,53.42793],[-2.33698,53.42755],[-2.33723,53.4274],[-2.33734,53.42722],[-2.3381,53.42661],[-2.33734,53.42635],[-2.33825,53.42584],[-2.33925,53.42537],[-2.33995,53.42496],[-2.34121,53.42394],[-2.34168,53.42332]]]},"properties":{"code":"P91014","name":"WASHWAY ROAD MEDICAL CENTRE","icb":"QOP"}}]}