{"type":"FeatureCollection","features":[{"type":"Feature","geometry":{"type":"Polygon","coordinates":[[[-2.332,53.41965],[-2.33411,53.41757],[-2.33679,53.41533],[-2.34174,53.41103],[-2.34673,53.40683],[-2.35234,53.4015],[-2.35245,53.39975],[-2.35215,53.39625],[-2.35225,53.39312],[-2.35192,53.39206],[-2.35039,53.39039],[-2.34817,53.39093],[-2.34459,53.39132],[-2.34122,53.39112],[-2.33836,53.39158],[-2.33359,53.39194],[-2.32959,53.39159],[-2.32471,53.39196],[-2.31535,53.39291],[-2.31429,53.39333],[-2.31349,53.39403],[-2.31067,53.39889],[-2.30893,53.39996],[-2.3099,53.4004],[-2.31057,53.40107],[-2.3117,53.40241],[-2.314,53.40486],[-2.32336,53.4154],[-2.32487,53.41714],[-2.32481,53.41746],[-2.32593,53.41734],[-2.32743,53.41787],[-2.32937,53.41868],[-2.332,53.41965]]]},"properties":{"code":"P91631","name":"RIDDINGS FAMILY HEALTH CENTRE","icb":"QOP"}}]}