{"type":"FeatureCollection","features":[{"type":"Feature","geometry":{"type":"Polygon","coordinates":[[[-2.345337,53.391434],[-2.343264,53.394999],[-2.344428,53.399332],[-2.344526,53.399362],[-2.344626,53.399355],[-2.348424,53.39881],[-2.352212,53.398156],[-2.351582,53.400215],[-2.360861,53.403473],[-2.362064,53.401744],[-2.359928,53.39933],[-2.352352,53.398079],[-2.351895,53.397549],[-2.35213,53.395475],[-2.352148,53.393225],[-2.34754,53.392586],[-2.345337,53.391434]]]},"properties":{"code":"P91617","name":"FAMILY SURGERY","icb":"QOP"}}]}