{"type":"FeatureCollection","features":[{"type":"Feature","geometry":{"type":"Polygon","coordinates":[[[-2.56223,53.511348],[-2.57801,53.51378],[-2.581863,53.514986],[-2.52377,53.50602],[-2.52823,53.51092],[-2.53784,53.51276],[-2.5502,53.51357],[-2.56462,53.51276],[-2.582444,53.515167],[-2.58453,53.51582],[-2.588655,53.51582],[-2.58797,53.51623],[-2.59518,53.51623],[-2.60033,53.515],[-2.60376,53.51051],[-2.61269,53.50683],[-2.61543,53.50112],[-2.633402,53.489117],[-2.63775,53.48764],[-2.63981,53.48478],[-2.63638,53.47803],[-2.63397,53.47088],[-2.6326,53.46434],[-2.62367,53.45882],[-2.6144,53.45617],[-2.61303,53.45085],[-2.59792,53.43081],[-2.5914,53.43122],[-2.57561,53.43449],[-2.55054,53.44247],[-2.53784,53.44697],[-2.52342,53.45106],[-2.51072,53.45208],[-2.50248,53.45739],[-2.49424,53.45923],[-2.49527,53.46741],[-2.50076,53.47906],[-2.49939,53.48805],[-2.50317,53.49336],[-2.51484,53.49622],[-2.51999,53.49254],[-2.5193,53.49907],[-2.52136,53.50479],[-2.597388,53.510591],[-2.59655,53.51071],[-2.595081,53.510603],[-2.59518,53.51051],[-2.56779,53.508621],[-2.52377,53.50541],[-2.54748,53.509072],[-2.56153,53.51133],[-2.56223,53.511348]]]},"properties":{"code":"P92012","name":"HIGH STREET SURGERY","icb":"QOP"}}]}