{"type":"FeatureCollection","features":[{"type":"Feature","geometry":{"type":"Polygon","coordinates":[[[-2.599007,53.457642],[-2.595111,53.459588],[-2.592295,53.46081],[-2.589847,53.46125],[-2.582655,53.462118],[-2.58179,53.46209],[-2.581227,53.462258],[-2.57913,53.46257],[-2.576485,53.463269],[-2.5732,53.46373],[-2.572844,53.463965],[-2.57097,53.46424],[-2.57149,53.4645],[-2.572061,53.464363],[-2.571,53.46497],[-2.57138,53.46479],[-2.56992,53.46586],[-2.56904,53.4663],[-2.5681,53.46746],[-2.56638,53.46755],[-2.55745,53.4676],[-2.55303,53.46787],[-2.55044,53.46821],[-2.54806,53.46869],[-2.54454,53.46958],[-2.53628,53.47156],[-2.53622,53.47251],[-2.53578,53.47349],[-2.5351,53.47947],[-2.53467,53.4809],[-2.53449,53.48243],[-2.53389,53.48559],[-2.53372,53.48825],[-2.53295,53.49034],[-2.53055,53.49341],[-2.52823,53.4956],[-2.5257,53.49992],[-2.52256,53.50403],[-2.52625,53.50825],[-2.526,53.51002],[-2.52565,53.51114],[-2.5284,53.51226],[-2.53535,53.51141],[-2.54177,53.51248],[-2.54223,53.51133],[-2.54049,53.51003],[-2.53943,53.50864],[-2.53886,53.50721],[-2.53658,53.50659],[-2.53321,53.50132],[-2.53209,53.5004],[-2.53256,53.49902],[-2.53218,53.49785],[-2.5351,53.49831],[-2.53707,53.49844],[-2.53887,53.49805],[-2.54299,53.49805],[-2.54711,53.49703],[-2.54745,53.49519],[-2.55089,53.49438],[-2.55672,53.49366],[-2.55913,53.4906],[-2.56462,53.49029],[-2.56617,53.48917],[-2.56685,53.48753],[-2.56651,53.48559],[-2.56831,53.48501],[-2.56986,53.48485],[-2.57612,53.48383],[-2.57956,53.48291],[-2.58385,53.48296],[-2.58737,53.48307],[-2.58887,53.48332],[-2.5908,53.48353],[-2.59187,53.48376],[-2.59355,53.48373],[-2.5944,53.48383],[-2.59531,53.48386],[-2.59981,53.4849],[-2.60183,53.48511],[-2.60312,53.48508],[-2.60423,53.48534],[-2.60676,53.48567],[-2.60775,53.48588],[-2.60985,53.48682],[-2.61011,53.48616],[-2.60998,53.48585],[-2.60998,53.48524],[-2.61015,53.48442],[-2.61015,53.48381],[-2.61003,53.48284],[-2.61003,53.48133],[-2.60968,53.48033],[-2.60994,53.47986],[-2.61183,53.48021],[-2.61009,53.47955],[-2.60981,53.47885],[-2.60964,53.47793],[-2.612,53.47781],[-2.61196,53.4764],[-2.61174,53.47468],[-2.6106,53.47389],[-2.60998,53.47305],[-2.60887,53.4718],[-2.607304,53.470387],[-2.60758,53.47045],[-2.60731,53.47021],[-2.607056,53.470172],[-2.60702,53.47014],[-2.60707,53.47014],[-2.606714,53.47012],[-2.60535,53.46989],[-2.604195,53.46982],[-2.60048,53.46936],[-2.600434,53.469314],[-2.60027,53.46915],[-2.599964,53.469075],[-2.59985,53.46889],[-2.5998,53.469022],[-2.599762,53.468987],[-2.599804,53.468799],[-2.59968,53.46877],[-2.59966,53.46877],[-2.5997,53.468931],[-2.5996,53.46884],[-2.599732,53.467944],[-2.59991,53.4673],[-2.600026,53.46715],[-2.59992,53.46751],[-2.600098,53.46715],[-2.60009,53.46731],[-2.60142,53.46405],[-2.60173,53.46259],[-2.60171,53.462555],[-2.60169,53.46247],[-2.600316,53.460032],[-2.599902,53.459167],[-2.59946,53.45768],[-2.599401,53.457707],[-2.59932,53.45762],[-2.599176,53.45769],[-2.59908,53.4576],[-2.599007,53.457642]]]},"properties":{"code":"P92648","name":"SLAG LANE MC","icb":"QOP"}}]}