{"type":"FeatureCollection","features":[{"type":"Feature","geometry":{"type":"Polygon","coordinates":[[[0.082928,51.564651],[0.082655,51.564293],[0.082526,51.564266],[0.08244,51.564146],[0.082355,51.564146],[0.081797,51.563813],[0.080338,51.563359],[0.079973,51.563186],[0.079608,51.563106],[0.079351,51.563119],[0.079308,51.563025],[0.079222,51.563106],[0.078986,51.562985],[0.078814,51.562825],[0.078921,51.562812],[0.078385,51.562625],[0.078342,51.562559],[0.077312,51.562118],[0.077098,51.561985],[0.077098,51.561585],[0.07742,51.561065],[0.07757,51.560958],[0.077591,51.560771],[0.077806,51.560598],[0.077956,51.560371],[0.078063,51.560024],[0.078321,51.559637],[0.078492,51.559224],[0.078728,51.558984],[0.079114,51.558803],[0.079404,51.55885],[0.079694,51.55897],[0.079855,51.559077],[0.080028,51.559384],[0.080157,51.559444],[0.081466,51.559611],[0.081691,51.55951],[0.081884,51.55911],[0.082131,51.55899],[0.082474,51.558897],[0.083439,51.558783],[0.08475,51.558717],[0.087077,51.558763],[0.088828,51.55867],[0.090081,51.55875],[0.091754,51.559057],[0.094994,51.559851],[0.095917,51.560004],[0.096421,51.560137],[0.096797,51.560291],[0.097441,51.560411],[0.098837,51.560551],[0.100391,51.560804],[0.103331,51.561431],[0.105573,51.561652],[0.106774,51.561705],[0.108016,51.562158],[0.107247,51.562052],[0.109078,51.562546],[0.109604,51.562738],[0.110043,51.563117],[0.110247,51.56406],[0.1102,51.56411],[0.110636,51.565146],[0.110453,51.566027],[0.110518,51.566564],[0.110915,51.567697],[0.111081,51.568031],[0.111162,51.568074],[0.111414,51.568798],[0.111709,51.570608],[0.111714,51.570665],[0.111601,51.570688],[0.112189,51.572384],[0.11256,51.573986],[0.112701,51.574241],[0.112952,51.575176],[0.112609,51.574722],[0.113081,51.575549],[0.113209,51.576163],[0.113123,51.576189],[0.113664,51.577159],[0.114109,51.577603],[0.11398,51.577683],[0.114527,51.578777],[0.114623,51.579123],[0.114655,51.579035],[0.114752,51.57923],[0.114684,51.578956],[0.115052,51.579816],[0.116125,51.58083],[0.117196,51.582136],[0.111528,51.582388],[0.109538,51.582175],[0.109434,51.58211],[0.108962,51.582003],[0.10879,51.582083],[0.108242,51.581998],[0.107573,51.581741],[0.107717,51.581763],[0.107124,51.581579],[0.107202,51.58147],[0.106746,51.58145],[0.105736,51.581107],[0.105701,51.581043],[0.105423,51.581005],[0.105744,51.58099],[0.105309,51.580855],[0.105229,51.58075],[0.104999,51.580793],[0.10497,51.580617],[0.10494,51.580772],[0.104839,51.580735],[0.104732,51.580581],[0.104756,51.580403],[0.104676,51.580499],[0.104541,51.580323],[0.104509,51.580527],[0.104457,51.580483],[0.10438,51.580507],[0.103812,51.58011],[0.103939,51.580307],[0.103598,51.580137],[0.103791,51.58031],[0.103499,51.580198],[0.103255,51.58003],[0.103598,51.580083],[0.103169,51.579923],[0.103212,51.580083],[0.102782,51.579763],[0.102271,51.579551],[0.102525,51.57963],[0.101473,51.579109],[0.100934,51.578775],[0.099221,51.577976],[0.099607,51.578308],[0.099649,51.578403],[0.099134,51.57795],[0.098491,51.577496],[0.097933,51.577363],[0.097668,51.577145],[0.097761,51.577176],[0.096946,51.5767],[0.09716,51.576589],[0.096075,51.576397],[0.095444,51.576136],[0.093685,51.575603],[0.092613,51.575443],[0.09156,51.575163],[0.091625,51.575203],[0.08935,51.575123],[0.087913,51.574736],[0.087312,51.574642],[0.087012,51.574509],[0.085661,51.574269],[0.08521,51.574149],[0.083846,51.573929],[0.083588,51.573809],[0.083513,51.573522],[0.083621,51.573636],[0.083503,51.573416],[0.083556,51.573269],[0.083385,51.572935],[0.083181,51.571715],[0.083181,51.571408],[0.083357,51.570824],[0.083546,51.570442],[0.083524,51.570408],[0.083449,51.570215],[0.083406,51.569668],[0.08346,51.569515],[0.08332,51.569481],[0.083449,51.569428],[0.083407,51.569331],[0.083513,51.569094],[0.083385,51.568934],[0.083492,51.568814],[0.083428,51.568761],[0.083492,51.568388],[0.083425,51.568372],[0.083513,51.568201],[0.083513,51.567761],[0.083496,51.56783],[0.083406,51.567387],[0.083428,51.56716],[0.08332,51.56704],[0.08332,51.56664],[0.083406,51.56652],[0.083376,51.566153],[0.083106,51.565693],[0.083277,51.565787],[0.083277,51.565653],[0.083149,51.565426],[0.083106,51.565467],[0.082934,51.56528],[0.083277,51.56544],[0.083106,51.56532],[0.082999,51.56488],[0.082914,51.564775],[0.082928,51.564651]]]},"properties":{"code":"Y00090","name":"THE DOCTORS HOUSE","icb":"QMF"}}]}