{"type":"FeatureCollection","features":[{"type":"Feature","geometry":{"type":"Polygon","coordinates":[[[-1.6301,52.81376],[-1.618376,52.806608],[-1.620281,52.804034],[-1.62125,52.801623],[-1.622672,52.798085],[-1.622535,52.797081],[-1.622298,52.795336],[-1.620388,52.794609],[-1.62005,52.792706],[-1.619796,52.792097],[-1.619599,52.791799],[-1.619303,52.791769],[-1.618898,52.791864],[-1.618416,52.791816],[-1.616509,52.791491],[-1.615535,52.79112],[-1.614882,52.790871],[-1.612032,52.789715],[-1.608723,52.790326],[-1.604308,52.791141],[-1.602489,52.792232],[-1.601605,52.792778],[-1.601658,52.79317],[-1.600934,52.794148],[-1.58649,52.78865],[-1.54083,52.81687],[-1.592245,52.836425],[-1.6301,52.81376]]]},"properties":{"code":"Y00078","name":"WINSHILL","icb":"QNC"}}]}