{"type":"FeatureCollection","features":[{"type":"Feature","geometry":{"type":"Polygon","coordinates":[[[0.10334,52.16151],[0.13355,52.17098],[0.15415,52.15793],[0.16308,52.17246],[0.18402,52.17077],[0.19964,52.17119],[0.22007,52.18087],[0.18436,52.2116],[0.18745,52.21644],[0.17338,52.22149],[0.16068,52.22286],[0.172,52.23158],[0.14454,52.23726],[0.11295,52.23411],[0.11089,52.22948],[0.10059,52.22969],[0.08806,52.2258],[0.07828,52.21392],[0.09784,52.19183],[0.09682,52.18825],[0.0951,52.18162],[0.0975,52.17667],[0.09201,52.16825],[0.10334,52.16151]]]},"properties":{"code":"Y00056","name":"CAMBRIDGE ACCESS SURGERY","icb":"S1Y5D"}}]}