{"type":"FeatureCollection","features":[{"type":"Feature","geometry":{"type":"Polygon","coordinates":[[[-1.806722,52.438543],[-1.80616,52.43837],[-1.80579,52.43882],[-1.80553,52.43932],[-1.80088,52.4445],[-1.80011,52.44561],[-1.79912,52.44722],[-1.79858,52.44795],[-1.79858,52.44875],[-1.79873,52.44879],[-1.79974,52.44871],[-1.80092,52.4489],[-1.80345,52.44964],[-1.80463,52.44971],[-1.80594,52.44967],[-1.80669,52.44963],[-1.80719,52.44952],[-1.80826,52.44965],[-1.80858,52.45269],[-1.80965,52.45349],[-1.80983,52.45372],[-1.80963,52.45564],[-1.82395,52.45707],[-1.82549,52.45618],[-1.82585,52.45647],[-1.82691,52.45661],[-1.82869,52.45777],[-1.82967,52.45757],[-1.8295,52.45726],[-1.82845,52.4563],[-1.82903,52.45609],[-1.82991,52.45559],[-1.83098,52.45521],[-1.83485,52.45432],[-1.83665,52.45397],[-1.83753,52.4541],[-1.83804,52.45431],[-1.83856,52.45359],[-1.84055,52.45329],[-1.84446,52.45321],[-1.8462,52.45322],[-1.84716,52.45329],[-1.84738,52.45355],[-1.84808,52.4553],[-1.84896,52.45553],[-1.84965,52.45503],[-1.85062,52.45462],[-1.85133,52.45414],[-1.85117,52.45389],[-1.85124,52.45375],[-1.85169,52.45364],[-1.85233,52.45358],[-1.853366,52.453031],[-1.855849,52.453738],[-1.85678,52.45419],[-1.85791,52.45488],[-1.85961,52.45498],[-1.86375,52.45623],[-1.866366,52.456914],[-1.87032,52.45813],[-1.87111,52.45894],[-1.871902,52.458764],[-1.87192,52.45881],[-1.87201,52.45874],[-1.87198,52.45871],[-1.87356,52.45609],[-1.87347,52.45347],[-1.87295,52.44929],[-1.87171,52.44712],[-1.87137,52.44586],[-1.87111,52.44387],[-1.87132,52.44298],[-1.87205,52.44081],[-1.87145,52.43935],[-1.87119,52.43846],[-1.86999,52.43754],[-1.86901,52.43647],[-1.86952,52.43493],[-1.86944,52.43446],[-1.86901,52.43359],[-1.86866,52.43244],[-1.86815,52.43171],[-1.86974,52.42969],[-1.87047,52.42831],[-1.87111,52.42689],[-1.87038,52.42666],[-1.86939,52.42627],[-1.86763,52.42545],[-1.86544,52.42456],[-1.86038,52.42161],[-1.85853,52.42032],[-1.85785,52.41943],[-1.85716,52.41776],[-1.85669,52.41493],[-1.85622,52.41404],[-1.85536,52.41315],[-1.854428,52.412315],[-1.853624,52.410421],[-1.85472,52.40988],[-1.85557,52.40967],[-1.85622,52.40983],[-1.85647,52.40941],[-1.8571,52.40721],[-1.85774,52.40716],[-1.85843,52.40703],[-1.85888,52.4067],[-1.85866,52.40657],[-1.85845,52.40614],[-1.8575,52.40619],[-1.85678,52.40631],[-1.85583,52.40637],[-1.85489,52.40654],[-1.85212,52.40687],[-1.8521,52.40683],[-1.84914,52.40618],[-1.85165,52.40625],[-1.85145,52.40598],[-1.85143,52.40553],[-1.85126,52.40518],[-1.851,52.40488],[-1.8509,52.40437],[-1.85051,52.40406],[-1.84892,52.40371],[-1.84789,52.40361],[-1.84678,52.40337],[-1.8453,52.40259],[-1.84605,52.40204],[-1.84637,52.40171],[-1.84665,52.40132],[-1.84678,52.40093],[-1.84658,52.40078],[-1.84594,52.40064],[-1.84253,52.3992],[-1.84094,52.39864],[-1.84045,52.39871],[-1.84004,52.39917],[-1.83948,52.39963],[-1.83894,52.40021],[-1.83759,52.40111],[-1.8363,52.40205],[-1.8357,52.4026],[-1.835,52.4031],[-1.83409,52.40349],[-1.83386,52.40317],[-1.83264,52.40241],[-1.8315,52.40201],[-1.82982,52.40159],[-1.82888,52.40142],[-1.82787,52.40128],[-1.82626,52.40124],[-1.82435,52.40152],[-1.82354,52.40178],[-1.82199,52.402],[-1.82208,52.40272],[-1.82199,52.40347],[-1.82257,52.40454],[-1.82292,52.40542],[-1.82167,52.40526],[-1.8206,52.40522],[-1.81865,52.40493],[-1.81581,52.40461],[-1.81405,52.40445],[-1.81373,52.40449],[-1.81289,52.40412],[-1.80991,52.40314],[-1.80948,52.40313],[-1.80772,52.40389],[-1.80328,52.40529],[-1.80036,52.40598],[-1.79981,52.40657],[-1.79749,52.40756],[-1.79551,52.40824],[-1.79442,52.40949],[-1.79292,52.41063],[-1.79176,52.41249],[-1.78991,52.41348],[-1.790722,52.414502],[-1.790411,52.414363],[-1.793274,52.417715],[-1.79253,52.41769],[-1.79152,52.41734],[-1.79133,52.41735],[-1.79152,52.41773],[-1.79245,52.41861],[-1.79369,52.41949],[-1.79481,52.42065],[-1.79588,52.42191],[-1.79644,52.42273],[-1.79648,52.42327],[-1.79526,52.42466],[-1.79584,52.42498],[-1.79676,52.42574],[-1.79749,52.42678],[-1.79802,52.42798],[-1.79843,52.42938],[-1.79923,52.43159],[-1.80013,52.43296],[-1.80105,52.43412],[-1.806722,52.438543]]]},"properties":{"code":"Y00159","name":"HALL GREEN HEALTH","icb":"QHL"}}]}