{"type":"FeatureCollection","features":[{"type":"Feature","geometry":{"type":"Polygon","coordinates":[[[-1.103185,52.614206],[-1.093426,52.61659],[-1.090549,52.621519],[-1.086603,52.621565],[-1.08078,52.620643],[-1.07495,52.62093],[-1.07293,52.62158],[-1.07106,52.62273],[-1.06809,52.62571],[-1.06622,52.62731],[-1.06486,52.62899],[-1.0637,52.63134],[-1.06265,52.63285],[-1.022256,52.626452],[-1.016563,52.631323],[-1.038686,52.645902],[-1.047096,52.654344],[-1.080348,52.656676],[-1.088663,52.661519],[-1.107154,52.667295],[-1.11545,52.667197],[-1.123435,52.665249],[-1.128003,52.664135],[-1.134507,52.665365],[-1.150929,52.66678],[-1.165526,52.663219],[-1.170788,52.65872],[-1.174283,52.655479],[-1.175058,52.650282],[-1.180392,52.644934],[-1.188912,52.636388],[-1.188294,52.629816],[-1.186981,52.615858],[-1.188518,52.612996],[-1.185747,52.602725],[-1.18117,52.594537],[-1.175485,52.594604],[-1.164796,52.597216],[-1.156002,52.596457],[-1.146996,52.596564],[-1.122291,52.596855],[-1.113122,52.601374],[-1.093599,52.605588],[-1.103185,52.614206]]]},"properties":{"code":"Y00137","name":"WILLOWS HEALTH","icb":"QK1"}}]}