{"type":"FeatureCollection","features":[{"type":"Feature","geometry":{"type":"Polygon","coordinates":[[[-1.44573,52.402],[-1.44509,52.40433],[-1.443341,52.411377],[-1.442058,52.412079],[-1.44084,52.41218],[-1.43788,52.41347],[-1.437193,52.415552],[-1.436736,52.416334],[-1.4296,52.42504],[-1.430697,52.426506],[-1.43131,52.4281],[-1.4323,52.43006],[-1.437247,52.430649],[-1.437407,52.430851],[-1.43719,52.43111],[-1.437215,52.431271],[-1.435416,52.432943],[-1.43453,52.43349],[-1.43101,52.43684],[-1.43582,52.43833],[-1.440588,52.43965],[-1.442159,52.440139],[-1.445776,52.441646],[-1.445855,52.441787],[-1.44333,52.44659],[-1.444624,52.447193],[-1.4447,52.44733],[-1.445877,52.447777],[-1.460238,52.454469],[-1.4611,52.45499],[-1.462246,52.455081],[-1.46976,52.45685],[-1.4825,52.459238],[-1.48384,52.45978],[-1.48453,52.45726],[-1.485565,52.451876],[-1.487277,52.44658],[-1.49921,52.428747],[-1.50144,52.42593],[-1.50144,52.425436],[-1.50169,52.42504],[-1.495974,52.423393],[-1.49586,52.423283],[-1.495869,52.422409],[-1.49676,52.42077],[-1.49508,52.42035],[-1.492037,52.421463],[-1.49176,52.421429],[-1.49008,52.420059],[-1.489307,52.419179],[-1.489158,52.418843],[-1.489614,52.417955],[-1.48985,52.41776],[-1.489998,52.417207],[-1.49071,52.41582],[-1.48933,52.412259],[-1.48863,52.41012],[-1.488487,52.409947],[-1.488019,52.408666],[-1.48822,52.40776],[-1.48753,52.4069],[-1.487338,52.406795],[-1.48727,52.40661],[-1.486292,52.406564],[-1.48535,52.406309],[-1.485233,52.406209],[-1.4852,52.40596],[-1.484067,52.406274],[-1.48105,52.40616],[-1.47642,52.40619],[-1.472198,52.407292],[-1.47206,52.407295],[-1.46976,52.40661],[-1.46084,52.40451],[-1.459771,52.404332],[-1.45783,52.40349],[-1.4541,52.40294],[-1.449216,52.402579],[-1.44573,52.402]]]},"properties":{"code":"Y00140","name":"TORCROSS MEDICAL CENTRE","icb":"QWU"}}]}