{"type":"FeatureCollection","features":[{"type":"Feature","geometry":{"type":"Polygon","coordinates":[[[-2.715812,53.522171],[-2.71528,53.519035],[-2.71597,53.517878],[-2.716314,53.516559],[-2.716376,53.511179],[-2.716455,53.504269],[-2.720246,53.496985],[-2.72087,53.491525],[-2.717545,53.485413],[-2.711318,53.479272],[-2.692993,53.470296],[-2.690616,53.469601],[-2.687255,53.467501],[-2.67847,53.466624],[-2.665971,53.465375],[-2.66099,53.46799],[-2.654931,53.469506],[-2.650339,53.470909],[-2.644207,53.471503],[-2.639825,53.472599],[-2.63883,53.473905],[-2.638235,53.474687],[-2.637263,53.475197],[-2.634195,53.47648],[-2.63138,53.478285],[-2.625197,53.480101],[-2.623715,53.481444],[-2.62191,53.483678],[-2.628652,53.493361],[-2.633258,53.497902],[-2.635472,53.504233],[-2.636717,53.505129],[-2.637787,53.506183],[-2.639862,53.507675],[-2.641291,53.508258],[-2.64244,53.508976],[-2.644542,53.510487],[-2.648051,53.5114],[-2.649359,53.511934],[-2.650172,53.513064],[-2.652764,53.513034],[-2.652544,53.513877],[-2.6526,53.514402],[-2.652657,53.51494],[-2.652815,53.516425],[-2.652414,53.519935],[-2.652909,53.52286],[-2.715769,53.522133],[-2.715812,53.522171]]]},"properties":{"code":"Y00475","name":"GARSWOOD SURGERY","icb":"QYG"}}]}