{"type":"FeatureCollection","features":[{"type":"Feature","geometry":{"type":"Polygon","coordinates":[[[-0.04266,51.53059],[-0.042791,51.530671],[-0.042814,51.530686],[-0.042833,51.530703],[-0.042851,51.53072],[-0.042866,51.530738],[-0.042878,51.530757],[-0.042887,51.530777],[-0.042894,51.530797],[-0.042897,51.530818],[-0.042897,51.530838],[-0.042895,51.530859],[-0.042889,51.530879],[-0.042881,51.530899],[-0.042869,51.530918],[-0.042855,51.530936],[-0.042839,51.530954],[-0.042819,51.530971],[-0.042798,51.530986],[-0.042774,51.531],[-0.042748,51.531013],[-0.042721,51.531024],[-0.042692,51.531034],[-0.042661,51.531042],[-0.04263,51.531048],[-0.042598,51.531052],[-0.042565,51.531055],[-0.042532,51.531055],[-0.0425,51.531054],[-0.042467,51.531051],[-0.042435,51.531046],[-0.042404,51.53104],[-0.042374,51.531031],[-0.042346,51.531021],[-0.037501,51.529122],[-0.037463,51.529105],[-0.037429,51.529085],[-0.0374,51.529062],[-0.037375,51.529038],[-0.035497,51.526858],[-0.035484,51.526841],[-0.03356,51.52407],[-0.021993,51.526579],[-0.021987,51.526581],[-0.01523,51.52797],[-0.01438,51.52901],[-0.01993,51.53318],[-0.024409,51.536028],[-0.024433,51.536044],[-0.024454,51.536062],[-0.024472,51.536082],[-0.024487,51.536102],[-0.02695,51.53996],[-0.026971,51.539977],[-0.026989,51.539994],[-0.027004,51.540013],[-0.027017,51.540032],[-0.027027,51.540052],[-0.027033,51.540073],[-0.027037,51.540094],[-0.027037,51.540115],[-0.027034,51.540136],[-0.027028,51.540157],[-0.027019,51.540177],[-0.027007,51.540196],[-0.026992,51.540215],[-0.026975,51.540233],[-0.026954,51.54025],[-0.026932,51.540265],[-0.026817,51.540337],[-0.026778,51.540358],[-0.026735,51.540375],[-0.0218,51.54206],[-0.0236,51.54599],[-0.025588,51.547905],[-0.025606,51.547925],[-0.025621,51.547945],[-0.025632,51.547967],[-0.02564,51.547988],[-0.025645,51.548011],[-0.025646,51.548033],[-0.025643,51.548056],[-0.025636,51.548078],[-0.025627,51.5481],[-0.025613,51.54812],[-0.025597,51.54814],[-0.025577,51.548159],[-0.025554,51.548177],[-0.025529,51.548193],[-0.025501,51.548207],[-0.025471,51.54822],[-0.01927,51.55055],[-0.0206,51.5521],[-0.02532,51.55415],[-0.025349,51.554161],[-0.025375,51.554174],[-0.0254,51.554188],[-0.025423,51.554203],[-0.025443,51.55422],[-0.025461,51.554238],[-0.025476,51.554256],[-0.025488,51.554276],[-0.026197,51.555611],[-0.026209,51.555639],[-0.026215,51.555667],[-0.026215,51.555696],[-0.026209,51.555724],[-0.026198,51.555752],[-0.026181,51.555778],[-0.026159,51.555803],[-0.026132,51.555826],[-0.02455,51.55701],[-0.02953,51.56106],[-0.033708,51.560125],[-0.033763,51.560116],[-0.033821,51.560112],[-0.033878,51.560114],[-0.033934,51.560122],[-0.037711,51.560839],[-0.037768,51.560853],[-0.03782,51.560873],[-0.046315,51.564784],[-0.046348,51.564801],[-0.046378,51.564821],[-0.06004,51.57507],[-0.066989,51.572842],[-0.067021,51.572833],[-0.067054,51.572826],[-0.067088,51.572821],[-0.067123,51.572818],[-0.067157,51.572817],[-0.067192,51.572818],[-0.067227,51.572821],[-0.06726,51.572827],[-0.0712,51.57358],[-0.07141,51.57163],[-0.065883,51.570693],[-0.065852,51.570686],[-0.065821,51.570678],[-0.065792,51.570669],[-0.065765,51.570657],[-0.065739,51.570644],[-0.065716,51.57063],[-0.065694,51.570615],[-0.065675,51.570598],[-0.062429,51.567474],[-0.062405,51.567448],[-0.062387,51.567419],[-0.062376,51.567389],[-0.062371,51.567359],[-0.062373,51.567328],[-0.062381,51.567298],[-0.062396,51.567269],[-0.062418,51.567242],[-0.06691,51.56229],[-0.06695,51.55549],[-0.064509,51.552032],[-0.06449,51.551999],[-0.06448,51.551965],[-0.064478,51.55193],[-0.064486,51.551896],[-0.064501,51.551862],[-0.064525,51.551831],[-0.064556,51.551802],[-0.064594,51.551776],[-0.064638,51.551755],[-0.064687,51.551738],[-0.064739,51.551725],[-0.064794,51.551719],[-0.06485,51.551717],[-0.064905,51.551721],[-0.064959,51.55173],[-0.06501,51.551744],[-0.06952,51.55327],[-0.07587,51.55413],[-0.07718,51.53678],[-0.076989,51.536771],[-0.076941,51.536767],[-0.076895,51.536759],[-0.07685,51.536747],[-0.076809,51.536731],[-0.076771,51.536712],[-0.076738,51.53669],[-0.076709,51.536666],[-0.076687,51.536639],[-0.07667,51.53661],[-0.076659,51.536581],[-0.076655,51.536551],[-0.076658,51.536521],[-0.076667,51.536491],[-0.076682,51.536462],[-0.076703,51.536435],[-0.07673,51.53641],[-0.076587,51.536375],[-0.076537,51.53636],[-0.076492,51.53634],[-0.076452,51.536316],[-0.076418,51.536289],[-0.076391,51.536259],[-0.076372,51.536227],[-0.076361,51.536193],[-0.076358,51.536159],[-0.076599,51.531274],[-0.076602,51.53125],[-0.076609,51.531227],[-0.07742,51.52917],[-0.07763,51.5276],[-0.07738,51.52583],[-0.07609,51.52461],[-0.064068,51.524097],[-0.064033,51.524095],[-0.063998,51.52409],[-0.063964,51.524083],[-0.063932,51.524074],[-0.063901,51.524063],[-0.063872,51.52405],[-0.063845,51.524036],[-0.06382,51.52402],[-0.063653,51.524025],[-0.063592,51.524024],[-0.063532,51.524016],[-0.063475,51.524002],[-0.063423,51.523982],[-0.06333,51.52394],[-0.06189,51.524078],[-0.061853,51.524081],[-0.05764,51.52421],[-0.05489,51.52458],[-0.05021,51.52562],[-0.048186,51.526249],[-0.048149,51.526259],[-0.048111,51.526266],[-0.040373,51.527435],[-0.040312,51.527441],[-0.04025,51.52744],[-0.040256,51.52748],[-0.04025,51.52752],[-0.040291,51.527539],[-0.040327,51.527561],[-0.040358,51.527586],[-0.040382,51.527613],[-0.04266,51.53059]]]},"properties":{"code":"Y00403","name":"TROWBRIDGE PRACTICE","icb":"QMF"}}]}