{"type":"FeatureCollection","features":[{"type":"Feature","geometry":{"type":"Polygon","coordinates":[[[-0.619784,52.030211],[-0.594118,52.024058],[-0.531805,52.039187],[-0.438219,52.044368],[-0.38315,52.055606],[-0.349505,52.130959],[-0.34899,52.142131],[-0.35723,52.153935],[-0.37285,52.161737],[-0.377827,52.157822],[-0.380918,52.154047],[-0.397225,52.145616],[-0.407353,52.139398],[-0.411301,52.134963],[-0.414261,52.130592],[-0.416536,52.127296],[-0.419712,52.124109],[-0.426493,52.120262],[-0.433788,52.117943],[-0.47739,52.124963],[-0.512921,52.120425],[-0.590855,52.120219],[-0.636174,52.076552],[-0.64321,52.043919],[-0.619784,52.030211]]]},"properties":{"code":"Y00560","name":"WOOTTON VALE AND SHORTSTOWN SURGERY","icb":"S1Y5D"}}]}