{"type":"FeatureCollection","features":[{"type":"Feature","geometry":{"type":"Polygon","coordinates":[[[-4.20628,50.37179],[-4.20196,50.37043],[-4.19947,50.37025],[-4.198161,50.370904],[-4.198135,50.370916],[-4.198107,50.370927],[-4.198078,50.370935],[-4.198048,50.370942],[-4.195995,50.371345],[-4.195957,50.371351],[-4.195919,50.371355],[-4.195881,50.371355],[-4.195843,50.371353],[-4.19391,50.37118],[-4.19312,50.37176],[-4.194095,50.372248],[-4.19413,50.372268],[-4.194161,50.372291],[-4.194186,50.372316],[-4.194206,50.372343],[-4.19422,50.372372],[-4.194228,50.372402],[-4.19423,50.372432],[-4.194225,50.372462],[-4.19402,50.37324],[-4.194414,50.373534],[-4.19445,50.373566],[-4.194477,50.373602],[-4.194493,50.37364],[-4.194498,50.37368],[-4.194493,50.37372],[-4.194476,50.373758],[-4.19445,50.373794],[-4.194414,50.373826],[-4.19218,50.37549],[-4.19382,50.375987],[-4.19384,50.375993],[-4.19569,50.37665],[-4.197629,50.37696],[-4.19767,50.376968],[-4.197709,50.37698],[-4.197745,50.376994],[-4.197779,50.377011],[-4.197809,50.37703],[-4.197835,50.377052],[-4.197857,50.377075],[-4.197874,50.3771],[-4.197886,50.377126],[-4.197894,50.377153],[-4.197896,50.377181],[-4.197892,50.377208],[-4.197884,50.377235],[-4.197871,50.377261],[-4.197853,50.377285],[-4.19783,50.377309],[-4.19688,50.37816],[-4.199502,50.378567],[-4.199537,50.378574],[-4.202096,50.379155],[-4.202147,50.379169],[-4.202194,50.379189],[-4.202235,50.379213],[-4.20227,50.37924],[-4.202297,50.379271],[-4.202317,50.379305],[-4.202328,50.37934],[-4.20233,50.379375],[-4.20226,50.380551],[-4.202253,50.380587],[-4.202238,50.380622],[-4.202214,50.380655],[-4.202182,50.380684],[-4.202143,50.380711],[-4.202097,50.380732],[-4.202047,50.380749],[-4.201994,50.380761],[-4.19917,50.38121],[-4.19734,50.38196],[-4.19983,50.38369],[-4.202945,50.384023],[-4.202977,50.384027],[-4.203008,50.384034],[-4.203038,50.384042],[-4.203067,50.384051],[-4.20575,50.38507],[-4.209518,50.385868],[-4.209562,50.38588],[-4.209603,50.385895],[-4.209641,50.385913],[-4.209674,50.385935],[-4.209702,50.385959],[-4.209726,50.385985],[-4.209743,50.386014],[-4.209754,50.386043],[-4.209759,50.386073],[-4.209758,50.386103],[-4.20975,50.386133],[-4.209736,50.386162],[-4.209716,50.38619],[-4.209691,50.386215],[-4.20966,50.386238],[-4.209625,50.386258],[-4.207487,50.387331],[-4.207454,50.387346],[-4.207418,50.387358],[-4.207381,50.387368],[-4.207342,50.387375],[-4.207302,50.387378],[-4.207262,50.387379],[-4.207221,50.387377],[-4.207182,50.387372],[-4.20468,50.38696],[-4.20113,50.38747],[-4.207396,50.390309],[-4.207441,50.390334],[-4.21168,50.39305],[-4.21803,50.3925],[-4.226322,50.389064],[-4.226364,50.389049],[-4.226408,50.389038],[-4.226455,50.389031],[-4.226502,50.389028],[-4.22655,50.389029],[-4.226596,50.389034],[-4.226642,50.389043],[-4.226685,50.389056],[-4.23104,50.39061],[-4.23543,50.38755],[-4.23553,50.38495],[-4.233901,50.38423],[-4.233861,50.384209],[-4.233826,50.384185],[-4.233797,50.384158],[-4.233774,50.384128],[-4.233759,50.384096],[-4.233751,50.384063],[-4.233751,50.38403],[-4.233758,50.383997],[-4.233773,50.383966],[-4.233794,50.383936],[-4.233823,50.383908],[-4.233857,50.383883],[-4.233897,50.383862],[-4.233942,50.383845],[-4.233989,50.383832],[-4.234039,50.383824],[-4.23722,50.38346],[-4.237305,50.381281],[-4.237309,50.381251],[-4.237319,50.381222],[-4.237335,50.381195],[-4.237357,50.381168],[-4.237384,50.381144],[-4.237415,50.381123],[-4.237451,50.381104],[-4.23749,50.381088],[-4.24868,50.37724],[-4.250344,50.375966],[-4.250375,50.375946],[-4.25041,50.375928],[-4.250448,50.375912],[-4.250488,50.375901],[-4.250531,50.375892],[-4.250575,50.375887],[-4.25062,50.375886],[-4.250664,50.375888],[-4.26056,50.37681],[-4.266155,50.374486],[-4.266188,50.374474],[-4.266222,50.374464],[-4.266258,50.374457],[-4.266295,50.374452],[-4.266333,50.37445],[-4.26637,50.37445],[-4.266408,50.374453],[-4.266445,50.374459],[-4.26979,50.37508],[-4.274834,50.373885],[-4.274869,50.373878],[-4.274905,50.373873],[-4.274941,50.373871],[-4.274978,50.373871],[-4.275014,50.373874],[-4.27505,50.373879],[-4.275085,50.373886],[-4.275118,50.373896],[-4.278726,50.375092],[-4.278764,50.375107],[-4.278799,50.375125],[-4.27883,50.375145],[-4.278857,50.375168],[-4.27888,50.375193],[-4.278897,50.375219],[-4.278908,50.375247],[-4.278914,50.375275],[-4.27921,50.37784],[-4.282472,50.378414],[-4.282506,50.378421],[-4.282539,50.378431],[-4.28257,50.378442],[-4.2826,50.378456],[-4.282627,50.378472],[-4.282651,50.378489],[-4.282672,50.378507],[-4.282691,50.378528],[-4.28546,50.38196],[-4.288232,50.382993],[-4.288267,50.383008],[-4.293306,50.38545],[-4.293341,50.38547],[-4.293372,50.385492],[-4.293398,50.385517],[-4.293418,50.385544],[-4.293433,50.385572],[-4.293442,50.385601],[-4.293445,50.385631],[-4.293442,50.38566],[-4.29307,50.38738],[-4.29805,50.38854],[-4.303634,50.388135],[-4.303672,50.388134],[-4.303709,50.388135],[-4.303746,50.388139],[-4.303782,50.388145],[-4.30625,50.388656],[-4.306284,50.388664],[-4.306316,50.388674],[-4.306347,50.388687],[-4.306375,50.388701],[-4.30901,50.39019],[-4.311022,50.389368],[-4.311051,50.389357],[-4.311081,50.389349],[-4.311113,50.389342],[-4.311145,50.389337],[-4.311178,50.389334],[-4.311211,50.389333],[-4.311244,50.389334],[-4.311277,50.389337],[-4.31395,50.38966],[-4.316606,50.389193],[-4.316643,50.389188],[-4.31668,50.389185],[-4.316718,50.389185],[-4.316756,50.389188],[-4.32069,50.3896],[-4.32475,50.3886],[-4.31299,50.36063],[-4.282247,50.356699],[-4.282214,50.356693],[-4.282182,50.356686],[-4.282152,50.356677],[-4.282123,50.356666],[-4.232959,50.336001],[-4.232913,50.335978],[-4.232874,50.33595],[-4.219539,50.324892],[-4.219518,50.324872],[-4.219499,50.324851],[-4.219485,50.324828],[-4.219475,50.324805],[-4.219468,50.324781],[-4.219466,50.324757],[-4.219468,50.324732],[-4.219473,50.324708],[-4.22026,50.322321],[-4.220269,50.3223],[-4.220281,50.322279],[-4.220296,50.322259],[-4.220314,50.32224],[-4.220335,50.322223],[-4.220358,50.322207],[-4.220384,50.322192],[-4.220412,50.322179],[-4.22819,50.31894],[-4.22433,50.3167],[-4.224277,50.3167],[-4.224224,50.316696],[-4.224173,50.316686],[-4.224125,50.316671],[-4.224081,50.316652],[-4.224042,50.316629],[-4.224009,50.316602],[-4.223982,50.316572],[-4.223963,50.31654],[-4.223952,50.316507],[-4.223949,50.316473],[-4.223953,50.316439],[-4.223966,50.316406],[-4.223987,50.316375],[-4.224014,50.316345],[-4.224048,50.316319],[-4.22665,50.31461],[-4.226042,50.314461],[-4.225993,50.314446],[-4.225948,50.314427],[-4.225908,50.314403],[-4.225875,50.314376],[-4.225849,50.314345],[-4.22583,50.314313],[-4.225819,50.314279],[-4.225816,50.314244],[-4.225822,50.31421],[-4.225836,50.314176],[-4.225858,50.314144],[-4.225888,50.314115],[-4.225924,50.314089],[-4.225965,50.314067],[-4.226012,50.314049],[-4.226062,50.314037],[-4.22699,50.31385],[-4.22647,50.3128],[-4.22424,50.31121],[-4.22235,50.31105],[-4.21935,50.31242],[-4.220579,50.314171],[-4.220594,50.314197],[-4.220605,50.314225],[-4.220609,50.314253],[-4.220608,50.314282],[-4.220602,50.31431],[-4.22059,50.314337],[-4.220572,50.314364],[-4.22055,50.314388],[-4.220523,50.314411],[-4.220492,50.314431],[-4.220456,50.314448],[-4.220418,50.314463],[-4.220377,50.314474],[-4.220335,50.314482],[-4.220291,50.314487],[-4.220246,50.314487],[-4.21858,50.31445],[-4.208382,50.318302],[-4.208331,50.318317],[-4.208276,50.318328],[-4.208219,50.318332],[-4.208163,50.318331],[-4.19884,50.31763],[-4.18768,50.3173],[-4.18854,50.32316],[-4.200518,50.329783],[-4.200546,50.329799],[-4.20057,50.329818],[-4.200591,50.329838],[-4.200608,50.329859],[-4.200622,50.329882],[-4.200632,50.329905],[-4.200638,50.329929],[-4.20064,50.329953],[-4.20064,50.331093],[-4.200637,50.331122],[-4.200628,50.33115],[-4.200614,50.331177],[-4.200594,50.331203],[-4.20057,50.331228],[-4.20054,50.33125],[-4.200507,50.331269],[-4.200469,50.331285],[-4.19978,50.33155],[-4.200405,50.332891],[-4.200416,50.332922],[-4.20042,50.332954],[-4.200416,50.332986],[-4.200406,50.333018],[-4.200388,50.333048],[-4.200364,50.333076],[-4.200334,50.333102],[-4.200298,50.333125],[-4.185891,50.341074],[-4.185866,50.341087],[-4.185839,50.341098],[-4.185811,50.341107],[-4.185782,50.341115],[-4.185751,50.341121],[-4.18572,50.341126],[-4.185688,50.341128],[-4.185656,50.341129],[-4.18073,50.34108],[-4.176874,50.343061],[-4.176826,50.343082],[-4.176773,50.343098],[-4.176717,50.343107],[-4.176659,50.343111],[-4.17043,50.34316],[-4.16579,50.34858],[-4.16699,50.35192],[-4.172773,50.355879],[-4.172803,50.355903],[-4.172828,50.35593],[-4.172848,50.355958],[-4.17286,50.355988],[-4.172867,50.356018],[-4.172867,50.356049],[-4.17286,50.35608],[-4.172846,50.35611],[-4.17137,50.35871],[-4.17249,50.35926],[-4.173833,50.359504],[-4.173876,50.359514],[-4.173918,50.359528],[-4.173956,50.359545],[-4.17399,50.359565],[-4.17402,50.359587],[-4.174045,50.359612],[-4.174064,50.359639],[-4.174078,50.359668],[-4.17446,50.36068],[-4.17661,50.36129],[-4.179565,50.360473],[-4.179608,50.360463],[-4.179652,50.360457],[-4.18024,50.3604],[-4.183906,50.357096],[-4.183927,50.357078],[-4.183951,50.357062],[-4.183977,50.357048],[-4.184005,50.357035],[-4.184035,50.357025],[-4.184067,50.357016],[-4.184099,50.357009],[-4.184133,50.357004],[-4.18669,50.35672],[-4.188113,50.355534],[-4.188135,50.355517],[-4.18816,50.355501],[-4.188188,50.355488],[-4.188217,50.355476],[-4.188248,50.355465],[-4.188281,50.355457],[-4.188315,50.355451],[-4.188349,50.355448],[-4.191677,50.35519],[-4.192432,50.355095],[-4.19247,50.355091],[-4.192509,50.355091],[-4.196012,50.355147],[-4.196057,50.355149],[-4.196101,50.355156],[-4.196143,50.355165],[-4.196183,50.355179],[-4.19622,50.355195],[-4.196254,50.355214],[-4.196283,50.355236],[-4.196308,50.35526],[-4.197117,50.35617],[-4.197142,50.356204],[-4.19744,50.35673],[-4.197474,50.356755],[-4.197502,50.356783],[-4.197524,50.356813],[-4.197538,50.356845],[-4.197545,50.356878],[-4.197544,50.356911],[-4.197535,50.356944],[-4.197519,50.356975],[-4.19623,50.359],[-4.197926,50.359808],[-4.197957,50.359825],[-4.19838,50.36008],[-4.201538,50.360109],[-4.20157,50.36011],[-4.201601,50.360113],[-4.201632,50.360118],[-4.201661,50.360124],[-4.20169,50.360132],[-4.201718,50.360142],[-4.201744,50.360153],[-4.201768,50.360166],[-4.20324,50.36101],[-4.20533,50.361506],[-4.205377,50.36152],[-4.205421,50.361538],[-4.205459,50.36156],[-4.205492,50.361585],[-4.205808,50.361863],[-4.205826,50.361881],[-4.205842,50.3619],[-4.20601,50.36213],[-4.20859,50.3616],[-4.207887,50.360905],[-4.207865,50.36088],[-4.207848,50.360854],[-4.207837,50.360826],[-4.207831,50.360798],[-4.207831,50.360769],[-4.207837,50.360741],[-4.207848,50.360713],[-4.207864,50.360687],[-4.208711,50.35955],[-4.208734,50.359524],[-4.208762,50.3595],[-4.208795,50.359479],[-4.208832,50.35946],[-4.208872,50.359445],[-4.208916,50.359434],[-4.208961,50.359426],[-4.209007,50.359422],[-4.21175,50.35932],[-4.212083,50.35892],[-4.212102,50.358899],[-4.212124,50.35888],[-4.21252,50.35858],[-4.212426,50.355141],[-4.212427,50.355119],[-4.212431,50.355097],[-4.212439,50.355076],[-4.21245,50.355055],[-4.212464,50.355035],[-4.212481,50.355017],[-4.2125,50.354999],[-4.212522,50.354982],[-4.212547,50.354967],[-4.212574,50.354954],[-4.212603,50.354942],[-4.212633,50.354932],[-4.212665,50.354924],[-4.212697,50.354918],[-4.212731,50.354914],[-4.212765,50.354912],[-4.21315,50.354904],[-4.213187,50.354904],[-4.213225,50.354907],[-4.213261,50.354913],[-4.213297,50.354921],[-4.213331,50.354931],[-4.213363,50.354944],[-4.213392,50.354958],[-4.213419,50.354975],[-4.21479,50.355918],[-4.214822,50.355944],[-4.214848,50.355972],[-4.214868,50.356003],[-4.21488,50.356035],[-4.21523,50.35741],[-4.21572,50.35861],[-4.215922,50.35879],[-4.215953,50.358824],[-4.2162,50.35915],[-4.21831,50.35986],[-4.218695,50.35962],[-4.218718,50.359606],[-4.218744,50.359594],[-4.218771,50.359583],[-4.2188,50.359574],[-4.218829,50.359567],[-4.21886,50.359561],[-4.218891,50.359558],[-4.218923,50.359556],[-4.221163,50.359486],[-4.221224,50.359487],[-4.221282,50.359495],[-4.221338,50.35951],[-4.22139,50.35953],[-4.221435,50.359555],[-4.221472,50.359585],[-4.221502,50.359619],[-4.221521,50.359655],[-4.221531,50.359693],[-4.22153,50.359732],[-4.221519,50.35977],[-4.221499,50.359806],[-4.221468,50.359839],[-4.22143,50.359869],[-4.221384,50.359894],[-4.221332,50.359913],[-4.220616,50.360132],[-4.220599,50.360137],[-4.21851,50.36069],[-4.21823,50.361197],[-4.218217,50.361217],[-4.218201,50.361236],[-4.218183,50.361254],[-4.218162,50.361271],[-4.218139,50.361286],[-4.218113,50.3613],[-4.218086,50.361312],[-4.218057,50.361323],[-4.21689,50.3617],[-4.21771,50.36242],[-4.218696,50.362647],[-4.218723,50.362654],[-4.22104,50.36333],[-4.22119,50.363329],[-4.221231,50.36333],[-4.221271,50.363334],[-4.221311,50.363341],[-4.221348,50.363351],[-4.22167,50.36345],[-4.2242,50.3634],[-4.227164,50.363273],[-4.227196,50.363272],[-4.227229,50.363274],[-4.227262,50.363277],[-4.227294,50.363283],[-4.23136,50.36411],[-4.23199,50.363992],[-4.232034,50.363986],[-4.232079,50.363983],[-4.23423,50.363945],[-4.234289,50.363947],[-4.234347,50.363955],[-4.234402,50.36397],[-4.234452,50.36399],[-4.235216,50.36436],[-4.235241,50.364373],[-4.236049,50.364846],[-4.236087,50.364872],[-4.236117,50.364901],[-4.236478,50.365305],[-4.2365,50.365335],[-4.236515,50.365366],[-4.236523,50.365398],[-4.236523,50.365431],[-4.236516,50.365463],[-4.236502,50.365494],[-4.236481,50.365524],[-4.236453,50.365552],[-4.23642,50.365576],[-4.236381,50.365597],[-4.236338,50.365615],[-4.236291,50.365628],[-4.236242,50.365637],[-4.236192,50.365641],[-4.236141,50.36564],[-4.23609,50.365635],[-4.23418,50.36534],[-4.23401,50.36534],[-4.232425,50.365655],[-4.232387,50.365661],[-4.232349,50.365664],[-4.232311,50.365665],[-4.232272,50.365663],[-4.22952,50.36542],[-4.228523,50.365943],[-4.228497,50.365956],[-4.228468,50.365967],[-4.228438,50.365976],[-4.228407,50.365984],[-4.227593,50.36615],[-4.227561,50.366155],[-4.22673,50.36627],[-4.22607,50.36646],[-4.22244,50.36784],[-4.222338,50.368482],[-4.222329,50.368513],[-4.222314,50.368542],[-4.222021,50.369009],[-4.222002,50.369034],[-4.221979,50.369058],[-4.221951,50.369079],[-4.22192,50.369098],[-4.221885,50.369114],[-4.221848,50.369128],[-4.221808,50.369138],[-4.221766,50.369146],[-4.221723,50.36915],[-4.22168,50.36915],[-4.221637,50.369147],[-4.221595,50.369141],[-4.221554,50.369132],[-4.221516,50.369119],[-4.22148,50.369104],[-4.221448,50.369085],[-4.22098,50.36879],[-4.21995,50.368297],[-4.219916,50.368278],[-4.219885,50.368256],[-4.219859,50.368232],[-4.219839,50.368206],[-4.219823,50.368179],[-4.219814,50.368151],[-4.21981,50.368122],[-4.219812,50.368093],[-4.21999,50.36704],[-4.21879,50.36673],[-4.21819,50.36728],[-4.218216,50.367316],[-4.218232,50.367355],[-4.218236,50.367395],[-4.21823,50.367435],[-4.218212,50.367474],[-4.218184,50.36751],[-4.218146,50.367542],[-4.2181,50.367569],[-4.216892,50.368169],[-4.216845,50.368189],[-4.21443,50.369033],[-4.214389,50.369045],[-4.211795,50.369689],[-4.211749,50.369698],[-4.211702,50.369703],[-4.20696,50.37],[-4.208555,50.371497],[-4.208585,50.371531],[-4.208605,50.371569],[-4.208628,50.371628],[-4.208637,50.371665],[-4.208637,50.371702],[-4.208627,50.371739],[-4.208608,50.371774],[-4.208579,50.371806],[-4.208543,50.371836],[-4.2085,50.371861],[-4.208451,50.371881],[-4.208397,50.371895],[-4.208341,50.371904],[-4.208282,50.371907],[-4.208224,50.371903],[-4.208168,50.371894],[-4.208115,50.371878],[-4.208067,50.371857],[-4.208025,50.371832],[-4.20766,50.37157],[-4.207298,50.37202],[-4.207277,50.372042],[-4.207252,50.372063],[-4.207224,50.372082],[-4.207192,50.372099],[-4.207157,50.372113],[-4.20712,50.372124],[-4.207082,50.372133],[-4.207042,50.372138],[-4.207001,50.372141],[-4.20696,50.372141],[-4.206919,50.372137],[-4.206879,50.372131],[-4.206841,50.372122],[-4.206805,50.372109],[-4.206771,50.372095],[-4.20674,50.372077],[-4.20628,50.37179]]]},"properties":{"code":"Y00969","name":"RAME GROUP PRACTICE","icb":"QT6"}}]}