{"type":"FeatureCollection","features":[{"type":"Feature","geometry":{"type":"Polygon","coordinates":[[[-1.8251,52.45873],[-1.80897,52.47128],[-1.8009,52.49992],[-1.809816,52.500771],[-1.809978,52.500858],[-1.811028,52.503158],[-1.822701,52.509114],[-1.836777,52.511099],[-1.852227,52.510994],[-1.872139,52.510994],[-1.8857,52.506397],[-1.891342,52.500432],[-1.891596,52.500376],[-1.89188,52.500441],[-1.896515,52.497097],[-1.896343,52.490826],[-1.89291,52.481313],[-1.886387,52.472949],[-1.872482,52.468243],[-1.855464,52.467909],[-1.8251,52.45873]]]},"properties":{"code":"Y01068","name":"AMAANAH MEDICAL PRACTICE","icb":"QHL"}}]}