{"type":"FeatureCollection","features":[{"type":"Feature","geometry":{"type":"Polygon","coordinates":[[[-5.50789,50.123966],[-5.507867,50.123994],[-5.507837,50.124021],[-5.507801,50.124044],[-5.507761,50.124063],[-5.507717,50.124079],[-5.50767,50.124091],[-5.50762,50.124098],[-5.50757,50.1241],[-5.50415,50.1241],[-5.502165,50.128555],[-5.502144,50.128589],[-5.502115,50.128621],[-5.502079,50.12865],[-5.502035,50.128674],[-5.501986,50.128693],[-5.501933,50.128707],[-5.501877,50.128715],[-5.50182,50.128718],[-5.488811,50.128504],[-5.488758,50.1285],[-5.488706,50.128492],[-5.488658,50.128478],[-5.488613,50.12846],[-5.480957,50.124832],[-5.480923,50.124814],[-5.480894,50.124794],[-5.480868,50.124771],[-5.480848,50.124747],[-5.480832,50.124721],[-5.480821,50.124694],[-5.480815,50.124666],[-5.480815,50.124638],[-5.481148,50.121018],[-5.477452,50.121383],[-5.477402,50.121386],[-5.477352,50.121384],[-5.477303,50.121377],[-5.477256,50.121366],[-5.477212,50.121351],[-5.477172,50.121332],[-5.477136,50.121309],[-5.477106,50.121283],[-5.477082,50.121255],[-5.477064,50.121225],[-5.477054,50.121194],[-5.47705,50.121161],[-5.477053,50.121129],[-5.477064,50.121098],[-5.477082,50.121068],[-5.477106,50.121039],[-5.479774,50.118377],[-5.475998,50.119037],[-5.472645,50.120757],[-5.472604,50.120775],[-5.472559,50.120789],[-5.472512,50.120799],[-5.472463,50.120805],[-5.466143,50.121231],[-5.466094,50.121232],[-5.466045,50.121229],[-5.465997,50.121221],[-5.465951,50.121209],[-5.457892,50.118626],[-5.45785,50.11861],[-5.457812,50.11859],[-5.457778,50.118567],[-5.45775,50.118542],[-5.451965,50.112433],[-5.443726,50.110451],[-5.417118,50.115515],[-5.443706,50.146083],[-5.443727,50.146111],[-5.443741,50.14614],[-5.451536,50.167113],[-5.507137,50.167769],[-5.507187,50.167772],[-5.507236,50.167779],[-5.507282,50.167791],[-5.507325,50.167807],[-5.578651,50.198331],[-5.60183,50.18822],[-5.641757,50.16923],[-5.641789,50.169216],[-5.641823,50.169205],[-5.641859,50.169196],[-5.641896,50.16919],[-5.66937,50.16563],[-5.68457,50.15502],[-5.6977,50.14308],[-5.70671,50.13026],[-5.697098,50.09812],[-5.690332,50.090308],[-5.690312,50.09028],[-5.690298,50.090252],[-5.69029,50.090222],[-5.690288,50.090192],[-5.690292,50.090162],[-5.690303,50.090133],[-5.69032,50.090105],[-5.690342,50.090078],[-5.698442,50.081849],[-5.698474,50.081822],[-5.698512,50.081798],[-5.72044,50.06992],[-5.677185,50.032886],[-5.576591,50.051628],[-5.563889,50.05758],[-5.562616,50.061666],[-5.562605,50.061692],[-5.562589,50.061717],[-5.562569,50.061741],[-5.562544,50.061763],[-5.562515,50.061783],[-5.562483,50.061801],[-5.562448,50.061816],[-5.56241,50.061828],[-5.56237,50.061837],[-5.562328,50.061843],[-5.562286,50.061846],[-5.562244,50.061845],[-5.562202,50.061841],[-5.562161,50.061834],[-5.562122,50.061824],[-5.562085,50.061811],[-5.552902,50.05802],[-5.536589,50.083542],[-5.536572,50.083565],[-5.536552,50.083586],[-5.536527,50.083606],[-5.5365,50.083624],[-5.536469,50.083639],[-5.536436,50.083653],[-5.536401,50.083664],[-5.536364,50.083672],[-5.536326,50.083678],[-5.536287,50.083681],[-5.536248,50.083681],[-5.536209,50.083678],[-5.536171,50.083673],[-5.536134,50.083664],[-5.536099,50.083653],[-5.536066,50.08364],[-5.530586,50.081159],[-5.53196,50.087988],[-5.546573,50.104993],[-5.546587,50.105012],[-5.546598,50.105031],[-5.546607,50.10505],[-5.546613,50.10507],[-5.546616,50.10509],[-5.546616,50.105111],[-5.546614,50.105131],[-5.546608,50.105151],[-5.5466,50.10517],[-5.546589,50.105189],[-5.546576,50.105208],[-5.546559,50.105225],[-5.546541,50.105242],[-5.54652,50.105257],[-5.546498,50.105271],[-5.546473,50.105284],[-5.52887,50.113533],[-5.526842,50.117435],[-5.526823,50.117464],[-5.526799,50.117491],[-5.526769,50.117515],[-5.526734,50.117537],[-5.522865,50.119604],[-5.522824,50.119623],[-5.522779,50.119638],[-5.522732,50.119649],[-5.522682,50.119655],[-5.522632,50.119656],[-5.522582,50.119653],[-5.522533,50.119645],[-5.522486,50.119633],[-5.51857,50.118377],[-5.51857,50.121028],[-5.518567,50.121059],[-5.518557,50.121089],[-5.518541,50.121117],[-5.518519,50.121145],[-5.518492,50.12117],[-5.51846,50.121192],[-5.518423,50.121211],[-5.518382,50.121227],[-5.518339,50.12124],[-5.518293,50.121248],[-5.518246,50.121252],[-5.518198,50.121252],[-5.518151,50.121248],[-5.518105,50.12124],[-5.518061,50.121228],[-5.518021,50.121212],[-5.511703,50.118377],[-5.50789,50.123966]]]},"properties":{"code":"Y01051","name":"MORRAB SURGERY","icb":"QT6"}}]}