{"type":"FeatureCollection","features":[{"type":"Feature","geometry":{"type":"Polygon","coordinates":[[[-0.010744,51.645796],[-0.01322,51.6332],[-0.013618,51.632842],[-0.01339,51.63358],[-0.014825,51.631755],[-0.020979,51.626216],[-0.02137,51.62652],[-0.026594,51.620374],[-0.027913,51.619187],[-0.030613,51.617412],[-0.032883,51.615335],[-0.033896,51.613655],[-0.033078,51.612525],[-0.031107,51.611474],[-0.029648,51.609208],[-0.029396,51.608143],[-0.02624,51.607033],[-0.023633,51.605261],[-0.01988,51.60326],[-0.015986,51.601367],[-0.013053,51.601801],[-0.010912,51.603037],[-0.006982,51.602839],[-0.005341,51.603016],[-0.00517,51.6029],[-0.004442,51.602406],[-0.002237,51.602793],[0.001446,51.603146],[0.004134,51.605935],[0.006432,51.606947],[0.00744,51.608306],[0.009067,51.609277],[0.009034,51.611117],[0.008717,51.612919],[0.008117,51.615456],[0.010972,51.616864],[0.009467,51.617886],[0.009047,51.618467],[0.009123,51.618713],[0.008997,51.618888],[0.008808,51.618932],[0.008887,51.619103],[0.009306,51.619403],[0.010098,51.619876],[0.012661,51.620448],[0.01379,51.6208],[0.013707,51.621274],[0.013028,51.622211],[0.014368,51.623786],[0.014951,51.625673],[0.017284,51.627443],[0.016996,51.628518],[0.01606,51.630468],[0.014474,51.633332],[0.00953,51.635255],[0.007388,51.636088],[0.004985,51.636668],[-0.000615,51.637429],[-0.002696,51.645187],[-0.010744,51.645796]]]},"properties":{"code":"Y01291","name":"CHINGFORD MEDICAL PRACTICE","icb":"QMF"}}]}