{"type":"FeatureCollection","features":[{"type":"Feature","geometry":{"type":"Polygon","coordinates":[[[0.185823,51.525674],[0.190201,51.528984],[0.179386,51.535445],[0.179478,51.537861],[0.178696,51.538891],[0.18022,51.540687],[0.180899,51.542885],[0.183491,51.544845],[0.177362,51.552919],[0.182955,51.556273],[0.183893,51.561407],[0.171059,51.56122],[0.160408,51.561191],[0.153294,51.561171],[0.147457,51.560958],[0.143127,51.560377],[0.135323,51.560699],[0.13125,51.560367],[0.120949,51.559991],[0.113811,51.551566],[0.11364,51.547082],[0.112782,51.542385],[0.109863,51.532882],[0.129261,51.530853],[0.128895,51.521262],[0.141845,51.518581],[0.147706,51.515079],[0.158293,51.512887],[0.181789,51.522897],[0.185823,51.525674]]]},"properties":{"code":"Y01795","name":"THE OVAL PRACTICE","icb":"QMF"}}]}