{"type":"FeatureCollection","features":[{"type":"Feature","geometry":{"type":"Polygon","coordinates":[[[-1.622147,52.795567],[-1.624591,52.793733],[-1.637794,52.786142],[-1.652068,52.776211],[-1.664331,52.763875],[-1.677317,52.748544],[-1.656876,52.73941],[-1.654816,52.7365],[-1.632843,52.713627],[-1.576881,52.711755],[-1.555939,52.708011],[-1.516113,52.714043],[-1.524696,52.723401],[-1.526756,52.734213],[-1.508904,52.748139],[-1.509247,52.756659],[-1.484528,52.77037],[-1.52195,52.789683],[-1.522293,52.803592],[-1.560059,52.808365],[-1.581001,52.806705],[-1.622147,52.795567]]]},"properties":{"code":"Y01812","name":"HEARTWOOD MEDICAL PRACTICE","icb":"QJ2"}}]}