{"type":"FeatureCollection","features":[{"type":"Feature","geometry":{"type":"Polygon","coordinates":[[[-0.373718,51.491928],[-0.37343,51.49179],[-0.371343,51.492306],[-0.36987,51.49254],[-0.36858,51.49379],[-0.36498,51.49576],[-0.36491,51.4957],[-0.364668,51.496432],[-0.36395,51.49798],[-0.36289,51.49847],[-0.36156,51.49987],[-0.36055,51.50072],[-0.360411,51.500962],[-0.358907,51.50218],[-0.355609,51.503728],[-0.35527,51.50365],[-0.35485,51.50388],[-0.355069,51.504051],[-0.35576,51.50621],[-0.355026,51.507137],[-0.355015,51.50715],[-0.35351,51.50905],[-0.36685,51.51132],[-0.371216,51.510597],[-0.37557,51.51136],[-0.379304,51.511385],[-0.380421,51.511459],[-0.38596,51.51252],[-0.38607,51.51243],[-0.3874,51.50805],[-0.39276,51.50773],[-0.39451,51.506438],[-0.395402,51.505969],[-0.396573,51.505579],[-0.39736,51.50543],[-0.398491,51.504941],[-0.399559,51.504586],[-0.40382,51.50344],[-0.405737,51.501222],[-0.40723,51.49983],[-0.407001,51.499769],[-0.40706,51.49971],[-0.38823,51.49482],[-0.38552,51.49459],[-0.38231,51.49514],[-0.3777,51.49684],[-0.37381,51.49194],[-0.373699,51.491896],[-0.373718,51.491928]]]},"properties":{"code":"Y02342","name":"FEATHERSTONE ROAD HEALTH CENTRE","icb":"Z9B2Z"}}]}