{"type":"FeatureCollection","features":[{"type":"Feature","geometry":{"type":"Polygon","coordinates":[[[-2.54128,53.47395],[-2.48819,53.48289],[-2.47523,53.49102],[-2.4751,53.50757],[-2.49806,53.510534],[-2.498844,53.511001],[-2.498464,53.511311],[-2.49784,53.51112],[-2.49862,53.51235],[-2.500517,53.512305],[-2.500728,53.512396],[-2.50085,53.51265],[-2.50085,53.512422],[-2.50106,53.512292],[-2.502615,53.512255],[-2.502841,53.512372],[-2.50454,53.52245],[-2.55428,53.5348],[-2.566121,53.500098],[-2.566519,53.500012],[-2.56685,53.50017],[-2.57844,53.49721],[-2.57973,53.49645],[-2.56908,53.4929],[-2.568991,53.492925],[-2.568625,53.492754],[-2.57183,53.48335],[-2.54128,53.47395]]]},"properties":{"code":"Y02322","name":"LEIGH FAMILY PRACTICE","icb":"QOP"}}]}