{"type":"FeatureCollection","features":[{"type":"Feature","geometry":{"type":"Polygon","coordinates":[[[-5.08942,50.35685],[-5.05302,50.36342],[-4.983375,50.371539],[-4.983461,50.371607],[-4.983375,50.371566],[-4.983504,50.371649],[-4.983397,50.371621],[-4.983504,50.371703],[-4.982043,50.381105],[-4.98067,50.3851],[-4.978179,50.389642],[-4.972001,50.395278],[-4.970115,50.400695],[-4.962561,50.41344],[-4.960499,50.416613],[-4.959727,50.419019],[-4.958783,50.423667],[-4.958698,50.423777],[-4.956726,50.429518],[-4.9684,50.43422],[-4.980497,50.43204],[-4.99157,50.43105],[-5.011798,50.446],[-5.022156,50.453329],[-5.029373,50.45752],[-5.048834,50.441941],[-5.065411,50.43117],[-5.06744,50.42208],[-5.102938,50.426569],[-5.101504,50.421176],[-5.099681,50.417931],[-5.09628,50.41814],[-5.155864,50.409985],[-5.150146,50.401272],[-5.1416,50.39495],[-5.145517,50.392538],[-5.146882,50.389307],[-5.144537,50.387572],[-5.141673,50.386278],[-5.137189,50.386554],[-5.13268,50.38751],[-5.08942,50.35685]]]},"properties":{"code":"Y02517","name":"NEWQUAY HEALTH CENTRE","icb":"QT6"}}]}