{"type":"FeatureCollection","features":[{"type":"Feature","geometry":{"type":"Polygon","coordinates":[[[-2.32481,53.47947],[-2.31417,53.47814],[-2.29923,53.47088],[-2.28035,53.46567],[-2.26645,53.47303],[-2.26507,53.47671],[-2.26095,53.4764],[-2.24619,53.48631],[-2.25117,53.49213],[-2.2546,53.49438],[-2.25409,53.49652],[-2.25666,53.49826],[-2.25237,53.50438],[-2.24688,53.50306],[-2.24499,53.50592],[-2.24842,53.50612],[-2.24825,53.50816],[-2.24447,53.51082],[-2.25048,53.51572],[-2.25821,53.51755],[-2.26078,53.5201],[-2.27194,53.51765],[-2.29048,53.51153],[-2.29322,53.51469],[-2.29357,53.51541],[-2.29837,53.51541],[-2.30267,53.51725],[-2.30198,53.52133],[-2.31194,53.52755],[-2.32206,53.52674],[-2.32653,53.52888],[-2.33751,53.53276],[-2.33974,53.53623],[-2.34833,53.53796],[-2.34901,53.53653],[-2.35022,53.53633],[-2.35451,53.53408],[-2.3521,53.53276],[-2.35519,53.52786],[-2.37785,53.5299],[-2.38884,53.53225],[-2.39656,53.53725],[-2.40051,53.53704],[-2.41236,53.53755],[-2.43313,53.5397],[-2.44274,53.53837],[-2.45459,53.52592],[-2.43073,53.52306],[-2.41579,53.51714],[-2.41442,53.51245],[-2.42025,53.51235],[-2.41819,53.51061],[-2.42249,53.50898],[-2.41871,53.50673],[-2.43124,53.50469],[-2.42798,53.49887],[-2.43004,53.49734],[-2.42849,53.49519],[-2.42832,53.48896],[-2.4521,53.48585],[-2.4533,53.48575],[-2.45201,53.47061],[-2.45429,53.46412],[-2.45553,53.45558],[-2.45193,53.42447],[-2.4515,53.42237],[-2.45227,53.41854],[-2.45072,53.41424],[-2.4315,53.42196],[-2.42332,53.43015],[-2.41287,53.43879],[-2.36927,53.46925],[-2.32481,53.47947]]]},"properties":{"code":"Y02625","name":"CARE HOMES MEDICAL PRACTICE","icb":"QOP"}}]}