{"type":"FeatureCollection","features":[{"type":"Feature","geometry":{"type":"Polygon","coordinates":[[[0.712424,51.551413],[0.679379,51.55129],[0.681655,51.544358],[0.691641,51.540305],[0.686424,51.535307],[0.709435,51.53363],[0.731166,51.530034],[0.746262,51.530085],[0.762108,51.527023],[0.777664,51.522855],[0.786477,51.522882],[0.811935,51.540502],[0.844622,51.552391],[0.787913,51.561819],[0.784215,51.546579],[0.768723,51.543823],[0.755468,51.544796],[0.742457,51.552152],[0.712424,51.551413]]]},"properties":{"code":"Y02707","name":"ST LUKE'S HEALTH CENTRE","icb":"D7T5G"}}]}