{"type":"FeatureCollection","features":[{"type":"Feature","geometry":{"type":"Polygon","coordinates":[[[-0.54858,53.587239],[-0.552043,53.625124],[-0.564398,53.644178],[-0.590993,53.648465],[-0.619554,53.650022],[-0.652923,53.650372],[-0.693746,53.650801],[-0.707458,53.638609],[-0.705345,53.62609],[-0.692183,53.615458],[-0.695954,53.608917],[-0.706875,53.602385],[-0.724377,53.604097],[-0.731491,53.594443],[-0.739951,53.567409],[-0.73129,53.544031],[-0.737275,53.5359],[-0.732446,53.522858],[-0.658074,53.51879],[-0.586128,53.522338],[-0.563686,53.535785],[-0.550102,53.559386],[-0.54858,53.587239]]]},"properties":{"code":"Y02787","name":"","icb":""}}]}