{"type":"FeatureCollection","features":[{"type":"Feature","geometry":{"type":"Polygon","coordinates":[[[-2.13341,53.54276],[-2.15229,53.525],[-2.13693,53.51541],[-2.1298,53.50438],[-2.12583,53.49945],[-2.12032,53.49813],[-2.11186,53.49713],[-2.08828,53.496],[-2.07835,53.49833],[-2.06206,53.49934],[-2.0586,53.50171],[-2.05856,53.50326],[-2.05685,53.50708],[-2.05667,53.51018],[-2.05225,53.51362],[-2.05041,53.51665],[-2.04668,53.51947],[-2.04895,53.52301],[-2.07916,53.53725],[-2.09032,53.54072],[-2.10011,53.54204],[-2.11504,53.53709],[-2.12302,53.54023],[-2.12392,53.54211],[-2.12867,53.54274],[-2.13341,53.54276]]]},"properties":{"code":"Y02753","name":"HILL TOP SURGERY","icb":"QOP"}}]}