{"type":"FeatureCollection","features":[{"type":"Feature","geometry":{"type":"Polygon","coordinates":[[[-2.005604,52.590531],[-2.03217,52.625738],[-2.04752,52.641331],[-2.129194,52.664981],[-2.183589,52.659185],[-2.229504,52.641898],[-2.25359,52.617697],[-2.2616,52.588427],[-2.261741,52.571804],[-2.252553,52.551402],[-2.237671,52.518314],[-2.210434,52.50014],[-2.160357,52.497987],[-2.094624,52.505],[-2.073416,52.510813],[-2.055752,52.522065],[-2.026064,52.535081],[-2.013606,52.561881],[-2.005604,52.590531]]]},"properties":{"code":"Y02757","name":"BILSTON URBAN VILLAGE MEDICAL CENTRE","icb":"QUA"}}]}