{"type":"FeatureCollection","features":[{"type":"Feature","geometry":{"type":"Polygon","coordinates":[[[-1.823215,52.504729],[-1.84227,52.508385],[-1.857376,52.507863],[-1.867847,52.504833],[-1.875916,52.499504],[-1.881237,52.489575],[-1.877289,52.481003],[-1.872482,52.475253],[-1.865788,52.471697],[-1.85051,52.468351],[-1.834202,52.469815],[-1.824074,52.472429],[-1.818409,52.475462],[-1.811199,52.480167],[-1.808968,52.489993],[-1.810684,52.498772],[-1.823215,52.504729]]]},"properties":{"code":"Y02794","name":"OAKLEAF","icb":"QHL"}}]}