{"type":"FeatureCollection","features":[{"type":"Feature","geometry":{"type":"Polygon","coordinates":[[[-1.185454,52.96534],[-1.184454,52.955391],[-1.174979,52.954877],[-1.174319,52.949704],[-1.174254,52.946798],[-1.174219,52.944829],[-1.17211,52.940859],[-1.168604,52.935294],[-1.165698,52.93054],[-1.169701,52.926023],[-1.16754,52.925714],[-1.162368,52.929567],[-1.161492,52.932357],[-1.155482,52.936527],[-1.143547,52.934943],[-1.136082,52.936732],[-1.13104,52.941046],[-1.122314,52.941643],[-1.111939,52.943886],[-1.105183,52.942027],[-1.099478,52.942783],[-1.092105,52.947459],[-1.094214,52.955799],[-1.102451,52.951423],[-1.108046,52.950036],[-1.116068,52.952104],[-1.12023,52.953428],[-1.122598,52.957067],[-1.13263,52.95235],[-1.136189,52.954341],[-1.137463,52.955645],[-1.136114,52.960307],[-1.133787,52.96145],[-1.131362,52.961244],[-1.12631,52.964198],[-1.127353,52.965453],[-1.125286,52.965178],[-1.121713,52.968664],[-1.120509,52.971595],[-1.122113,52.972296],[-1.123945,52.975342],[-1.125067,52.978639],[-1.128918,52.979563],[-1.132766,52.981731],[-1.138339,52.979927],[-1.139967,52.972984],[-1.143062,52.97089],[-1.144583,52.971071],[-1.14314,52.973498],[-1.143123,52.977324],[-1.149347,52.976275],[-1.153268,52.970226],[-1.152871,52.964673],[-1.154035,52.966068],[-1.155455,52.967935],[-1.159341,52.971652],[-1.177294,52.971644],[-1.185454,52.96534]]]},"properties":{"code":"Y02847","name":"PARLIAMENT STREET MEDICAL CENTRE","icb":"QT1"}}]}