{"type":"FeatureCollection","features":[{"type":"Feature","geometry":{"type":"Polygon","coordinates":[[[-2.21374,53.05932],[-2.21709,53.05878],[-2.21816,53.05855],[-2.22186,53.05718],[-2.22336,53.05669],[-2.22825,53.05437],[-2.22559,53.05153],[-2.22069,53.04318],[-2.21838,53.04178],[-2.2165,53.04086],[-2.21281,53.03951],[-2.21134,53.03796],[-2.20911,53.03429],[-2.20654,53.0344],[-2.205,53.0344],[-2.2031,53.03451],[-2.20259,53.0343],[-2.20096,53.03461],[-2.1995,53.0343],[-2.19864,53.03424],[-2.19744,53.03484],[-2.19624,53.03471],[-2.19503,53.03507],[-2.19246,53.03564],[-2.19057,53.03564],[-2.19006,53.03553],[-2.18749,53.03605],[-2.18817,53.03575],[-2.18744,53.036],[-2.18669,53.03615],[-2.18572,53.03646],[-2.18669,53.03771],[-2.18706,53.03938],[-2.18791,53.04139],[-2.18697,53.04176],[-2.186162,53.042184],[-2.18572,53.04249],[-2.186043,53.042215],[-2.18482,53.04287],[-2.18248,53.04323],[-2.18238,53.044],[-2.18019,53.04547],[-2.17946,53.04583],[-2.17894,53.04676],[-2.17821,53.04767],[-2.17778,53.04844],[-2.18164,53.04967],[-2.18311,53.05107],[-2.18594,53.05287],[-2.18731,53.05514],[-2.18606,53.05593],[-2.18628,53.05677],[-2.18522,53.0574],[-2.18463,53.05782],[-2.18499,53.0587],[-2.18598,53.05934],[-2.18783,53.05903],[-2.18973,53.05828],[-2.19084,53.0601],[-2.19269,53.05972],[-2.19301,53.05971],[-2.19409,53.05943],[-2.19641,53.05914],[-2.19705,53.05886],[-2.19735,53.05904],[-2.2004,53.05896],[-2.20152,53.05904],[-2.2048,53.05908],[-2.20894,53.05881],[-2.21023,53.06017],[-2.21374,53.05932]]]},"properties":{"code":"Y02867","name":"MIDDLEPORT MEDICAL CENTRE","icb":"QNC"}}]}