{"type":"FeatureCollection","features":[{"type":"Feature","geometry":{"type":"Polygon","coordinates":[[[0.069376,51.507794],[0.06935,51.50794],[0.05905,51.50853],[0.04008,51.50912],[0.03965,51.50554],[0.01914,51.50575],[0.01811,51.50495],[0.01399,51.50324],[0.01631,51.50073],[0.02266,51.49774],[0.0297,51.49795],[0.03656,51.4987],[0.0448,51.49902],[0.05236,51.49891],[0.05836,51.49816],[0.06618,51.4987],[0.07201,51.49929],[0.07587,51.50158],[0.070371,51.502538],[0.07098,51.50388],[0.07133,51.50639],[0.06978,51.50778],[0.069376,51.507794]]]},"properties":{"code":"Y02928","name":"THE PRACTICE ALBERT ROAD","icb":"QMF"}}]}