{"type":"FeatureCollection","features":[{"type":"Feature","geometry":{"type":"Polygon","coordinates":[[[-0.05261,51.55233],[-0.05043,51.5531],[-0.04948,51.55359],[-0.04661,51.55674],[-0.04654,51.55757],[-0.04708,51.55872],[-0.04779,51.55977],[-0.04871,51.5606],[-0.048741,51.560631],[-0.048763,51.560664],[-0.048776,51.560699],[-0.04878,51.560735],[-0.048775,51.560771],[-0.048761,51.560806],[-0.048738,51.56084],[-0.048706,51.56087],[-0.048667,51.560897],[-0.048622,51.560919],[-0.04485,51.56251],[-0.0455,51.56283],[-0.046782,51.563242],[-0.046823,51.563257],[-0.046861,51.563276],[-0.046894,51.563298],[-0.046923,51.563323],[-0.047098,51.563498],[-0.047125,51.563531],[-0.047143,51.563566],[-0.047152,51.563602],[-0.047151,51.563639],[-0.047141,51.563675],[-0.047121,51.563709],[-0.04678,51.56418],[-0.04756,51.5651],[-0.049163,51.566165],[-0.049176,51.566175],[-0.05026,51.56698],[-0.05122,51.56758],[-0.053063,51.568335],[-0.053098,51.568351],[-0.05313,51.56837],[-0.053628,51.568705],[-0.053659,51.568729],[-0.053685,51.568756],[-0.053705,51.568786],[-0.05426,51.56981],[-0.05471,51.57031],[-0.055893,51.570413],[-0.055946,51.57042],[-0.055996,51.570432],[-0.056043,51.570448],[-0.056085,51.570469],[-0.056123,51.570493],[-0.05614,51.570506],[-0.056167,51.57053],[-0.056189,51.570556],[-0.06149,51.57781],[-0.06668,51.576722],[-0.0667,51.576718],[-0.06869,51.57638],[-0.071336,51.575843],[-0.071364,51.575838],[-0.072069,51.575733],[-0.072126,51.575728],[-0.072183,51.575728],[-0.07224,51.575734],[-0.072295,51.575746],[-0.072346,51.575762],[-0.072392,51.575784],[-0.072432,51.57581],[-0.072465,51.57584],[-0.072489,51.575872],[-0.072505,51.575906],[-0.07259,51.57616],[-0.07501,51.5761],[-0.075419,51.575119],[-0.075439,51.575083],[-0.075469,51.57505],[-0.075508,51.57502],[-0.075555,51.574994],[-0.075608,51.574974],[-0.07598,51.57486],[-0.07625,51.574466],[-0.076276,51.574435],[-0.076309,51.574406],[-0.07635,51.574382],[-0.076396,51.574361],[-0.076446,51.574346],[-0.0765,51.574335],[-0.076556,51.57433],[-0.076612,51.57433],[-0.076668,51.574336],[-0.07916,51.57472],[-0.08052,51.57486],[-0.08233,51.57482],[-0.08417,51.57468],[-0.08635,51.57442],[-0.087339,51.5737],[-0.087383,51.573673],[-0.087435,51.573651],[-0.09074,51.57248],[-0.089858,51.571667],[-0.089843,51.571652],[-0.08815,51.56979],[-0.08694,51.56855],[-0.086764,51.568404],[-0.086732,51.568373],[-0.086709,51.568339],[-0.086696,51.568303],[-0.086692,51.568266],[-0.086698,51.568229],[-0.086713,51.568193],[-0.086737,51.56816],[-0.086771,51.568129],[-0.086811,51.568102],[-0.086859,51.56808],[-0.08721,51.56794],[-0.087921,51.566932],[-0.087941,51.566908],[-0.08847,51.56635],[-0.08763,51.56501],[-0.08673,51.56411],[-0.08461,51.56255],[-0.084035,51.562171],[-0.083997,51.562142],[-0.083968,51.562109],[-0.083948,51.562073],[-0.083937,51.562036],[-0.083937,51.561999],[-0.083947,51.561962],[-0.083966,51.561926],[-0.083995,51.561893],[-0.084032,51.561864],[-0.084077,51.561838],[-0.08424,51.56176],[-0.083617,51.561079],[-0.083602,51.56106],[-0.083589,51.561039],[-0.082457,51.558951],[-0.082444,51.55892],[-0.082438,51.558888],[-0.082392,51.558139],[-0.082393,51.55811],[-0.0824,51.558082],[-0.082523,51.557739],[-0.082538,51.557707],[-0.08256,51.557678],[-0.082589,51.55765],[-0.083153,51.557193],[-0.08319,51.557168],[-0.08384,51.55678],[-0.084145,51.555677],[-0.084158,51.555646],[-0.084177,51.555616],[-0.084204,51.555588],[-0.08429,51.55551],[-0.084254,51.55548],[-0.084228,51.555446],[-0.08421,51.55541],[-0.084172,51.555436],[-0.084127,51.555457],[-0.084078,51.555474],[-0.084026,51.555486],[-0.083971,51.555493],[-0.083914,51.555495],[-0.082447,51.555461],[-0.082394,51.555457],[-0.07933,51.5551],[-0.07907,51.5551],[-0.079057,51.555227],[-0.079048,51.555265],[-0.079028,51.555302],[-0.078998,51.555336],[-0.07896,51.555366],[-0.078913,51.555392],[-0.07886,51.555413],[-0.078802,51.555427],[-0.078741,51.555435],[-0.078679,51.555437],[-0.078617,51.555431],[-0.07579,51.55503],[-0.0698,51.55486],[-0.068457,51.555531],[-0.06841,51.555551],[-0.068359,51.555566],[-0.068304,51.555576],[-0.068248,51.555581],[-0.068191,51.555579],[-0.06665,51.55547],[-0.06128,51.55553],[-0.05869,51.55565],[-0.05686,51.5558],[-0.055695,51.556083],[-0.055637,51.556094],[-0.055578,51.556099],[-0.055517,51.556097],[-0.055458,51.556089],[-0.055402,51.556075],[-0.055351,51.556055],[-0.055305,51.55603],[-0.055267,51.556001],[-0.055237,51.555969],[-0.052986,51.552948],[-0.052975,51.552932],[-0.05261,51.55233]]]},"properties":{"code":"Y03049","name":"SPRING HILL PRACTICE","icb":"QMF"}}]}