{"type":"FeatureCollection","features":[{"type":"Feature","geometry":{"type":"Polygon","coordinates":[[[0.545105,51.549141],[0.543374,51.549753],[0.540758,51.551202],[0.540351,51.551382],[0.540365,51.551419],[0.535374,51.554182],[0.529497,51.556755],[0.527926,51.557041],[0.524827,51.558398],[0.528194,51.557325],[0.525242,51.558618],[0.518259,51.559199],[0.514215,51.560629],[0.512812,51.560552],[0.508225,51.562207],[0.50005,51.564083],[0.48444,51.56693],[0.47917,51.56816],[0.47356,51.56869],[0.4651,51.5682],[0.4649,51.56872],[0.45207,51.56789],[0.446813,51.574021],[0.443844,51.57885],[0.44353,51.57896],[0.44271,51.58107],[0.44083,51.58475],[0.45284,51.58662],[0.45731,51.5876],[0.4558,51.59068],[0.452794,51.595249],[0.459273,51.59585],[0.458887,51.597601],[0.459604,51.598061],[0.45713,51.5984],[0.445582,51.600647],[0.439793,51.600849],[0.43617,51.600871],[0.434137,51.600683],[0.433773,51.600602],[0.432707,51.600647],[0.431967,51.6006],[0.431315,51.600648],[0.422782,51.59932],[0.415124,51.597622],[0.407762,51.593143],[0.389152,51.585818],[0.39259,51.58059],[0.39405,51.57539],[0.396167,51.572171],[0.3998,51.57071],[0.39989,51.56925],[0.392006,51.567501],[0.392265,51.563293],[0.3934,51.55925],[0.393834,51.554212],[0.39486,51.552114],[0.395837,51.545903],[0.395675,51.544127],[0.400497,51.543161],[0.399797,51.542012],[0.402165,51.541108],[0.398415,51.540524],[0.398371,51.53772],[0.4398,51.53747],[0.44495,51.54078],[0.44615,51.54986],[0.44821,51.55626],[0.46173,51.5511],[0.465942,51.550257],[0.465999,51.550367],[0.466852,51.550554],[0.47198,51.55223],[0.48122,51.5534],[0.479871,51.553046],[0.526248,51.539991],[0.528429,51.540194],[0.528502,51.540232],[0.529718,51.540117],[0.541018,51.540563],[0.543509,51.542111],[0.542956,51.542457],[0.54894,51.547511],[0.548516,51.547773],[0.545107,51.54928],[0.545105,51.549141]]]},"properties":{"code":"Y03052","name":"DR SALAKO AND PARTNERS","icb":"D7T5G"}}]}