{"type":"FeatureCollection","features":[{"type":"Feature","geometry":{"type":"Polygon","coordinates":[[[-1.258711,52.940725],[-1.248236,52.9355],[-1.240685,52.937414],[-1.228666,52.937104],[-1.217766,52.938345],[-1.213818,52.936535],[-1.209526,52.935552],[-1.204891,52.934155],[-1.202745,52.932965],[-1.200257,52.93312],[-1.184889,52.938759],[-1.183519,52.940001],[-1.183863,52.941552],[-1.18103,52.943104],[-1.17897,52.943569],[-1.175792,52.944242],[-1.178624,52.950086],[-1.175959,52.95991],[-1.176224,52.964046],[-1.176396,52.965494],[-1.177942,52.967458],[-1.201196,52.984979],[-1.216735,52.988905],[-1.220856,52.989784],[-1.223945,52.989319],[-1.224975,52.989474],[-1.227035,52.989112],[-1.231499,52.986464],[-1.258711,52.940725]]]},"properties":{"code":"Y03124","name":"GRANGE FARM MEDICAL CENTRE","icb":"QT1"}}]}