{"type":"FeatureCollection","features":[{"type":"Feature","geometry":{"type":"Polygon","coordinates":[[[0.21835,52.76165],[0.22659,52.75874],[0.19569,52.74253],[0.19432,52.73879],[0.18883,52.73463],[0.20462,52.72798],[0.20187,52.72132],[0.17715,52.713],[0.17372,52.70094],[0.17372,52.6743],[0.19569,52.66098],[0.19981,52.65681],[0.23895,52.64431],[0.3653,52.64848],[0.36049,52.68055],[0.35568,52.69844],[0.34195,52.72881],[0.37971,52.74253],[0.38727,52.74627],[0.37491,52.75832],[0.36804,52.7658],[0.31586,52.76538],[0.31792,52.77826],[0.30487,52.782],[0.29594,52.77951],[0.29869,52.76829],[0.26161,52.76497],[0.26024,52.77037],[0.24788,52.77535],[0.21835,52.76165]]]},"properties":{"code":"Y03222","name":"ST JOHN'S SURGERY","icb":"T6Y0W"}}]}