{"type":"FeatureCollection","features":[{"type":"Feature","geometry":{"type":"Polygon","coordinates":[[[-0.2114,51.49512],[-0.20797,51.49293],[-0.20565,51.48887],[-0.20419,51.48849],[-0.20247,51.4855],[-0.19921,51.4816],[-0.19853,51.47994],[-0.19741,51.48042],[-0.19578,51.47999],[-0.19209,51.48026],[-0.18969,51.47999],[-0.1878,51.48117],[-0.18539,51.48309],[-0.18333,51.48117],[-0.18136,51.48005],[-0.17793,51.48026],[-0.17647,51.48154],[-0.16694,51.48341],[-0.17029,51.48689],[-0.16831,51.48753],[-0.17175,51.4917],[-0.17544,51.48913],[-0.17827,51.49197],[-0.18007,51.50132],[-0.18883,51.50244],[-0.2114,51.49512]]]},"properties":{"code":"Y03441","name":"HEALTH AND WELLBEING CENTRE, EARLS COURT","icb":"Z9B2Z"}}]}