{"type":"FeatureCollection","features":[{"type":"Feature","geometry":{"type":"Polygon","coordinates":[[[-2.285736,53.289719],[-2.285821,53.290104],[-2.288396,53.289796],[-2.289641,53.289745],[-2.289298,53.289001],[-2.286551,53.285075],[-2.285693,53.283382],[-2.282903,53.284203],[-2.283504,53.285178],[-2.283933,53.285717],[-2.283204,53.28582],[-2.282689,53.286538],[-2.28359,53.287513],[-2.282903,53.287744],[-2.283762,53.288821],[-2.284534,53.288821],[-2.285736,53.289719]]]},"properties":{"code":"Y05750","name":"DAVID LEWIS MEDICAL PRACTICE","icb":"QYG"}}]}