{"type":"FeatureCollection","features":[{"type":"Feature","geometry":{"type":"Polygon","coordinates":[[[-1.244116,53.063397],[-1.253557,53.045341],[-1.260767,53.040387],[-1.249971,53.026064],[-1.241267,53.015579],[-1.226958,53.015878],[-1.22625,53.014934],[-1.220014,53.016093],[-1.214628,53.016894],[-1.211601,53.020761],[-1.190386,53.019224],[-1.186953,53.025419],[-1.182489,53.028929],[-1.178713,53.032543],[-1.178713,53.032955],[-1.181974,53.045032],[-1.182318,53.054422],[-1.188154,53.054422],[-1.198282,53.056589],[-1.211843,53.050707],[-1.220083,53.05081],[-1.220598,53.05143],[-1.235189,53.05958],[-1.241713,53.060199],[-1.244116,53.063397]]]},"properties":{"code":"Y06443","name":"WHYBURN MEDICAL PRACTICE","icb":"QT1"}}]}